{
    "parking": {
        "count": 1,
        "detail": [
            {
                "fee": "yes",
                "amenity": "parking",
                "parking": "surface"
            }
        ]
    },
    "residents": 2313,
    "post_box": {
        "count": 1,
        "detail": [
            {
                "addr:housenumber": "23",
                "addr:street": "улица Катыхина",
                "amenity": "post_box"
            }
        ]
    },
    "atm": {
        "count": 2,
        "detail": [
            {
                "name": "Росбанк",
                "amenity": "atm"
            },
            {
                "name": "Газпромбанк",
                "amenity": "atm"
            }
        ]
    },
    "bus_stop": {
        "count": 7,
        "detail": [
            {
                "lit": "no",
                "name": "Гастроном",
                "bench": "yes",
                "highway": "bus_stop",
                "shelter": "yes",
                "public_transport": "platform"
            },
            {
                "lit": "no",
                "name": "Гастроном",
                "bench": "yes",
                "highway": "bus_stop",
                "shelter": "yes",
                "public_transport": "platform"
            },
            {
                "lit": "no",
                "name": "Колоннада",
                "bench": "yes",
                "highway": "bus_stop",
                "shelter": "yes",
                "public_transport": "platform"
            },
            {
                "lit": "no",
                "name": "Колоннада",
                "bench": "yes",
                "highway": "bus_stop",
                "shelter": "yes",
                "public_transport": "platform"
            },
            {
                "bus": "yes",
                "name": "улица Чкалова",
                "bench": "yes",
                "highway": "bus_stop",
                "shelter": "yes",
                "public_transport": "platform"
            },
            {
                "bus": "yes",
                "name": "улица Суворова",
                "bench": "no",
                "highway": "bus_stop",
                "shelter": "no",
                "public_transport": "platform"
            },
            {
                "bus": "yes",
                "name": "улица Чкалова",
                "highway": "bus_stop",
                "public_transport": "platform"
            }
        ]
    },
    "fountain": {
        "count": 3,
        "detail": [
            {
                "amenity": "fountain"
            },
            {
                "amenity": "fountain"
            },
            {
                "amenity": "fountain"
            }
        ]
    },
    "toilets": {
        "count": 1,
        "detail": [
            {
                "amenity": "toilets",
                "fee": "yes",
                "opening_hours": "Mo-Su 08:00-20:00"
            }
        ]
    },
    "jewelry": {
        "count": 2,
        "detail": [
            {
                "name": "Valery Gold",
                "shop": "jewelry"
            },
            {
                "shop": "jewelry"
            }
        ]
    },
    "yes": {
        "count": 1,
        "detail": [
            {
                "name": "Кисловодский фарфор",
                "shop": "yes"
            }
        ]
    },
    "alcohol": {
        "count": 4,
        "detail": [
            {
                "name": "Эталон",
                "shop": "alcohol"
            },
            {
                "name": "Подвальчик",
                "shop": "alcohol"
            },
            {
                "name": "Винный магазин Империя Вин",
                "shop": "alcohol",
                "addr:street": "проспект Мира",
                "addr:housenumber": "2"
            },
            {
                "name": "Живое пиво",
                "shop": "alcohol"
            }
        ]
    },
    "photo": {
        "count": 1,
        "detail": [
            {
                "name": "Фотолаборатория",
                "shop": "photo"
            }
        ]
    },
    "pharmacy": {
        "count": 2,
        "detail": [
            {
                "name": "аптека#2",
                "amenity": "pharmacy",
                "addr:street": "проспект Мира"
            },
            {
                "amenity": "pharmacy",
                "healthcare": "pharmacy",
                "name": "Лотос",
                "name:ru": "Лотос",
                "wheelchair": "no"
            }
        ]
    },
    "restaurant": {
        "count": 2,
        "detail": [
            {
                "name": "Чайка",
                "amenity": "restaurant"
            },
            {
                "name": "Весна",
                "amenity": "restaurant",
                "building": "yes",
                "building:levels": "4"
            }
        ]
    },
    "cafe": {
        "count": 6,
        "detail": [
            {
                "name": "Венские вафли",
                "amenity": "cafe"
            },
            {
                "addr:housenumber": "3",
                "addr:street": "улица Алексея Реброва",
                "amenity": "cafe",
                "name": "Столовая Союз",
                "name:ru": "Столовая Союз",
                "opening_hours": "Mo-Su 08:30-08:30"
            },
            {
                "name": "Шашлык",
                "amenity": "cafe",
                "cuisine": "kebab"
            },
            {
                "name": "Столовая",
                "amenity": "cafe"
            },
            {
                "name": "Столовая Кулинар",
                "amenity": "cafe"
            },
            {
                "alt_name": "Павильон «Читальня»",
                "amenity": "cafe",
                "building": "yes",
                "name": "Эрмитаж"
            }
        ]
    },
    "bakery": {
        "count": 2,
        "detail": [
            {
                "name": "Горячая выпечка",
                "shop": "bakery"
            },
            {
                "name": "Пирогов",
                "shop": "bakery"
            }
        ]
    },
    "bench": {
        "count": 3,
        "detail": [
            {
                "amenity": "bench"
            },
            {
                "amenity": "bench"
            },
            {
                "amenity": "bench"
            }
        ]
    },
    "bar": {
        "count": 1,
        "detail": [
            {
                "amenity": "bar",
                "addr:postcode": "357700",
                "opening_hours": "24/7"
            }
        ]
    },
    "bicycle_rental": {
        "count": 1,
        "detail": [
            {
                "amenity": "bicycle_rental",
                "opening_hours": "Mo-Su 09:00-20:00"
            }
        ]
    },
    "library": {
        "count": 1,
        "detail": [
            {
                "name": "Центральная городская библиотека",
                "amenity": "library"
            }
        ]
    },
    "clinic": {
        "count": 1,
        "detail": [
            {
                "name": "Элорма",
                "amenity": "clinic",
                "healthcare": "clinic"
            }
        ]
    },
    "convenience": {
        "count": 1,
        "detail": [
            {
                "name": "Продукты",
                "shop": "convenience"
            }
        ]
    },
    "drinking_water": {
        "count": 7,
        "detail": [
            {
                "indoor": "yes",
                "amenity": "drinking_water"
            },
            {
                "amenity": "drinking_water",
                "indoor": "yes"
            },
            {
                "indoor": "yes",
                "amenity": "drinking_water"
            },
            {
                "amenity": "drinking_water"
            },
            {
                "amenity": "drinking_water"
            },
            {
                "access": "yes",
                "amenity": "drinking_water",
                "indoor": "no",
                "wheelchair": "no"
            },
            {
                "addr:housenumber": "2",
                "addr:street": "улица Алексея Реброва",
                "amenity": "drinking_water",
                "building": "yes",
                "building:levels": "2",
                "drinking_water": "yes",
                "name": "Нарзанная галерея",
                "opening_hours": "07:00-09:00,11:00-14:00,16:00-19:00",
                "operator": "ФГБУ \"Национальный парк \"Кисловодский\"",
                "start_date": "1853",
                "tourism": "attraction",
                "water_characteristic": "mineral",
                "wikidata": "Q4313141",
                "wikipedia": "ru:Нарзанная галерея (Кисловодск)"
            }
        ]
    },
    "supermarket": {
        "count": 1,
        "detail": [
            {
                "addr:housenumber": "14",
                "addr:street": "проспект Мира",
                "brand": "Магнит",
                "brand:en": "Magnit",
                "brand:wikidata": "Q940518",
                "brand:wikipedia": "ru:Магнит (сеть магазинов)",
                "building": "yes",
                "building:levels": "3",
                "contact:website": "http://www.magnit-info.ru",
                "int_name": "Magnit",
                "name": "Магнит",
                "name:en": "Magnit",
                "opening_hours": "Mo-Su 08:00-22:00",
                "operator": "ЗАО \"Тандер\"",
                "shop": "supermarket"
            }
        ]
    },
    "post_office": {
        "count": 1,
        "detail": [
            {
                "addr:postcode": "357744",
                "amenity": "post_office",
                "brand": "Почта России",
                "brand:wikidata": "Q1502763",
                "brand:wikipedia": "ru:Почта России",
                "building": "yes",
                "building:levels": "1",
                "name": "Кисловодск 357744",
                "opening_hours": "Mo-Fr 09:00-13:00, 14:00-20:00; Sa 09:00-13:00, 14:00-18:00"
            }
        ]
    },
    "resort": {
        "count": 1,
        "detail": [
            {
                "addr:housenumber": "6",
                "addr:street": "улица Алексея Реброва",
                "building": "yes",
                "building:levels": "3",
                "leisure": "resort",
                "name": "Факел",
                "website": "http://fakelkislovodsk.ru/"
            }
        ]
    },
    "marketplace": {
        "count": 1,
        "detail": [
            {
                "amenity": "marketplace",
                "building": "roof",
                "name": "Кисловодская ярмарка"
            }
        ]
    },
    "kindergarten": {
        "count": 1,
        "detail": [
            {
                "building": "kindergarten"
            }
        ]
    }
}