{
    "residents": 3686,
    "post_office": {
        "count": 1,
        "detail": [
            {
                "amenity": "post_office",
                "name": "32 отделение Почты России",
                "opening_hours": "Mo-Fr 08:00-20:00, Sa 09:00-18:00",
                "operator": "Почта России",
                "ref": "357532",
                "wheelchair": "yes"
            }
        ]
    },
    "bakery": {
        "count": 1,
        "detail": [
            {
                "name": "Кондитерская \"Эрмитаж\"",
                "shop": "bakery",
                "wheelchair": "no"
            }
        ]
    },
    "fast_food": {
        "count": 1,
        "detail": [
            {
                "addr:country": "RU",
                "alt_name": "Макдональдс",
                "amenity": "fast_food",
                "brand": "Макдоналдс",
                "brand:en": "McDonald's",
                "brand:ru": "Макдоналдс",
                "brand:wikidata": "Q38076",
                "brand:wikipedia": "en:McDonald’s",
                "contact:facebook": "https://www.facebook.com/mcdonaldsrussia",
                "contact:phone": "+7 879 3326362",
                "contact:website": "https://mcdonalds.ru",
                "cuisine": "burger",
                "int_name": "McDonald's",
                "name": "Макдоналдс",
                "name:de": "McDonald's",
                "name:en": "McDonald's",
                "name:ru": "Макдоналдс",
                "operator": "Макдоналдс",
                "operator:en": "McDonald's",
                "operator:ru": "Макдоналдс",
                "smoking": "no",
                "takeaway": "yes"
            }
        ]
    },
    "swimming_pool": {
        "count": 1,
        "detail": [
            {
                "name": "Бассейн студенческой поликлиники",
                "sport": "swimming",
                "access": "permissive",
                "covered": "yes",
                "leisure": "swimming_pool",
                "motor_vehicle": "no"
            }
        ]
    },
    "bus_stop": {
        "count": 5,
        "detail": [
            {
                "bench": "yes",
                "bus": "yes",
                "covered": "yes",
                "departures_board": "realtime",
                "highway": "bus_stop",
                "name": "Место дуэли Лермонтова",
                "name:en": "Mesto dueli Lermontova",
                "public_transport": "platform",
                "shelter": "yes"
            },
            {
                "bus": "yes",
                "highway": "bus_stop",
                "name": "Лермонтовска",
                "public_transport": "platform",
                "shelter": "yes"
            },
            {
                "bus": "yes",
                "name": "Лермонтовска",
                "name:en": "Lermontovskaja",
                "share_taxi": "yes",
                "public_transport": "stop_position"
            },
            {
                "bus": "yes",
                "highway": "bus_stop",
                "name": "Школа № 4",
                "public_transport": "platform",
                "shelter": "yes",
                "tactile_paving": "yes"
            },
            {
                "bus": "yes",
                "departures_board": "realtime",
                "highway": "bus_stop",
                "name": "Место дуэли Лермонтова",
                "public_transport": "platform",
                "shelter": "yes"
            }
        ]
    },
    "restaurant": {
        "count": 1,
        "detail": [
            {
                "amenity": "restaurant",
                "internet_access": "wlan",
                "internet_access:fee": "no",
                "name": "Рома Пицца",
                "opening_hours": "10:00-22:45",
                "phone": "+7 8793 380660",
                "smoking": "no",
                "website": "http://рома-пицца.рф/",
                "wheelchair": "no"
            }
        ]
    },
    "fountain": {
        "count": 1,
        "detail": [
            {
                "amenity": "fountain"
            }
        ]
    },
    "supermarket": {
        "count": 2,
        "detail": [
            {
                "brand": "Магнит",
                "brand:en": "Magnit",
                "brand:wikidata": "Q940518",
                "brand:wikipedia": "ru:Магнит (сеть магазинов)",
                "name": "Магнит",
                "name:en": "Magnit",
                "name:ru": "Магнит",
                "operator": "Магнит",
                "shop": "supermarket"
            },
            {
                "brand": "Пятёрочка",
                "brand:en": "Pyaterochka",
                "brand:wikidata": "Q1768969",
                "brand:wikipedia": "ru:Пятёрочка",
                "name": "Пятёрочка",
                "name:en": "Pyaterochka",
                "opening_hours": "Mo-Su,PH 08:00-22:00",
                "shop": "supermarket",
                "wheelchair": "yes"
            }
        ]
    },
    "convenience": {
        "count": 1,
        "detail": [
            {
                "opening_hours": "Mo-Su 08:00-22:00",
                "shop": "convenience",
                "wheelchair": "no"
            }
        ]
    },
    "alcohol": {
        "count": 1,
        "detail": [
            {
                "name": "Прага 9",
                "shop": "alcohol",
                "name:en": "Praha 9",
                "name:ru": "Прага 9"
            }
        ]
    },
    "clothes": {
        "count": 2,
        "detail": [
            {
                "name": "Бизончик",
                "shop": "clothes",
                "name:ru": "Бизончик",
                "opening_hours": "Mo-Fr 10:00-19:00; Sa-Su 12:00-18:00"
            },
            {
                "name": "Сказка",
                "shop": "clothes",
                "name:ru": "Сказка"
            }
        ]
    },
    "travel_agency": {
        "count": 1,
        "detail": [
            {
                "name": "Райские острова",
                "shop": "travel_agency",
                "name:ru": "Райские острова"
            }
        ]
    },
    "cafe": {
        "count": 1,
        "detail": [
            {
                "name": "Два сеньора",
                "amenity": "cafe",
                "cuisine": "pizza",
                "name:ru": "Два сеньора",
                "opening_hours": "Mo-Su 11:00-23:00"
            }
        ]
    },
    "waste_basket": {
        "count": 7,
        "detail": [
            {
                "amenity": "waste_basket"
            },
            {
                "amenity": "waste_basket"
            },
            {
                "amenity": "waste_basket"
            },
            {
                "amenity": "waste_basket"
            },
            {
                "amenity": "waste_basket"
            },
            {
                "amenity": "waste_basket"
            },
            {
                "amenity": "waste_basket",
                "waste": "trash"
            }
        ]
    },
    "anime": {
        "count": 1,
        "detail": [
            {
                "name": "Магазин Комиксов",
                "shop": "anime",
                "addr:city": "Пятигорск",
                "addr:street": "улица Орджоникидзе",
                "opening_hours": "Mo-Su 11:00-19:00",
                "addr:housenumber": "15"
            }
        ]
    },
    "cosmetics": {
        "count": 1,
        "detail": [
            {
                "name": "АРБЕСТ",
                "shop": "cosmetics",
                "name:en": "ARBEST",
                "website": "http://arbest-shop.ru",
                "opening_hours": "Mo-Su 10:00-18:00"
            }
        ]
    },
    "waste_disposal": {
        "count": 2,
        "detail": [
            {
                "access": "yes",
                "amenity": "waste_disposal"
            },
            {
                "amenity": "waste_disposal"
            }
        ]
    },
    "bench": {
        "count": 2,
        "detail": [
            {
                "amenity": "bench"
            },
            {
                "amenity": "bench",
                "material": "wood"
            }
        ]
    },
    "shelter": {
        "count": 1,
        "detail": [
            {
                "amenity": "shelter",
                "bench": "yes",
                "shelter_type": "gazebo"
            }
        ]
    },
    "tobacco": {
        "count": 1,
        "detail": [
            {
                "name": "Табак",
                "shop": "tobacco"
            }
        ]
    },
    "playground": {
        "count": 1,
        "detail": [
            {
                "access": "yes",
                "leisure": "playground"
            }
        ]
    },
    "photo": {
        "count": 1,
        "detail": [
            {
                "addr:street": "улица Панагюриште",
                "shop": "photo"
            }
        ]
    },
    "stationery": {
        "count": 1,
        "detail": [
            {
                "addr:housenumber": "8А",
                "addr:street": "улица Панагюриште",
                "shop": "stationery"
            }
        ]
    },
    "hardware": {
        "count": 1,
        "detail": [
            {
                "addr:street": "улица Панагюриште",
                "shop": "hardware"
            }
        ]
    },
    "library": {
        "count": 1,
        "detail": [
            {
                "amenity": "library",
                "name": "Детская библиотека №10"
            }
        ]
    },
    "dog_park": {
        "count": 1,
        "detail": [
            {
                "leisure": "dog_park"
            }
        ]
    },
    "cinema": {
        "count": 1,
        "detail": [
            {
                "amenity": "cinema",
                "building": "yes",
                "name": "Другар"
            }
        ]
    },
    "school": {
        "count": 1,
        "detail": [
            {
                "building": "school",
                "addr:street": "улица Панагюриште",
                "building:levels": "4",
                "addr:housenumber": "12"
            }
        ]
    },
    "kindergarten": {
        "count": 1,
        "detail": [
            {
                "addr:housenumber": "12/2",
                "addr:street": "улица Панагюриште",
                "building": "kindergarten",
                "building:levels": "2"
            }
        ]
    }
}