{
    "residents": 1110,
    "convenience": {
        "count": 3,
        "detail": [
            {
                "name": "Максим",
                "shop": "convenience",
                "opening_hours": "Mo-Fr 08:30-20:00"
            },
            {
                "building": "yes",
                "building:levels": "1",
                "shop": "convenience"
            },
            {
                "building": "yes",
                "building:levels": "2",
                "shop": "convenience"
            }
        ]
    },
    "bus_stop": {
        "count": 1,
        "detail": [
            {
                "bus": "yes",
                "name": "Площадь",
                "highway": "bus_stop",
                "share_taxi": "yes",
                "public_transport": "platform"
            }
        ]
    },
    "fountain": {
        "count": 1,
        "detail": [
            {
                "amenity": "fountain"
            }
        ]
    },
    "parking": {
        "count": 1,
        "detail": [
            {
                "amenity": "parking"
            }
        ]
    },
    "bicycle_rental": {
        "count": 1,
        "detail": [
            {
                "amenity": "bicycle_rental",
                "name": "Станция электросамокатов URentBike"
            }
        ]
    },
    "community_centre": {
        "count": 1,
        "detail": [
            {
                "addr:city": "Железноводск",
                "addr:housenumber": "1",
                "addr:postcode": "357400",
                "addr:street": "улица Чайковского",
                "amenity": "community_centre",
                "building": "yes",
                "building:levels": "4"
            }
        ]
    },
    "department_store": {
        "count": 1,
        "detail": [
            {
                "addr:city": "Железноводск",
                "addr:housenumber": "2",
                "addr:postcode": "357400",
                "addr:street": "улица Чайковского",
                "building": "yes",
                "building:levels": "3",
                "shop": "department_store"
            }
        ]
    },
    "place_of_worship": {
        "count": 1,
        "detail": [
            {
                "addr:city": "Железноводск",
                "addr:housenumber": "3А",
                "addr:postcode": "357400",
                "addr:street": "улица Лермонтова",
                "amenity": "place_of_worship",
                "building": "church",
                "building:levels": "3",
                "denomination": "orthodox",
                "historic": "building",
                "religion": "christian"
            }
        ]
    },
    "commercial": {
        "count": 2,
        "detail": [
            {
                "addr:city": "Железноводск",
                "addr:housenumber": "2",
                "addr:postcode": "357400",
                "addr:street": "улица Лермонтова",
                "building": "commercial"
            },
            {
                "addr:city": "Железноводск",
                "addr:housenumber": "4А",
                "addr:postcode": "357400",
                "addr:street": "улица Калинина",
                "building": "commercial",
                "building:levels": "2"
            }
        ]
    },
    "townhall": {
        "count": 1,
        "detail": [
            {
                "addr:city": "Железноводск",
                "addr:housenumber": "2",
                "addr:postcode": "357400",
                "addr:street": "улица Калинина",
                "amenity": "townhall",
                "building": "yes",
                "building:levels": "3"
            }
        ]
    },
    "restaurant": {
        "count": 1,
        "detail": [
            {
                "name": "Ресторан Парк",
                "amenity": "restaurant",
                "building": "yes"
            }
        ]
    },
    "resort": {
        "count": 4,
        "detail": [
            {
                "addr:city": "Железноводск",
                "addr:housenumber": "12",
                "addr:street": "улица Лермонтова",
                "building": "yes",
                "leisure": "resort",
                "resort": "sanatorium"
            },
            {
                "addr:city": "Железноводск",
                "addr:housenumber": "14",
                "addr:postcode": "357400",
                "addr:street": "улица Калинина",
                "building": "yes",
                "building:levels": "6",
                "leisure": "resort",
                "name": "Санаторий Плаза",
                "resort": "sanatorium"
            },
            {
                "addr:city": "Железноводск",
                "addr:housenumber": "16",
                "addr:postcode": "357400",
                "addr:street": "улица Калинина",
                "building": "yes",
                "building:levels": "2",
                "leisure": "resort"
            },
            {
                "addr:city": "Железноводск",
                "addr:housenumber": "83",
                "addr:postcode": "357400",
                "addr:street": "улица Ленина",
                "building": "yes",
                "leisure": "resort",
                "resort": "sanatorium"
            }
        ]
    },
    "shelter": {
        "count": 1,
        "detail": [
            {
                "amenity": "shelter",
                "building": "yes",
                "shelter_type": "gazebo"
            }
        ]
    }
}