{
    "restaurant": {
        "count": 1,
        "detail": [
            {
                "name": "Феста",
                "amenity": "restaurant",
                "capacity": "50",
                "addr:city": "Лермонтов",
                "addr:street": "улица Волкова",
                "opening_hours": "11:00-00:00",
                "addr:housenumber": "5"
            }
        ]
    },
    "bus_stop": {
        "count": 1,
        "detail": [
            {
                "bus": "yes",
                "highway": "bus_stop",
                "public_transport": "platform"
            }
        ]
    },
    "residents": 1215,
    "convenience": {
        "count": 1,
        "detail": [
            {
                "shop": "convenience",
                "addr:street": "улица Волкова"
            }
        ]
    },
    "supermarket": {
        "count": 1,
        "detail": [
            {
                "brand": "Пятёрочка",
                "brand:en": "Pyaterochka",
                "brand:wikidata": "Q1768969",
                "brand:wikipedia": "ru:Пятёрочка",
                "name": "Пятёрочка",
                "name:en": "Pyaterochka",
                "shop": "supermarket"
            }
        ]
    },
    "bank": {
        "count": 1,
        "detail": [
            {
                "amenity": "bank",
                "name": "Сбербанк + банкомат"
            }
        ]
    },
    "cafe": {
        "count": 3,
        "detail": [
            {
                "addr:city": "Лермонтов",
                "addr:housenumber": "12А",
                "addr:street": "улица Волкова",
                "amenity": "cafe",
                "building": "yes"
            },
            {
                "addr:city": "Лермонтов",
                "addr:housenumber": "13/3",
                "addr:street": "улица Волкова",
                "amenity": "cafe",
                "building": "yes",
                "name": "\"Мария\""
            },
            {
                "addr:city": "Лермонтов",
                "addr:housenumber": "13А",
                "addr:street": "улица Волкова",
                "amenity": "cafe",
                "building": "yes",
                "name": "\"Александр\""
            }
        ]
    },
    "car_wash": {
        "count": 1,
        "detail": [
            {
                "amenity": "car_wash",
                "building": "yes"
            }
        ]
    },
    "kindergarten": {
        "count": 2,
        "detail": [
            {
                "addr:city": "Лермонтов",
                "addr:housenumber": "8",
                "addr:street": "улица Химиков",
                "building": "kindergarten",
                "name": "№12 \"Колокольчик\""
            },
            {
                "addr:city": "Лермонтов",
                "addr:housenumber": "12",
                "addr:street": "улица Химиков",
                "building": "kindergarten",
                "name": "№12 \"Родничок\""
            }
        ]
    }
}