{
    "school": {
        "count": 1,
        "detail": [
            {
                "amenity": "school"
            }
        ]
    },
    "dentist": {
        "count": 1,
        "detail": [
            {
                "amenity": "dentist",
                "name": "ЗУБР"
            }
        ]
    },
    "residents": 4314,
    "kindergarten": {
        "count": 4,
        "detail": [
            {
                "name": "МБДОУ №46 \"Хрусталик\"",
                "building": "kindergarten",
                "addr:city": "Невинномысск",
                "addr:street": "Северная улица",
                "addr:country": "RU",
                "addr:housenumber": "16А"
            },
            {
                "name": "Детский сад № 40",
                "building": "kindergarten",
                "addr:street": "бульвар Мира",
                "addr:country": "RU",
                "addr:housenumber": "32Б"
            },
            {
                "addr:city": "Невинномысск",
                "addr:country": "RU",
                "addr:housenumber": "13А",
                "addr:street": "Партизанская улица",
                "building": "kindergarten",
                "name": "Детский сад № 42"
            },
            {
                "addr:city": "Невинномысск",
                "addr:housenumber": "16Б",
                "addr:street": "Северная улица",
                "building": "kindergarten",
                "name": "Детский санаторий \"Журавлик\""
            }
        ]
    }
}