{
    "residents": 3066,
    "pharmacy": {
        "count": 2,
        "detail": [
            {
                "amenity": "pharmacy"
            },
            {
                "source": "survey",
                "amenity": "pharmacy",
                "drive_through": "no",
                "opening_hours": "Mo-Su 08:00-19:00"
            }
        ]
    },
    "alcohol": {
        "count": 1,
        "detail": [
            {
                "name": "Радуга",
                "shop": "alcohol"
            }
        ]
    },
    "convenience": {
        "count": 1,
        "detail": [
            {
                "shop": "convenience"
            }
        ]
    },
    "electronics": {
        "count": 1,
        "detail": [
            {
                "contact:phone": "+7 800 7707999",
                "contact:website": "http://dns-shop.ru/",
                "name": "DNS",
                "opening_hours": "Mo-Su 10:00-19:00",
                "operator": "ДНС Ритейл",
                "shop": "electronics"
            }
        ]
    },
    "commercial": {
        "count": 3,
        "detail": [
            {
                "source": "Bing",
                "building": "commercial",
                "addr:city": "Камень-Рыболов",
                "addr:street": "улица Кирова",
                "building:levels": "3",
                "addr:housenumber": "5"
            },
            {
                "building": "commercial",
                "addr:city": "Камень-Рыболов",
                "addr:street": "улица Кирова",
                "addr:housenumber": "3"
            },
            {
                "building": "commercial"
            }
        ]
    },
    "department_store": {
        "count": 1,
        "detail": [
            {
                "addr:city": "Камень-Рыболов",
                "addr:housenumber": "7",
                "addr:street": "улица Кирова",
                "building": "yes",
                "building:levels": "2",
                "name": "Универмаг",
                "shop": "department_store",
                "source": "Bing"
            }
        ]
    },
    "mall": {
        "count": 4,
        "detail": [
            {
                "name": "ТЦ Олимп",
                "shop": "mall",
                "building": "yes",
                "addr:city": "Камень-Рыболов",
                "addr:street": "улица 50 лет ВЛКСМ",
                "addr:postcode": "692684",
                "building:levels": "2",
                "addr:housenumber": "5"
            },
            {
                "name": "ТЦ Гермес",
                "shop": "mall",
                "building": "yes",
                "addr:city": "Камень-Рыболов",
                "addr:street": "Пионерская улица",
                "building:levels": "2",
                "addr:housenumber": "3А"
            },
            {
                "name": "ТЦ Елена",
                "shop": "mall",
                "building": "yes",
                "addr:street": "улица Кирова",
                "building:levels": "2",
                "addr:housenumber": "1"
            },
            {
                "name": "ТЦ Олимп Строй",
                "shop": "mall",
                "building": "yes",
                "addr:city": "Камень-Рыболов",
                "addr:street": "улица Лазо",
                "building:levels": "2",
                "addr:housenumber": "23"
            }
        ]
    },
    "restaurant": {
        "count": 1,
        "detail": [
            {
                "name": "Бордо",
                "amenity": "restaurant",
                "building": "yes",
                "addr:city": "Камень-Рыболов",
                "addr:street": "Октябрьская улица",
                "building:levels": "2",
                "addr:housenumber": "2"
            }
        ]
    },
    "place_of_worship": {
        "count": 1,
        "detail": [
            {
                "amenity": "place_of_worship",
                "building": "yes",
                "religion": "christian"
            }
        ]
    },
    "townhall": {
        "count": 1,
        "detail": [
            {
                "name": "Администрация Ханкайского МР ПК",
                "amenity": "townhall",
                "building": "yes",
                "addr:city": "Камень-Рыболов",
                "addr:street": "улица Кирова",
                "addr:postcode": "692684",
                "addr:housenumber": "8"
            }
        ]
    },
    "school": {
        "count": 1,
        "detail": [
            {
                "name": "ЦДО",
                "amenity": "school",
                "building": "yes",
                "addr:city": "Камень-Рыболов",
                "addr:street": "улица Некрасова",
                "addr:housenumber": "4"
            }
        ]
    },
    "bank": {
        "count": 2,
        "detail": [
            {
                "name": "Россельхозбанк",
                "amenity": "bank",
                "building": "yes",
                "addr:city": "Камень-Рыболов",
                "addr:street": "Октябрьская улица",
                "addr:postcode": "692684",
                "building:levels": "1",
                "addr:housenumber": "10А"
            },
            {
                "atm": "yes",
                "name": "Сбербанк",
                "amenity": "bank",
                "building": "yes",
                "addr:city": "Камень-Рыболов",
                "addr:street": "Октябрьская улица",
                "addr:housenumber": "10"
            }
        ]
    },
    "kindergarten": {
        "count": 2,
        "detail": [
            {
                "building": "kindergarten",
                "addr:city": "Камень-Рыболов",
                "addr:street": "улица 50 лет ВЛКСМ",
                "addr:postcode": "692684",
                "addr:housenumber": "1"
            },
            {
                "amenity": "kindergarten",
                "building": "yes",
                "addr:city": "Камень-Рыболов",
                "addr:street": "улица Кирова",
                "addr:housenumber": "19"
            }
        ]
    }
}