{
    "convenience": {
        "count": 6,
        "detail": [
            {
                "name": "Продукты",
                "shop": "convenience"
            },
            {
                "name": "СИМ",
                "shop": "convenience",
                "name:ru": "СИМ"
            },
            {
                "shop": "convenience",
                "building": "yes"
            },
            {
                "name": "Околица",
                "shop": "convenience",
                "building": "yes"
            },
            {
                "name": "Колобок",
                "shop": "convenience",
                "building": "yes"
            },
            {
                "name": "Продукты",
                "shop": "convenience",
                "building": "yes"
            }
        ]
    },
    "pub": {
        "count": 1,
        "detail": [
            {
                "amenity": "pub"
            }
        ]
    },
    "car": {
        "count": 1,
        "detail": [
            {
                "shop": "car"
            }
        ]
    },
    "school": {
        "count": 1,
        "detail": [
            {
                "name": "Школа #3",
                "amenity": "school",
                "name:ru": "Школа #3"
            }
        ]
    },
    "supermarket": {
        "count": 1,
        "detail": [
            {
                "name": "Кристалл",
                "shop": "supermarket",
                "name:ru": "Кристалл"
            }
        ]
    },
    "electronics": {
        "count": 1,
        "detail": [
            {
                "name": "Алекс",
                "shop": "electronics",
                "name:ru": "Алекс"
            }
        ]
    },
    "post_office": {
        "count": 1,
        "detail": [
            {
                "amenity": "post_office"
            }
        ]
    },
    "florist": {
        "count": 1,
        "detail": [
            {
                "shop": "florist"
            }
        ]
    },
    "bus_stop": {
        "count": 1,
        "detail": [
            {
                "highway": "bus_stop"
            }
        ]
    },
    "playground": {
        "count": 1,
        "detail": [
            {
                "leisure": "playground"
            }
        ]
    },
    "residents": 1671,
    "car_wash": {
        "count": 1,
        "detail": [
            {
                "amenity": "car_wash",
                "building": "yes"
            }
        ]
    }
}