{
    "residents": 1737,
    "bus_stop": {
        "count": 6,
        "detail": [
            {
                "bus": "yes",
                "name": "Топографическая",
                "highway": "bus_stop",
                "wheelchair": "yes",
                "public_transport": "platform"
            },
            {
                "bus": "yes",
                "name": "Автоколонна №1982",
                "highway": "bus_stop",
                "public_transport": "platform"
            },
            {
                "bus": "yes",
                "name": "Автоколонна №1982",
                "highway": "bus_stop",
                "public_transport": "platform"
            },
            {
                "bus": "yes",
                "name": "Топографическая",
                "public_transport": "stop_position"
            },
            {
                "bus": "yes",
                "name": "Автоколонна №1982",
                "public_transport": "stop_position"
            },
            {
                "bus": "yes",
                "name": "Автоколонна №1982",
                "public_transport": "stop_position"
            }
        ]
    },
    "fuel": {
        "count": 1,
        "detail": [
            {
                "amenity": "fuel",
                "fuel:diesel": "yes",
                "fuel:octane_92": "yes",
                "fuel:octane_95": "yes",
                "name": "Роснефть",
                "operator": "Роснефть",
                "website": "https://www.rosneft.ru/"
            }
        ]
    },
    "books": {
        "count": 1,
        "detail": [
            {
                "name": "Знания",
                "shop": "books"
            }
        ]
    },
    "bank": {
        "count": 1,
        "detail": [
            {
                "name": "Уссури",
                "amenity": "bank",
                "operator": "ОАО Коммерческий банк \"Уссури\""
            }
        ]
    },
    "cosmetics": {
        "count": 1,
        "detail": [
            {
                "addr:postcode": "680042",
                "email": "dobrynkina55@mail.ru",
                "name": "Амвей 2303105",
                "name:en": "Amway 2303105",
                "opening_hours": "Mo-Su 09:00-20:00",
                "phone": "+7 965 6754626",
                "shop": "cosmetics",
                "website": "https://www.amway.ru/user/dobro55"
            }
        ]
    },
    "supermarket": {
        "count": 1,
        "detail": [
            {
                "contact:email": "sekretar@raz2va.ru",
                "contact:instagram": "https://www.instagram.com/razdvamarket/",
                "contact:phone": "+7 800 1001224",
                "contact:website": "https://raz2va.ru/",
                "name": "Раз Два",
                "opening_hours": "24/7",
                "operator": "ООО \"Топаз\"",
                "shop": "supermarket"
            }
        ]
    }
}