{
    "residents": 3602,
    "school": {
        "count": 3,
        "detail": [
            {
                "name": "Школа №5",
                "amenity": "school",
                "addr:city": "Россошь",
                "addr:street": "Пролетарская улица",
                "addr:housenumber": "113"
            },
            {
                "name": "Лицей №4",
                "amenity": "school",
                "addr:city": "Россошь",
                "addr:street": "Школьный переулок",
                "addr:housenumber": "3"
            },
            {
                "building": "school",
                "addr:street": "Школьный переулок",
                "building:levels": "4",
                "addr:housenumber": "3"
            }
        ]
    },
    "police": {
        "count": 1,
        "detail": [
            {
                "name": "ГРОВД",
                "amenity": "police",
                "addr:city": "Россошь"
            }
        ]
    },
    "bus_stop": {
        "count": 7,
        "detail": [
            {
                "addr:city": "Россошь",
                "addr:street": "улица Белинского",
                "bus": "yes",
                "highway": "bus_stop",
                "name": "Поликлиника",
                "public_transport": "platform"
            },
            {
                "addr:city": "Россошь",
                "highway": "bus_stop",
                "name": "Спорткомплекс"
            },
            {
                "name": "Остановка Школа №5",
                "highway": "bus_stop",
                "addr:city": "Россошь"
            },
            {
                "name": "Остановка Зонтик (Молодежный центр)",
                "highway": "bus_stop",
                "addr:city": "Россошь",
                "addr:street": "Пролетарская улица"
            },
            {
                "bus": "yes",
                "highway": "bus_stop",
                "name": "Остановка Метелица",
                "public_transport": "platform"
            },
            {
                "bus": "yes",
                "highway": "bus_stop",
                "name": "Юбилейный парк",
                "public_transport": "platform"
            },
            {
                "bus": "yes",
                "highway": "bus_stop",
                "name": "Яблоко",
                "public_transport": "platform"
            }
        ]
    },
    "hairdresser": {
        "count": 4,
        "detail": [
            {
                "addr:city": "Россошь",
                "addr:housenumber": "95",
                "addr:street": "Пролетарская улица",
                "name": "Весталия",
                "shop": "hairdresser"
            },
            {
                "name": "Идеал",
                "shop": "hairdresser",
                "addr:city": "Россошь",
                "addr:street": "Пролетарская улица",
                "addr:housenumber": "99"
            },
            {
                "name": "Клеопатра",
                "shop": "hairdresser",
                "addr:city": "Россошь",
                "addr:street": "улица Алексеева",
                "addr:housenumber": "33"
            },
            {
                "name": "Империя красоты",
                "shop": "hairdresser",
                "addr:street": "улица Алексеева",
                "addr:housenumber": "24А"
            }
        ]
    },
    "florist": {
        "count": 3,
        "detail": [
            {
                "name": "Цветы",
                "shop": "florist",
                "addr:city": "Россошь",
                "addr:street": "улица Простеева",
                "addr:housenumber": "9"
            },
            {
                "name": "Марианна",
                "shop": "florist",
                "addr:street": "Пролетарская улица",
                "addr:housenumber": "103"
            },
            {
                "name": "Флориссимо",
                "shop": "florist",
                "addr:street": "Пролетарская улица",
                "addr:housenumber": "117"
            }
        ]
    },
    "clothes": {
        "count": 4,
        "detail": [
            {
                "name": "Одежда",
                "shop": "clothes",
                "addr:city": "Россошь",
                "addr:street": "улица Простеева",
                "addr:housenumber": "9"
            },
            {
                "name": "Монро",
                "shop": "clothes",
                "addr:city": "Россошь",
                "addr:street": "Пролетарская улица",
                "addr:housenumber": "101"
            },
            {
                "name": "Милавица",
                "shop": "clothes",
                "addr:city": "Россошь",
                "addr:street": "Пролетарская улица",
                "addr:housenumber": "103"
            },
            {
                "name": "Малышок-2",
                "shop": "clothes",
                "addr:street": "улица Простеева",
                "addr:housenumber": "9Г"
            }
        ]
    },
    "bicycle": {
        "count": 1,
        "detail": [
            {
                "name": "Спорт Мастер",
                "shop": "bicycle",
                "addr:city": "Россошь",
                "addr:street": "Пролетарская улица",
                "addr:housenumber": "103"
            }
        ]
    },
    "sports": {
        "count": 1,
        "detail": [
            {
                "name": "НХМ национальный хоккейный магазин",
                "shop": "sports",
                "addr:city": "Россошь",
                "addr:street": "Пролетарская улица",
                "addr:housenumber": "103"
            }
        ]
    },
    "bank": {
        "count": 2,
        "detail": [
            {
                "name": "Россельхозбанк",
                "amenity": "bank",
                "addr:city": "Россошь"
            },
            {
                "name": "Восточный банк",
                "amenity": "bank",
                "addr:city": "Россошь",
                "addr:street": "улица Простеева",
                "addr:housenumber": "11"
            }
        ]
    },
    "marketplace": {
        "count": 1,
        "detail": [
            {
                "name": "Рынок Алексеева",
                "phone": "+7 962-328-51-48",
                "amenity": "marketplace",
                "addr:city": "Россошь",
                "addr:street": "улица Алексеева",
                "opening_hours": "We, Sa-Su 08:00-11:00, 11:30-13:00"
            }
        ]
    },
    "car_rental": {
        "count": 1,
        "detail": [
            {
                "name": "Автосервис Алексеева",
                "amenity": "car_rental",
                "addr:city": "Россошь"
            }
        ]
    },
    "furniture": {
        "count": 1,
        "detail": [
            {
                "name": "Мебельный",
                "shop": "furniture",
                "addr:city": "Россошь"
            }
        ]
    },
    "convenience": {
        "count": 7,
        "detail": [
            {
                "name": "Молоко-2",
                "shop": "convenience",
                "addr:city": "Россошь",
                "addr:street": "улица Простеева",
                "addr:housenumber": "9В"
            },
            {
                "addr:city": "Россошь",
                "addr:housenumber": "9А",
                "addr:street": "улица Простеева",
                "name": "Викинг",
                "shop": "convenience"
            },
            {
                "name": "Восторг",
                "shop": "convenience",
                "addr:city": "Россошь",
                "addr:street": "улица Алексеева",
                "addr:housenumber": "33"
            },
            {
                "name": "Фирмач",
                "shop": "convenience",
                "addr:city": "Россошь",
                "addr:street": "улица Алексеева"
            },
            {
                "name": "Пряжа",
                "shop": "convenience",
                "addr:city": "Россошь",
                "addr:street": "Пролетарская улица",
                "addr:housenumber": "103"
            },
            {
                "name": "Воронежгазсервис",
                "shop": "convenience",
                "addr:street": "Пролетарская улица",
                "addr:housenumber": "117А"
            },
            {
                "name": "Геркулес-2",
                "shop": "convenience",
                "addr:street": "улица Простеева",
                "addr:housenumber": "9В"
            }
        ]
    },
    "fast_food": {
        "count": 1,
        "detail": [
            {
                "name": "Антошка-2",
                "amenity": "fast_food",
                "addr:city": "Россошь",
                "addr:street": "улица Простеева"
            }
        ]
    },
    "toys": {
        "count": 2,
        "detail": [
            {
                "name": "Маленькая Фея",
                "shop": "toys",
                "addr:city": "Россошь",
                "addr:street": "улица Простеева",
                "addr:housenumber": "11"
            },
            {
                "name": "Новосел",
                "shop": "toys",
                "addr:city": "Россошь",
                "addr:street": "Пролетарская улица",
                "addr:housenumber": "117"
            }
        ]
    },
    "jewelry": {
        "count": 1,
        "detail": [
            {
                "name": "Камелия -2",
                "shop": "jewelry",
                "addr:city": "Россошь",
                "addr:street": "улица Простеева",
                "addr:housenumber": "9В"
            }
        ]
    },
    "taxi": {
        "count": 1,
        "detail": [
            {
                "amenity": "taxi"
            }
        ]
    },
    "fountain": {
        "count": 1,
        "detail": [
            {
                "amenity": "fountain"
            }
        ]
    },
    "cafe": {
        "count": 6,
        "detail": [
            {
                "name": "Радуга",
                "amenity": "cafe",
                "addr:city": "Россошь",
                "addr:street": "Пролетарская улица",
                "internet_access": "wlan",
                "addr:housenumber": "98"
            },
            {
                "name": "Метро",
                "amenity": "cafe",
                "addr:city": "Россошь",
                "addr:street": "улица Алексеева",
                "addr:housenumber": "20А"
            },
            {
                "name": "Ледовая арена",
                "amenity": "cafe",
                "addr:city": "Россошь",
                "addr:street": "улица Белинского",
                "addr:housenumber": "18"
            },
            {
                "name": "Якорь",
                "amenity": "cafe",
                "addr:city": "Россошь",
                "addr:street": "улица Белинского",
                "addr:housenumber": "20Г"
            },
            {
                "name": "Поплавок",
                "phone": "+74739652515",
                "amenity": "cafe",
                "website": "http://www.cafe-poplavok.ru",
                "addr:city": "Россошь",
                "addr:street": "улица Белинского",
                "addr:housenumber": "20В"
            },
            {
                "name": "Жар Пицца",
                "amenity": "cafe",
                "addr:street": "проспект Труда",
                "addr:housenumber": "1И"
            }
        ]
    },
    "clinic": {
        "count": 1,
        "detail": [
            {
                "addr:city": "Россошь",
                "amenity": "clinic",
                "healthcare": "clinic",
                "name": "Поликлиника"
            }
        ]
    },
    "gift": {
        "count": 1,
        "detail": [
            {
                "name": "Камелия",
                "shop": "gift",
                "addr:city": "Россошь",
                "addr:street": "Школьный переулок"
            }
        ]
    },
    "supermarket": {
        "count": 6,
        "detail": [
            {
                "name": "Салют",
                "shop": "supermarket",
                "addr:city": "Россошь",
                "addr:street": "Школьный переулок",
                "addr:housenumber": "4А"
            },
            {
                "name": "Метелица-1",
                "shop": "supermarket",
                "addr:city": "Россошь",
                "addr:street": "улица Простеева",
                "addr:housenumber": "9Б"
            },
            {
                "name": "Магнит Гипермаркет",
                "shop": "supermarket",
                "addr:street": "проспект Труда",
                "addr:housenumber": "1И"
            },
            {
                "name": "Юбилейный торговый центр",
                "shop": "supermarket",
                "addr:street": "улица Простеева",
                "addr:housenumber": "9"
            },
            {
                "name": "Санги-Стиль-4",
                "shop": "supermarket",
                "addr:street": "Школьный переулок"
            },
            {
                "name": "Красное и Белое-4",
                "shop": "supermarket",
                "addr:street": "проспект Труда",
                "addr:housenumber": "1И"
            }
        ]
    },
    "books": {
        "count": 1,
        "detail": [
            {
                "name": "Кругозор",
                "shop": "books",
                "addr:city": "Россошь",
                "addr:street": "улица Простеева",
                "addr:housenumber": "5А"
            }
        ]
    },
    "sports_centre": {
        "count": 2,
        "detail": [
            {
                "name": "Ледовая арена",
                "sport": "swimming",
                "leisure": "sports_centre",
                "addr:city": "Россошь",
                "addr:street": "улица Белинского",
                "addr:housenumber": "18"
            },
            {
                "name": "Химик",
                "sport": "swimming",
                "leisure": "sports_centre"
            }
        ]
    },
    "mobile_phone": {
        "count": 1,
        "detail": [
            {
                "addr:city": "Россошь",
                "addr:housenumber": "9В",
                "addr:street": "улица Простеева",
                "brand": "Билайн",
                "brand:en": "Beeline",
                "brand:wikidata": "Q402880",
                "brand:wikipedia": "en:Beeline (brand)",
                "name": "Билайн",
                "name:en": "Beeline",
                "shop": "mobile_phone"
            }
        ]
    },
    "kindergarten": {
        "count": 2,
        "detail": [
            {
                "name": "Юла детский центр",
                "amenity": "kindergarten",
                "addr:street": "улица Жуковского"
            },
            {
                "name": "Изумрудный город",
                "amenity": "kindergarten",
                "addr:city": "Россошь",
                "addr:street": "улица Белинского",
                "opening_hours": "Tu-Fr 12:00-20:00; Sa-Su 11:00-20:00"
            }
        ]
    },
    "pharmacy": {
        "count": 1,
        "detail": [
            {
                "name": "MaxHelp",
                "amenity": "pharmacy",
                "addr:city": "Россошь",
                "addr:street": "улица Простеева",
                "addr:housenumber": "9Б"
            }
        ]
    },
    "department_store": {
        "count": 1,
        "detail": [
            {
                "name": "Кроха-2",
                "shop": "department_store",
                "addr:street": "проспект Труда",
                "addr:housenumber": "1И"
            }
        ]
    },
    "kiosk": {
        "count": 1,
        "detail": [
            {
                "name": "Русский аппетит-3",
                "shop": "kiosk",
                "addr:street": "улица Белинского"
            }
        ]
    },
    "bus_station": {
        "count": 1,
        "detail": [
            {
                "amenity": "bus_station",
                "bus": "yes",
                "public_transport": "station"
            }
        ]
    },
    "bar": {
        "count": 1,
        "detail": [
            {
                "name": "Бир Мир-2",
                "amenity": "bar",
                "addr:street": "проспект Труда",
                "addr:housenumber": "1И"
            }
        ]
    },
    "parking": {
        "count": 2,
        "detail": [
            {
                "amenity": "parking"
            },
            {
                "amenity": "parking"
            }
        ]
    },
    "nightclub": {
        "count": 1,
        "detail": [
            {
                "name": "Вавилон",
                "amenity": "nightclub"
            }
        ]
    },
    "electronics": {
        "count": 1,
        "detail": [
            {
                "name": "Юлмарт",
                "shop": "electronics"
            }
        ]
    },
    "bench": {
        "count": 3,
        "detail": [
            {
                "amenity": "bench",
                "backrest": "yes"
            },
            {
                "amenity": "bench",
                "backrest": "yes"
            },
            {
                "amenity": "bench",
                "backrest": "yes"
            }
        ]
    },
    "toilets": {
        "count": 1,
        "detail": [
            {
                "amenity": "toilets"
            }
        ]
    },
    "stadium": {
        "count": 1,
        "detail": [
            {
                "name": "Купол спорт",
                "leisure": "stadium",
                "building": "public",
                "addr:street": "улица Белинского",
                "addr:housenumber": "20А"
            }
        ]
    },
    "commercial": {
        "count": 1,
        "detail": [
            {
                "name": "Детский развлекательный комплекс",
                "building": "commercial",
                "addr:city": "Россошь",
                "addr:street": "улица Белинского",
                "building:levels": "3"
            }
        ]
    },
    "public_building": {
        "count": 1,
        "detail": [
            {
                "amenity": "public_building",
                "building": "yes",
                "addr:street": "проспект Труда",
                "addr:housenumber": "1И"
            }
        ]
    },
    "dance": {
        "count": 1,
        "detail": [
            {
                "leisure": "dance",
                "building": "yes"
            }
        ]
    }
}