{
    "residents": 859,
    "supermarket": {
        "count": 2,
        "detail": [
            {
                "name": "Магнит",
                "shop": "supermarket",
                "opening_hours": "Mo-Su 08:30-19:00"
            },
            {
                "name": "Магнит Косметик",
                "shop": "supermarket"
            }
        ]
    },
    "cafe": {
        "count": 2,
        "detail": [
            {
                "name": "Молодёжное",
                "amenity": "cafe"
            },
            {
                "name": "Вконтакте",
                "amenity": "cafe"
            }
        ]
    },
    "florist": {
        "count": 2,
        "detail": [
            {
                "shop": "florist"
            },
            {
                "name": "Живые цветы",
                "shop": "florist",
                "building": "yes"
            }
        ]
    },
    "variety_store": {
        "count": 4,
        "detail": [
            {
                "name": "Всё по 42 рублей",
                "shop": "variety_store"
            },
            {
                "name": "Солнечный",
                "shop": "variety_store",
                "building": "public",
                "addr:street": "Советская улица",
                "addr:housenumber": "54"
            },
            {
                "name": "Орбита",
                "shop": "variety_store",
                "building": "public",
                "addr:street": "улица Ленина",
                "addr:housenumber": "22"
            },
            {
                "name": "Лига",
                "shop": "variety_store",
                "building": "public",
                "addr:street": "Советская улица",
                "addr:housenumber": "3А"
            }
        ]
    },
    "bar": {
        "count": 1,
        "detail": [
            {
                "name": "Хмельбург",
                "amenity": "bar"
            }
        ]
    },
    "clothes": {
        "count": 2,
        "detail": [
            {
                "name": "Нижнее белье",
                "shop": "clothes"
            },
            {
                "name": "Одежда",
                "shop": "clothes"
            }
        ]
    },
    "pharmacy": {
        "count": 1,
        "detail": [
            {
                "amenity": "pharmacy"
            }
        ]
    },
    "toilets": {
        "count": 5,
        "detail": [
            {
                "access": "Туалет",
                "amenity": "toilets"
            },
            {
                "access": "Туалет",
                "amenity": "toilets"
            },
            {
                "access": "Туалет",
                "amenity": "toilets"
            },
            {
                "amenity": "toilets"
            },
            {
                "access": "public",
                "amenity": "toilets",
                "building": "yes"
            }
        ]
    },
    "department_store": {
        "count": 2,
        "detail": [
            {
                "name": "Любимый дом торговли",
                "shop": "department_store"
            },
            {
                "shop": "department_store",
                "building": "yes",
                "addr:street": "улица Мира",
                "addr:housenumber": "34"
            }
        ]
    },
    "shelter": {
        "count": 2,
        "detail": [
            {
                "name": "Журавли",
                "amenity": "shelter"
            },
            {
                "amenity": "shelter"
            }
        ]
    },
    "bench": {
        "count": 1,
        "detail": [
            {
                "name": "Скамья примирения",
                "seats": "2",
                "colour": "brown",
                "amenity": "bench",
                "backrest": "yes",
                "material": "wood"
            }
        ]
    },
    "drinking_water": {
        "count": 2,
        "detail": [
            {
                "amenity": "drinking_water",
                "name": "Колонка"
            },
            {
                "name": "Колонка",
                "amenity": "drinking_water"
            }
        ]
    },
    "convenience": {
        "count": 2,
        "detail": [
            {
                "name": "Кулинария",
                "shop": "convenience"
            },
            {
                "name": "Теремок",
                "shop": "convenience",
                "building": "yes"
            }
        ]
    },
    "travel_agency": {
        "count": 1,
        "detail": [
            {
                "name": "Охота и рыбалка",
                "shop": "travel_agency"
            }
        ]
    },
    "books": {
        "count": 1,
        "detail": [
            {
                "shop": "books"
            }
        ]
    },
    "hardware": {
        "count": 1,
        "detail": [
            {
                "shop": "hardware"
            }
        ]
    },
    "curtain": {
        "count": 1,
        "detail": [
            {
                "shop": "curtain"
            }
        ]
    },
    "funeral_directors": {
        "count": 1,
        "detail": [
            {
                "shop": "funeral_directors"
            }
        ]
    },
    "atm": {
        "count": 2,
        "detail": [
            {
                "amenity": "atm",
                "brand": "Сборбанк",
                "cash_in": "yes",
                "drive_through": "no",
                "operator": "Сбербанк"
            },
            {
                "amenity": "atm",
                "operator": "Сбербанк"
            }
        ]
    },
    "electronics": {
        "count": 1,
        "detail": [
            {
                "name": "Компас",
                "shop": "electronics",
                "building": "public",
                "addr:city": "Каменка",
                "addr:street": "Привокзальная улица",
                "addr:housenumber": "4А"
            }
        ]
    },
    "bank": {
        "count": 1,
        "detail": [
            {
                "addr:city": "Каменка",
                "addr:housenumber": "9",
                "addr:street": "улица Ленина",
                "amenity": "bank",
                "atm": "yes",
                "branch": "Центрально-Черноземный банк",
                "building": "public",
                "building:levels": "2",
                "contact:facebook": "https://www.facebook.com/sberbank",
                "contact:instagram": "https://www.instagram.com/sberbank",
                "contact:ok": "https://ok.ru/sberbank",
                "contact:phone": "+7 800 5555550",
                "contact:twitter": "https://twitter.com/sberbank",
                "contact:vk": "https://vk.com/sberbank",
                "contact:website": "https://www.sberbank.ru",
                "contact:youtube": "https://www.youtube.com/sberbank",
                "name": "Сбербанк",
                "opening_hours": "Mo-Fr 08:30-17:30",
                "operator": "ПАО Сбербанк",
                "operator:wikidata": "Q205012",
                "operator:wikipedia": "ru:Сбербанк России",
                "ref": "9013/0926",
                "wheelchair": "no"
            }
        ]
    },
    "hunting": {
        "count": 1,
        "detail": [
            {
                "name": "Охотничий магазин",
                "shop": "hunting",
                "building": "yes",
                "addr:street": "улица Ленина",
                "addr:housenumber": "2А"
            }
        ]
    },
    "car_parts": {
        "count": 1,
        "detail": [
            {
                "addr:housenumber": "46А",
                "addr:street": "Советская улица",
                "building": "public",
                "name": "Славянский",
                "shop": "car_parts"
            }
        ]
    },
    "public_building": {
        "count": 1,
        "detail": [
            {
                "name": "Каменский ГорКомХоз",
                "amenity": "public_building",
                "building": "yes",
                "addr:street": "улица Мира",
                "addr:housenumber": "24"
            }
        ]
    },
    "restaurant": {
        "count": 1,
        "detail": [
            {
                "addr:city": "Каменка",
                "addr:housenumber": "33",
                "addr:street": "улица Мира",
                "amenity": "restaurant",
                "building": "yes",
                "cuisine": "regional",
                "name": "Столовая \"Жемчуг\"",
                "opening_hours": "Mo-Fr 11:00-15:00"
            }
        ]
    },
    "cinema": {
        "count": 1,
        "detail": [
            {
                "name": "Октябрь",
                "amenity": "cinema",
                "building": "public",
                "addr:street": "улица Ленина",
                "addr:housenumber": "2Д"
            }
        ]
    },
    "dentist": {
        "count": 1,
        "detail": [
            {
                "name": "Стоматологическая поликлиника",
                "amenity": "dentist",
                "building": "yes",
                "addr:street": "Привокзальная улица",
                "addr:housenumber": "7"
            }
        ]
    },
    "townhall": {
        "count": 2,
        "detail": [
            {
                "name": "Казначейство",
                "amenity": "townhall",
                "building": "public",
                "addr:street": "улица Ленина",
                "addr:housenumber": "2Б"
            },
            {
                "name": "Администрация п.Каменка",
                "source": "Местный житель",
                "amenity": "townhall",
                "building": "public",
                "addr:street": "Привокзальная улица",
                "addr:housenumber": "9"
            }
        ]
    },
    "garden_centre": {
        "count": 1,
        "detail": [
            {
                "shop": "garden_centre",
                "building": "public"
            }
        ]
    },
    "theatre": {
        "count": 1,
        "detail": [
            {
                "name": "Сцена",
                "amenity": "theatre",
                "building": "yes"
            }
        ]
    },
    "dance": {
        "count": 1,
        "detail": [
            {
                "source": "Местный житель",
                "leisure": "dance",
                "building": "yes",
                "description": "Танцпол"
            }
        ]
    },
    "newsagent": {
        "count": 1,
        "detail": [
            {
                "shop": "newsagent",
                "building": "public"
            }
        ]
    },
    "service": {
        "count": 1,
        "detail": [
            {
                "ref": "1-07",
                "power": "substation",
                "rating": "800 kVA",
                "source": "local_knowledge;knowledge",
                "voltage": "10000;400",
                "building": "service",
                "location": "indoor",
                "frequency": "50",
                "substation": "minor_distribution",
                "building:levels": "2",
                "source:position": "bing",
                "building:material": "brick",
                "official_short_type": "ТП"
            }
        ]
    }
}