{
    "residents": 1020,
    "supermarket": {
        "count": 1,
        "detail": [
            {
                "name": "Росинка",
                "shop": "supermarket",
                "level": "1",
                "opening_hours": "09:00-22:00",
                "payment:cards": "yes"
            }
        ]
    },
    "bus_stop": {
        "count": 3,
        "detail": [
            {
                "name": "Музей",
                "highway": "bus_stop",
                "public_transport": "platform"
            },
            {
                "name": "Музей",
                "highway": "bus_stop",
                "public_transport": "platform"
            },
            {
                "name": "Школа исскусств",
                "highway": "bus_stop",
                "public_transport": "platform"
            }
        ]
    },
    "cafe": {
        "count": 4,
        "detail": [
            {
                "name": "Виктория",
                "amenity": "cafe"
            },
            {
                "name": "Родничок",
                "amenity": "cafe",
                "building": "cafe",
                "addr:street": "улица Кирова",
                "opening_hours": "08:00-01:00",
                "addr:housenumber": "16А"
            },
            {
                "name": "Три бобра",
                "amenity": "cafe",
                "building": "yes"
            },
            {
                "amenity": "cafe",
                "building": "yes"
            }
        ]
    },
    "furniture": {
        "count": 1,
        "detail": [
            {
                "name": "Мебельный салон",
                "shop": "furniture"
            }
        ]
    },
    "kiosk": {
        "count": 1,
        "detail": [
            {
                "shop": "kiosk"
            }
        ]
    },
    "post_box": {
        "count": 2,
        "detail": [
            {
                "ref": "8",
                "amenity": "post_box"
            },
            {
                "ref": "5",
                "amenity": "post_box"
            }
        ]
    },
    "convenience": {
        "count": 6,
        "detail": [
            {
                "name": "Любимый",
                "shop": "convenience"
            },
            {
                "name": "Карат",
                "shop": "convenience",
                "building": "yes",
                "addr:street": "Пролетарская улица",
                "opening_hours": "08:00-20:00",
                "addr:housenumber": "74"
            },
            {
                "name": "Бобровский",
                "shop": "convenience",
                "building": "yes",
                "opening_hours": "Mo 08:00-20:00; Tu-Su 08:00-21:00"
            },
            {
                "name": "Золотой",
                "shop": "convenience",
                "building": "yes"
            },
            {
                "name": "Крестьянский двор",
                "shop": "convenience",
                "building": "yes",
                "addr:street": "Пролетарская улица",
                "addr:housenumber": "78А"
            },
            {
                "name": "Берёзка",
                "shop": "convenience",
                "building": "yes",
                "addr:street": "улица Кирова",
                "opening_hours": "Mo-Fr 09:00-18:00; Sa-Su 09:00-14:00",
                "addr:housenumber": "18/1"
            }
        ]
    },
    "payment_centre": {
        "count": 1,
        "detail": [
            {
                "amenity": "payment_centre",
                "name": "Приём платежей"
            }
        ]
    },
    "photo": {
        "count": 1,
        "detail": [
            {
                "name": "Фото Фокс",
                "shop": "photo"
            }
        ]
    },
    "car_repair": {
        "count": 1,
        "detail": [
            {
                "name": "Автосервис",
                "shop": "car_repair",
                "phone": "291 43000"
            }
        ]
    },
    "yes": {
        "count": 5,
        "detail": [
            {
                "name": "Соки, воды, мороженое",
                "shop": "yes"
            },
            {
                "name": "Лидер",
                "shop": "yes",
                "building": "yes"
            },
            {
                "name": "Пошив штор",
                "shop": "yes",
                "building": "yes",
                "addr:street": "улица 22 Января",
                "addr:housenumber": "140"
            },
            {
                "name": "Пчёлка",
                "shop": "yes",
                "building": "yes"
            },
            {
                "name": "Теплотехник",
                "shop": "yes",
                "building": "yes"
            }
        ]
    },
    "car_parts": {
        "count": 1,
        "detail": [
            {
                "name": "Автозапчасти",
                "shop": "car_parts"
            }
        ]
    },
    "toilets": {
        "count": 1,
        "detail": [
            {
                "amenity": "toilets",
                "fee": "yes"
            }
        ]
    },
    "post_office": {
        "count": 1,
        "detail": [
            {
                "amenity": "post_office",
                "brand": "Почта России",
                "brand:wikidata": "Q1502763",
                "brand:wikipedia": "ru:Почта России",
                "contact:website": "https://www.pochta.ru",
                "name": "Бобров 397700",
                "opening_hours": "Mo-Fr 08:00-20:00; Sa 09:00-18:00",
                "operator": "АО «Почта России»",
                "ref": "397700"
            }
        ]
    },
    "building_materials": {
        "count": 2,
        "detail": [
            {
                "name": "Империя",
                "shop": "building_materials",
                "building": "yes"
            },
            {
                "name": "Строитель",
                "shop": "building_materials",
                "building": "yes"
            }
        ]
    },
    "dentist": {
        "count": 1,
        "detail": [
            {
                "name": "Стоматология",
                "amenity": "dentist",
                "building": "yes",
                "official_name": "Бобровская центральная районная больница. Стоматологическое отделение"
            }
        ]
    },
    "pharmacy": {
        "count": 2,
        "detail": [
            {
                "name": "Аптека",
                "phone": "+7 47350 4-33-48",
                "amenity": "pharmacy",
                "building": "yes",
                "operator": "ООО \"Надежда\"",
                "addr:street": "улица Парижской Коммуны",
                "opening_hours": "08:00-18:00",
                "addr:housenumber": "70"
            },
            {
                "name": "Аптечный пункт",
                "amenity": "pharmacy",
                "building": "yes",
                "opening_hours": "08:00-20:00"
            }
        ]
    },
    "clothes": {
        "count": 1,
        "detail": [
            {
                "name": "Текстиль",
                "shop": "clothes",
                "building": "yes",
                "addr:street": "Пролетарская улица",
                "building:levels": "2",
                "addr:housenumber": "78"
            }
        ]
    },
    "school": {
        "count": 1,
        "detail": [
            {
                "name": "Школа исскусств",
                "amenity": "school",
                "building": "yes",
                "addr:street": "улица Кирова",
                "addr:housenumber": "35"
            }
        ]
    },
    "social_facility": {
        "count": 1,
        "detail": [
            {
                "office": "employment_agency",
                "amenity": "social_facility",
                "building": "yes",
                "official_name": "Центр занятости населения Бобровского района",
                "opening_hours": "Mo,We,Fr 08:00-17:00; Tu,Th 08:00-18:00",
                "building:levels": "2",
                "social_facility": "outreach"
            }
        ]
    },
    "appliance": {
        "count": 1,
        "detail": [
            {
                "name": "Империя света",
                "shop": "appliance",
                "building": "yes"
            }
        ]
    },
    "stationery": {
        "count": 1,
        "detail": [
            {
                "name": "Канцтовары",
                "shop": "stationery",
                "building": "yes"
            }
        ]
    },
    "beauty": {
        "count": 3,
        "detail": [
            {
                "name": "Мастер",
                "shop": "beauty",
                "building": "yes",
                "description": "студия красоты",
                "opening_hours": "09:00-18:00"
            },
            {
                "name": "Метелица",
                "shop": "beauty",
                "building": "yes",
                "opening_hours": "07:30-21:00"
            },
            {
                "name": "Элегант",
                "shop": "beauty",
                "building": "yes",
                "description": "дом моды"
            }
        ]
    },
    "clinic": {
        "count": 1,
        "detail": [
            {
                "name": "Семейный доктор",
                "amenity": "clinic",
                "building": "yes",
                "operator": "ООО \"Клиника современной медицины\"",
                "opening_hours": "Mo-Sa 09:00-19:00; Su 09:00-13:00"
            }
        ]
    },
    "water": {
        "count": 1,
        "detail": [
            {
                "name": "Чистая вода",
                "shop": "water",
                "building": "yes",
                "addr:street": "улица Кирова",
                "opening_hours": "Mo-Fr 09:00-18:00; Sa-Su 09:00-14:00",
                "addr:housenumber": "43А"
            }
        ]
    },
    "kindergarten": {
        "count": 1,
        "detail": [
            {
                "ref": "2",
                "name": "Детский сад №2",
                "amenity": "kindergarten",
                "building": "kindergarten",
                "addr:street": "улица Авдеева"
            }
        ]
    }
}