{
    "residents": 2721,
    "convenience": {
        "count": 1,
        "detail": [
            {
                "name": "Гроздь",
                "shop": "convenience"
            }
        ]
    },
    "fuel": {
        "count": 2,
        "detail": [
            {
                "name": "ТНК",
                "amenity": "fuel"
            },
            {
                "amenity": "fuel",
                "fuel:lpg": "yes"
            }
        ]
    },
    "cafe": {
        "count": 1,
        "detail": [
            {
                "name": "Неаполь",
                "amenity": "cafe"
            }
        ]
    },
    "waste_disposal": {
        "count": 2,
        "detail": [
            {
                "amenity": "waste_disposal"
            },
            {
                "amenity": "waste_disposal"
            }
        ]
    },
    "hairdresser": {
        "count": 1,
        "detail": [
            {
                "shop": "hairdresser"
            }
        ]
    },
    "bus_stop": {
        "count": 3,
        "detail": [
            {
                "name": "Ленинградская",
                "highway": "bus_stop"
            },
            {
                "name": "Ленинградская",
                "highway": "bus_stop"
            },
            {
                "bus": "yes",
                "highway": "bus_stop",
                "name": "ТЦ Лётка",
                "public_transport": "platform"
            }
        ]
    },
    "car_wash": {
        "count": 2,
        "detail": [
            {
                "amenity": "car_wash"
            },
            {
                "amenity": "car_wash"
            }
        ]
    },
    "pharmacy": {
        "count": 1,
        "detail": [
            {
                "amenity": "pharmacy",
                "contact:facebook": "http://facebook.com/aptekivita",
                "contact:instagram": "https://www.instagram.com/vita_express/",
                "contact:phone": "+7 800 7550003",
                "contact:vk": "https://vk.com/aptekivita",
                "contact:website": "https://vitaexpress.ru/",
                "name": "Вита Экспресс",
                "name:ru": "Вита",
                "opening_hours": "Mo-Su 08:00-20:00"
            }
        ]
    },
    "supermarket": {
        "count": 3,
        "detail": [
            {
                "name": "Пятерочка",
                "name:ru": "Пятерочка",
                "shop": "supermarket"
            },
            {
                "name": "Пятёрочка",
                "shop": "supermarket",
                "opening_hours": "Mo-Su 08:00-23:00"
            },
            {
                "building": "yes",
                "name": "Гроздь",
                "shop": "supermarket"
            }
        ]
    },
    "sports_centre": {
        "count": 1,
        "detail": [
            {
                "leisure": "sports_centre",
                "building": "yes"
            }
        ]
    },
    "florist": {
        "count": 1,
        "detail": [
            {
                "building": "yes",
                "name": "Lotos64",
                "shop": "florist"
            }
        ]
    },
    "department_store": {
        "count": 1,
        "detail": [
            {
                "building": "yes",
                "building:levels": "2",
                "shop": "department_store"
            }
        ]
    }
}