{
    "fuel": {
        "count": 1,
        "detail": [
            {
                "amenity": "fuel",
                "name": "Визит"
            }
        ]
    },
    "alcohol": {
        "count": 1,
        "detail": [
            {
                "name": "Горыныч",
                "shop": "alcohol"
            }
        ]
    },
    "supermarket": {
        "count": 2,
        "detail": [
            {
                "brand": "Мария-Ра",
                "brand:en": "Maria-ra",
                "brand:wikidata": "Q4281631",
                "brand:wikipedia": "ru:Мария-Ра",
                "name": "Мария-Ра",
                "name:en": "Maria-ra",
                "opening_hours": "08:00-22:00",
                "phone": "+7 38557 20207;+7 800 1000810",
                "shop": "supermarket",
                "website": "http://www.maria-ra.ru"
            },
            {
                "brand": "Магнит",
                "brand:en": "Magnit",
                "brand:wikidata": "Q940518",
                "brand:wikipedia": "ru:Магнит (сеть магазинов)",
                "name": "Магнит",
                "name:en": "Magnit",
                "shop": "supermarket"
            }
        ]
    },
    "post_office": {
        "count": 1,
        "detail": [
            {
                "ref": "658213",
                "name": "Отделение связи №658213",
                "amenity": "post_office",
                "operator": "Почта России",
                "contact:phone": "+7 38557 20048",
                "opening_hours": "Mo-Fr 08:00-13:00,14:00-20:00; Sa 09:00-13:00,14:00-18:00; Su off",
                "contact:website": "http://www.russianpost.ru"
            }
        ]
    },
    "childcare": {
        "count": 1,
        "detail": [
            {
                "amenity": "childcare",
                "name": "Д/С №6 \"Сказка\""
            }
        ]
    },
    "atm": {
        "count": 1,
        "detail": [
            {
                "amenity": "atm",
                "operator": "Сбербанк",
                "opening_hours": "Mo-Su 08:00-22:00"
            }
        ]
    },
    "dentist": {
        "count": 1,
        "detail": [
            {
                "amenity": "dentist",
                "healthcare": "dentist",
                "name": "Стомакс"
            }
        ]
    },
    "beverages": {
        "count": 1,
        "detail": [
            {
                "name": "\"Бочка\"",
                "shop": "beverages",
                "name:ru": "\"Бочка\""
            }
        ]
    },
    "convenience": {
        "count": 2,
        "detail": [
            {
                "name": "Моя семья",
                "shop": "convenience",
                "name:ru": "Моя семья"
            },
            {
                "name": "Аврора",
                "shop": "convenience"
            }
        ]
    },
    "residents": 5036,
    "college": {
        "count": 1,
        "detail": [
            {
                "name": "Рубцовский аграрно-промышленный техникум, корпус № 2",
                "amenity": "college",
                "building": "yes",
                "addr:street": "улица Громова",
                "building:levels": "3",
                "addr:housenumber": "7"
            }
        ]
    },
    "service": {
        "count": 1,
        "detail": [
            {
                "power": "substation",
                "building": "service",
                "building:levels": "1"
            }
        ]
    },
    "kindergarten": {
        "count": 1,
        "detail": [
            {
                "name": "Д/С \"Незабудка\"",
                "amenity": "kindergarten",
                "building": "yes",
                "addr:street": "проспект Ленина",
                "building:levels": "2",
                "addr:housenumber": "9А"
            }
        ]
    },
    "butcher": {
        "count": 1,
        "detail": [
            {
                "addr:street": "улица Калинина",
                "building": "yes",
                "name": "Мясная лавка",
                "shop": "butcher"
            }
        ]
    }
}