{
    "residents": 9423,
    "bank": {
        "count": 4,
        "detail": [
            {
                "atm": "yes",
                "name": "МТС Банк",
                "amenity": "bank"
            },
            {
                "amenity": "bank",
                "contact:phone": "+7 800 7004040",
                "contact:website": "https://www.rgsbank.ru/",
                "name": "Росгосстрах банк",
                "opening_hours": "Mo-Fr 09:00-19:00;Sa 10:00-15:00"
            },
            {
                "name": "Мособл банк",
                "amenity": "bank"
            },
            {
                "addr:city": "Воронеж",
                "addr:country": "RU",
                "addr:housenumber": "13",
                "addr:street": "улица Комиссаржевской",
                "amenity": "bank",
                "atm": "yes",
                "building": "yes",
                "building:levels": "2",
                "contact:email": "unicredit@unicredit.ru",
                "contact:phone": "+7 495 2587200;+7 800 7001020",
                "contact:twitter": "https://twitter.com/unicreditrussia",
                "contact:vk": "https://vk.com/unicreditbank",
                "contact:website": "https://www.unicreditbank.ru/",
                "contact:youtube": "https://www.youtube.com/user/unicreditbankrussia",
                "name": "ЮниКредит Банк",
                "opening_hours": "Mo-Fr 09:00-17:45",
                "operator": "ЮниКредит Банк"
            }
        ]
    },
    "bus_stop": {
        "count": 2,
        "detail": [
            {
                "name": "Комиссаржевской",
                "highway": "bus_stop",
                "public_transport": "platform"
            },
            {
                "name": "Комиссаржевской",
                "highway": "bus_stop",
                "shelter": "no",
                "public_transport": "platform"
            }
        ]
    },
    "post_office": {
        "count": 1,
        "detail": [
            {
                "amenity": "post_office",
                "brand": "Почта России",
                "brand:wikidata": "Q1502763",
                "brand:wikipedia": "ru:Почта России",
                "contact:phone": "+7-473-2598483",
                "contact:website": "https://www.pochta.ru",
                "name": "Воронеж 394036",
                "opening_hours": "Mo-Fr 08:00-20:00; Sa-Su 09:00-18:00",
                "operator": "АО «Почта России»",
                "ref": "394036"
            }
        ]
    },
    "atm": {
        "count": 3,
        "detail": [
            {
                "amenity": "atm",
                "operator": "Уралсиб"
            },
            {
                "amenity": "atm",
                "operator": "Промсвязьбанк"
            },
            {
                "amenity": "atm",
                "contact:website": "https://www.rgsbank.ru/",
                "opening_hours": "24/7",
                "operator": "РГС банк"
            }
        ]
    },
    "school": {
        "count": 5,
        "detail": [
            {
                "fax": "+7 473 2523626",
                "ref": "11",
                "name": "Открытая сменная общеобразовательная школа №11",
                "email": "osh11@comch.ru",
                "phone": "+7 473 2523626;+7 473 2523641",
                "amenity": "school",
                "operator": "Администрация городского округа город Воронеж Воронежской области",
                "short_name": "МБОУ ОСОШ №11",
                "start_date": "1964",
                "official_name": "Муниципальное бюджетное общеобразовательное учреждение открытая (сменная) общеобразовательная школа №11",
                "opening_hours": "Mo-Fr 08:00-20:00"
            },
            {
                "name": "Воронежская областная СДЮСШОР",
                "email": "vrnsport@mail.ru",
                "phone": "+7 473 2525340;+7 473 2522544",
                "sport": "team_handball",
                "amenity": "school",
                "full_name": "Воронежская областная специализированная детско-юношеская спортивная школа олимпийского резерва",
                "short_name": "ГБОУ ДОД ВО «Воронежская областная СДЮСШОР»",
                "official_name": "Государственное бюджетное образовательное учреждение дополнительного образования детей Воронежской области «Воронежская областная специализированная детско-юношеская спортивная школа олимпийского резерва»"
            },
            {
                "name": "СДЮСШОР № 38",
                "email": "shor38@vmail.ru",
                "phone": "+7 473 2597330",
                "amenity": "school",
                "full_name": "Специализированная детско-юношеская спортивная школа олимпийского резерва № 38",
                "short_name": "ГБОУ ДОД ВО «СДЮСШОР № 38»",
                "official_name": "Государственное бюджетное образовательное учреждение дополнительного образования детей Воронежской области «Специализированная детско-юношеская спортивная школа олимпийского резерва № 38»"
            },
            {
                "name": "ДЮСШ № 20",
                "email": "viola-17@mail.ru",
                "phone": "+7 473 2610213;+7 473 2610214",
                "sport": "wushu",
                "amenity": "school",
                "website": "http://dussh20.allvrn.ru/",
                "full_name": "Детско-юношеская спортивная школа № 20",
                "short_name": "МБОУДОД ДЮСШ № 20"
            },
            {
                "name": "ДЮСШ № 24 по хоккею имени Владислава Третьяка",
                "email": "dyussh24hoc@mail.ru",
                "phone": "+7 473 2357001",
                "sport": "hockey;skating",
                "amenity": "school",
                "website": "http://dussh24.allvrn.ru/",
                "full_name": "Детско-юношеская спортивная школа № 24 по хоккею имени Владислава Третьяка",
                "short_name": "МБОУДОД ДЮСШ № 24 по хоккею имени Владислава Третьяка"
            }
        ]
    },
    "pharmacy": {
        "count": 5,
        "detail": [
            {
                "name": "Аптечка",
                "amenity": "pharmacy"
            },
            {
                "name": "Власта фарм",
                "amenity": "pharmacy",
                "opening_hours": "Mo-Su 08:00-21:00"
            },
            {
                "name": "Здоровые люди",
                "amenity": "pharmacy"
            },
            {
                "name": "Аптека №217",
                "phone": "+7 473 2520579",
                "amenity": "pharmacy",
                "operator": "Воронежфармация",
                "official_name": "Государственная аптека №217",
                "opening_hours": "Mo-Su 08:00-20:00"
            },
            {
                "amenity": "pharmacy",
                "contact:facebook": "http://facebook.com/aptekivita",
                "contact:instagram": "https://www.instagram.com/vita_express/",
                "contact:phone": "+7 800 7550003",
                "contact:vk": "https://vk.com/aptekivita",
                "contact:website": "https://vitaexpress.ru/",
                "name": "Вита Экспресс",
                "opening_hours": "Mo-Su 08:00-21:00"
            }
        ]
    },
    "convenience": {
        "count": 6,
        "detail": [
            {
                "ref": "222",
                "name": "Центрторг",
                "shop": "convenience",
                "brand": "Центрторг",
                "source": "survey",
                "alt_name": "Универсам №222",
                "operator": "ООО \"СРТ-Воронеж\"",
                "opening_hours": "Mo-Su 08:00-23:00"
            },
            {
                "name": "Центрторг",
                "shop": "convenience",
                "brand": "Центрторг",
                "alt_name": "Универсам №64",
                "operator": "ОАО \"Центрторг\"",
                "opening_hours": "Mo-Su 08:00-23:00"
            },
            {
                "name": "Кольцовский",
                "shop": "convenience"
            },
            {
                "shop": "convenience"
            },
            {
                "name": "Правильная корзинка",
                "shop": "convenience",
                "opening_hours": "Mo-Su 08:00-20:00"
            },
            {
                "name": "Фея",
                "shop": "convenience"
            }
        ]
    },
    "alcohol": {
        "count": 3,
        "detail": [
            {
                "name": "В десяточку",
                "shop": "alcohol"
            },
            {
                "brand": "Ароматный Мир",
                "name": "Ароматный мир",
                "opening_hours": "Mo-Su 10:00-22:00",
                "phone": "+7 906 6706147",
                "shop": "alcohol",
                "website": "https://amwine.ru/"
            },
            {
                "name": "Пивной Рай",
                "shop": "alcohol",
                "name:ru": "Пивной Рай"
            }
        ]
    },
    "ice_rink;stadium": {
        "count": 1,
        "detail": [
            {
                "name": "Ледовый дворец спорта \"Юбилейный\"",
                "sport": "hockey;skating",
                "leisure": "ice_rink;stadium"
            }
        ]
    },
    "radiotechnics": {
        "count": 2,
        "detail": [
            {
                "name": "Радиодетали",
                "shop": "radiotechnics"
            },
            {
                "name": "Радио-Хит",
                "shop": "radiotechnics",
                "website": "www.radio-hit.ru"
            }
        ]
    },
    "fast_food": {
        "count": 5,
        "detail": [
            {
                "name": "Робин Сдобин",
                "amenity": "fast_food"
            },
            {
                "name": "Робин Сдобин",
                "amenity": "fast_food"
            },
            {
                "name": "Русский Аппетит",
                "amenity": "fast_food"
            },
            {
                "name": "Стардогс",
                "amenity": "fast_food"
            },
            {
                "name": "Робин Сдобин",
                "amenity": "fast_food"
            }
        ]
    },
    "parking": {
        "count": 4,
        "detail": [
            {
                "amenity": "parking"
            },
            {
                "amenity": "parking"
            },
            {
                "amenity": "parking"
            },
            {
                "amenity": "parking",
                "building": "yes",
                "fire_rank": "2",
                "addr:street": "Кольцовская улица",
                "fire_operator": "RU-VOR-1-1",
                "karta01.ru:name": "Потребительский авто-гаражный КООП «Кольцовский»",
                "addr:housenumber": "24Б"
            }
        ]
    },
    "jewelry": {
        "count": 1,
        "detail": [
            {
                "shop": "jewelry"
            }
        ]
    },
    "car_parts": {
        "count": 3,
        "detail": [
            {
                "brand": "Автопаскер",
                "opening_hours": "09:00-20:00",
                "payment:cards": "no",
                "phone": "+7-4732-616309",
                "shop": "car_parts",
                "website": "https://avtopasker.ru/"
            },
            {
                "name": "Скорость звука",
                "shop": "car_parts"
            },
            {
                "name": "Болид-авто",
                "shop": "car_parts",
                "phone": "2593344",
                "opening_hours": "Mo-Sa 10:00-19:00"
            }
        ]
    },
    "outdoor": {
        "count": 1,
        "detail": [
            {
                "name": "Ушба",
                "shop": "outdoor",
                "opening_hours": "Mo-Fr 10:00-20:00; Sa 10:00-18:00; Su 10:00-18:00"
            }
        ]
    },
    "courthouse": {
        "count": 2,
        "detail": [
            {
                "name": "Центральный районный суд города Воронежа",
                "email": "Centr@cdep.vrn.ru",
                "phone": "+7 473 2356745",
                "amenity": "courthouse",
                "website": "http://centralny.vrn.sudrf.ru/",
                "opening_hours": "Mo-Th 09:00-13:00,13:45-18:00;Fr 09:00-13:00,13:45-16:45"
            },
            {
                "name": "Судебный участок №4 мирового судьи Центрального района г.Воронежа",
                "phone": "+7 473 2551512",
                "amenity": "courthouse",
                "opening_hours": "Mo-Th 09:00-13:00, 13:45-18:00;Fr 09:00-13:00, 13:45-16:45"
            }
        ]
    },
    "clinic": {
        "count": 2,
        "detail": [
            {
                "name": "Консультативное отделение ОКОБ",
                "amenity": "clinic",
                "operator": "Областная клиническая офтальмологическая больница",
                "opening_hours": "Mo-Fr 07:30-17:00;Sa 07:30-14:30"
            },
            {
                "name": "Глазной центр доктора Черниковой",
                "amenity": "clinic",
                "name:ru": "Глазной центр доктора Черниковой",
                "website": "http://glaz-vrn.ru/"
            }
        ]
    },
    "sports_centre": {
        "count": 2,
        "detail": [
            {
                "name": "Спорткомплекс ВКЖДТ",
                "leisure": "sports_centre"
            },
            {
                "phone": "+7 473 2520908;+7 473 2522686",
                "sport": "multi",
                "leisure": "sports_centre",
                "building": "yes",
                "fire_rank": "1bis",
                "addr:street": "улица Карла Маркса",
                "fire_operator": "RU-VOR-1-1",
                "building:levels": "2",
                "karta01.ru:name": "Спортивный комплекс \"Спартак\"",
                "addr:housenumber": "71"
            }
        ]
    },
    "playground": {
        "count": 1,
        "detail": [
            {
                "leisure": "playground"
            }
        ]
    },
    "chemist": {
        "count": 1,
        "detail": [
            {
                "name": "7 Дней",
                "shop": "chemist",
                "brand": "Семь дней",
                "phone": "+7 473 2355440",
                "operator": "ООО \"Сигма-опт\"",
                "opening_hours": "Mo-Su 09:00-21:00"
            }
        ]
    },
    "doctors": {
        "count": 1,
        "detail": [
            {
                "name": "Частная практика врача-нарколога Нечепоренко Василия Николаевича",
                "phone": "+7 473 2598448",
                "amenity": "doctors",
                "opening_hours": "Mo-Su 08:30-19:00"
            }
        ]
    },
    "optician": {
        "count": 1,
        "detail": [
            {
                "shop": "optician"
            }
        ]
    },
    "doityourself": {
        "count": 1,
        "detail": [
            {
                "name": "Мир Увлечений",
                "shop": "doityourself"
            }
        ]
    },
    "bakery": {
        "count": 2,
        "detail": [
            {
                "name": "Хлеб",
                "shop": "bakery",
                "opening_hours": "Mo-Su 07:00-19:00"
            },
            {
                "name": "Тобус-2",
                "shop": "bakery",
                "building": "yes",
                "addr:city": "Воронеж",
                "addr:street": "Кольцовская улица",
                "addr:postcode": "394036",
                "addr:housenumber": "15"
            }
        ]
    },
    "bench": {
        "count": 2,
        "detail": [
            {
                "amenity": "bench"
            },
            {
                "amenity": "bench"
            }
        ]
    },
    "beauty": {
        "count": 1,
        "detail": [
            {
                "name": "Hollywood",
                "shop": "beauty"
            }
        ]
    },
    "clothes": {
        "count": 3,
        "detail": [
            {
                "name": "Великан",
                "shop": "clothes",
                "opening_hours": "Mo-Su 10:00-19:00"
            },
            {
                "name": "Родник",
                "shop": "clothes"
            },
            {
                "name": "Золотой песок",
                "shop": "clothes",
                "opening_hours": "Mo-Su 12:00-20:00"
            }
        ]
    },
    "dentist": {
        "count": 1,
        "detail": [
            {
                "name": "Практик",
                "amenity": "dentist"
            }
        ]
    },
    "post_box": {
        "count": 2,
        "detail": [
            {
                "ref": "46",
                "source": "local_knowledge",
                "amenity": "post_box",
                "website": "https://www.pochta.ru/",
                "operator": "ФГУП \"Почта России\"",
                "post_box:type": "wall",
                "source:position": "bing",
                "collection_times": "Mo-Fr 08:00-10:30,16:00-18:30; Sa,Su 08:00-10:30"
            },
            {
                "ref": "45",
                "source": "local_knowledge",
                "amenity": "post_box",
                "website": "https://www.pochta.ru/",
                "operator": "ФГУП \"Почта России\"",
                "drive_through": "yes",
                "post_box:type": "lamp",
                "source:position": "bing",
                "collection_times": "Mo-Fr 08:00-10:30,16:00-18:30; Sa,Su 08:00-10:30"
            }
        ]
    },
    "veterinary": {
        "count": 1,
        "detail": [
            {
                "name": "ЗооВетСервис",
                "phone": "240-50-11",
                "amenity": "veterinary",
                "name:ru": "ЗооВетСервис",
                "opening_hours": "Mo-Su 11:00-20:00"
            }
        ]
    },
    "bicycle_parking": {
        "count": 1,
        "detail": [
            {
                "amenity": "bicycle_parking"
            }
        ]
    },
    "electronics": {
        "count": 1,
        "detail": [
            {
                "name": "campapple",
                "shop": "electronics",
                "phone": "89191809499",
                "name:en": "campapple",
                "name:ru": "campapple",
                "website": "http://campapple.ru",
                "opening_hours": "Mo-Sa 10:00-18:00"
            }
        ]
    },
    "tea": {
        "count": 1,
        "detail": [
            {
                "name": "Чайная-Линия",
                "shop": "tea",
                "website": "https://chaline.ru/"
            }
        ]
    },
    "bicycle": {
        "count": 1,
        "detail": [
            {
                "name": "Велосалон LorakTrade",
                "shop": "bicycle",
                "website": "http://www.loraktrade.ru/"
            }
        ]
    },
    "police": {
        "count": 1,
        "detail": [
            {
                "name": "Отдел криминалистики",
                "amenity": "police"
            }
        ]
    },
    "hairdresser": {
        "count": 2,
        "detail": [
            {
                "name": "Чароит",
                "shop": "hairdresser"
            },
            {
                "name": "King's road",
                "shop": "hairdresser",
                "opening_hours": "Mo-Su 10:00-22:00"
            }
        ]
    },
    "cafe": {
        "count": 1,
        "detail": [
            {
                "name": "Украинская кухня",
                "amenity": "cafe",
                "opening_hours": "Mo-Su 12:00-00:00"
            }
        ]
    },
    "confectionery": {
        "count": 1,
        "detail": [
            {
                "name": "Сказка",
                "shop": "confectionery",
                "opening_hours": "Mo-Fr 09:00-19:00; Sa-Su 09:00-18:00"
            }
        ]
    },
    "greengrocer": {
        "count": 2,
        "detail": [
            {
                "name": "Овощные ряды Разинковой",
                "shop": "greengrocer"
            },
            {
                "name": "Грядка",
                "shop": "greengrocer"
            }
        ]
    },
    "florist": {
        "count": 1,
        "detail": [
            {
                "name": "Botanica",
                "shop": "florist",
                "opening_hours": "Mo-Fr 08:00-20:00, Sa-Su 09:00-20:00"
            }
        ]
    },
    "charging_station": {
        "count": 1,
        "detail": [
            {
                "amenity": "charging_station"
            }
        ]
    },
    "medical_supply": {
        "count": 1,
        "detail": [
            {
                "name": "Кладовая здоровья",
                "shop": "medical_supply"
            }
        ]
    },
    "place_of_worship": {
        "count": 1,
        "detail": [
            {
                "amenity": "place_of_worship",
                "building": "church",
                "historic": "church",
                "religion": "christian",
                "wikidata": "Q4500934",
                "fire_rank": "1bis",
                "wikipedia": "ru:Храм Самуила Пророка (Воронеж)",
                "start_date": "1808",
                "addr:street": "улица Карла Маркса",
                "denomination": "russian_orthodox",
                "fire_operator": "RU-VOR-1-1",
                "ref:temples.ru": "12000",
                "karta01.ru:name": "Церковь Самуила Пророка",
                "addr:housenumber": "114А"
            }
        ]
    },
    "service": {
        "count": 9,
        "detail": [
            {
                "ref": "841",
                "power": "substation",
                "source": "knowledge",
                "building": "service",
                "location": "indoor",
                "frequency": "50",
                "substation": "minor_distribution",
                "building:levels": "1",
                "official_short_type": "ТП"
            },
            {
                "ref": "55",
                "power": "substation",
                "building": "service",
                "frequency": "50",
                "substation": "distribution",
                "building:levels": "1",
                "building:material": "brick",
                "official_short_type": "РП"
            },
            {
                "ref": "327",
                "power": "substation",
                "building": "service",
                "location": "indoor",
                "frequency": "50",
                "substation": "minor_distribution",
                "building:levels": "1",
                "building:material": "brick",
                "official_short_type": "ТП"
            },
            {
                "ref": "226",
                "power": "substation",
                "building": "service",
                "location": "indoor",
                "frequency": "50",
                "substation": "minor_distribution",
                "building:levels": "1",
                "building:material": "brick",
                "official_short_type": "ТП"
            },
            {
                "note": "Без опознавательных знаков",
                "power": "substation",
                "building": "service",
                "location": "indoor",
                "frequency": "50",
                "substation": "minor_distribution",
                "building:levels": "1",
                "building:material": "brick"
            },
            {
                "building": "service",
                "building:levels": "1",
                "building:material": "brick",
                "frequency": "50",
                "official_short_type": "ТП",
                "power": "substation",
                "ref": "370",
                "substation": "minor_distribution",
                "voltage": "6000;400"
            },
            {
                "ref": "558",
                "power": "substation",
                "building": "service",
                "location": "indoor",
                "frequency": "50",
                "substation": "minor_distribution",
                "building:levels": "1",
                "building:material": "brick",
                "official_short_type": "ТП"
            },
            {
                "building": "service",
                "building:levels": "1",
                "building:material": "brick;plaster",
                "description": "Fresh air for underground parking"
            },
            {
                "building": "service",
                "building:levels": "1",
                "building:material": "brick",
                "frequency": "50",
                "location": "indoor",
                "power": "substation",
                "ref": "923",
                "substation": "minor_distribution",
                "voltage": "6000;400"
            }
        ]
    },
    "commercial": {
        "count": 2,
        "detail": [
            {
                "building": "commercial",
                "addr:city": "Воронеж",
                "addr:street": "Средне-Московская улица",
                "addr:housenumber": "62А"
            },
            {
                "building": "commercial",
                "addr:city": "Воронеж",
                "addr:street": "Средне-Московская улица",
                "addr:housenumber": "62А/1"
            }
        ]
    }
}