{
    "residents": 8400,
    "bus_stop": {
        "count": 6,
        "detail": [
            {
                "name": "Машиностроителей",
                "highway": "bus_stop",
                "public_transport": "platform"
            },
            {
                "name": "Машиностроителей",
                "highway": "bus_stop",
                "public_transport": "platform"
            },
            {
                "name": "Пивзавод",
                "highway": "bus_stop",
                "public_transport": "platform"
            },
            {
                "name": "Пивзавод",
                "highway": "bus_stop",
                "public_transport": "platform"
            },
            {
                "name": "Керамическая",
                "highway": "bus_stop",
                "public_transport": "platform"
            },
            {
                "name": "Керамическая",
                "highway": "bus_stop",
                "public_transport": "platform"
            }
        ]
    },
    "pharmacy": {
        "count": 7,
        "detail": [
            {
                "ref": "20",
                "name": "Здоровый город",
                "amenity": "pharmacy",
                "dispensing": "no",
                "opening_hours": "08:00-22:00"
            },
            {
                "name": "Картинки",
                "amenity": "pharmacy"
            },
            {
                "name": "Мелодия здоровья",
                "phone": "+7 473 2272917",
                "amenity": "pharmacy",
                "opening_hours": "08:00-21:00"
            },
            {
                "name": "№29 Клиническая",
                "phone": "+7-473-221-48-45",
                "amenity": "pharmacy",
                "operator": "Здоровый город",
                "opening_hours": "08:00-22:00"
            },
            {
                "amenity": "pharmacy",
                "opening_hours": "08:00-20:00"
            },
            {
                "name": "Экона",
                "amenity": "pharmacy",
                "opening_hours": "Mo-Su 08:00-21:00"
            },
            {
                "name": "Аптека \"Забота\"",
                "email": "info@apteka-zabota.com",
                "phone": "+74732272787",
                "amenity": "pharmacy",
                "name:en": "Pharmacy \"Care\"",
                "website": "http://apteka-zabota.com",
                "operator": "ООО \"Забота\"",
                "addr:postcode": "394027"
            }
        ]
    },
    "convenience": {
        "count": 4,
        "detail": [
            {
                "name": "ЦентрТорг",
                "shop": "convenience",
                "opening_hours": "08:00-23:00"
            },
            {
                "name": "Диона",
                "shop": "convenience"
            },
            {
                "name": "Пятёрочка",
                "opening_hours": "Mo-Su 08:00-22:00",
                "operator": "X5 Retail Group",
                "phone": "+7 967 0687178",
                "shop": "convenience"
            },
            {
                "ref": "43",
                "name": "Пятью Пять",
                "shop": "convenience",
                "operator": "АО \"Пятью Пять\"",
                "opening_hours": "Mo-Su 08:00-23:00"
            }
        ]
    },
    "hospital": {
        "count": 2,
        "detail": [
            {
                "fax": "+7 473 2462494",
                "name": "Детская поликлиника №8",
                "phone": "+7 473 2462494",
                "amenity": "hospital",
                "operator": "Воронежская городская поликлиника №11"
            },
            {
                "amenity": "hospital"
            }
        ]
    },
    "recycling": {
        "count": 2,
        "detail": [
            {
                "amenity": "recycling"
            },
            {
                "amenity": "recycling"
            }
        ]
    },
    "bar": {
        "count": 1,
        "detail": [
            {
                "name": "Пивная №6 Объединенные частные пивоварни",
                "amenity": "bar"
            }
        ]
    },
    "police": {
        "count": 1,
        "detail": [
            {
                "ref": "14",
                "name": "Участковый пункт полиции №14",
                "phone": "+7 473 2760727;+7 960 1135856",
                "amenity": "police",
                "operator": "Отдел полиции №2 УМВД России по городу Воронежу"
            }
        ]
    },
    "post_office": {
        "count": 2,
        "detail": [
            {
                "amenity": "post_office",
                "brand": "Почта России",
                "brand:wikidata": "Q1502763",
                "brand:wikipedia": "ru:Почта России",
                "contact:phone": "+7-473-2760633",
                "contact:website": "https://www.pochta.ru",
                "name": "Воронеж 394019",
                "opening_hours": "Mo-Fr 08:00-20:00; Sa-Su 09:00-20:00",
                "operator": "АО «Почта России»",
                "ref": "394019"
            },
            {
                "amenity": "post_office",
                "brand": "Почта России",
                "brand:wikidata": "Q1502763",
                "brand:wikipedia": "ru:Почта России",
                "contact:phone": "+7-473-2762654",
                "contact:website": "https://www.pochta.ru",
                "name": "Воронеж 394027",
                "opening_hours": "Mo-Fr 08:00-13:00,14:00-20:00; Sa 09:00-13:00,14:00-18:00",
                "operator": "АО «Почта России»",
                "ref": "394027"
            }
        ]
    },
    "doityourself": {
        "count": 1,
        "detail": [
            {
                "shop": "doityourself"
            }
        ]
    },
    "alcohol": {
        "count": 2,
        "detail": [
            {
                "shop": "alcohol"
            },
            {
                "name": "Пиво",
                "shop": "alcohol",
                "opening_hours": "Mo-Su 10:00-22:00"
            }
        ]
    },
    "chemist": {
        "count": 3,
        "detail": [
            {
                "name": "7 Дней",
                "shop": "chemist",
                "brand": "Семь дней",
                "phone": "+7 473 2272869",
                "operator": "ООО \"Сигма-опт\"",
                "opening_hours": "Mo-Su 10:00-20:00"
            },
            {
                "name": "Идея",
                "shop": "chemist"
            },
            {
                "name": "Идея",
                "shop": "chemist",
                "description": "Бытовая химия и косметика"
            }
        ]
    },
    "mobile_phone": {
        "count": 3,
        "detail": [
            {
                "name": "Связной",
                "shop": "mobile_phone",
                "website": "http://www.svyaznoy.ru",
                "opening_hours": "08:00-20:00"
            },
            {
                "brand": "Теле2",
                "brand:en": "Tele2",
                "brand:wikidata": "Q309865",
                "brand:wikipedia": "en:Tele2",
                "name": "Теле2",
                "name:en": "Tele2",
                "shop": "mobile_phone"
            },
            {
                "brand": "МТС",
                "brand:en": "MTS",
                "brand:wikidata": "Q1368919",
                "brand:wikipedia": "en:MTS (network provider)",
                "name": "МТС",
                "name:en": "MTS",
                "shop": "mobile_phone"
            }
        ]
    },
    "library": {
        "count": 1,
        "detail": [
            {
                "ref": "38",
                "name": "Детская библиотека № 38",
                "phone": "+7 473 2464571",
                "amenity": "library",
                "operator": "Централизованная библиотечная система",
                "opening_hours": "Mo-Th 10:00-19:00;Su 10:00-19:00"
            }
        ]
    },
    "restaurant": {
        "count": 1,
        "detail": [
            {
                "name": "Йохо Суши",
                "amenity": "restaurant",
                "cuisine": "sushi",
                "website": "https://vk.com/club60104767",
                "opening_hours": "11:00-23:00"
            }
        ]
    },
    "waste_disposal": {
        "count": 5,
        "detail": [
            {
                "amenity": "waste_disposal"
            },
            {
                "amenity": "waste_disposal"
            },
            {
                "amenity": "waste_disposal"
            },
            {
                "amenity": "waste_disposal"
            },
            {
                "amenity": "waste_disposal"
            }
        ]
    },
    "school": {
        "count": 2,
        "detail": [
            {
                "name": "СДЮСШОР № 2",
                "email": "n-shevelev@rambler.ru",
                "phone": "+7 473 2799573;+7 473 2214547;+7 473 2799604",
                "amenity": "school",
                "website": "http://sdusshor2.allvrn.ru/",
                "full_name": "Специализированная детско-юношеская спортивная школа олимпийского резерва №2",
                "short_name": "МБОУДОД СДЮСШОР №2",
                "start_date": "1983"
            },
            {
                "building": "school",
                "addr:city": "Воронеж",
                "addr:street": "улица 9 Января",
                "addr:postcode": "394019",
                "building:levels": "4",
                "addr:housenumber": "134"
            }
        ]
    },
    "fast_food": {
        "count": 1,
        "detail": [
            {
                "name": "Робин Сдобин",
                "amenity": "fast_food"
            }
        ]
    },
    "playground": {
        "count": 3,
        "detail": [
            {
                "leisure": "playground"
            },
            {
                "leisure": "playground"
            },
            {
                "leisure": "playground"
            }
        ]
    },
    "atm": {
        "count": 1,
        "detail": [
            {
                "ref": "130028",
                "name": "Сбербанк",
                "phone": "+7-800-5555550",
                "source": "local_knowledge",
                "amenity": "atm",
                "website": "http://sbrf.ru/",
                "operator": "ПАО \"Сбербанк России\"",
                "opening_hours": "24/7",
                "barcode_scanner": "yes",
                "source:position": "bing"
            }
        ]
    },
    "beauty": {
        "count": 1,
        "detail": [
            {
                "name": "Оксана ",
                "shop": "beauty"
            }
        ]
    },
    "supermarket": {
        "count": 2,
        "detail": [
            {
                "name": "магазин Персик ",
                "shop": "supermarket"
            },
            {
                "name": "Центрторг",
                "shop": "supermarket"
            }
        ]
    },
    "hardware": {
        "count": 1,
        "detail": [
            {
                "name": "Клён",
                "shop": "hardware"
            }
        ]
    },
    "car_parts": {
        "count": 1,
        "detail": [
            {
                "shop": "car_parts"
            }
        ]
    },
    "electronics": {
        "count": 1,
        "detail": [
            {
                "name": "Сток",
                "shop": "electronics"
            }
        ]
    },
    "post_box": {
        "count": 1,
        "detail": [
            {
                "ref": "113",
                "fixme": "Уточнить время выемки писем",
                "source": "local_knowledge",
                "amenity": "post_box",
                "website": "https://www.pochta.ru/",
                "operator": "ФГУП \"Почта России\"",
                "post_box:type": "wall",
                "source:position": "bing"
            }
        ]
    },
    "bank": {
        "count": 1,
        "detail": [
            {
                "addr:postcode": "394019",
                "amenity": "bank",
                "name": "ПАО \"Почта Банк\"",
                "name:en": "PJSC \"Post Bank\"",
                "opening_hours": "Tu-Sa 09:00-19:00; Mo 09:00-18:00",
                "website": "https://www.pochtabank.ru/"
            }
        ]
    },
    "commercial": {
        "count": 1,
        "detail": [
            {
                "building": "commercial",
                "addr:street": "улица Машиностроителей",
                "addr:housenumber": "35А"
            }
        ]
    },
    "service": {
        "count": 7,
        "detail": [
            {
                "note": "Возможно ЦТП, маркировка отсутсвует",
                "building": "service",
                "building:levels": "1"
            },
            {
                "ref": "1612",
                "power": "substation",
                "building": "service",
                "location": "indoor",
                "frequency": "50",
                "substation": "minor_distribution",
                "building:levels": "1",
                "official_short_type": "ТП"
            },
            {
                "ref": "1718",
                "power": "substation",
                "building": "service",
                "location": "indoor",
                "frequency": "50",
                "substation": "minor_distribution",
                "building:levels": "1",
                "official_short_type": "ТП"
            },
            {
                "building": "service",
                "building:levels": "1"
            },
            {
                "ref": "197",
                "power": "substation",
                "building": "service",
                "location": "indoor",
                "frequency": "50",
                "substation": "minor_distribution",
                "building:levels": "1",
                "official_short_type": "ТП"
            },
            {
                "ref": "371",
                "power": "substation",
                "building": "service",
                "location": "indoor",
                "frequency": "50",
                "substation": "minor_distribution",
                "building:levels": "1",
                "official_short_type": "ТП"
            },
            {
                "ref": "613",
                "power": "substation",
                "building": "service",
                "location": "indoor",
                "frequency": "50",
                "substation": "minor_distribution",
                "building:levels": "1",
                "building:material": "brick",
                "official_short_type": "ТП"
            }
        ]
    }
}