{
    "residents": 7590,
    "bus_stop": {
        "count": 8,
        "detail": [
            {
                "bus": "yes",
                "name": "Птичий рынок",
                "bench": "yes",
                "source": "local_knowledge",
                "covered": "yes",
                "highway": "bus_stop",
                "share_taxi": "yes",
                "source:position": "bing",
                "public_transport": "platform"
            },
            {
                "bus": "yes",
                "name": "Институт искусств",
                "bench": "yes",
                "source": "local_knowledge",
                "covered": "yes",
                "highway": "bus_stop",
                "share_taxi": "yes",
                "source:position": "bing",
                "public_transport": "platform"
            },
            {
                "bus": "yes",
                "name": "Институт искусств",
                "source": "local_knowledge",
                "share_taxi": "yes",
                "source:position": "bing",
                "public_transport": "stop_position"
            },
            {
                "bus": "yes",
                "name": "Птичий рынок",
                "source": "local_knowledge",
                "highway": "bus_stop",
                "share_taxi": "yes",
                "source:position": "bing",
                "public_transport": "platform"
            },
            {
                "bus": "yes",
                "name": "Птичий рынок",
                "share_taxi": "yes",
                "source:position": "bing",
                "public_transport": "stop_position"
            },
            {
                "bus": "yes",
                "name": "Птичий рынок",
                "share_taxi": "yes",
                "source:position": "bing",
                "public_transport": "stop_position"
            },
            {
                "bus": "yes",
                "fixme": "Уточнить название",
                "source": "local_knowledge",
                "highway": "bus_stop",
                "source:position": "bing",
                "public_transport": "platform"
            },
            {
                "bus": "yes",
                "fixme": "Уточнить название",
                "source": "local_knowledge",
                "source:position": "bing",
                "public_transport": "stop_position"
            }
        ]
    },
    "parking": {
        "count": 1,
        "detail": [
            {
                "amenity": "parking"
            }
        ]
    },
    "pharmacy": {
        "count": 4,
        "detail": [
            {
                "ref": "23",
                "name": "Здоровый город",
                "amenity": "pharmacy",
                "dispensing": "no",
                "opening_hours": "08:00-22:00"
            },
            {
                "ref": "25",
                "name": "Здоровый город",
                "amenity": "pharmacy",
                "dispensing": "no",
                "opening_hours": "08:00-22:00"
            },
            {
                "name": "Ф+",
                "phone": "+7 473 2801161",
                "amenity": "pharmacy",
                "wheelchair": "limited",
                "opening_hours": "08:00-21:00",
                "wheelchair:description:ru": "Кнопка у входа"
            },
            {
                "amenity": "pharmacy",
                "contact:facebook": "http://facebook.com/aptekivita",
                "contact:instagram": "https://www.instagram.com/vita_express/",
                "contact:phone": "+7 800 7550003",
                "contact:vk": "https://vk.com/aptekivita",
                "contact:website": "https://vitaexpress.ru/",
                "name": "Вита Экспресс",
                "opening_hours": "Mo-Su 08:00-21:00"
            }
        ]
    },
    "bank": {
        "count": 1,
        "detail": [
            {
                "amenity": "bank",
                "atm": "yes",
                "branch": "Центрально-Черноземный банк",
                "brand:wikidata": "Q205012",
                "brand:wikipedia": "ru:Сбербанк России",
                "contact:facebook": "https://www.facebook.com/sberbank",
                "contact:instagram": "https://www.instagram.com/sberbank",
                "contact:ok": "https://ok.ru/sberbank",
                "contact:phone": "+7 800 5555550",
                "contact:twitter": "https://twitter.com/sberbank",
                "contact:vk": "https://vk.com/sberbank",
                "contact:website": "https://www.sberbank.ru",
                "contact:youtube": "https://www.youtube.com/sberbank",
                "name": "Сбербанк",
                "name:en": "Sberbank",
                "name:ru": "Сбербанк",
                "opening_hours": "Mo-Fr 08:30-18:30; Sa 08:30-14:00",
                "operator": "ПАО Сбербанк",
                "operator:wikidata": "Q205012",
                "operator:wikipedia": "ru:Сбербанк России",
                "phone": "+7-473-2662741",
                "ref": "9013/0140",
                "wheelchair": "yes"
            }
        ]
    },
    "convenience": {
        "count": 7,
        "detail": [
            {
                "shop": "convenience"
            },
            {
                "name": "Центрторг",
                "shop": "convenience"
            },
            {
                "name": "Пятёрочка",
                "shop": "convenience",
                "phone": "+7-800-5555505",
                "source": "local_knowledge;knowledge",
                "website": "https://5ka.ru/",
                "opening_hours": "Mo-Su 08:00-22:00",
                "source:position": "bing"
            },
            {
                "addr:street": "улица 60-й Армии",
                "name": "Продуктовый рынок",
                "opening_hours": "Mo-Su 08:00-19:00",
                "shop": "convenience"
            },
            {
                "name": "Продукты",
                "opening_hours": "24/7",
                "shop": "convenience"
            },
            {
                "name": "Магнит у дома",
                "shop": "convenience",
                "email": "info@magnit.ru",
                "phone": "+7-800-2009002",
                "source": "local_knowledge;knowledge",
                "website": "http://magnit-info.ru/",
                "operator": "ЗАО «Тандер»",
                "opening_hours": "Mo-Su 08:00-22:00"
            },
            {
                "brand": "Магнит",
                "brand:en": "Magnit",
                "brand:wikidata": "Q940518",
                "brand:wikipedia": "ru:Магнит (сеть магазинов)",
                "name": "Магнит",
                "name:en": "Magnit",
                "shop": "convenience"
            }
        ]
    },
    "cafe": {
        "count": 4,
        "detail": [
            {
                "amenity": "cafe"
            },
            {
                "name": "Афина",
                "amenity": "cafe"
            },
            {
                "name": "Совинформбюро",
                "email": "voronezh@sovinfo.org",
                "phone": "+7-906-673-93-42",
                "amenity": "cafe",
                "cuisine": "time-cafe",
                "smoking": "no",
                "website": "https://vk.com/sovinformbyuro_vrn",
                "wheelchair": "yes",
                "opening_hours": "Mo-Tu 14:00-24:00; Fr-Sa 14:00-02:00",
                "internet_access": "wlan",
                "internet_access:fee": "no"
            },
            {
                "name": "Хинкальная Арго",
                "wifi": "free",
                "amenity": "cafe",
                "cuisine": "georgian",
                "building": "yes",
                "addr:street": "улица Генерала Лизюкова",
                "building:levels": "1",
                "internet_access": "wlan",
                "addr:housenumber": "61Д"
            }
        ]
    },
    "car_wash": {
        "count": 1,
        "detail": [
            {
                "amenity": "car_wash"
            }
        ]
    },
    "clothes": {
        "count": 1,
        "detail": [
            {
                "name": "Котёнок",
                "shop": "clothes",
                "opening_hours": "Mo-Fr 10:00-20:00; Sa-Su 10:00-19:00"
            }
        ]
    },
    "shoes": {
        "count": 3,
        "detail": [
            {
                "name": "Котёнок",
                "shop": "shoes",
                "name:ru": "Котёнок"
            },
            {
                "name": "Детский обувной",
                "shop": "shoes"
            },
            {
                "name": "Маленькая страна",
                "shop": "shoes"
            }
        ]
    },
    "toys": {
        "count": 1,
        "detail": [
            {
                "shop": "toys"
            }
        ]
    },
    "car": {
        "count": 1,
        "detail": [
            {
                "shop": "car"
            }
        ]
    },
    "bicycle": {
        "count": 2,
        "detail": [
            {
                "name": "Велокросс",
                "shop": "bicycle",
                "email": "velokross36@yandex.ru",
                "phone": "+7-473-2417163",
                "source": "knowledge",
                "website": "http://velocross36.ru/",
                "opening_hours": "Mo-Sa 10:00-19:00; Su 10:00-17:00",
                "source:position": "bing"
            },
            {
                "shop": "bicycle"
            }
        ]
    },
    "doctors": {
        "count": 1,
        "detail": [
            {
                "name": "Детская поликлиника №11, корпус №2",
                "phone": "+7 473 2732320;+7 473 2734145",
                "amenity": "doctors"
            }
        ]
    },
    "waste_disposal": {
        "count": 7,
        "detail": [
            {
                "amenity": "waste_disposal",
                "source:position": "bing"
            },
            {
                "source": "local_knowledge",
                "amenity": "waste_disposal",
                "operator": "МКП \"ВЖКК\"",
                "source:position": "bing"
            },
            {
                "source": "local_knowledge",
                "amenity": "waste_disposal",
                "source:position": "bing"
            },
            {
                "source": "local_knowledge",
                "amenity": "waste_disposal",
                "source:position": "bing"
            },
            {
                "source": "local_knowledge",
                "amenity": "waste_disposal",
                "source:position": "bing"
            },
            {
                "amenity": "waste_disposal"
            },
            {
                "amenity": "waste_disposal"
            }
        ]
    },
    "car_repair": {
        "count": 2,
        "detail": [
            {
                "shop": "car_repair",
                "opening_hours": "09:00-19:00"
            },
            {
                "name": "5 Колесо",
                "shop": "car_repair",
                "service": "tyres"
            }
        ]
    },
    "vending_machine": {
        "count": 4,
        "detail": [
            {
                "ref": "50",
                "name": "Вода артезианская",
                "brand": "Источник здоровья",
                "source": "local_knowledge",
                "amenity": "vending_machine",
                "vending": "water",
                "description": "Цена 1 литра: 4 рубля",
                "currency:RUB": "yes",
                "payment:coins": "yes",
                "payment:notes": "yes",
                "currency:others": "no",
                "source:position": "bing"
            },
            {
                "name": "Артезианский источник",
                "source": "local_knowledge",
                "amenity": "vending_machine",
                "vending": "water",
                "source:position": "bing"
            },
            {
                "name": "Артезианская вода",
                "source": "local_knowledge",
                "amenity": "vending_machine",
                "vending": "water",
                "operator": "ИП Свидницкий А.В.",
                "description": "Цена 1 литра: 4 рубля",
                "currency:RUB": "yes",
                "payment:coins": "yes",
                "payment:notes": "yes",
                "currency:others": "no",
                "source:position": "bing"
            },
            {
                "amenity": "vending_machine",
                "brand": "Ozon Box",
                "brand:wikidata": "Q2365235",
                "brand:wikipedia": "ru:Ozon.ru",
                "name": "Ozon Box",
                "vending": "parcel_pickup"
            }
        ]
    },
    "alcohol": {
        "count": 4,
        "detail": [
            {
                "name": "Живое пиво",
                "shop": "alcohol",
                "drive_through": "no"
            },
            {
                "name": "Чарка",
                "shop": "alcohol",
                "website": "http://charkamarket.ru"
            },
            {
                "name": "Красное&Белое",
                "shop": "alcohol"
            },
            {
                "name": "Beerлога",
                "shop": "alcohol"
            }
        ]
    },
    "tobacco": {
        "count": 3,
        "detail": [
            {
                "name": "Табакерка",
                "shop": "tobacco",
                "building": "yes",
                "source:position": "bing"
            },
            {
                "name": "Табакерка",
                "shop": "tobacco"
            },
            {
                "name": "Табакерка",
                "shop": "tobacco"
            }
        ]
    },
    "frame": {
        "count": 1,
        "detail": [
            {
                "description": "Багетная мастерская",
                "level": "-1",
                "name": "Арт-Мастер",
                "opening_hours": "Mo-Fr 10:00-19:00; Sa 10:00-15:00",
                "phone": "+7 473 2695027",
                "shop": "frame",
                "website": "http://art-mastervrn.ru/"
            }
        ]
    },
    "post_box": {
        "count": 1,
        "detail": [
            {
                "ref": "5",
                "source": "local_knowledge",
                "amenity": "post_box",
                "website": "https://www.pochta.ru/",
                "operator": "ФГУП \"Почта России\"",
                "post_box:type": "lamp",
                "source:position": "bing",
                "collection_times": "Mo-Fr 08:00-10:30,16:00-18:30; Sa,Su 08:00-10:30"
            }
        ]
    },
    "fishing": {
        "count": 2,
        "detail": [
            {
                "name": "Рыбак",
                "shop": "fishing"
            },
            {
                "name": "Щукарь",
                "shop": "fishing"
            }
        ]
    },
    "veterinary": {
        "count": 1,
        "detail": [
            {
                "name": "Амадин",
                "source": "local_knowledge",
                "amenity": "veterinary",
                "name:en": "Amadin",
                "name:ru": "Амадин",
                "description": "Ветеринарный центр",
                "opening_hours": "Mo-Fr 09:00-20:00; Sa,Su 09:00-18:00",
                "source:position": "bing"
            }
        ]
    },
    "furniture": {
        "count": 1,
        "detail": [
            {
                "shop": "furniture"
            }
        ]
    },
    "beauty": {
        "count": 1,
        "detail": [
            {
                "shop": "beauty"
            }
        ]
    },
    "optician": {
        "count": 1,
        "detail": [
            {
                "shop": "optician"
            }
        ]
    },
    "hairdresser": {
        "count": 2,
        "detail": [
            {
                "name": "Территория",
                "shop": "hairdresser",
                "opening_hours": "09:00-20:00"
            },
            {
                "name": "Визит",
                "shop": "hairdresser",
                "phone": "+7-473-2733399",
                "source": "local_knowledge",
                "opening_hours": "Mo-Su 09:00-20:00",
                "source:position": "bing"
            }
        ]
    },
    "dentist": {
        "count": 1,
        "detail": [
            {
                "name": "Дамиант",
                "amenity": "dentist"
            }
        ]
    },
    "massage": {
        "count": 1,
        "detail": [
            {
                "name": "Massaggio",
                "shop": "massage",
                "opening_hours": "Mo-Fr 09:00-21:00; Sa-Su 10:00-19:00"
            }
        ]
    },
    "bed": {
        "count": 1,
        "detail": [
            {
                "name": "Домашний текстиль",
                "shop": "bed"
            }
        ]
    },
    "playground": {
        "count": 1,
        "detail": [
            {
                "leisure": "playground"
            }
        ]
    },
    "florist": {
        "count": 1,
        "detail": [
            {
                "name": "Цветы",
                "shop": "florist",
                "name:ru": "Цветы"
            }
        ]
    },
    "toilets": {
        "count": 1,
        "detail": [
            {
                "amenity": "toilets"
            }
        ]
    },
    "waste_basket": {
        "count": 1,
        "detail": [
            {
                "amenity": "waste_basket"
            }
        ]
    },
    "computer": {
        "count": 1,
        "detail": [
            {
                "name": "РЕТ",
                "shop": "computer",
                "source": "local_knowledge",
                "source:position": "bing"
            }
        ]
    },
    "supermarket": {
        "count": 2,
        "detail": [
            {
                "name": "Магнит у дома",
                "shop": "supermarket",
                "level": "1",
                "opening_hours": "09:00-22:00"
            },
            {
                "addr:housenumber": "4Д",
                "addr:street": "улица 60-й Армии",
                "name": "Пятёрочка",
                "opening_hours": "Mo-Su 08:00-22:00",
                "shop": "supermarket"
            }
        ]
    },
    "funeral_directors": {
        "count": 1,
        "detail": [
            {
                "name": "Памятники",
                "shop": "funeral_directors"
            }
        ]
    },
    "fast_food": {
        "count": 1,
        "detail": [
            {
                "name": "Шаверма house",
                "amenity": "fast_food",
                "cuisine": "kebab"
            }
        ]
    },
    "cosmetics": {
        "count": 1,
        "detail": [
            {
                "name": "Магнит косметик",
                "shop": "cosmetics",
                "level": "2",
                "opening_hours": "09:00-21:00"
            }
        ]
    },
    "bakery": {
        "count": 1,
        "detail": [
            {
                "name": "Печка",
                "shop": "bakery"
            }
        ]
    },
    "appliances": {
        "count": 1,
        "detail": [
            {
                "name": "ТехноЭконом",
                "shop": "appliances"
            }
        ]
    },
    "school": {
        "count": 1,
        "detail": [
            {
                "name": "Школа № 87",
                "amenity": "school"
            }
        ]
    },
    "outpost": {
        "count": 1,
        "detail": [
            {
                "brand": "Wildberries",
                "brand:wikidata": "Q24933714",
                "brand:wikipedia": "ru:Wildberries",
                "name": "Wildberries",
                "shop": "outpost"
            }
        ]
    },
    "post_office": {
        "count": 1,
        "detail": [
            {
                "amenity": "post_office",
                "brand": "СДЭК",
                "brand:wikidata": "Q28665980",
                "brand:wikipedia": "ru:СДЭК",
                "name": "СДЭК"
            }
        ]
    },
    "kindergarten": {
        "count": 1,
        "detail": [
            {
                "addr:housenumber": "13",
                "addr:street": "улица 60-й Армии",
                "building": "kindergarten",
                "building:levels": "3",
                "start_date": "1979"
            }
        ]
    },
    "clinic": {
        "count": 1,
        "detail": [
            {
                "addr:housenumber": "4",
                "addr:street": "улица 60-й Армии",
                "amenity": "clinic",
                "building": "yes",
                "building:levels": "1",
                "name": "Детская поликлиника №11, корпус №1",
                "opening_hours": "Mo-Fr 08:00-20:00;Sa-Su 09:00-15:00",
                "phone": "+7 473 2662679;+7 473 2666741",
                "source:position": "bing"
            }
        ]
    },
    "service": {
        "count": 13,
        "detail": [
            {
                "addr:housenumber": "3Т",
                "addr:street": "улица 60-й Армии",
                "building": "service",
                "building:levels": "1",
                "building:material": "concrete",
                "frequency": "50",
                "location": "indoor",
                "official_short_type": "ТП",
                "operator": "МУП \"Воронежская горэлектросеть\"",
                "power": "substation",
                "ref": "721",
                "source": "local_knowledge;knowledge",
                "source:position": "bing",
                "start_date": "1974",
                "substation": "minor_distribution",
                "voltage": "10000;400"
            },
            {
                "addr:housenumber": "5Т",
                "addr:street": "улица 60-й Армии",
                "building": "service",
                "building:levels": "1",
                "building:material": "brick",
                "description": "Центральный тепловой пункт",
                "location": "indoor",
                "official_short_type": "ЦТП",
                "operator": "ООО \"Воронежская ТСК\"",
                "phone": "+7-473-2555861",
                "pipeline": "substation",
                "ref": "41",
                "source": "local_knowledge;knowledge",
                "source:position": "bing",
                "substance": "heat",
                "substation": "distribution"
            },
            {
                "ref": "37",
                "power": "substation",
                "rating": "800 kVA",
                "source": "local_knowledge;knowledge",
                "voltage": "10000;400",
                "building": "service",
                "location": "indoor",
                "operator": "МУП \"Воронежская горэлектросеть\"",
                "frequency": "50",
                "roof:shape": "flat",
                "start_date": "1977",
                "substation": "minor_distribution",
                "addr:street": "улица Генерала Лизюкова",
                "roof:colour": "gray",
                "roof:material": "tar_paper",
                "building:levels": "1",
                "source:position": "bing",
                "addr:housenumber": "63Р",
                "building:material": "concrete",
                "official_short_type": "РП"
            },
            {
                "ref": "796",
                "power": "substation",
                "rating": "1260 kVA",
                "source": "local_knowledge;knowledge",
                "voltage": "10000;400",
                "building": "service",
                "location": "indoor",
                "operator": "МУП \"Воронежская горэлектросеть\"",
                "frequency": "50",
                "roof:shape": "flat",
                "start_date": "1977",
                "substation": "minor_distribution",
                "addr:street": "улица Хользунова",
                "roof:colour": "gray",
                "roof:material": "tar_paper",
                "building:levels": "1",
                "source:position": "bing",
                "addr:housenumber": "82Т",
                "building:material": "concrete",
                "official_short_type": "ТП"
            },
            {
                "ref": "1346",
                "power": "substation",
                "rating": "1260 kVA",
                "source": "local_knowledge;knowledge",
                "voltage": "10000;400",
                "building": "service",
                "location": "indoor",
                "operator": "МУП \"Воронежская горэлектросеть\"",
                "frequency": "50",
                "substation": "minor_distribution",
                "building:levels": "1",
                "source:position": "bing",
                "building:material": "brick",
                "official_short_type": "ТП"
            },
            {
                "ref": "43",
                "source": "local_knowledge",
                "building": "service",
                "location": "indoor",
                "operator": "ООО \"РВК-Воронеж\"",
                "pipeline": "substation",
                "substance": "water",
                "substation": "compression",
                "description": "Повысительная насосная станция",
                "building:levels": "1",
                "source:position": "bing",
                "building:material": "brick",
                "official_short_type": "ПНС"
            },
            {
                "ref": "55",
                "phone": "+7 473 2555861",
                "source": "local_knowledge;knowledge",
                "building": "service",
                "location": "indoor",
                "operator": "ООО \"Воронежская ТСК\"",
                "pipeline": "substation",
                "substance": "heat",
                "substation": "distribution",
                "addr:street": "улица Генерала Лизюкова",
                "description": "Центральный тепловой пункт",
                "building:levels": "1",
                "source:position": "bing",
                "addr:housenumber": "55Т",
                "building:material": "brick",
                "official_short_type": "ЦТП"
            },
            {
                "ref": "57",
                "layer": "-1",
                "phone": "+7-473-2555861",
                "source": "local_knowledge;knowledge",
                "building": "service",
                "location": "underground",
                "operator": "ООО \"Воронежская ТСК\"",
                "pipeline": "substation",
                "substance": "heat",
                "substation": "distribution",
                "addr:street": "улица Генерала Лизюкова",
                "description": "Центральный тепловой пункт",
                "source:position": "bing",
                "addr:housenumber": "57Т",
                "official_short_type": "ЦТП"
            },
            {
                "addr:housenumber": "15Т",
                "addr:street": "улица 60-й Армии",
                "building": "service",
                "building:levels": "1",
                "building:material": "concrete",
                "frequency": "50",
                "location": "indoor",
                "official_short_type": "ТП",
                "operator": "МУП \"Воронежская горэлектросеть\"",
                "power": "substation",
                "rating": "1030 kVA",
                "ref": "720",
                "source": "local_knowledge;knowledge",
                "source:position": "bing",
                "start_date": "1975",
                "substation": "minor_distribution",
                "voltage": "10000;400"
            },
            {
                "ref": "722",
                "power": "substation",
                "rating": "1260 kVA",
                "source": "local_knowledge;knowledge",
                "voltage": "10000;400",
                "building": "service",
                "location": "indoor",
                "operator": "МУП \"Воронежская горэлектросеть\"",
                "frequency": "50",
                "start_date": "1977",
                "substation": "minor_distribution",
                "addr:street": "улица Хользунова",
                "building:levels": "1",
                "source:position": "bing",
                "addr:housenumber": "72Т",
                "building:material": "concrete",
                "official_short_type": "ТП"
            },
            {
                "ref": "943",
                "power": "substation",
                "rating": "800 kVA",
                "source": "local_knowledge;knowledge",
                "voltage": "10000;400",
                "building": "service",
                "location": "indoor",
                "operator": "МУП \"Воронежская горэлектросеть\"",
                "frequency": "50",
                "start_date": "1982",
                "substation": "minor_distribution",
                "addr:street": "улица Генерала Лизюкова",
                "building:levels": "1",
                "source:position": "bing",
                "addr:housenumber": "61Т",
                "building:material": "brick",
                "official_short_type": "ТП"
            },
            {
                "addr:housenumber": "4П",
                "addr:street": "улица 60-й Армии",
                "building": "service",
                "building:levels": "1",
                "building:material": "brick",
                "frequency": "50",
                "location": "indoor",
                "official_short_type": "ТП",
                "operator": "МУП \"Воронежская горэлектросеть\"",
                "power": "substation",
                "rating": "1260 kVA",
                "ref": "944",
                "source": "local_knowledge;knowledge",
                "source:position": "bing",
                "start_date": "1982",
                "substation": "minor_distribution",
                "voltage": "10000;400"
            },
            {
                "ref": "945",
                "power": "substation",
                "source": "local_knowledge;knowledge",
                "voltage": "10000;400",
                "building": "service",
                "location": "indoor",
                "operator": "МУП \"Воронежская горэлектросеть\"",
                "frequency": "50",
                "start_date": "1982",
                "substation": "minor_distribution",
                "addr:street": "улица Хользунова",
                "building:levels": "1",
                "source:position": "bing",
                "addr:housenumber": "78Т",
                "building:material": "brick",
                "official_short_type": "ТП"
            }
        ]
    },
    "commercial": {
        "count": 1,
        "detail": [
            {
                "building": "commercial"
            }
        ]
    }
}