{
    "residents": 363,
    "convenience": {
        "count": 2,
        "detail": [
            {
                "name": "Перекресток",
                "shop": "convenience",
                "addr:street": "улица Ленина",
                "addr:housenumber": "9"
            },
            {
                "name": "Продукты",
                "shop": "convenience",
                "building": "yes",
                "operator": "Пятерочка"
            }
        ]
    },
    "clinic": {
        "count": 2,
        "detail": [
            {
                "name": "Городская поликлиника",
                "amenity": "clinic"
            },
            {
                "name": "Филиал центра гигиены и эпидемологии",
                "amenity": "clinic",
                "building": "yes",
                "addr:street": "улица Капитана Филиппова",
                "addr:housenumber": "52"
            }
        ]
    },
    "cafe": {
        "count": 1,
        "detail": [
            {
                "amenity": "cafe"
            }
        ]
    },
    "theatre": {
        "count": 1,
        "detail": [
            {
                "name": "Дом молодежи",
                "amenity": "theatre"
            }
        ]
    },
    "mobile_phone": {
        "count": 1,
        "detail": [
            {
                "name": "Билайн",
                "shop": "mobile_phone"
            }
        ]
    },
    "courthouse": {
        "count": 1,
        "detail": [
            {
                "name": "Мировые судьи",
                "amenity": "courthouse",
                "building": "yes",
                "addr:street": "улица Карла Маркса",
                "addr:housenumber": "117"
            }
        ]
    },
    "yes": {
        "count": 1,
        "detail": [
            {
                "name": "Азбука вкуса",
                "shop": "yes",
                "building": "yes",
                "addr:street": "улица Карла Маркса",
                "addr:housenumber": "114"
            }
        ]
    },
    "supermarket": {
        "count": 1,
        "detail": [
            {
                "name": "Перекресток",
                "shop": "supermarket",
                "building": "yes",
                "addr:street": "улица Ленина",
                "addr:housenumber": "9"
            }
        ]
    },
    "bus_station": {
        "count": 1,
        "detail": [
            {
                "bus": "yes",
                "amenity": "bus_station",
                "building": "yes",
                "public_transport": "station"
            }
        ]
    }
}