{
    "residents": 6365,
    "bus_stop": {
        "count": 5,
        "detail": [
            {
                "highway": "bus_stop"
            },
            {
                "highway": "bus_stop"
            },
            {
                "name": "33-й микрорайон",
                "highway": "bus_stop"
            },
            {
                "highway": "bus_stop",
                "name": "Служебная"
            },
            {
                "highway": "bus_stop",
                "name": "Служебная"
            }
        ]
    },
    "alcohol": {
        "count": 2,
        "detail": [
            {
                "addr:city": "Ангарск",
                "addr:country": "RU",
                "addr:housenumber": "7",
                "addr:place": "33-й микрорайон",
                "addr:region": "Иркутская область",
                "amenity": "winery",
                "is_in": "Иркутская область",
                "name": "Алкомаркет",
                "shop": "alcohol"
            },
            {
                "name": "Бристоль",
                "shop": "alcohol"
            }
        ]
    },
    "parking": {
        "count": 2,
        "detail": [
            {
                "addr:city": "Ангарск",
                "addr:country": "RU",
                "addr:place": "33-й микрорайон",
                "addr:region": "Иркутская область",
                "amenity": "parking",
                "is_in": "Иркутская область",
                "name": "ГК Упрямый"
            },
            {
                "addr:city": "Ангарск",
                "addr:country": "RU",
                "addr:place": "182-й квартал",
                "addr:region": "Иркутская область",
                "amenity": "parking",
                "is_in": "Иркутская область",
                "name": "ГК"
            }
        ]
    },
    "public_utilites": {
        "count": 1,
        "detail": [
            {
                "addr:city": "Ангарск",
                "addr:country": "RU",
                "addr:housenumber": "17",
                "addr:place": "179-й квартал",
                "addr:region": "Иркутская область",
                "amenity": "public_utilites",
                "is_in": "Иркутская область",
                "name": "ЖЭТ-2, ДОСТ"
            }
        ]
    },
    "atm": {
        "count": 1,
        "detail": [
            {
                "name": "Сбербанк",
                "amenity": "atm"
            }
        ]
    },
    "arts_centre": {
        "count": 1,
        "detail": [
            {
                "name": "Современник",
                "is_in": "Иркутская область",
                "amenity": "arts_centre",
                "tourism": "attraction",
                "addr:city": "Ангарск",
                "addr:region": "Иркутская область",
                "addr:street": "улица Энгельса",
                "addr:country": "RU"
            }
        ]
    },
    "food": {
        "count": 2,
        "detail": [
            {
                "addr:city": "Ангарск",
                "addr:country": "RU",
                "addr:place": "179-й квартал",
                "addr:region": "Иркутская область",
                "is_in": "Иркутская область",
                "name": "Янта",
                "shop": "food"
            },
            {
                "addr:city": "Ангарск",
                "addr:country": "RU",
                "addr:housenumber": "15",
                "addr:place": "179-й квартал",
                "addr:region": "Иркутская область",
                "is_in": "Иркутская область",
                "name": "Ярославна",
                "shop": "food"
            }
        ]
    },
    "kindergarten": {
        "count": 5,
        "detail": [
            {
                "amenity": "kindergarten"
            },
            {
                "name": "Детский сад №27",
                "amenity": "kindergarten"
            },
            {
                "name": "Детский сад №8",
                "amenity": "kindergarten"
            },
            {
                "name": "Детский сад №8",
                "amenity": "kindergarten"
            },
            {
                "name": "Улыбка",
                "amenity": "kindergarten"
            }
        ]
    },
    "fuel": {
        "count": 1,
        "detail": [
            {
                "amenity": "fuel",
                "brand": "Роснефть",
                "fuel:diesel": "yes",
                "fuel:octane_92": "yes",
                "fuel:octane_95": "yes",
                "fuel:octane_98": "yes",
                "name": "Подсолнух",
                "operator": "Роснефть"
            }
        ]
    },
    "car_repair": {
        "count": 1,
        "detail": [
            {
                "addr:city": "Ангарск",
                "addr:country": "RU",
                "addr:housenumber": "10",
                "addr:place": "177-й квартал",
                "addr:region": "Иркутская область",
                "is_in": "Иркутская область",
                "name": "Автоаптека",
                "shop": "car_repair"
            }
        ]
    },
    "pharmacy": {
        "count": 2,
        "detail": [
            {
                "addr:city": "Ангарск",
                "addr:country": "RU",
                "addr:housenumber": "2",
                "addr:place": "178-й квартал",
                "addr:region": "Иркутская область",
                "amenity": "pharmacy",
                "is_in": "Иркутская область",
                "name": "Аптека №28/2"
            },
            {
                "amenity": "pharmacy",
                "name": "Фармэконом"
            }
        ]
    },
    "yes": {
        "count": 1,
        "detail": [
            {
                "addr:city": "Ангарск",
                "addr:country": "RU",
                "addr:housenumber": "12",
                "addr:place": "177-й квартал",
                "addr:region": "Иркутская область",
                "is_in": "Иркутская область",
                "name": "Кудесник",
                "shop": "yes"
            }
        ]
    },
    "post_office": {
        "count": 1,
        "detail": [
            {
                "addr:city": "Ангарск",
                "addr:country": "RU",
                "addr:housenumber": "2",
                "addr:place": "178-й квартал",
                "addr:region": "Иркутская область",
                "amenity": "post_office",
                "is_in": "Иркутская область",
                "name": "Почтовое отделение №16"
            }
        ]
    },
    "beauty": {
        "count": 1,
        "detail": [
            {
                "name": "Matrix",
                "shop": "beauty"
            }
        ]
    },
    "fountain": {
        "count": 1,
        "detail": [
            {
                "amenity": "fountain"
            }
        ]
    },
    "playground": {
        "count": 3,
        "detail": [
            {
                "leisure": "playground"
            },
            {
                "leisure": "playground"
            },
            {
                "leisure": "playground"
            }
        ]
    },
    "supermarket": {
        "count": 1,
        "detail": [
            {
                "name": "СМС (Сеть Магазинов Самообслуживания)",
                "shop": "supermarket"
            }
        ]
    },
    "clinic": {
        "count": 1,
        "detail": [
            {
                "amenity": "clinic",
                "name": "Планета здоровья (детский мед.центр)"
            }
        ]
    },
    "bar": {
        "count": 1,
        "detail": [
            {
                "amenity": "bar",
                "name": "Друзья"
            }
        ]
    },
    "cafe": {
        "count": 1,
        "detail": [
            {
                "amenity": "cafe",
                "name": "Аврора"
            }
        ]
    },
    "convenience": {
        "count": 2,
        "detail": [
            {
                "name": "Аппетит",
                "shop": "convenience"
            },
            {
                "name": "Хлеб-Соль",
                "shop": "convenience"
            }
        ]
    },
    "garages": {
        "count": 1,
        "detail": [
            {
                "amenity": "garages",
                "building": "garages",
                "building:levels": "1",
                "addr:housenumber": "6/1"
            }
        ]
    },
    "school": {
        "count": 1,
        "detail": [
            {
                "addr:city": "Ангарск",
                "addr:country": "RU",
                "addr:housenumber": "11",
                "addr:place": "177-й квартал",
                "addr:region": "Иркутская область",
                "building": "school",
                "building:levels": "3",
                "is_in": "Иркутская область",
                "name": "Школа №37"
            }
        ]
    },
    "commercial": {
        "count": 1,
        "detail": [
            {
                "building": "commercial"
            }
        ]
    }
}