{
    "residents": 6676,
    "mobile_phone": {
        "count": 4,
        "detail": [
            {
                "name": "Евросеть",
                "shop": "mobile_phone",
                "name:en": "Euroset"
            },
            {
                "shop": "mobile_phone"
            },
            {
                "shop": "mobile_phone"
            },
            {
                "name": "Мегафон",
                "shop": "mobile_phone"
            }
        ]
    },
    "convenience": {
        "count": 19,
        "detail": [
            {
                "name": "Околица-13",
                "shop": "convenience",
                "addr:street": "Набережная улица",
                "addr:postcode": "655750",
                "addr:housenumber": "2"
            },
            {
                "name": "Ассорти",
                "shop": "convenience"
            },
            {
                "name": "Калория",
                "shop": "convenience",
                "name:en": "Calory"
            },
            {
                "name": "Лира-2",
                "shop": "convenience"
            },
            {
                "name": "Садко",
                "shop": "convenience"
            },
            {
                "name": "Русь",
                "shop": "convenience"
            },
            {
                "name": "Пиво",
                "shop": "convenience",
                "name:en": "Beer"
            },
            {
                "name": "Околица",
                "shop": "convenience",
                "name:ru": "Околица"
            },
            {
                "name": "Русич",
                "shop": "convenience",
                "name:ru": "Русич"
            },
            {
                "name": "Магазин",
                "shop": "convenience",
                "name:ru": "Магазин"
            },
            {
                "name": "Магазин",
                "shop": "convenience",
                "name:ru": "Магазин"
            },
            {
                "name": "Мастер УЮТ",
                "shop": "convenience",
                "building": "yes",
                "addr:street": "улица Кулакова",
                "addr:housenumber": "1Б"
            },
            {
                "name": "Амит",
                "shop": "convenience",
                "building": "yes",
                "addr:street": "улица ДОЗ",
                "addr:housenumber": "22А"
            },
            {
                "name": "Водолей",
                "shop": "convenience",
                "building": "yes",
                "addr:street": "улица Лазо"
            },
            {
                "name": "Русич",
                "shop": "convenience",
                "building": "yes",
                "addr:street": "улица Лазо",
                "addr:housenumber": "2А"
            },
            {
                "name": "Лакомка",
                "shop": "convenience",
                "building": "yes",
                "addr:street": "улица Лазо"
            },
            {
                "shop": "convenience",
                "building": "yes"
            },
            {
                "shop": "convenience",
                "building": "yes"
            },
            {
                "name": "Свежий хлеб",
                "shop": "convenience",
                "building": "yes",
                "addr:street": "улица Лазо"
            }
        ]
    },
    "glaziery": {
        "count": 1,
        "detail": [
            {
                "name": "Арт Плюс",
                "shop": "glaziery"
            }
        ]
    },
    "doityourself": {
        "count": 1,
        "detail": [
            {
                "name": "Бензоэлектроинструмент;Ремонт бытовой техники",
                "shop": "doityourself",
                "repair": "yes",
                "addr:street": "Набережная улица",
                "addr:postcode": "655750",
                "addr:housenumber": "9"
            }
        ]
    },
    "car_parts": {
        "count": 4,
        "detail": [
            {
                "name": "Автозапчасти",
                "shop": "car_parts"
            },
            {
                "name": "СТО",
                "shop": "car_parts",
                "name:ru": "СТО"
            },
            {
                "shop": "car_parts"
            },
            {
                "addr:city": "Абаза",
                "addr:housenumber": "7",
                "addr:street": "Набережная улица",
                "shop": "car_parts"
            }
        ]
    },
    "stationery": {
        "count": 1,
        "detail": [
            {
                "shop": "stationery"
            }
        ]
    },
    "bus_stop": {
        "count": 3,
        "detail": [
            {
                "bench": "yes",
                "highway": "bus_stop",
                "shelter": "yes",
                "tactile_paving": "no"
            },
            {
                "bench": "yes",
                "highway": "bus_stop",
                "shelter": "yes",
                "tactile_paving": "no"
            },
            {
                "name": "Такси",
                "highway": "bus_stop",
                "name:ru": "Такси"
            }
        ]
    },
    "beverages": {
        "count": 1,
        "detail": [
            {
                "name": "777",
                "shop": "beverages"
            }
        ]
    },
    "fabric": {
        "count": 1,
        "detail": [
            {
                "name": "Гамма",
                "shop": "fabric",
                "name:en": "Gamma"
            }
        ]
    },
    "chemist": {
        "count": 3,
        "detail": [
            {
                "name": "Мечта",
                "shop": "chemist",
                "name:en": "Dream"
            },
            {
                "shop": "chemist"
            },
            {
                "shop": "chemist"
            }
        ]
    },
    "hunting": {
        "count": 1,
        "detail": [
            {
                "name": "Стрела",
                "shop": "hunting"
            }
        ]
    },
    "clothes": {
        "count": 5,
        "detail": [
            {
                "name": "Бомонд",
                "shop": "clothes"
            },
            {
                "name": "Николь",
                "shop": "clothes",
                "name:en": "Nicole"
            },
            {
                "name": "Семья",
                "shop": "clothes",
                "name:en": "Family"
            },
            {
                "name": "Радуга",
                "shop": "clothes",
                "name:en": "Rainbow"
            },
            {
                "name": "\"Милена\"",
                "shop": "clothes",
                "name:ru": "\"Милена\""
            }
        ]
    },
    "pharmacy": {
        "count": 4,
        "detail": [
            {
                "name": "аптека",
                "amenity": "pharmacy",
                "dispensing": "yes"
            },
            {
                "name": "Тройка",
                "amenity": "pharmacy",
                "name:ru": "Тройка"
            },
            {
                "amenity": "pharmacy"
            },
            {
                "addr:city": "Абаза",
                "addr:housenumber": "3",
                "addr:street": "улица Кулакова",
                "amenity": "pharmacy",
                "name": "Фармация"
            }
        ]
    },
    "pet": {
        "count": 1,
        "detail": [
            {
                "name": "Зоомагазин",
                "shop": "pet"
            }
        ]
    },
    "photo": {
        "count": 1,
        "detail": [
            {
                "name": "Малышок",
                "shop": "photo"
            }
        ]
    },
    "hairdresser": {
        "count": 2,
        "detail": [
            {
                "name": "Яффа",
                "shop": "hairdresser"
            },
            {
                "name": "Стиль",
                "shop": "hairdresser",
                "name:en": "Style"
            }
        ]
    },
    "ticket": {
        "count": 1,
        "detail": [
            {
                "name": "Авиа- и ж/д билеты",
                "shop": "ticket"
            }
        ]
    },
    "bank": {
        "count": 5,
        "detail": [
            {
                "atm": "yes",
                "name": "Народный кредит",
                "amenity": "bank"
            },
            {
                "atm": "yes",
                "name": "Совкомбанк",
                "amenity": "bank"
            },
            {
                "name": "Сбербанк",
                "amenity": "bank",
                "name:ru": "Сбербанк"
            },
            {
                "amenity": "bank"
            },
            {
                "name": "Сбербанк",
                "amenity": "bank",
                "building": "yes",
                "addr:street": "улица Лазо",
                "addr:housenumber": "3/2"
            }
        ]
    },
    "kiosk": {
        "count": 1,
        "detail": [
            {
                "name": "Пресса",
                "shop": "kiosk",
                "name:en": "Press"
            }
        ]
    },
    "townhall": {
        "count": 1,
        "detail": [
            {
                "name": "Военно-учетный стол",
                "amenity": "townhall",
                "name:en": "Recruitment office"
            }
        ]
    },
    "library": {
        "count": 2,
        "detail": [
            {
                "name": "Библиотека",
                "amenity": "library",
                "name:en": "Library"
            },
            {
                "name": "Детская библиотека",
                "amenity": "library",
                "name:en": "Children's library"
            }
        ]
    },
    "hardware": {
        "count": 1,
        "detail": [
            {
                "name": "Комфорт-2",
                "shop": "hardware",
                "name:en": "Comfort-2"
            }
        ]
    },
    "police": {
        "count": 1,
        "detail": [
            {
                "name": "Опорный пункт",
                "amenity": "police",
                "name:en": "Police office"
            }
        ]
    },
    "kindergarten": {
        "count": 1,
        "detail": [
            {
                "name": "Семейные группы",
                "amenity": "kindergarten"
            }
        ]
    },
    "department_store": {
        "count": 2,
        "detail": [
            {
                "name": "Юбилейный",
                "shop": "department_store",
                "name:ru": "Юбилейный"
            },
            {
                "name": "Старые Саяны",
                "shop": "department_store",
                "name:ru": "Старые Саяны"
            }
        ]
    },
    "atm": {
        "count": 2,
        "detail": [
            {
                "amenity": "atm"
            },
            {
                "amenity": "atm"
            }
        ]
    },
    "pawnbroker": {
        "count": 1,
        "detail": [
            {
                "name": "Ломбард",
                "shop": "pawnbroker"
            }
        ]
    },
    "car": {
        "count": 1,
        "detail": [
            {
                "name": "Автоуслуги \"Навигатор\"",
                "shop": "car",
                "name:ru": "Автоуслуги \"Навигатор\""
            }
        ]
    },
    "greengrocer": {
        "count": 1,
        "detail": [
            {
                "name": "Лакомка",
                "shop": "greengrocer",
                "name:ru": "Лакомка"
            }
        ]
    },
    "alcohol": {
        "count": 1,
        "detail": [
            {
                "shop": "alcohol"
            }
        ]
    },
    "post_office": {
        "count": 1,
        "detail": [
            {
                "name": "Почта",
                "amenity": "post_office",
                "addr:city": "Абаза",
                "addr:street": "Пос ДОЗ",
                "addr:postcode": "655751",
                "addr:housenumber": "27"
            }
        ]
    },
    "car_wash": {
        "count": 1,
        "detail": [
            {
                "amenity": "car_wash"
            }
        ]
    },
    "gift": {
        "count": 1,
        "detail": [
            {
                "name": "Сварог кованные изделия",
                "shop": "gift"
            }
        ]
    },
    "florist": {
        "count": 1,
        "detail": [
            {
                "name": "Магазин цветов и подарков",
                "shop": "florist"
            }
        ]
    },
    "service": {
        "count": 4,
        "detail": [
            {
                "name": "ТП № 78",
                "power": "substation",
                "building": "service",
                "operator": "МРЭС"
            },
            {
                "name": "ТП № 38",
                "power": "substation",
                "building": "service",
                "addr:street": "Комсомольская улица"
            },
            {
                "name": "ТП № 49",
                "power": "substation",
                "building": "service"
            },
            {
                "name": "ТП № 30",
                "power": "substation",
                "building": "service"
            }
        ]
    },
    "commercial": {
        "count": 2,
        "detail": [
            {
                "name:en": "Pharmacy",
                "building": "commercial",
                "dispensing": "yes",
                "addr:street": "улица Кулакова",
                "addr:postcode": "655750",
                "addr:housenumber": "3"
            },
            {
                "name": "Престиж",
                "building": "commercial",
                "addr:street": "улица Лазо",
                "building:levels": "2",
                "addr:housenumber": "1"
            }
        ]
    },
    "school": {
        "count": 1,
        "detail": [
            {
                "name": "Начальная школа № 49",
                "amenity": "school",
                "smoking": "no",
                "building": "school",
                "addr:street": "улица Ленина",
                "addr:postcode": "655750",
                "building:levels": "2",
                "addr:housenumber": "8А"
            }
        ]
    },
    "electronics": {
        "count": 1,
        "detail": [
            {
                "name": "Киберлайф",
                "shop": "electronics",
                "building": "yes",
                "addr:street": "Партизанская улица",
                "addr:housenumber": "1А"
            }
        ]
    },
    "marketplace": {
        "count": 1,
        "detail": [
            {
                "name": "Сельхоз рынок",
                "amenity": "marketplace",
                "building": "yes",
                "addr:street": "улица Ленина",
                "addr:housenumber": "5Б"
            }
        ]
    },
    "funeral_directors": {
        "count": 1,
        "detail": [
            {
                "name": "Гранит",
                "shop": "funeral_directors",
                "building": "yes",
                "addr:street": "улица Кулакова",
                "addr:housenumber": "1Б"
            }
        ]
    },
    "place_of_worship": {
        "count": 1,
        "detail": [
            {
                "amenity": "place_of_worship",
                "building": "church",
                "religion": "christian"
            }
        ]
    },
    "supermarket": {
        "count": 1,
        "detail": [
            {
                "name": "Центральный",
                "shop": "supermarket",
                "building": "yes",
                "addr:street": "улица Лазо",
                "addr:housenumber": "2Б"
            }
        ]
    },
    "motorcycle": {
        "count": 1,
        "detail": [
            {
                "shop": "motorcycle",
                "building": "yes",
                "addr:street": "Набережная улица",
                "addr:housenumber": "9"
            }
        ]
    },
    "cafe": {
        "count": 1,
        "detail": [
            {
                "name": "АЙСИ",
                "amenity": "cafe",
                "building": "yes",
                "addr:street": "Набережная улица",
                "addr:housenumber": "11"
            }
        ]
    }
}