{
    "supermarket": {
        "count": 1,
        "detail": [
            {
                "name": "Магнит",
                "shop": "supermarket",
                "addr:city": "Нефтегорск",
                "addr:street": "улица Нефтяников",
                "addr:housenumber": "54А"
            }
        ]
    },
    "residents": 1317,
    "cinema": {
        "count": 1,
        "detail": [
            {
                "name": "ТЦ \"МИР\"",
                "amenity": "cinema",
                "name:ru": "ТЦ \"МИР\"",
                "addr:street": "улица Нефтяников"
            }
        ]
    },
    "playground": {
        "count": 1,
        "detail": [
            {
                "name": "Песочница",
                "leisure": "playground"
            }
        ]
    },
    "electronics": {
        "count": 1,
        "detail": [
            {
                "alt_name": "ДНС",
                "brand": "DNS",
                "brand:en": "DNS",
                "brand:ru": "ДНС",
                "brand:wikidata": "Q4036922",
                "brand:wikipedia": "DNS (сеть магазинов)",
                "contact:facebook": "https://www.facebook.com/dnsshop",
                "contact:phone": "+7 800 7707999",
                "contact:twitter": "https://twitter.com/dnsshop",
                "contact:vk": "https://vk.com/dnsstore",
                "contact:website": "http://dns-shop.ru/",
                "contact:youtube": "https://www.youtube.com/c/DNSSHOPvideo",
                "name": "DNS",
                "name:en": "DNS",
                "name:ru": "ДНС",
                "opening_hours": "Mo-Su 09:00-20:00",
                "operator": "ДНС Ритейл",
                "shop": "electronics",
                "website": "https://www.dns-shop.ru"
            }
        ]
    },
    "clinic": {
        "count": 2,
        "detail": [
            {
                "addr:city": "Нефтегорск",
                "addr:housenumber": "39",
                "addr:street": "улица Нефтяников",
                "amenity": "clinic",
                "building": "yes",
                "healthcare": "clinic",
                "name": "Инфекционное отделение"
            },
            {
                "addr:city": "Нефтегорск",
                "addr:housenumber": "39",
                "addr:street": "улица Нефтяников",
                "amenity": "clinic",
                "building": "yes",
                "healthcare": "clinic"
            }
        ]
    },
    "kindergarten": {
        "count": 1,
        "detail": [
            {
                "building": "kindergarten"
            }
        ]
    },
    "school": {
        "count": 1,
        "detail": [
            {
                "addr:city": "Нефтегорск",
                "addr:housenumber": "46",
                "addr:postcode": "446600",
                "addr:street": "улица Мира",
                "alt_name": "Муниципальное общеобразовательное учреждение Нефтегорская средняя общеобразовательная школа № 1",
                "amenity": "school",
                "building": "school",
                "int_name": "Middle School of Neftegorsk #1"
            }
        ]
    },
    "sports_centre": {
        "count": 1,
        "detail": [
            {
                "addr:city": "Нефтегорск",
                "addr:housenumber": "46",
                "addr:street": "улица Мира",
                "building": "yes",
                "leisure": "sports_centre",
                "name": "Бассейн \"Нептун\"",
                "sport": "swimming"
            }
        ]
    },
    "bar": {
        "count": 1,
        "detail": [
            {
                "name": "Грош",
                "amenity": "bar",
                "building": "yes"
            }
        ]
    },
    "bleachers": {
        "count": 2,
        "detail": [
            {
                "building": "yes",
                "leisure": "bleachers"
            },
            {
                "building": "yes",
                "leisure": "bleachers"
            }
        ]
    }
}