{
    "residents": 8796,
    "bus_stop": {
        "count": 2,
        "detail": [
            {
                "name": "72 квартал",
                "highway": "bus_stop",
                "shelter": "yes"
            },
            {
                "bus": "yes",
                "lit": "yes",
                "name": "72 квартал",
                "bench": "yes",
                "highway": "bus_stop",
                "shelter": "yes",
                "public_transport": "platform"
            }
        ]
    },
    "restaurant": {
        "count": 1,
        "detail": [
            {
                "amenity": "restaurant",
                "cuisine": "regional",
                "name": "Камелот"
            }
        ]
    },
    "car_wash": {
        "count": 1,
        "detail": [
            {
                "name": "Автомойка",
                "amenity": "car_wash"
            }
        ]
    },
    "department_store": {
        "count": 1,
        "detail": [
            {
                "shop": "department_store"
            }
        ]
    },
    "florist": {
        "count": 1,
        "detail": [
            {
                "name": "Green парк",
                "name:ru": "Green парк",
                "shop": "florist"
            }
        ]
    },
    "convenience": {
        "count": 1,
        "detail": [
            {
                "name": "Пятёрочка",
                "shop": "convenience"
            }
        ]
    },
    "atm": {
        "count": 1,
        "detail": [
            {
                "amenity": "atm",
                "contact:email": "info@psbank.ru",
                "contact:phone": "+7 495 7873333;+7 800 3330303",
                "contact:website": "https://psbank.ru/",
                "opening_hours": "Mo-Sa 08:00-21:00;Su 09:00-21:00",
                "operator": "Промсвязьбанк"
            }
        ]
    },
    "supermarket": {
        "count": 1,
        "detail": [
            {
                "addr:city": "Новокуйбышевск",
                "addr:housenumber": "35",
                "addr:street": "проспект Победы",
                "brand": "Магнит",
                "brand:en": "Magnit",
                "brand:wikidata": "Q940518",
                "brand:wikipedia": "ru:Магнит (сеть магазинов)",
                "name": "Магнит",
                "name:en": "Magnit",
                "shop": "supermarket"
            }
        ]
    },
    "pharmacy": {
        "count": 1,
        "detail": [
            {
                "amenity": "pharmacy",
                "contact:facebook": "http://facebook.com/aptekivita",
                "contact:instagram": "https://www.instagram.com/vita_express/",
                "contact:phone": "+7 800 7550003",
                "contact:vk": "https://vk.com/aptekivita",
                "contact:website": "https://vitaexpress.ru/",
                "name": "Аптеки низких цен",
                "opening_hours": "Mo-Fr 08:00-21:00;Sa-Su 09:00-20:00"
            }
        ]
    },
    "bus_station": {
        "count": 1,
        "detail": [
            {
                "addr:city": "Новокуйбышевск",
                "addr:housenumber": "49А",
                "addr:postcode": "446218",
                "addr:street": "проспект Победы",
                "amenity": "bus_station",
                "building": "yes",
                "building:levels": "1",
                "bus": "yes",
                "public_transport": "station"
            }
        ]
    },
    "kindergarten": {
        "count": 2,
        "detail": [
            {
                "addr:city": "Новокуйбышевск",
                "addr:housenumber": "3",
                "addr:street": "улица Будённого",
                "building": "kindergarten",
                "building:levels": "2"
            },
            {
                "addr:city": "Новокуйбышевск",
                "addr:housenumber": "48Б",
                "addr:street": "проспект Победы",
                "building": "kindergarten",
                "building:levels": "3"
            }
        ]
    },
    "sports_centre": {
        "count": 1,
        "detail": [
            {
                "addr:city": "Новокуйбышевск",
                "addr:housenumber": "41А",
                "addr:street": "проспект Победы",
                "building": "yes",
                "leisure": "sports_centre",
                "name": "Бассейн \"Водолей\"",
                "sport": "swimming"
            }
        ]
    },
    "place_of_worship": {
        "count": 1,
        "detail": [
            {
                "amenity": "place_of_worship",
                "building": "yes",
                "denomination": "orthodox",
                "name": "Храм во имя Святителя Николая",
                "religion": "christian"
            }
        ]
    },
    "cosmetics": {
        "count": 1,
        "detail": [
            {
                "addr:city": "Новокуйбышевск",
                "addr:housenumber": "37А",
                "addr:street": "проспект Победы",
                "building": "yes",
                "building:levels": "2",
                "shop": "cosmetics"
            }
        ]
    }
}