{
    "residents": 7549,
    "bus_stop": {
        "count": 9,
        "detail": [
            {
                "name": "Чкалова",
                "highway": "bus_stop"
            },
            {
                "name": "Владимирская",
                "highway": "bus_stop"
            },
            {
                "bus": "yes",
                "name": "сквер им. Мичурина / Полевая улица",
                "highway": "bus_stop",
                "trolleybus": "yes",
                "public_transport": "stop_position"
            },
            {
                "bus": "yes",
                "name": "улица Чкалова",
                "highway": "bus_stop",
                "trolleybus": "yes",
                "public_transport": "stop_position"
            },
            {
                "bus": "yes",
                "name": "улица Владимирская",
                "trolleybus": "yes",
                "public_transport": "stop_position"
            },
            {
                "name": "улица Буянова",
                "highway": "bus_stop",
                "trolleybus": "yes",
                "public_transport": "stop_position"
            },
            {
                "name": "сквер им. Мичурина",
                "highway": "bus_stop",
                "railway": "tram_stop",
                "public_transport": "stop_position"
            },
            {
                "bus": "yes",
                "name": "Полевая улица",
                "bench": "yes",
                "highway": "bus_stop",
                "shelter": "yes",
                "share_taxi": "yes",
                "public_transport": "platform"
            },
            {
                "name": "Арцыбушевская",
                "highway": "bus_stop"
            }
        ]
    },
    "post_office": {
        "count": 1,
        "detail": [
            {
                "amenity": "post_office",
                "brand": "Почта России",
                "brand:wikidata": "Q1502763",
                "brand:wikipedia": "ru:Почта России",
                "contact:facebook": "https://www.facebook.com/ruspost",
                "contact:phone": "+7 800 2005888",
                "contact:twitter": "https://twitter.com/ruspostofficial",
                "contact:vk": "https://vk.com/russianpost",
                "contact:website": "https://www.pochta.ru",
                "name": "Самара 443096",
                "opening_hours": "Mo-Fr 08:00-20:00; Sa-Su 09:00-18:00",
                "operator": "АО «Почта России»",
                "operator:wikidata": "Q1502763",
                "operator:wikipedia": "ru:Почта России",
                "phone": "336-46-31",
                "ref": "443096"
            }
        ]
    },
    "fast_food": {
        "count": 1,
        "detail": [
            {
                "name": "Пиццерия Сицилия",
                "amenity": "fast_food",
                "cuisine": "italian"
            }
        ]
    },
    "butcher": {
        "count": 2,
        "detail": [
            {
                "shop": "butcher"
            },
            {
                "shop": "butcher"
            }
        ]
    },
    "supermarket": {
        "count": 1,
        "detail": [
            {
                "shop": "supermarket"
            }
        ]
    },
    "cafe": {
        "count": 2,
        "detail": [
            {
                "name": "Бамбуча",
                "amenity": "cafe",
                "entrance": "yes",
                "wheelchair": "no"
            },
            {
                "name": "Тель-Авив",
                "amenity": "cafe"
            }
        ]
    },
    "optician": {
        "count": 1,
        "detail": [
            {
                "name": "Октопус",
                "shop": "optician",
                "entrance": "yes",
                "wheelchair": "no"
            }
        ]
    },
    "kiosk": {
        "count": 2,
        "detail": [
            {
                "shop": "kiosk"
            },
            {
                "name": "Печать",
                "shop": "kiosk",
                "building": "yes",
                "addr:city": "Самара",
                "addr:street": "Полевая улица",
                "building:levels": "1",
                "addr:housenumber": "86/1"
            }
        ]
    },
    "stationery": {
        "count": 1,
        "detail": [
            {
                "name": "Роспечать",
                "shop": "stationery"
            }
        ]
    },
    "sports_centre": {
        "count": 1,
        "detail": [
            {
                "sport": "athletics",
                "leisure": "sports_centre",
                "entrance": "yes"
            }
        ]
    },
    "waste_disposal": {
        "count": 1,
        "detail": [
            {
                "amenity": "waste_disposal"
            }
        ]
    },
    "university": {
        "count": 1,
        "detail": [
            {
                "name": "РЕАВИЗ медицинский университет",
                "amenity": "university"
            }
        ]
    },
    "car_repair": {
        "count": 1,
        "detail": [
            {
                "name": "FitService",
                "opening_hours": "Mo-Su 09:00-21:00",
                "phone": "+7 (846) 267-09-70 доб. 889",
                "service:vehicle:car_repair": "yes",
                "service:vehicle:tires": "yes",
                "shop": "car_repair",
                "website": "https://samara.fitauto.ru/"
            }
        ]
    },
    "clinic": {
        "count": 1,
        "detail": [
            {
                "addr:city": "Самара",
                "addr:housenumber": "1А",
                "addr:street": "Владимирская улица",
                "amenity": "clinic",
                "description": "Частная клиника для детей и взрослых:\n- консультации врачей 38 направлений\n- диагностика (УЗИ, анализы, ФГДС)\n- операции одного дня\n- лечебное отделение с кабинетом массажа, физиотерапией и дневным стационаром\n- выезды врачей на дом",
                "email": "info@clinica-prizvanie.ru",
                "healthcare": "clinic",
                "healthcare:speciality": "general;gynaecology;ophthalmology;paediatrics;dentist;dermatology;otolaryngology;urology;cardiology;physiotherapy;neurology;clinic",
                "image": "https://clinica-prizvanie.ru/img/logo.png?v=1",
                "level": "1",
                "name": "Клиника Призвание",
                "opening_hours": "Mo-Fr 08:00-18:00",
                "opening_hours:covid19": "open",
                "payment:cards": "yes",
                "payment:cash": "yes",
                "payment:credit_cards": "yes",
                "payment:debit_cards": "yes",
                "payment:mastercard": "yes",
                "payment:telephone_cards": "yes",
                "payment:visa": "yes",
                "payment:visa_debit": "yes",
                "phone": "+78463004077",
                "start_date": "2018-06-01",
                "website": "https://clinica-prizvanie.ru/",
                "wheelchair": "limited"
            }
        ]
    },
    "commercial": {
        "count": 13,
        "detail": [
            {
                "building": "commercial",
                "building:levels": "1"
            },
            {
                "building": "commercial",
                "addr:city": "Самара",
                "addr:street": "Больничная улица",
                "addr:postcode": "443096",
                "building:levels": "2",
                "addr:housenumber": "1"
            },
            {
                "building": "commercial",
                "addr:city": "Самара",
                "addr:street": "Больничная улица",
                "addr:country": "RU",
                "addr:postcode": "443096",
                "building:levels": "3",
                "addr:housenumber": "1А"
            },
            {
                "building": "commercial",
                "addr:city": "Самара",
                "addr:street": "улица Пушкина",
                "building:levels": "2",
                "addr:housenumber": "225"
            },
            {
                "building": "commercial",
                "addr:city": "Самара",
                "addr:street": "Арцыбушевская улица",
                "addr:postcode": "443001",
                "building:levels": "2",
                "addr:housenumber": "182"
            },
            {
                "building": "commercial",
                "addr:city": "Самара",
                "addr:street": "улица Мичурина",
                "addr:country": "RU",
                "building:levels": "2",
                "addr:housenumber": "46А"
            },
            {
                "addr:city": "Самара",
                "addr:housenumber": "1Б",
                "addr:street": "Больничная улица",
                "building": "commercial",
                "building:levels": "2"
            },
            {
                "building": "commercial"
            },
            {
                "building": "commercial"
            },
            {
                "building": "commercial"
            },
            {
                "building": "commercial"
            },
            {
                "building": "commercial",
                "addr:city": "Самара",
                "addr:street": "улица Чкалова",
                "building:levels": "2",
                "addr:housenumber": "75"
            },
            {
                "building": "commercial",
                "addr:city": "Самара",
                "addr:street": "Арцыбушевская улица",
                "building:levels": "1",
                "addr:housenumber": "182/1"
            }
        ]
    },
    "place_of_worship": {
        "count": 1,
        "detail": [
            {
                "amenity": "place_of_worship",
                "name:en": "The Church of the apostles Peter and Paul",
                "building": "church",
                "religion": "christian",
                "addr:city": "Самара",
                "addr:street": "улица Буянова",
                "denomination": "orthodox",
                "addr:postcode": "443030",
                "building:levels": "4",
                "addr:housenumber": "135А"
            }
        ]
    },
    "school": {
        "count": 1,
        "detail": [
            {
                "addr:city": "Самара",
                "addr:country": "RU",
                "addr:housenumber": "7",
                "addr:street": "Коммунистическая улица",
                "building": "school",
                "building:levels": "4"
            }
        ]
    },
    "kindergarten": {
        "count": 2,
        "detail": [
            {
                "building": "kindergarten",
                "addr:city": "Самара",
                "addr:street": "улица Буянова",
                "building:levels": "2",
                "addr:housenumber": "145"
            },
            {
                "building": "kindergarten",
                "addr:city": "Самара",
                "addr:street": "улица Буянова",
                "addr:postcode": "443030",
                "building:levels": "3",
                "addr:housenumber": "143"
            }
        ]
    }
}