{
    "residents": 3474,
    "bus_stop": {
        "count": 4,
        "detail": [
            {
                "name": "Универсам",
                "bench": "yes",
                "highway": "bus_stop",
                "shelter": "yes"
            },
            {
                "name": "Универсам",
                "highway": "bus_stop"
            },
            {
                "name": "Школа",
                "highway": "bus_stop"
            },
            {
                "name": "Школа",
                "highway": "bus_stop"
            }
        ]
    },
    "bank": {
        "count": 1,
        "detail": [
            {
                "name": "Сбербанк",
                "amenity": "bank"
            }
        ]
    },
    "seafood": {
        "count": 1,
        "detail": [
            {
                "name": "Рыба к пиву",
                "shop": "seafood"
            }
        ]
    },
    "pharmacy": {
        "count": 3,
        "detail": [
            {
                "name": "Низких цен",
                "amenity": "pharmacy"
            },
            {
                "amenity": "pharmacy",
                "healthcare": "pharmacy"
            },
            {
                "amenity": "pharmacy",
                "contact:facebook": "http://facebook.com/aptekivita",
                "contact:instagram": "https://www.instagram.com/vita_express/",
                "contact:phone": "+7 800 7550003",
                "contact:vk": "https://vk.com/aptekivita",
                "contact:website": "https://vitaexpress.ru/",
                "name": "Вита Экспресс",
                "opening_hours": "Mo-Su 09:00-21:00"
            }
        ]
    },
    "commercial": {
        "count": 4,
        "detail": [
            {
                "building": "commercial",
                "addr:city": "Самара",
                "addr:street": "Белорусская улица",
                "building:levels": "1",
                "addr:housenumber": "97А"
            },
            {
                "building": "commercial",
                "addr:city": "Самара",
                "addr:street": "Флотская улица",
                "building:levels": "2",
                "addr:housenumber": "17А"
            },
            {
                "building": "commercial",
                "addr:city": "Самара",
                "addr:street": "Флотская улица",
                "building:levels": "2",
                "addr:housenumber": "9А"
            },
            {
                "building": "commercial",
                "addr:city": "Самара",
                "addr:street": "Флотская улица",
                "building:levels": "2",
                "addr:housenumber": "18А"
            }
        ]
    },
    "school": {
        "count": 1,
        "detail": [
            {
                "building": "school",
                "addr:city": "Самара",
                "addr:street": "Белорусская улица",
                "building:levels": "2",
                "addr:housenumber": "112А"
            }
        ]
    },
    "kindergarten": {
        "count": 1,
        "detail": [
            {
                "building": "kindergarten",
                "addr:city": "Самара",
                "addr:street": "Флотская улица",
                "building:levels": "2",
                "addr:housenumber": "15А"
            }
        ]
    },
    "supermarket": {
        "count": 1,
        "detail": [
            {
                "name": "Перекресток",
                "shop": "supermarket",
                "brand": "Перекресток",
                "brand:en": "Perekrestok",
                "building": "yes",
                "operator": "Торговый дом \"ПЕРЕКРЕСТОК\"",
                "addr:city": "Самара",
                "addr:street": "Белорусская улица",
                "contact:phone": "+7 846 202-04-11",
                "opening_hours": "Mo-Su 08:00-23:00",
                "brand:wikidata": "Q1684639",
                "brand:wikipedia": "en:Perekrestok (supermarket chain)",
                "building:levels": "1",
                "contact:website": "https://www.perekrestok.ru/",
                "addr:housenumber": "131"
            }
        ]
    },
    "fuel": {
        "count": 1,
        "detail": [
            {
                "amenity": "fuel",
                "building": "yes"
            }
        ]
    }
}