{
    "residents": 5991,
    "car_parts": {
        "count": 1,
        "detail": [
            {
                "name": "focus авто",
                "shop": "car_parts",
                "phone": "+79633878550",
                "addr:street": "Солнечная улица",
                "opening_hours": "24/7",
                "addr:housenumber": "32В"
            }
        ]
    },
    "fitness_centre": {
        "count": 1,
        "detail": [
            {
                "phone": "+78463725050",
                "leisure": "fitness_centre",
                "name:en": "Luxury-Fitness",
                "opening_hours": "Mo-Fr 07:00-23:00; Sa-Su 09:00-22:00",
                "internet_access": "wlan"
            }
        ]
    },
    "playground": {
        "count": 1,
        "detail": [
            {
                "leisure": "playground"
            }
        ]
    },
    "police": {
        "count": 1,
        "detail": [
            {
                "amenity": "police"
            }
        ]
    },
    "supermarket": {
        "count": 1,
        "detail": [
            {
                "brand": "Пятёрочка",
                "brand:en": "Pyaterochka",
                "brand:wikidata": "Q1768969",
                "brand:wikipedia": "ru:Пятёрочка",
                "name": "Пятёрочка",
                "name:en": "Pyaterochka",
                "shop": "supermarket"
            }
        ]
    },
    "veterinary": {
        "count": 1,
        "detail": [
            {
                "amenity": "veterinary"
            }
        ]
    },
    "dentist": {
        "count": 1,
        "detail": [
            {
                "amenity": "dentist",
                "contact:email": "doctorflorova@yandex.ru",
                "contact:instagram": "https://instagram.com/clinica_florovoi_samara",
                "contact:phone": "+7 846 2011111;+7 846 9941058;+7 937 0635300",
                "contact:vk": "https://vk.com/clinicaflorovoi",
                "contact:website": "https://www.clinicaflorovoi.ru/",
                "name": "Клиника Флоровой",
                "opening_hours": "Mo-Fr 08:30-19:00;Sa-Su 09:00-14:00",
                "operator": "Клиника Флоровой"
            }
        ]
    },
    "bus_stop": {
        "count": 1,
        "detail": [
            {
                "bus": "yes",
                "highway": "bus_stop",
                "name": "Ново-Вокзальная улица",
                "public_transport": "bus_stop"
            }
        ]
    },
    "kindergarten": {
        "count": 1,
        "detail": [
            {
                "building": "kindergarten",
                "addr:city": "Самара",
                "addr:street": "Ново-Садовая улица",
                "addr:country": "RU",
                "addr:postcode": "443029",
                "building:levels": "2",
                "addr:housenumber": "224"
            }
        ]
    },
    "commercial": {
        "count": 2,
        "detail": [
            {
                "addr:city": "Самара",
                "addr:country": "RU",
                "addr:housenumber": "224А",
                "addr:postcode": "443029",
                "addr:street": "Ново-Садовая улица",
                "building": "commercial",
                "building:levels": "1"
            },
            {
                "addr:city": "Самара",
                "addr:housenumber": "271А",
                "addr:postcode": "443084",
                "addr:street": "Ново-Вокзальная улица",
                "amenity": "restaurant",
                "building": "commercial",
                "capacity": "100",
                "cuisine": "russian",
                "name": "Суворов",
                "opening_hours": "Mo-Su 12:00-00:00",
                "takeaway": "yes"
            }
        ]
    },
    "place_of_worship": {
        "count": 1,
        "detail": [
            {
                "name": "приход Пр. Иоанна",
                "amenity": "place_of_worship",
                "building": "yes",
                "religion": "christian",
                "addr:city": "Самара",
                "addr:street": "Ново-Вокзальная улица",
                "denomination": "orthodox",
                "building:levels": "1",
                "addr:housenumber": "178"
            }
        ]
    }
}