{
    "residents": 5469,
    "car_wash": {
        "count": 1,
        "detail": [
            {
                "amenity": "car_wash"
            }
        ]
    },
    "convenience": {
        "count": 1,
        "detail": [
            {
                "name": "Пятёрочка",
                "shop": "convenience"
            }
        ]
    },
    "bar": {
        "count": 1,
        "detail": [
            {
                "addr:city": "Самара",
                "addr:housenumber": "139",
                "addr:postcode": "443092",
                "addr:street": "проспект Кирова",
                "amenity": "bar",
                "name": "Магазин разливного пива",
                "opening_hours": "Mo-Su 07:00-20:00"
            }
        ]
    },
    "supermarket": {
        "count": 1,
        "detail": [
            {
                "brand": "Пятёрочка",
                "brand:en": "Pyaterochka",
                "brand:wikidata": "Q1768969",
                "brand:wikipedia": "ru:Пятёрочка",
                "name": "Пятёрочка",
                "name:en": "Pyaterochka",
                "shop": "supermarket"
            }
        ]
    },
    "clinic": {
        "count": 3,
        "detail": [
            {
                "addr:city": "Самара",
                "addr:housenumber": "39",
                "addr:street": "Теннисная улица",
                "amenity": "clinic",
                "healthcare": "clinic",
                "name": "Стационарное подразделение ГБУЗ СОККД"
            },
            {
                "amenity": "clinic",
                "building": "yes",
                "addr:city": "Самара",
                "addr:street": "Теннисная улица",
                "building:levels": "2",
                "addr:housenumber": "9"
            },
            {
                "amenity": "clinic",
                "building": "yes",
                "addr:city": "Самара",
                "addr:street": "проспект Кирова",
                "building:levels": "3",
                "addr:housenumber": "38"
            }
        ]
    },
    "kindergarten": {
        "count": 1,
        "detail": [
            {
                "building": "kindergarten",
                "addr:city": "Самара",
                "addr:street": "Теннисная улица",
                "addr:postcode": "443092",
                "building:levels": "2",
                "addr:housenumber": "29А"
            }
        ]
    },
    "school": {
        "count": 2,
        "detail": [
            {
                "building": "school",
                "addr:city": "Самара",
                "addr:street": "Каховская улица",
                "building:levels": "4",
                "addr:housenumber": "7"
            },
            {
                "building": "school",
                "addr:city": "Самара",
                "addr:street": "Теннисная улица",
                "building:levels": "2",
                "addr:housenumber": "1"
            }
        ]
    },
    "service": {
        "count": 1,
        "detail": [
            {
                "building": "service",
                "building:levels": "1",
                "name": "ТП 3034",
                "power": "substation",
                "substation": "minor_distribution",
                "voltage": "10000;400"
            }
        ]
    }
}