{
    "residents": 6891,
    "waste_disposal": {
        "count": 1,
        "detail": [
            {
                "amenity": "waste_disposal"
            }
        ]
    },
    "pharmacy": {
        "count": 2,
        "detail": [
            {
                "name": "Фарминвест",
                "amenity": "pharmacy"
            },
            {
                "name": "БрФармация 5/71",
                "amenity": "pharmacy"
            }
        ]
    },
    "bus_stop": {
        "count": 4,
        "detail": [
            {
                "bus": "yes",
                "highway": "bus_stop",
                "name": "Магазин № 38",
                "public_transport": "platform"
            },
            {
                "bus": "yes",
                "highway": "bus_stop",
                "name": "Магазин №38",
                "public_transport": "platform"
            },
            {
                "bus": "yes",
                "highway": "bus_stop",
                "name": "Школа № 11",
                "public_transport": "platform"
            },
            {
                "bus": "yes",
                "highway": "bus_stop",
                "name": "Школа № 11",
                "public_transport": "platform"
            }
        ]
    },
    "school": {
        "count": 3,
        "detail": [
            {
                "building": "school",
                "addr:street": "Орловская улица",
                "design:code:Br": "79",
                "building:levels": "4",
                "addr:housenumber": "26А"
            },
            {
                "addr:housenumber": "25",
                "addr:street": "улица 22-го Съезда КПСС",
                "building": "school"
            },
            {
                "building": "school",
                "design:code:Br": "79А",
                "building:levels": "2"
            }
        ]
    },
    "kindergarten": {
        "count": 2,
        "detail": [
            {
                "building": "kindergarten",
                "addr:city": "Брянск",
                "addr:street": "Орловская улица",
                "design:code:Br": "72Б",
                "building:levels": "2",
                "addr:housenumber": "10А"
            },
            {
                "building": "kindergarten",
                "addr:street": "Орловская улица",
                "design:code:Br": "72_mod",
                "building:levels": "2",
                "addr:housenumber": "14"
            }
        ]
    },
    "mall": {
        "count": 1,
        "detail": [
            {
                "name": "Калита",
                "shop": "mall",
                "building": "yes",
                "building:levels": "2"
            }
        ]
    }
}