{
    "residents": 1608,
    "convenience": {
        "count": 4,
        "detail": [
            {
                "name": "Мария-Ра",
                "shop": "convenience",
                "operator": "ООО \"Розница-1\"",
                "contact:phone": "+7 3852 462872",
                "opening_hours": "08:00-22:00",
                "contact:website": "http://www.maria-ra.ru"
            },
            {
                "name": "На Бабуркина",
                "shop": "convenience"
            },
            {
                "shop": "convenience"
            },
            {
                "opening_hours": "24/7",
                "shop": "convenience",
                "source": "gpnbonus.ru"
            }
        ]
    },
    "pharmacy": {
        "count": 2,
        "detail": [
            {
                "amenity": "pharmacy"
            },
            {
                "amenity": "pharmacy"
            }
        ]
    },
    "parking": {
        "count": 1,
        "detail": [
            {
                "amenity": "parking"
            }
        ]
    },
    "pub": {
        "count": 2,
        "detail": [
            {
                "amenity": "pub"
            },
            {
                "amenity": "pub"
            }
        ]
    },
    "bank": {
        "count": 1,
        "detail": [
            {
                "name": "Возрождение",
                "amenity": "bank"
            }
        ]
    },
    "supermarket": {
        "count": 1,
        "detail": [
            {
                "name": "Сибириада",
                "shop": "supermarket"
            }
        ]
    },
    "post_office": {
        "count": 1,
        "detail": [
            {
                "ref": "656064",
                "name": "Отделение связи №656064",
                "amenity": "post_office",
                "operator": "Почта России",
                "contact:phone": "+7 3852 462642",
                "opening_hours": "Mo-Fr 09:00-13:00,14:00-19:00; Sa 09:00-13:00,14:00-18:00; Su off",
                "contact:website": "http://www.russianpost.ru"
            }
        ]
    },
    "chemist": {
        "count": 1,
        "detail": [
            {
                "name": "Новэкс",
                "shop": "chemist",
                "operator": "ООО \"Новэкс\"",
                "contact:phone": "+7 3852 464179",
                "contact:website": "http://www.novex-trade.ru/stores/store/35/"
            }
        ]
    },
    "toilets": {
        "count": 1,
        "detail": [
            {
                "amenity": "toilets",
                "source": "gpnbonus.ru"
            }
        ]
    },
    "kindergarten": {
        "count": 2,
        "detail": [
            {
                "name": "Детский сад № 196",
                "amenity": "kindergarten",
                "building": "yes",
                "addr:city": "Барнаул",
                "addr:region": "Алтайский край",
                "addr:street": "Павловский тракт",
                "addr:country": "RU",
                "addr:housenumber": "64"
            },
            {
                "name": "Детский сад №222",
                "amenity": "kindergarten",
                "building": "yes",
                "addr:city": "Барнаул",
                "addr:region": "Алтайский край",
                "addr:street": "Павловский тракт",
                "addr:country": "RU",
                "addr:housenumber": "70А"
            }
        ]
    }
}