{
    "residents": 1881,
    "fuel": {
        "count": 1,
        "detail": [
            {
                "amenity": "fuel",
                "brand": "Газпромнефть",
                "fax": "+7 800 7005151",
                "fuel:discount": "Нам по пути",
                "fuel:octane_92": "yes",
                "fuel:octane_95": "yes",
                "name": "Газпромнефть",
                "opening_hours": "24/7",
                "ref": "200",
                "source": "gpnbonus.ru",
                "website": "https://www.gpnbonus.ru/"
            }
        ]
    },
    "bus_stop": {
        "count": 9,
        "detail": [
            {
                "bus": "yes",
                "name": "Театр кукол",
                "public_transport": "stop_position",
                "trolleybus": "yes"
            },
            {
                "bus": "yes",
                "name": "Театр кукол",
                "public_transport": "stop_position",
                "trolleybus": "yes"
            },
            {
                "bus": "yes",
                "name": "Льва Толстого",
                "public_transport": "stop_position",
                "trolleybus": "yes"
            },
            {
                "bus": "yes",
                "name": "Льва Толстого",
                "public_transport": "stop_position",
                "trolleybus": "yes"
            },
            {
                "bus": "yes",
                "name": "пл. Свободы",
                "highway": "bus_stop",
                "public_transport": "stop_position"
            },
            {
                "bus": "yes",
                "highway": "bus_stop",
                "name": "Льва Толстого",
                "public_transport": "platform"
            },
            {
                "bus": "yes",
                "highway": "bus_stop",
                "name": "Театр кукол",
                "public_transport": "platform"
            },
            {
                "bus": "yes",
                "highway": "bus_stop",
                "name": "Льва Толстого",
                "public_transport": "platform"
            },
            {
                "bus": "yes",
                "highway": "bus_stop",
                "name": "Театр кукол",
                "public_transport": "platform"
            }
        ]
    },
    "cafe": {
        "count": 6,
        "detail": [
            {
                "name": "Сова",
                "amenity": "cafe"
            },
            {
                "name": "Уйгурская кухня",
                "wifi": "no",
                "amenity": "cafe",
                "cuisine": "international"
            },
            {
                "name": "Столовая",
                "amenity": "cafe",
                "internet_access": "wlan",
                "internet_access:fee": "no"
            },
            {
                "name": "Renoir Coffee",
                "amenity": "cafe",
                "addr:city": "Барнаул",
                "addr:street": "проспект Ленина",
                "internet_access": "yes",
                "addr:housenumber": "10"
            },
            {
                "amenity": "cafe",
                "name": "Мантоварка",
                "opening_hours": "Mo-Su 09:00-20:00"
            },
            {
                "name": "Тихая Гавань",
                "amenity": "cafe",
                "building": "yes",
                "building:levels": "1"
            }
        ]
    },
    "pharmacy": {
        "count": 1,
        "detail": [
            {
                "name": "№132",
                "amenity": "pharmacy"
            }
        ]
    },
    "computer": {
        "count": 2,
        "detail": [
            {
                "name": "DNS",
                "shop": "computer"
            },
            {
                "name": "НПК Контакт",
                "shop": "computer"
            }
        ]
    },
    "department_store": {
        "count": 5,
        "detail": [
            {
                "name": "ТЦ Старый базар",
                "opening_hours": "Mo-Su 10:00-20:00",
                "phone": "+7 3852 63-83-91",
                "shop": "department_store",
                "website": "https://staryybazar.ru/"
            },
            {
                "addr:postcode": "656047",
                "name": "ТЦ 1000 мелочей",
                "opening_hours": "Mo-Su 09:00-18:00",
                "shop": "department_store"
            },
            {
                "name": "Красный",
                "shop": "department_store",
                "building": "yes",
                "addr:city": "Барнаул",
                "addr:region": "Алтайский край",
                "addr:street": "проспект Ленина",
                "description": "Памятник архитектуры: дом купца И.И. Полякова",
                "addr:country": "RU",
                "addr:housenumber": "14"
            },
            {
                "addr:city": "Барнаул",
                "addr:country": "RU",
                "addr:housenumber": "13",
                "addr:region": "Алтайский край",
                "addr:street": "Социалистический проспект",
                "building": "yes",
                "building:levels": "1",
                "name": "Старый город",
                "shop": "department_store"
            },
            {
                "addr:city": "Барнаул",
                "addr:country": "RU",
                "addr:housenumber": "6",
                "addr:region": "Алтайский край",
                "addr:street": "площадь Свободы",
                "building": "yes",
                "building:levels": "4",
                "name": "ТЦ Поместье",
                "shop": "department_store"
            }
        ]
    },
    "supermarket": {
        "count": 3,
        "detail": [
            {
                "name": "ТЦ Мега-Маркет",
                "shop": "supermarket"
            },
            {
                "name": "ТЦ Империал",
                "shop": "supermarket"
            },
            {
                "name": "Пятёрочка",
                "shop": "supermarket",
                "addr:city": "Барнаул",
                "addr:street": "проспект Ленина",
                "addr:housenumber": "10"
            }
        ]
    },
    "public_service": {
        "count": 1,
        "detail": [
            {
                "amenity": "public_service",
                "brand": "Мои документы",
                "government": "public_service",
                "name": "МФЦ Мои документы",
                "office": "government",
                "short_name": "МФЦ"
            }
        ]
    },
    "pub": {
        "count": 2,
        "detail": [
            {
                "name": "Bladbacher",
                "wifi": "free",
                "source": "www.bladbacher.ru/",
                "amenity": "pub",
                "website": "www.bladbacher.ru/",
                "alt_name": "Бладбахер",
                "addr:street": "Социалистический проспект",
                "addr:housenumber": "23"
            },
            {
                "name": "Регата",
                "phone": "+7 3852 633729",
                "amenity": "pub",
                "building": "yes",
                "addr:city": "Барнаул",
                "addr:street": "улица Пушкина",
                "addr:postcode": "656049",
                "addr:housenumber": "46"
            }
        ]
    },
    "convenience": {
        "count": 3,
        "detail": [
            {
                "name": "Мария-Ра",
                "shop": "convenience"
            },
            {
                "name": "Холлидей Дискаунтер",
                "shop": "convenience",
                "name:en": "Holdy Discaunter",
                "name:ru": "Холди Дискаунтер"
            },
            {
                "opening_hours": "24/7",
                "shop": "convenience",
                "source": "gpnbonus.ru"
            }
        ]
    },
    "kindergarten": {
        "count": 2,
        "detail": [
            {
                "amenity": "kindergarten"
            },
            {
                "addr:city": "Барнаул",
                "addr:country": "RU",
                "addr:housenumber": "55",
                "addr:postcode": "656043",
                "addr:region": "Алтайский край",
                "addr:street": "улица Пушкина",
                "building": "kindergarten"
            }
        ]
    },
    "doityourself": {
        "count": 1,
        "detail": [
            {
                "name": "Радиолюбитель",
                "shop": "doityourself",
                "source": "Bing"
            }
        ]
    },
    "post_office": {
        "count": 1,
        "detail": [
            {
                "amenity": "post_office",
                "contact:phone": "+7 3852 635157",
                "contact:website": "http://www.russianpost.ru",
                "name": "Отделение связи №656043",
                "opening_hours": "Mo-Fr 08:00-13:00,14:00-20:00; Sa 09:00-13:00,14:00-18:00; Su off",
                "operator": "Почта России",
                "ref": "656043",
                "source": "Bing",
                "website": "https://russianpost.ru/"
            }
        ]
    },
    "clinic": {
        "count": 1,
        "detail": [
            {
                "amenity": "clinic",
                "name": "Медси"
            }
        ]
    },
    "hunting": {
        "count": 1,
        "detail": [
            {
                "shop": "hunting"
            }
        ]
    },
    "clothes": {
        "count": 3,
        "detail": [
            {
                "name": "Benetton",
                "shop": "clothes"
            },
            {
                "name": "Puma",
                "shop": "clothes",
                "addr:city": "Барнаул",
                "addr:street": "проспект Ленина",
                "addr:housenumber": "14"
            },
            {
                "name": "Одежда",
                "shop": "clothes",
                "addr:city": "Барнаул",
                "addr:street": "проспект Ленина",
                "addr:housenumber": "10"
            }
        ]
    },
    "toilets": {
        "count": 2,
        "detail": [
            {
                "level": "1",
                "access": "public",
                "amenity": "toilets",
                "wheelchair": "no",
                "toilets:disposal": "flush"
            },
            {
                "amenity": "toilets",
                "source": "gpnbonus.ru"
            }
        ]
    },
    "townhall": {
        "count": 2,
        "detail": [
            {
                "name": "Администрация города Барнаул",
                "amenity": "townhall"
            },
            {
                "amenity": "townhall",
                "building": "public",
                "addr:region": "Алтайский край",
                "addr:street": "улица Гоголя",
                "addr:country": "RU",
                "addr:housenumber": "48"
            }
        ]
    },
    "perfumery": {
        "count": 1,
        "detail": [
            {
                "name": "Парфюм Вояж",
                "shop": "perfumery",
                "addr:city": "Барнаул",
                "addr:street": "проспект Ленина",
                "addr:housenumber": "10"
            }
        ]
    },
    "wine": {
        "count": 3,
        "detail": [
            {
                "name": "Винотека",
                "shop": "wine",
                "addr:city": "Барнаул",
                "addr:street": "проспект Ленина",
                "addr:housenumber": "10"
            },
            {
                "name": "Винотека",
                "shop": "wine",
                "addr:city": "Барнаул",
                "addr:street": "улица Гоголя",
                "addr:housenumber": "52"
            },
            {
                "name": "Винный мир",
                "shop": "wine",
                "addr:city": "Барнаул",
                "addr:street": "улица Гоголя",
                "addr:housenumber": "52"
            }
        ]
    },
    "gift": {
        "count": 1,
        "detail": [
            {
                "name": "Шишка",
                "shop": "gift",
                "addr:city": "Барнаул",
                "addr:street": "проспект Ленина",
                "addr:housenumber": "10"
            }
        ]
    },
    "confectionery": {
        "count": 1,
        "detail": [
            {
                "name": "Крендель",
                "shop": "confectionery",
                "addr:city": "Барнаул",
                "addr:street": "проспект Ленина",
                "addr:housenumber": "10"
            }
        ]
    },
    "tea": {
        "count": 1,
        "detail": [
            {
                "name": "Пей Чай",
                "shop": "tea",
                "addr:city": "Барнаул",
                "addr:street": "проспект Ленина",
                "addr:housenumber": "10"
            }
        ]
    },
    "bag": {
        "count": 1,
        "detail": [
            {
                "name": "Сафари",
                "shop": "bag",
                "addr:city": "Барнаул",
                "addr:street": "проспект Ленина",
                "addr:housenumber": "10"
            }
        ]
    },
    "jewelry": {
        "count": 1,
        "detail": [
            {
                "name": "Александров и К",
                "shop": "jewelry",
                "addr:city": "Барнаул",
                "addr:street": "проспект Ленина",
                "addr:housenumber": "14"
            }
        ]
    },
    "shoes": {
        "count": 1,
        "detail": [
            {
                "name": "Обувь",
                "shop": "shoes",
                "addr:city": "Барнаул",
                "addr:street": "проспект Ленина",
                "addr:housenumber": "10"
            }
        ]
    },
    "bar": {
        "count": 2,
        "detail": [
            {
                "name": "Стаут Маклауд",
                "amenity": "bar",
                "addr:city": "Барнаул",
                "addr:street": "улица Гоголя",
                "addr:housenumber": "52"
            },
            {
                "name": "Пробка",
                "amenity": "bar",
                "addr:city": "Барнаул",
                "addr:street": "улица Гоголя",
                "addr:housenumber": "52"
            }
        ]
    },
    "fast_food": {
        "count": 1,
        "detail": [
            {
                "name": "Мантоварка",
                "amenity": "fast_food",
                "addr:city": "Барнаул",
                "addr:street": "проспект Ленина",
                "addr:housenumber": "2"
            }
        ]
    },
    "travel_agency": {
        "count": 1,
        "detail": [
            {
                "addr:city": "Барнаул",
                "addr:housenumber": "3",
                "addr:postcode": "656043",
                "addr:street": "проспект Ленина",
                "contact:facebook": "https://www.facebook.com/barnaultravel",
                "contact:instagram": "https://instagram.com/barnaul_travel",
                "contact:ok": "https://ok.ru/barnaultravel",
                "contact:phone": "+73852503320",
                "contact:twitter": "https://twitter.com/barnaul_travel",
                "contact:viber": "+7 913 2105930",
                "contact:vk": "https://vk.com/barnaul_travel",
                "email": "info@barnaul-travel.ru",
                "name": "Барнаул-Трэвел",
                "name:en": "Barnaul-Travel",
                "opening_hours": "Mo-Fr 10:00-20:00; Sa 11:00-17:00",
                "payment:cash": "yes",
                "payment:credit_cards": "yes",
                "payment:debit_cards": "yes",
                "payment:maestro": "yes",
                "payment:mastercard": "yes",
                "payment:notes": "yes",
                "phone": "+73852605930",
                "phone:mobile": "+7 913 2105930",
                "shop": "travel_agency",
                "website": "http://barnaul-travel.ru"
            }
        ]
    },
    "toys": {
        "count": 1,
        "detail": [
            {
                "name": "Игрушки",
                "shop": "toys",
                "addr:city": "Барнаул",
                "addr:street": "проспект Ленина",
                "addr:housenumber": "10"
            }
        ]
    },
    "antiques": {
        "count": 1,
        "detail": [
            {
                "name": "Антиквариат",
                "shop": "antiques",
                "addr:city": "Барнаул",
                "addr:street": "проспект Ленина",
                "addr:housenumber": "10"
            }
        ]
    },
    "restaurant": {
        "count": 1,
        "detail": [
            {
                "amenity": "restaurant",
                "name": "Горная аптека",
                "opening_hours": "24/7"
            }
        ]
    },
    "compressed_air": {
        "count": 1,
        "detail": [
            {
                "amenity": "compressed_air",
                "fee": "no",
                "source": "gpnbonus.ru, Я.Панорамы"
            }
        ]
    },
    "mall": {
        "count": 2,
        "detail": [
            {
                "addr:city": "Барнаул",
                "addr:country": "RU",
                "addr:housenumber": "10",
                "addr:region": "Алтайский край",
                "addr:street": "проспект Ленина",
                "building": "yes",
                "name": "ТЦ Ультра",
                "name:en": "Ultra",
                "shop": "mall",
                "website": "http://www.tdultra.ru/"
            },
            {
                "addr:city": "Барнаул",
                "addr:country": "RU",
                "addr:housenumber": "3",
                "addr:region": "Алтайский край",
                "addr:street": "проспект Ленина",
                "alt_name": "Седьмой континент",
                "building": "yes",
                "name": "ТЦ 7й континент",
                "name:en": "7 Kontinent",
                "phone": "+7 960 965-59-88",
                "shop": "mall",
                "website": "https://7-kontinent.ru/"
            }
        ]
    },
    "radiotechnics": {
        "count": 1,
        "detail": [
            {
                "shop": "radiotechnics",
                "building": "yes",
                "addr:city": "Барнаул",
                "addr:region": "Алтайский край",
                "addr:street": "улица Пушкина",
                "addr:country": "RU",
                "addr:housenumber": "49"
            }
        ]
    },
    "commercial": {
        "count": 2,
        "detail": [
            {
                "addr:city": "Барнаул",
                "addr:housenumber": "66В",
                "addr:street": "улица Пушкина",
                "building": "commercial",
                "building:levels": "4"
            },
            {
                "addr:city": "Барнаул",
                "addr:housenumber": "66А",
                "addr:street": "улица Пушкина",
                "building": "commercial",
                "building:levels": "3"
            }
        ]
    }
}