{
    "residents": 6900,
    "car": {
        "count": 2,
        "detail": [
            {
                "name": "AVTO-мир",
                "shop": "car",
                "phone": "+7 3519 223179",
                "addr:city": "Магнитогорск",
                "addr:street": "улица Николая Шишка",
                "description": "Запчасти на ВАЗ",
                "addr:postcode": "455000",
                "addr:housenumber": "32"
            },
            {
                "name": "START-Авто",
                "shop": "car",
                "addr:city": "Магнитогорск",
                "addr:street": "улица Николая Шишка",
                "description": "Автозапчасти, масла ко всем видам авто",
                "addr:postcode": "455000",
                "addr:housenumber": "34"
            }
        ]
    },
    "convenience": {
        "count": 2,
        "detail": [
            {
                "name": "Северный",
                "shop": "convenience",
                "addr:city": "Магнитогорск",
                "addr:street": "улица Строителей",
                "addr:postcode": "455000",
                "addr:housenumber": "41"
            },
            {
                "name": "У Чапая",
                "shop": "convenience",
                "addr:city": "Магнитогорск",
                "addr:street": "улица Чапаева",
                "addr:postcode": "455000",
                "addr:housenumber": "8"
            }
        ]
    },
    "bank": {
        "count": 1,
        "detail": [
            {
                "addr:city": "Магнитогорск",
                "addr:housenumber": "48",
                "addr:postcode": "455000",
                "addr:street": "улица Строителей",
                "amenity": "bank",
                "description": "Сбербанк России (отделение №1693/0115)",
                "operator": "Сбербанк",
                "phone": "+7 3519 227472",
                "website": "https://www.sberbank.ru/"
            }
        ]
    },
    "post_office": {
        "count": 1,
        "detail": [
            {
                "addr:city": "Магнитогорск",
                "addr:country": "RU",
                "addr:housenumber": "48",
                "addr:postcode": "455000",
                "addr:street": "улица Строителей",
                "amenity": "post_office",
                "brand": "Почта России",
                "brand:wikidata": "Q1502763",
                "brand:wikipedia": "ru:Почта России",
                "contact:email": "client@russianpost.ru",
                "contact:facebook": "https://www.facebook.com/ruspost",
                "contact:instagram": "https://www.instagram.com/ruspostofficial",
                "contact:ok": "https://ok.ru/ruspostofficial",
                "contact:twitter": "https://twitter.com/ruspostofficial",
                "contact:vk": "https://vk.com/russianpost",
                "contact:website": "https://www.pochta.ru",
                "name": "Магнитогорск 455004",
                "opening_hours": "Mo-Fr 10:00-14:00,15:00-18:00",
                "operator": "АО «Почта России»",
                "operator:wikidata": "Q1502763",
                "operator:wikipedia": "ru:Почта России",
                "ref": "455004"
            }
        ]
    },
    "pharmacy": {
        "count": 1,
        "detail": [
            {
                "name": "Оптима",
                "phone": "+7 3519 226847",
                "amenity": "pharmacy",
                "addr:city": "Магнитогорск",
                "addr:street": "улица Строителей",
                "addr:postcode": "455000",
                "opening_hours": "Mo-Fr 09:00-21:00; Sa-Su 09:00-20:00",
                "addr:housenumber": "41"
            }
        ]
    },
    "cafe": {
        "count": 2,
        "detail": [
            {
                "name": "Ланцелот",
                "phone": "+7 3519 450856",
                "amenity": "cafe",
                "addr:city": "Магнитогорск",
                "addr:street": "улица Ломоносова",
                "description": "Кафе/бар",
                "addr:postcode": "455000",
                "addr:housenumber": "5"
            },
            {
                "amenity": "cafe",
                "building": "yes"
            }
        ]
    },
    "bus_stop": {
        "count": 6,
        "detail": [
            {
                "name": "Первая палатка",
                "highway": "bus_stop"
            },
            {
                "name": "Первая палатка",
                "highway": "bus_stop"
            },
            {
                "bench": "yes",
                "highway": "bus_stop",
                "name": "Площадь Свердлова",
                "shelter": "yes",
                "tactile_paving": "no"
            },
            {
                "bench": "yes",
                "highway": "bus_stop",
                "name": "Площадь Свердлова",
                "shelter": "yes",
                "tactile_paving": "no"
            },
            {
                "name": "Площадь Свердлова",
                "highway": "bus_stop"
            },
            {
                "name": "Площадь Свердлова",
                "highway": "bus_stop"
            }
        ]
    },
    "alcohol": {
        "count": 1,
        "detail": [
            {
                "name": "Чарка",
                "shop": "alcohol",
                "phone": "+7 3519 238454",
                "addr:city": "Магнитогорск",
                "addr:street": "улица Строителей",
                "addr:housenumber": "41"
            }
        ]
    },
    "hairdresser": {
        "count": 1,
        "detail": [
            {
                "shop": "hairdresser",
                "phone": "+7 3519 220827",
                "addr:city": "Магнитогорск",
                "addr:street": "улица Николая Шишка",
                "addr:postcode": "455000",
                "addr:housenumber": "36"
            }
        ]
    },
    "atm": {
        "count": 1,
        "detail": [
            {
                "addr:city": "Магнитогорск",
                "addr:housenumber": "41",
                "addr:postcode": "455000",
                "addr:street": "улица Строителей",
                "amenity": "atm",
                "check_date": "2021-02-28",
                "opening_hours": "24/7",
                "operator": "КУБ"
            }
        ]
    },
    "waste_disposal": {
        "count": 2,
        "detail": [
            {
                "waste": "trash",
                "amenity": "waste_disposal"
            },
            {
                "amenity": "waste_disposal"
            }
        ]
    },
    "furniture": {
        "count": 1,
        "detail": [
            {
                "name": "Елочка",
                "shop": "furniture",
                "addr:street": "улица Строителей",
                "addr:housenumber": "54"
            }
        ]
    },
    "telephone": {
        "count": 1,
        "detail": [
            {
                "amenity": "telephone"
            }
        ]
    },
    "childcare": {
        "count": 1,
        "detail": [
            {
                "amenity": "childcare",
                "contact:email": "mgn.lomonosova@baby-club.ru",
                "contact:facebook": "https://www.facebook.com/babyclubru",
                "contact:instagram": "https://www.instagram.com/babyclub_magnitogorsk/",
                "contact:phone": "+7 800 1002024;+7 912 4040208;+7 912 8057108",
                "contact:vk": "https://vk.com/mgn.lomonosova.tevosyana",
                "contact:website": "https://baby-club.ru/",
                "name": "Бэби-клуб",
                "opening_hours": "Mo-Sa 9:00-20:00",
                "operator": "Бэби-клуб"
            }
        ]
    },
    "hospital": {
        "count": 4,
        "detail": [
            {
                "name": "Роддом №3",
                "phone": "+7 3519 221051",
                "amenity": "hospital",
                "building": "yes",
                "addr:city": "Магнитогорск",
                "addr:street": "улица Николая Шишка",
                "addr:postcode": "455000",
                "addr:housenumber": "30"
            },
            {
                "addr:city": "Магнитогорск",
                "addr:housenumber": "3",
                "addr:postcode": "455000",
                "addr:street": "улица Куйбышева",
                "amenity": "hospital",
                "building": "yes",
                "building:levels": "2",
                "name": "Агат",
                "roof:shape": "hipped"
            },
            {
                "addr:city": "Магнитогорск",
                "addr:housenumber": "9",
                "addr:postcode": "455000",
                "addr:street": "улица Куйбышева",
                "amenity": "hospital",
                "building": "yes",
                "building:levels": "2",
                "name": "Противотуберкулезный санаторий Березка",
                "phone": "+7 3519 227539",
                "roof:shape": "hipped"
            },
            {
                "addr:city": "Магнитогорск",
                "addr:housenumber": "15/1",
                "addr:postcode": "455000",
                "addr:street": "Комсомольская улица",
                "amenity": "hospital",
                "building": "yes",
                "building:levels": "3",
                "name": "Детская поликлиника №2",
                "roof:shape": "flat"
            }
        ]
    },
    "service": {
        "count": 1,
        "detail": [
            {
                "addr:city": "Магнитогорск",
                "addr:postcode": "455000",
                "addr:street": "улица Менделеева",
                "building": "service",
                "name": "Х/б"
            }
        ]
    },
    "school": {
        "count": 1,
        "detail": [
            {
                "phone": "+7 3519 224344",
                "building": "school",
                "addr:city": "Магнитогорск",
                "addr:street": "Комсомольская улица",
                "addr:postcode": "455000",
                "building:levels": "4",
                "addr:housenumber": "6"
            }
        ]
    },
    "nightclub": {
        "count": 1,
        "detail": [
            {
                "name": "НК Премьер",
                "amenity": "nightclub",
                "building": "yes",
                "addr:city": "Магнитогорск",
                "addr:street": "улица Николая Шишка",
                "addr:postcode": "455000",
                "addr:housenumber": "37 к1"
            }
        ]
    }
}