{
    "residents": 8139,
    "bank": {
        "count": 2,
        "detail": [
            {
                "amenity": "bank",
                "website": "https://www.creditural.ru/",
                "operator": "КУБ",
                "addr:city": "Магнитогорск",
                "description": "Центральный офис, банкомат",
                "addr:postcode": "455044"
            },
            {
                "addr:city": "Магнитогорск",
                "addr:housenumber": "75",
                "addr:street": "проспект Карла Маркса",
                "amenity": "bank",
                "name": "Промсвязьбанк",
                "opening_hours": "Mo-Fr 09:00-18:00",
                "phone": "+7 3519 278723",
                "website": "https://www.psbank.ru/"
            }
        ]
    },
    "clothes": {
        "count": 5,
        "detail": [
            {
                "name": "Premaman",
                "shop": "clothes",
                "phone": "+7 3519 232676",
                "addr:city": "Магнитогорск",
                "addr:street": "проспект Ленина",
                "addr:postcode": "455023",
                "addr:housenumber": "64"
            },
            {
                "name": "Артемида",
                "shop": "clothes",
                "addr:city": "Магнитогорск",
                "addr:street": "проспект Ленина",
                "addr:postcode": "455023",
                "addr:housenumber": "52"
            },
            {
                "name": "Savage",
                "shop": "clothes",
                "addr:city": "Магнитогорск",
                "addr:street": "проспект Ленина",
                "addr:postcode": "455023",
                "addr:housenumber": "60"
            },
            {
                "name": "Терминал",
                "shop": "clothes",
                "addr:city": "Магнитогорск",
                "addr:street": "проспект Карла Маркса",
                "description": "Конфискат",
                "addr:postcode": "455023",
                "addr:housenumber": "78"
            },
            {
                "shop": "clothes",
                "name:en": "LC WAIKIKI",
                "opening_hours": "Mo-Su 11:00-20:00"
            }
        ]
    },
    "shoes": {
        "count": 1,
        "detail": [
            {
                "name": "M-Shoes",
                "shop": "shoes",
                "addr:city": "Магнитогорск",
                "addr:street": "проспект Ленина",
                "addr:postcode": "455023",
                "addr:housenumber": "54"
            }
        ]
    },
    "cafe": {
        "count": 2,
        "detail": [
            {
                "name": "Терем",
                "phone": "+7 3519 279057",
                "amenity": "cafe",
                "addr:city": "Магнитогорск",
                "addr:street": "улица Гагарина",
                "addr:postcode": "455023",
                "addr:housenumber": "14"
            },
            {
                "amenity": "cafe",
                "contact:email": "hotline@coffee-like.com",
                "contact:phone": "+7 341 2908292;+7 800 3334130",
                "contact:website": "https://coffee-like.com/",
                "name": "Coffee Like",
                "opening_hours": "Mo-Su 08:30-21:00",
                "operator": "Голубь Антон Владимирович"
            }
        ]
    },
    "pharmacy": {
        "count": 6,
        "detail": [
            {
                "name": "Аптека здоровья",
                "amenity": "pharmacy",
                "addr:city": "Магнитогорск",
                "addr:street": "проспект Карла Маркса",
                "addr:postcode": "455023",
                "addr:housenumber": "82"
            },
            {
                "name": "Оптима",
                "phone": "+7 3519 279754",
                "amenity": "pharmacy",
                "addr:city": "Магнитогорск",
                "addr:street": "проспект Ленина",
                "addr:postcode": "455023",
                "addr:housenumber": "64"
            },
            {
                "addr:city": "Магнитогорск",
                "addr:housenumber": "73",
                "addr:postcode": "455023",
                "addr:street": "проспект Карла Маркса",
                "amenity": "pharmacy",
                "description": "Государственная аптека №156",
                "name": "№156",
                "opening_hours": "Mo-Su 08:00-22:00",
                "phone": "+7 3519 266997;+7 3519 267057"
            },
            {
                "name": "Классика",
                "amenity": "pharmacy",
                "addr:city": "Магнитогорск",
                "addr:street": "проспект Ленина",
                "addr:postcode": "455023",
                "addr:housenumber": "64"
            },
            {
                "name": "Уралмедсервис",
                "amenity": "pharmacy",
                "addr:city": "Магнитогорск",
                "dispensing": "yes",
                "addr:street": "проспект Карла Маркса",
                "opening_hours": "Mo-Su 08:00-20:00",
                "addr:housenumber": "78"
            },
            {
                "addr:city": "Магнитогорск",
                "addr:housenumber": "75",
                "addr:street": "проспект Карла Маркса",
                "amenity": "pharmacy",
                "dispensing": "yes",
                "name": "Классика",
                "opening_hours": "Mo-Su 08:00-22:00",
                "phone": "+7 3519 278179"
            }
        ]
    },
    "convenience": {
        "count": 4,
        "detail": [
            {
                "name": "Русь",
                "shop": "convenience",
                "addr:city": "Магнитогорск",
                "addr:street": "улица Гагарина",
                "description": "Продукты",
                "addr:postcode": "455023",
                "addr:housenumber": "14"
            },
            {
                "name": "Магнит",
                "shop": "convenience",
                "addr:city": "Магнитогорск",
                "addr:street": "проспект Карла Маркса",
                "description": "Продукты",
                "addr:postcode": "455023",
                "addr:housenumber": "76"
            },
            {
                "name": "Магнит",
                "shop": "convenience"
            },
            {
                "addr:city": "Магнитогорск",
                "addr:housenumber": "74",
                "addr:street": "проспект Карла Маркса",
                "name": "Шок Цена",
                "opening_hours": "Mo-Su 09:00-21:00",
                "phone": "+7 912 0839198",
                "shop": "convenience"
            }
        ]
    },
    "florist": {
        "count": 1,
        "detail": [
            {
                "name": "Татьяна",
                "shop": "florist",
                "addr:city": "Магнитогорск",
                "addr:street": "проспект Карла Маркса",
                "description": "Салон цветов",
                "addr:postcode": "455023",
                "addr:housenumber": "75"
            }
        ]
    },
    "school": {
        "count": 3,
        "detail": [
            {
                "name": "Школа 6",
                "amenity": "school",
                "addr:city": "Магнитогорск",
                "addr:street": "проспект Карла Маркса",
                "addr:postcode": "455026",
                "addr:housenumber": "86"
            },
            {
                "addr:city": "Магнитогорск",
                "addr:housenumber": "12",
                "addr:postcode": "455023",
                "addr:street": "улица Гагарина",
                "amenity": "school",
                "building": "yes",
                "building:levels": "4",
                "name": "МОУ \"СОШ№56 УИМ\"",
                "roof:shape": "hipped"
            },
            {
                "addr:city": "Магнитогорск",
                "addr:housenumber": "86",
                "addr:postcode": "455026",
                "addr:street": "проспект Карла Маркса",
                "building": "school",
                "building:levels": "3",
                "roof:shape": "hipped"
            }
        ]
    },
    "restaurant": {
        "count": 1,
        "detail": [
            {
                "name": "Мон Плезир",
                "phone": "+7 3519 370886",
                "amenity": "restaurant",
                "addr:city": "Магнитогорск",
                "addr:street": "улица Гагарина",
                "description": "Кофейня",
                "addr:postcode": "455044",
                "addr:housenumber": "15А"
            }
        ]
    },
    "kindergarten": {
        "count": 9,
        "detail": [
            {
                "addr:city": "Магнитогорск",
                "addr:housenumber": "23",
                "addr:postcode": "455026",
                "addr:street": "улица Гагарина",
                "amenity": "kindergarten",
                "description": "Детский Сад №81 \"Материнская школа\"",
                "name": "Д/с 81",
                "phone": "+7 3519 371382"
            },
            {
                "addr:city": "Магнитогорск",
                "addr:country": "RU",
                "addr:housenumber": "9А",
                "addr:postcode": "455023",
                "addr:street": "улица Помяловского",
                "building": "kindergarten",
                "building:levels": "2",
                "roof:shape": "hipped"
            },
            {
                "name": "Д/с 182",
                "amenity": "kindergarten",
                "building": "yes",
                "addr:city": "Магнитогорск",
                "addr:street": "проспект Карла Маркса",
                "addr:postcode": "455023",
                "building:levels": "2",
                "addr:housenumber": "63/2"
            },
            {
                "addr:city": "Магнитогорск",
                "addr:postcode": "455023",
                "addr:street": "проспект Ленина",
                "building": "kindergarten",
                "building:levels": "2"
            },
            {
                "addr:city": "Магнитогорск",
                "addr:housenumber": "54/2",
                "addr:postcode": "455023",
                "addr:street": "проспект Ленина",
                "building": "kindergarten",
                "building:levels": "2"
            },
            {
                "name": "Д/с 75",
                "amenity": "kindergarten",
                "building": "yes",
                "addr:city": "Магнитогорск",
                "addr:street": "проспект Карла Маркса",
                "addr:postcode": "455023",
                "building:levels": "2",
                "addr:housenumber": "57/2"
            },
            {
                "addr:city": "Магнитогорск",
                "addr:housenumber": "23",
                "addr:postcode": "455026",
                "addr:street": "улица Гагарина",
                "building": "kindergarten",
                "building:levels": "2"
            },
            {
                "addr:city": "Магнитогорск",
                "addr:housenumber": "29",
                "addr:postcode": "455026",
                "addr:street": "улица Гагарина",
                "building": "kindergarten",
                "building:levels": "2",
                "roof:shape": "hipped"
            },
            {
                "addr:city": "Магнитогорск",
                "addr:housenumber": "52/3",
                "addr:postcode": "455023",
                "addr:street": "проспект Ленина",
                "amenity": "kindergarten",
                "building": "yes",
                "building:levels": "2",
                "name": "Д/с  75 (второй корпус)"
            }
        ]
    },
    "hairdresser": {
        "count": 1,
        "detail": [
            {
                "name": "Аллея",
                "shop": "hairdresser",
                "addr:city": "Магнитогорск",
                "addr:street": "проспект Ленина",
                "addr:postcode": "455023",
                "addr:housenumber": "54/1"
            }
        ]
    },
    "atm": {
        "count": 6,
        "detail": [
            {
                "amenity": "atm",
                "operator": "КУБ",
                "addr:city": "Магнитогорск",
                "addr:street": "улица Гагарина",
                "addr:postcode": "455044",
                "addr:housenumber": "17"
            },
            {
                "addr:city": "Магнитогорск",
                "addr:housenumber": "74",
                "addr:street": "проспект Карла Маркса",
                "amenity": "atm",
                "opening_hours": "Mo-Su 09:00-22:00",
                "operator": "Челябинвестбанк"
            },
            {
                "addr:city": "Магнитогорск",
                "addr:housenumber": "74",
                "addr:street": "проспект Карла Маркса",
                "amenity": "atm",
                "opening_hours": "Mo-Su 09:00-22:00",
                "operator": "Альфа-Банк",
                "website": "https://alfabank.ru/"
            },
            {
                "addr:city": "Магнитогорск",
                "addr:housenumber": "74",
                "addr:street": "проспект Карла Маркса",
                "amenity": "atm",
                "opening_hours": "Mo-Su 09:00-22:00",
                "operator": "КУБ"
            },
            {
                "addr:city": "Магнитогорск",
                "addr:housenumber": "75",
                "addr:street": "проспект Карла Маркса",
                "amenity": "atm",
                "contact:email": "info@psbank.ru",
                "contact:phone": "+7 495 7873333;+7 800 3330303",
                "contact:website": "https://psbank.ru/",
                "opening_hours": "Mo-Fr 09:00-18:00",
                "operator": "Промсвязьбанк"
            },
            {
                "amenity": "atm",
                "operator": "КУБ",
                "addr:street": "проспект Ленина",
                "opening_hours": "24/7",
                "addr:housenumber": "56"
            }
        ]
    },
    "computer": {
        "count": 1,
        "detail": [
            {
                "name": "Планета Железяка",
                "shop": "computer",
                "addr:city": "Магнитогорск",
                "addr:street": "проспект Ленина",
                "addr:postcode": "455023",
                "addr:housenumber": "54"
            }
        ]
    },
    "bus_stop": {
        "count": 4,
        "detail": [
            {
                "name": "Театр Пушкина",
                "highway": "bus_stop"
            },
            {
                "name": "Гагарина",
                "highway": "bus_stop"
            },
            {
                "name": "Гагарина",
                "highway": "bus_stop"
            },
            {
                "name": "Гагарина",
                "highway": "bus_stop"
            }
        ]
    },
    "fountain": {
        "count": 1,
        "detail": [
            {
                "addr:city": "Магнитогорск",
                "amenity": "fountain"
            }
        ]
    },
    "pet": {
        "count": 1,
        "detail": [
            {
                "name": "Природа",
                "shop": "pet",
                "amenity": "veterinary",
                "addr:street": "проспект Ленина",
                "opening_hours": "Mo-Sa 10:00-19:00;Su 11:00-17:00",
                "addr:housenumber": "56"
            }
        ]
    },
    "chemist": {
        "count": 1,
        "detail": [
            {
                "name": "Альбатрос",
                "opening_hours": "Mo-Su 09:00-21:00",
                "phone": "+7 3519 278964",
                "shop": "chemist"
            }
        ]
    },
    "waste_disposal": {
        "count": 5,
        "detail": [
            {
                "waste": "trash",
                "amenity": "waste_disposal"
            },
            {
                "waste": "trash",
                "amenity": "waste_disposal"
            },
            {
                "waste": "trash",
                "amenity": "waste_disposal"
            },
            {
                "waste": "trash",
                "amenity": "waste_disposal"
            },
            {
                "amenity": "waste_disposal"
            }
        ]
    },
    "radiotechnics": {
        "count": 1,
        "detail": [
            {
                "name": "Электро+",
                "shop": "radiotechnics",
                "addr:city": "Магнитогорск",
                "addr:street": "проспект Карла Маркса",
                "addr:postcode": "455023",
                "addr:housenumber": "75"
            }
        ]
    },
    "alcohol": {
        "count": 2,
        "detail": [
            {
                "name": "Красное & Белое",
                "shop": "alcohol"
            },
            {
                "contact:facebook": "https://facebook.com/mavtmagnum",
                "contact:instagram": "https://instagram.com/mavt_magnum",
                "contact:phone": "+7 800 2224020;+7 922 7470773",
                "contact:twitter": "https://twitter.com/@mavt_magnum",
                "contact:vk": "https://vk.com/mavt_magnum",
                "contact:website": "https://mavt.ru/",
                "name": "МАВТ-Винотека",
                "opening_hours": "Mo-Su 10:00-23:00",
                "operator": "МАВТ-Винотека",
                "shop": "alcohol"
            }
        ]
    },
    "beauty": {
        "count": 1,
        "detail": [
            {
                "name": "Ваш стиль",
                "shop": "beauty",
                "email": "v-stile@list.ru",
                "phone": "+73519279760",
                "website": "http://www.vs2001.ru",
                "addr:postcode": "455000",
                "opening_hours": "Mo-Su 09:00-20:00",
                "internet_access": "wlan"
            }
        ]
    },
    "playground": {
        "count": 1,
        "detail": [
            {
                "access": "yes",
                "leisure": "playground"
            }
        ]
    },
    "post_box": {
        "count": 1,
        "detail": [
            {
                "amenity": "post_box"
            }
        ]
    },
    "bicycle_parking": {
        "count": 1,
        "detail": [
            {
                "amenity": "bicycle_parking"
            }
        ]
    },
    "cosmetics": {
        "count": 1,
        "detail": [
            {
                "contact:email": "yrru.rocketdata@gmail.com",
                "contact:phone": "+7 815 2473396",
                "contact:website": "https://www.yves-rocher.ru/",
                "name": "Ив Роше",
                "opening_hours": "Mo-Sa 11:00-20:00;Su 12:00-19:00",
                "operator": "ЭВИДЕНС",
                "shop": "cosmetics"
            }
        ]
    },
    "mobile_phone": {
        "count": 1,
        "detail": [
            {
                "addr:postcode": "455023",
                "email": "info@navkusicvet.ru",
                "internet_access": "wlan",
                "name": "На Вкус и Цвет",
                "name:en": "na vkus i cvet",
                "opening_hours": "Mo-Su 10:00-21:00",
                "operator": "Navkusicvet",
                "phone": "+7 965 8588888",
                "shop": "mobile_phone",
                "website": "https://navkusicvet.ru"
            }
        ]
    },
    "service": {
        "count": 7,
        "detail": [
            {
                "addr:city": "Магнитогорск",
                "building": "service",
                "building:levels": "1",
                "roof:shape": "flat"
            },
            {
                "addr:city": "Магнитогорск",
                "building": "service",
                "building:levels": "1",
                "roof:shape": "flat"
            },
            {
                "addr:city": "Магнитогорск",
                "building": "service",
                "building:levels": "1"
            },
            {
                "addr:city": "Магнитогорск",
                "addr:street": "проспект Ленина",
                "building": "service",
                "building:levels": "1"
            },
            {
                "addr:city": "Магнитогорск",
                "building": "service",
                "building:levels": "1"
            },
            {
                "addr:city": "Магнитогорск",
                "building": "service",
                "building:levels": "1"
            },
            {
                "addr:city": "Магнитогорск",
                "building": "service",
                "building:levels": "1"
            }
        ]
    },
    "marketplace": {
        "count": 1,
        "detail": [
            {
                "addr:city": "Магнитогорск",
                "addr:housenumber": "74",
                "addr:postcode": "455023",
                "addr:street": "проспект Карла Маркса",
                "amenity": "marketplace",
                "building": "yes",
                "name": "Центральный крытый рынок",
                "opening_hours": "Mo-Su 09:00-22:00",
                "phone": "+7 3519 261563;+7 3519 261671"
            }
        ]
    },
    "theatre": {
        "count": 1,
        "detail": [
            {
                "addr:city": "Магнитогорск",
                "addr:housenumber": "66",
                "addr:postcode": "455044",
                "addr:street": "проспект Ленина",
                "amenity": "theatre",
                "building": "yes",
                "name": "Магнитогорский драматический театр им. А.С. Пушкина"
            }
        ]
    }
}