{
    "residents": 7764,
    "police": {
        "count": 1,
        "detail": [
            {
                "name": "УВД",
                "amenity": "police",
                "addr:city": "Магнитогорск",
                "addr:street": "улица Строителей",
                "addr:postcode": "455000",
                "addr:housenumber": "9"
            }
        ]
    },
    "bank": {
        "count": 1,
        "detail": [
            {
                "addr:city": "Магнитогорск",
                "addr:housenumber": "12",
                "addr:postcode": "455000",
                "addr:street": "проспект Ленина",
                "amenity": "bank",
                "description": "Сбербанк России (отделение №1693/0116)",
                "operator": "Сбербанк",
                "phone": "+7 3519 206847",
                "website": "https://www.sberbank.ru/"
            }
        ]
    },
    "kindergarten": {
        "count": 4,
        "detail": [
            {
                "name": "Д/с 63",
                "phone": "+7 3519 220100",
                "amenity": "kindergarten",
                "addr:city": "Магнитогорск",
                "addr:street": "Московская улица",
                "addr:postcode": "455000",
                "addr:housenumber": "35/1"
            },
            {
                "name": "Д/с 35",
                "phone": "+7 3519 220130",
                "amenity": "kindergarten",
                "addr:city": "Магнитогорск",
                "addr:street": "Первомайская улица",
                "addr:postcode": "455000",
                "addr:housenumber": "14/1"
            },
            {
                "name": "Детский Сад 35",
                "building": "kindergarten",
                "addr:city": "Магнитогорск",
                "addr:street": "Первомайская улица",
                "addr:postcode": "455000",
                "addr:housenumber": "14А"
            },
            {
                "name": "Детский Сад 63",
                "building": "kindergarten",
                "addr:city": "Магнитогорск",
                "addr:street": "Московская улица",
                "addr:postcode": "455000",
                "addr:housenumber": "35/1"
            }
        ]
    },
    "furniture": {
        "count": 2,
        "detail": [
            {
                "name": "Умка",
                "shop": "furniture",
                "phone": "+7 3519 206828",
                "addr:city": "Магнитогорск",
                "addr:street": "проспект Ленина",
                "addr:postcode": "455000",
                "addr:housenumber": "18"
            },
            {
                "name": "Кухни",
                "shop": "furniture",
                "addr:city": "Магнитогорск",
                "addr:street": "проспект Карла Маркса",
                "addr:postcode": "455000",
                "addr:housenumber": "30"
            }
        ]
    },
    "car": {
        "count": 1,
        "detail": [
            {
                "name": "Автодом",
                "shop": "car",
                "phone": "+7 3519 233333",
                "addr:city": "Магнитогорск",
                "addr:street": "проспект Ленина",
                "description": "Запчасти для легковой иномарки",
                "addr:postcode": "455000",
                "addr:housenumber": "19"
            }
        ]
    },
    "convenience": {
        "count": 3,
        "detail": [
            {
                "name": "Продукты",
                "shop": "convenience",
                "addr:city": "Магнитогорск",
                "addr:street": "Первомайская улица",
                "addr:postcode": "455000",
                "addr:housenumber": "6"
            },
            {
                "name": "Шанс",
                "shop": "convenience",
                "addr:city": "Магнитогорск",
                "addr:street": "проспект Ленина",
                "description": "Продукты",
                "addr:postcode": "455000",
                "addr:housenumber": "21"
            },
            {
                "name": "Ситно",
                "shop": "convenience",
                "operator": "Ситно",
                "addr:city": "Магнитогорск",
                "addr:street": "проспект Ленина",
                "description": "Продукты",
                "addr:postcode": "455000",
                "addr:housenumber": "18"
            }
        ]
    },
    "hairdresser": {
        "count": 1,
        "detail": [
            {
                "shop": "hairdresser",
                "phone": "+7 3519 237933",
                "addr:city": "Магнитогорск",
                "addr:street": "проспект Карла Маркса",
                "addr:postcode": "455000",
                "addr:housenumber": "30"
            }
        ]
    },
    "pharmacy": {
        "count": 3,
        "detail": [
            {
                "name": "Оптима",
                "phone": "+7 3519 206162",
                "amenity": "pharmacy",
                "addr:city": "Магнитогорск",
                "addr:street": "проспект Карла Маркса",
                "addr:postcode": "455000",
                "addr:housenumber": "30"
            },
            {
                "amenity": "pharmacy"
            },
            {
                "amenity": "pharmacy",
                "contact:facebook": "http://facebook.com/aptekivita",
                "contact:instagram": "https://www.instagram.com/vita_express/",
                "contact:phone": "+7 800 7550003",
                "contact:vk": "https://vk.com/aptekivita",
                "contact:website": "https://vitaexpress.ru/",
                "name": "Вита Экспресс",
                "opening_hours": "Mo-Fr 08:00-21:00;Sa-Su 09:00-21:00"
            }
        ]
    },
    "dentist": {
        "count": 1,
        "detail": [
            {
                "name": "Стоматология",
                "amenity": "dentist",
                "addr:city": "Магнитогорск",
                "addr:street": "проспект Карла Маркса",
                "addr:housenumber": "17"
            }
        ]
    },
    "bus_stop": {
        "count": 4,
        "detail": [
            {
                "name": "Первомайская",
                "highway": "bus_stop"
            },
            {
                "name": "Первомайская",
                "highway": "bus_stop"
            },
            {
                "name": "Спортшкола",
                "highway": "bus_stop"
            },
            {
                "name": "Спортшкола",
                "highway": "bus_stop"
            }
        ]
    },
    "hardware": {
        "count": 1,
        "detail": [
            {
                "name": "Дом Ком",
                "shop": "hardware",
                "addr:city": "Магнитогорск",
                "addr:street": "Первомайская улица",
                "addr:postcode": "455000",
                "addr:housenumber": "5"
            }
        ]
    },
    "telephone": {
        "count": 1,
        "detail": [
            {
                "amenity": "telephone"
            }
        ]
    },
    "cafe": {
        "count": 1,
        "detail": [
            {
                "name": "Уют",
                "amenity": "cafe",
                "addr:city": "Магнитогорск",
                "addr:street": "Уральская улица",
                "addr:postcode": "455000",
                "addr:housenumber": "21/3"
            }
        ]
    },
    "electronics": {
        "count": 2,
        "detail": [
            {
                "name": "Рубин",
                "shop": "electronics",
                "addr:city": "Магнитогорск",
                "addr:street": "проспект Ленина",
                "addr:postcode": "455000",
                "addr:housenumber": "19"
            },
            {
                "name": "Ритм",
                "shop": "electronics",
                "addr:city": "Магнитогорск",
                "addr:street": "проспект Ленина",
                "addr:postcode": "455000",
                "addr:housenumber": "21"
            }
        ]
    },
    "supermarket": {
        "count": 1,
        "detail": [
            {
                "name": "Магнит",
                "shop": "supermarket",
                "addr:city": "Магнитогорск",
                "addr:street": "проспект Ленина",
                "description": "Сеть супермаркетов Магнит",
                "addr:postcode": "455000",
                "addr:housenumber": "12"
            }
        ]
    },
    "bench": {
        "count": 15,
        "detail": [
            {
                "amenity": "bench",
                "backrest": "yes",
                "check_date": "2021-02-02",
                "colour": "brown",
                "material": "wood",
                "seats": "3"
            },
            {
                "amenity": "bench",
                "backrest": "yes",
                "check_date": "2021-02-02",
                "colour": "brown",
                "material": "wood",
                "seats": "3"
            },
            {
                "amenity": "bench",
                "backrest": "yes",
                "check_date": "2021-02-02",
                "colour": "brown",
                "material": "wood",
                "seats": "3"
            },
            {
                "amenity": "bench",
                "backrest": "yes",
                "check_date": "2021-02-02",
                "colour": "brown",
                "material": "wood",
                "seats": "3"
            },
            {
                "amenity": "bench",
                "backrest": "yes",
                "check_date": "2021-02-02",
                "colour": "brown",
                "material": "wood",
                "seats": "3"
            },
            {
                "amenity": "bench",
                "backrest": "yes",
                "check_date": "2021-02-02",
                "colour": "brown",
                "material": "wood",
                "seats": "3"
            },
            {
                "seats": "3",
                "colour": "brown",
                "amenity": "bench",
                "backrest": "yes",
                "material": "wood"
            },
            {
                "amenity": "bench",
                "backrest": "yes",
                "check_date": "2021-02-02",
                "colour": "brown",
                "material": "wood",
                "seats": "3"
            },
            {
                "seats": "3",
                "colour": "brown",
                "amenity": "bench",
                "backrest": "yes",
                "material": "wood"
            },
            {
                "amenity": "bench",
                "backrest": "yes",
                "check_date": "2021-02-02",
                "colour": "brown",
                "material": "wood",
                "seats": "3"
            },
            {
                "amenity": "bench",
                "backrest": "yes",
                "check_date": "2021-02-02",
                "colour": "brown",
                "material": "wood",
                "seats": "3"
            },
            {
                "amenity": "bench",
                "backrest": "yes",
                "check_date": "2021-02-02",
                "colour": "brown",
                "material": "wood",
                "seats": "3"
            },
            {
                "amenity": "bench",
                "backrest": "yes",
                "check_date": "2021-02-02",
                "colour": "brown",
                "material": "wood",
                "seats": "3"
            },
            {
                "amenity": "bench",
                "backrest": "yes",
                "check_date": "2021-02-02",
                "colour": "brown",
                "material": "wood",
                "seats": "3"
            },
            {
                "amenity": "bench",
                "backrest": "yes",
                "check_date": "2021-02-02",
                "colour": "brown",
                "material": "wood",
                "seats": "3"
            }
        ]
    },
    "fountain": {
        "count": 1,
        "detail": [
            {
                "amenity": "fountain"
            }
        ]
    },
    "waste_disposal": {
        "count": 4,
        "detail": [
            {
                "amenity": "waste_disposal"
            },
            {
                "amenity": "waste_disposal"
            },
            {
                "amenity": "waste_disposal"
            },
            {
                "amenity": "waste_disposal"
            }
        ]
    },
    "sports": {
        "count": 1,
        "detail": [
            {
                "shop": "sports"
            }
        ]
    },
    "bicycle_parking": {
        "count": 1,
        "detail": [
            {
                "amenity": "bicycle_parking",
                "capacity": "8",
                "bicycle_parking": "rack"
            }
        ]
    },
    "fast_food": {
        "count": 1,
        "detail": [
            {
                "amenity": "fast_food",
                "name": "Алёнка"
            }
        ]
    },
    "service": {
        "count": 4,
        "detail": [
            {
                "addr:city": "Магнитогорск",
                "addr:postcode": "455000",
                "addr:street": "Уральская улица",
                "building": "service",
                "building:levels": "1"
            },
            {
                "addr:city": "Магнитогорск",
                "addr:postcode": "455000",
                "building": "service"
            },
            {
                "addr:city": "Магнитогорск",
                "addr:postcode": "455000",
                "building": "service",
                "building:levels": "1"
            },
            {
                "addr:city": "Магнитогорск",
                "addr:postcode": "455000",
                "building": "service"
            }
        ]
    },
    "hospital": {
        "count": 1,
        "detail": [
            {
                "addr:city": "Магнитогорск",
                "addr:housenumber": "48",
                "addr:postcode": "455000",
                "addr:street": "Уральская улица",
                "amenity": "hospital",
                "building": "yes",
                "building:levels": "3",
                "name": "Поликлиника №1",
                "phone": "+7 3519 220985"
            }
        ]
    },
    "school": {
        "count": 1,
        "detail": [
            {
                "addr:city": "Магнитогорск",
                "addr:housenumber": "14",
                "addr:postcode": "455000",
                "addr:street": "улица Казакова",
                "amenity": "school",
                "building": "yes",
                "building:levels": "2",
                "name": "Школа 60",
                "phone": "+7 3519 226446"
            }
        ]
    }
}