{
    "residents": 2175,
    "greengrocer": {
        "count": 1,
        "detail": [
            {
                "description": "Воскресный рынок",
                "name": "Воскресный рынок",
                "shop": "greengrocer"
            }
        ]
    },
    "pharmacy": {
        "count": 1,
        "detail": [
            {
                "name": "Имплозия",
                "fixme": "Раньше была имплозия, обновить",
                "amenity": "pharmacy"
            }
        ]
    },
    "car_wash": {
        "count": 1,
        "detail": [
            {
                "name": "Автомойка",
                "amenity": "car_wash"
            }
        ]
    },
    "fuel": {
        "count": 1,
        "detail": [
            {
                "amenity": "fuel"
            }
        ]
    },
    "bus_stop": {
        "count": 2,
        "detail": [
            {
                "bus": "yes",
                "highway": "bus_stop",
                "name": "Магазин \"Океан\"",
                "public_transport": "platform"
            },
            {
                "bus": "yes",
                "highway": "bus_stop",
                "name": "Магазин \"Океан\"",
                "public_transport": "platform"
            }
        ]
    },
    "supermarket": {
        "count": 1,
        "detail": [
            {
                "brand": "Пятёрочка",
                "brand:en": "Pyaterochka",
                "brand:wikidata": "Q1768969",
                "brand:wikipedia": "ru:Пятёрочка",
                "name": "Пятёрочка",
                "name:en": "Pyaterochka",
                "shop": "supermarket"
            }
        ]
    },
    "parking": {
        "count": 1,
        "detail": [
            {
                "amenity": "parking",
                "fee": "yes",
                "layer": "-1",
                "parking": "underground"
            }
        ]
    },
    "atm": {
        "count": 1,
        "detail": [
            {
                "amenity": "atm",
                "contact:email": "info@psbank.ru",
                "contact:phone": "+7 495 7873333;+7 800 3330303",
                "contact:website": "https://psbank.ru/",
                "opening_hours": "Mo-Su 09:00-22:00",
                "operator": "Промсвязьбанк"
            }
        ]
    },
    "mall": {
        "count": 1,
        "detail": [
            {
                "name": "ТЦ \"Океан\"",
                "shop": "mall",
                "building": "yes",
                "addr:city": "Тольятти",
                "addr:street": "улица Свердлова",
                "addr:postcode": "445026",
                "addr:housenumber": "51"
            }
        ]
    },
    "place_of_worship": {
        "count": 1,
        "detail": [
            {
                "addr:city": "Тольятти",
                "addr:country": "RU",
                "addr:housenumber": "2А",
                "addr:street": "бульвар Баумана",
                "amenity": "place_of_worship",
                "building": "church",
                "building:levels": "4",
                "denomination": "baptist",
                "religion": "christian",
                "website": "http://www.tltchurch.ru/"
            }
        ]
    },
    "kindergarten": {
        "count": 1,
        "detail": [
            {
                "addr:housenumber": "76",
                "addr:street": "улица Свердлова",
                "building": "kindergarten",
                "building:levels": "2"
            }
        ]
    },
    "service": {
        "count": 3,
        "detail": [
            {
                "branch": "Ставропольские ЭС",
                "building": "service",
                "building:levels": "1",
                "building:material": "brick",
                "location": "indoor",
                "name": "ТП-208 н.г.",
                "operator": "АО \"Самарская сетевая компания\"",
                "power": "substation",
                "rating": "1260000",
                "ref": "1020208",
                "substation": "minor_distribution",
                "voltage": "10000;400"
            },
            {
                "branch": "Ставропольские ЭС",
                "building": "service",
                "building:levels": "1",
                "building:material": "brick",
                "location": "indoor",
                "name": "ТП-101 н.г.",
                "operator": "АО \"Самарская сетевая компания\"",
                "power": "substation",
                "rating": "1260000",
                "ref": "1010101",
                "substation": "minor_distribution",
                "voltage": "10000;400"
            },
            {
                "branch": "Ставропольские ЭС",
                "building": "service",
                "building:levels": "1",
                "building:material": "brick",
                "location": "indoor",
                "name": "ТП-207 н.г.",
                "operator": "АО \"Самарская сетевая компания\"",
                "power": "substation",
                "rating": "800000",
                "ref": "1020207",
                "substation": "minor_distribution",
                "voltage": "10000;400"
            }
        ]
    },
    "bakery": {
        "count": 1,
        "detail": [
            {
                "shop": "bakery",
                "building": "retail"
            }
        ]
    },
    "clinic": {
        "count": 1,
        "detail": [
            {
                "addr:city": "Тольятти",
                "addr:housenumber": "82",
                "addr:street": "улица Свердлова",
                "amenity": "clinic",
                "building": "yes",
                "building:levels": "8",
                "healthcare": "clinic",
                "name": "Амбулаторно-поликлинический комплекс №2 - Городская клиническая поликлиника №3",
                "opening_hours": "Mo-Fr 08:00-20:00; Sa 08:00-16:00"
            }
        ]
    },
    "animal_breeding": {
        "count": 1,
        "detail": [
            {
                "amenity": "animal_breeding",
                "animal_breeding": "pigeon",
                "building": "hut",
                "name": "Голубятня"
            }
        ]
    }
}