{
    "residents": 2715,
    "car_wash": {
        "count": 1,
        "detail": [
            {
                "amenity": "car_wash"
            }
        ]
    },
    "car_repair": {
        "count": 4,
        "detail": [
            {
                "shop": "car_repair",
                "service": "tyres"
            },
            {
                "name": "Шиномонтаж",
                "service": "tyres",
                "service:vehicle:tyres": "yes",
                "shop": "car_repair"
            },
            {
                "addr:housenumber": "118",
                "addr:street": "улица Николаева",
                "building": "yes",
                "shop": "car_repair"
            },
            {
                "shop": "car_repair",
                "building": "yes",
                "addr:city": "Стерлитамак",
                "addr:street": "Революционная улица",
                "addr:housenumber": "14 с2"
            }
        ]
    },
    "convenience": {
        "count": 4,
        "detail": [
            {
                "name": "Магнит",
                "shop": "convenience"
            },
            {
                "name": "Пятёрочка",
                "shop": "convenience"
            },
            {
                "name": "Монетка",
                "shop": "convenience"
            },
            {
                "name": "Ансат",
                "shop": "convenience",
                "building": "yes"
            }
        ]
    },
    "bus_stop": {
        "count": 2,
        "detail": [
            {
                "name": "Нахимова",
                "highway": "bus_stop",
                "name:ru": "Нахимова"
            },
            {
                "name": "Нахимова",
                "highway": "bus_stop",
                "name:ru": "Нахимова"
            }
        ]
    },
    "kindergarten": {
        "count": 1,
        "detail": [
            {
                "name": "Солнышко, детский сад №64",
                "amenity": "kindergarten",
                "building": "kindergarten",
                "addr:city": "Стерлитамак",
                "addr:street": "Революционная улица",
                "building:levels": "2",
                "addr:housenumber": "14А"
            }
        ]
    }
}