{
    "residents": 366,
    "supermarket": {
        "count": 1,
        "detail": [
            {
                "name": "ТЦ \"Солнышко\"",
                "shop": "supermarket"
            }
        ]
    },
    "bus_stop": {
        "count": 8,
        "detail": [
            {
                "name": "Ромашка",
                "highway": "bus_stop"
            },
            {
                "name": "Магазин Океан",
                "highway": "bus_stop"
            },
            {
                "name": "Магазин Океан",
                "highway": "bus_stop"
            },
            {
                "name": "Массштаб",
                "highway": "bus_stop"
            },
            {
                "bus": "yes",
                "name": "Ромашка",
                "public_transport": "stop_position",
                "share_taxi": "yes"
            },
            {
                "bin": "yes",
                "name": "Ромашка",
                "bench": "yes",
                "highway": "bus_stop",
                "shelter": "yes",
                "public_transport": "platform"
            },
            {
                "bus": "yes",
                "name": "Ромашка",
                "public_transport": "stop_position",
                "share_taxi": "yes"
            },
            {
                "bin": "yes",
                "name": "Ромашка",
                "bench": "yes",
                "highway": "bus_stop",
                "shelter": "yes",
                "public_transport": "platform"
            }
        ]
    },
    "kindergarten": {
        "count": 1,
        "detail": [
            {
                "name": "Детский сад №56",
                "amenity": "kindergarten"
            }
        ]
    },
    "bar": {
        "count": 1,
        "detail": [
            {
                "name": "НК \"Шахта\"",
                "wifi": "no",
                "amenity": "bar"
            }
        ]
    },
    "car_parts": {
        "count": 1,
        "detail": [
            {
                "atm": "yes",
                "name": "Autodoc",
                "shop": "car_parts",
                "phone": "+7 923 4641620",
                "addr:city": "Прокопьевск",
                "addr:street": "Институтская улица",
                "opening_hours": "Mo-Fr 09:00-20:00; Sa,Su 10:00-17:00",
                "addr:housenumber": "6"
            }
        ]
    },
    "dentist": {
        "count": 1,
        "detail": [
            {
                "name": "Дантист",
                "amenity": "dentist"
            }
        ]
    },
    "public_building": {
        "count": 3,
        "detail": [
            {
                "amenity": "public_building",
                "building": "yes",
                "addr:street": "Институтская улица",
                "addr:housenumber": "4Б"
            },
            {
                "addr:housenumber": "17",
                "addr:street": "проспект Ленина",
                "amenity": "public_building",
                "building": "yes"
            },
            {
                "amenity": "public_building",
                "building": "yes",
                "addr:street": "Институтская улица",
                "addr:housenumber": "2"
            }
        ]
    }
}