{
    "residents": 2520,
    "convenience": {
        "count": 3,
        "detail": [
            {
                "name": "Киоск",
                "shop": "convenience"
            },
            {
                "shop": "convenience"
            },
            {
                "contact:instagram": "https://www.instagram.com/kopeechka74",
                "contact:ok": "https://ok.ru/group/54722247852258",
                "contact:website": "https://vk.com/kopeechka74",
                "int_name": "Kopeechka",
                "name": "Копеечка",
                "name:en": "Kopeechka",
                "name:ru": "Копеечка",
                "opening_hours": "Mo-Su 09:00-21:00",
                "payment:cash": "yes",
                "shop": "convenience"
            }
        ]
    },
    "butcher": {
        "count": 2,
        "detail": [
            {
                "name": "Равис",
                "shop": "butcher",
                "website": "http://ravisagro.ru",
                "opening_hours": "Mo-Sa 09:00-20:00; Su 09:00-18:00"
            },
            {
                "name": "Мясная лавка",
                "shop": "butcher"
            }
        ]
    },
    "post_box": {
        "count": 1,
        "detail": [
            {
                "amenity": "post_box",
                "brand": "Почта России",
                "brand:wikidata": "Q1502763",
                "brand:wikipedia": "ru:Почта России",
                "contact:website": "https://www.pochta.ru",
                "drive_through": "no",
                "operator": "Почта России",
                "ref": "21"
            }
        ]
    },
    "supermarket": {
        "count": 1,
        "detail": [
            {
                "brand": "Магнит",
                "brand:wikidata": "Q940518",
                "brand:wikipedia": "ru:Магнит (сеть магазинов)",
                "contact:email": "info@magnit.ru",
                "contact:instagram": "https://www.instagram.com/magnitkrd",
                "contact:ok": "https://ok.ru/magnitinfo",
                "contact:phone": "+7 800 2009002",
                "contact:twitter": "https://twitter.com/magnit_info",
                "contact:vk": "https://vk.com/magnitretail",
                "contact:website": "https://magnit.ru",
                "image": "https://upload.wikimedia.org/wikipedia/ru/8/88/Magnit_logo.svg",
                "int_name": "Magnit",
                "name": "Магнит",
                "name:en": "Magnit",
                "name:ru": "Магнит",
                "opening_hours": "Mo-Su 09:00-21:00",
                "operator": "АО «Тандер»",
                "shop": "supermarket"
            }
        ]
    },
    "bus_stop": {
        "count": 4,
        "detail": [
            {
                "highway": "bus_stop",
                "name": "Магазин Фортуна"
            },
            {
                "name": "Магазин Фортуна",
                "highway": "bus_stop"
            },
            {
                "name": "Дом №30",
                "highway": "bus_stop"
            },
            {
                "name": "Дом №30",
                "highway": "bus_stop"
            }
        ]
    },
    "taxi": {
        "count": 2,
        "detail": [
            {
                "name": "Авангард",
                "amenity": "taxi",
                "contact:phone": "+7 35163 79889"
            },
            {
                "name": "Пегас",
                "amenity": "taxi",
                "contact:phone": "+7 35163 71622"
            }
        ]
    },
    "waste_disposal": {
        "count": 2,
        "detail": [
            {
                "amenity": "waste_disposal"
            },
            {
                "amenity": "waste_disposal"
            }
        ]
    },
    "pharmacy": {
        "count": 1,
        "detail": [
            {
                "amenity": "pharmacy",
                "contact:instagram": "https://www.instagram.com/apteka74.ru",
                "contact:ok": "https://ok.ru/group/58369716453435",
                "contact:phone": "+7 35163 34929; +7 35163 34930;",
                "contact:telegram": "https://t.me/apteka74rubot",
                "contact:vk": "https://vk.com/club70087715",
                "contact:website": "https://apteka74.ru",
                "name": "Аптечный пункт №179 «Областной аптечный склад»",
                "ref": "179",
                "short_name": "ОАС"
            }
        ]
    },
    "atm": {
        "count": 1,
        "detail": [
            {
                "ref": "994106",
                "brand": "Сбербанк",
                "amenity": "atm",
                "operator": "Сбербанк",
                "contact:website": "https://www.sberbank.ru"
            }
        ]
    },
    "chemist": {
        "count": 1,
        "detail": [
            {
                "name": "Бытовая химия",
                "shop": "chemist",
                "name:ru": "Бытовая химия"
            }
        ]
    },
    "hairdresser": {
        "count": 1,
        "detail": [
            {
                "shop": "hairdresser",
                "fixme": "Работает ли?"
            }
        ]
    },
    "kindergarten": {
        "count": 3,
        "detail": [
            {
                "addr:place": "10-й квартал",
                "addr:postcode": "457105",
                "building": "kindergarten",
                "building:colour": "#e2d5c5",
                "building:levels": "2",
                "building:material": "brick",
                "roof:shape": "hipped"
            },
            {
                "addr:housenumber": "17",
                "addr:place": "10-й квартал",
                "addr:postcode": "457105",
                "building": "kindergarten",
                "building:colour": "#e2d5c5",
                "building:levels": "2",
                "building:material": "brick",
                "roof:shape": "flat"
            },
            {
                "addr:housenumber": "26",
                "addr:place": "10-й квартал",
                "addr:postcode": "457105",
                "building": "kindergarten",
                "building:colour": "#e2d5c5",
                "building:levels": "2",
                "roof:shape": "flat"
            }
        ]
    },
    "service": {
        "count": 4,
        "detail": [
            {
                "name": "Насосная станция",
                "building": "service",
                "roof:shape": "flat",
                "building:levels": "1",
                "building:material": "brick"
            },
            {
                "ref": "2120",
                "power": "substation",
                "building": "service",
                "roof:shape": "flat",
                "building:levels": "1",
                "building:material": "brick"
            },
            {
                "ref": "2142",
                "power": "substation",
                "building": "service",
                "roof:shape": "flat",
                "building:levels": "1"
            },
            {
                "ref": "2119",
                "power": "substation",
                "building": "service",
                "roof:shape": "flat",
                "building:levels": "1"
            }
        ]
    },
    "school": {
        "count": 1,
        "detail": [
            {
                "addr:city": "Троицк",
                "addr:country": "RU",
                "addr:district": "Троицкий городской округ",
                "addr:place": "10-й квартал",
                "addr:postcode": "457105",
                "addr:region": "Челябинская область",
                "building": "school",
                "building:colour": "#e2d5c5",
                "roof:shape": "flat"
            }
        ]
    },
    "commercial": {
        "count": 2,
        "detail": [
            {
                "addr:housenumber": "9",
                "addr:place": "10-й квартал",
                "addr:postcode": "457105",
                "building": "commercial",
                "building:levels": "1",
                "building:material": "brick",
                "old_name": "Фея",
                "roof:shape": "flat"
            },
            {
                "building": "commercial",
                "addr:place": "10-й квартал",
                "roof:shape": "flat",
                "addr:postcode": "457105",
                "building:colour": "#e2d5c5",
                "building:levels": "1",
                "addr:housenumber": "6",
                "building:material": "brick"
            }
        ]
    }
}