{
    "bank": {
        "count": 2,
        "detail": [
            {
                "atm": "yes",
                "name": "УРАЛСИБ",
                "amenity": "bank"
            },
            {
                "amenity": "bank",
                "atm": "yes",
                "branch": "Уральский банк",
                "contact:facebook": "https://www.facebook.com/sberbank",
                "contact:instagram": "https://instagram.com/sberbank",
                "contact:ok": "https://ok.ru/sberbank",
                "contact:phone": "+7 34786 41925",
                "contact:twitter": "https://twitter.com/sberbank/",
                "contact:vk": "https://vk.com/sberbank",
                "contact:website": "https://www.sberbank.ru",
                "contact:youtube": "https://www.youtube.com/sberbank",
                "name": "Сбербанк",
                "name:en": "Sberbank",
                "name:ru": "Сбербанк",
                "opening_hours": "Mo-Fr 09:30-18:30",
                "operator": "ПАО Сбербанк",
                "operator:wikidata": "Q205012",
                "operator:wikipedia": "ru:Сбербанк России",
                "phone": "+7 34716 42724",
                "ref": "8598/0470",
                "wheelchair": "yes"
            }
        ]
    },
    "residents": 1554,
    "post_office": {
        "count": 1,
        "detail": [
            {
                "ref": "452009",
                "name": "Отделение связи №452009",
                "phone": "+7 34741 42034",
                "amenity": "post_office",
                "website": "http://www.russianpost.ru",
                "operator": "Почта России",
                "opening_hours": "Mo-Fr 08:00-13:00,14:00-20:00; Sa 09:00-13:00,14:00-18:00; Su off"
            }
        ]
    },
    "hairdresser": {
        "count": 4,
        "detail": [
            {
                "shop": "hairdresser"
            },
            {
                "name": "Олимпия",
                "shop": "hairdresser"
            },
            {
                "name": "Лидия",
                "shop": "hairdresser"
            },
            {
                "name": "Катерина",
                "shop": "hairdresser"
            }
        ]
    },
    "books": {
        "count": 1,
        "detail": [
            {
                "shop": "books"
            }
        ]
    },
    "supermarket": {
        "count": 1,
        "detail": [
            {
                "shop": "supermarket"
            }
        ]
    },
    "bar": {
        "count": 1,
        "detail": [
            {
                "name": "Бухен хаус",
                "amenity": "bar"
            }
        ]
    },
    "clinic": {
        "count": 1,
        "detail": [
            {
                "name": "Дневной стационар",
                "amenity": "clinic"
            }
        ]
    },
    "dentist": {
        "count": 2,
        "detail": [
            {
                "name": "Стоматологическая поликлиника",
                "amenity": "dentist"
            },
            {
                "name": "Жемчужина",
                "amenity": "dentist"
            }
        ]
    },
    "pharmacy": {
        "count": 1,
        "detail": [
            {
                "name": "Юмитекс",
                "amenity": "pharmacy"
            }
        ]
    },
    "hardware": {
        "count": 1,
        "detail": [
            {
                "name": "Евро-Строй",
                "shop": "hardware"
            }
        ]
    },
    "cosmetics": {
        "count": 2,
        "detail": [
            {
                "name": "Профи",
                "shop": "cosmetics"
            },
            {
                "name": "Веснушка",
                "shop": "cosmetics"
            }
        ]
    },
    "pet": {
        "count": 1,
        "detail": [
            {
                "name": "Мяу",
                "shop": "pet"
            }
        ]
    },
    "car_parts": {
        "count": 1,
        "detail": [
            {
                "name": "ВАЗ - КАМАЗ",
                "shop": "car_parts"
            }
        ]
    },
    "farm": {
        "count": 1,
        "detail": [
            {
                "name": "Шоколове",
                "shop": "farm"
            }
        ]
    },
    "community_centre": {
        "count": 1,
        "detail": [
            {
                "name": "ДК",
                "amenity": "community_centre",
                "building": "yes",
                "addr:city": "Белебей",
                "addr:street": "Интернациональная улица",
                "addr:country": "RU",
                "official_name": "Дом техники",
                "addr:housenumber": "10А"
            }
        ]
    },
    "kindergarten": {
        "count": 3,
        "detail": [
            {
                "name": "Аленушка",
                "building": "kindergarten",
                "addr:city": "Белебей",
                "addr:street": "улица М.Г.Амирова",
                "addr:country": "RU",
                "addr:housenumber": "8/2"
            },
            {
                "building": "kindergarten",
                "addr:city": "Белебей",
                "addr:street": "Волгоградская улица",
                "addr:housenumber": "12"
            },
            {
                "building": "kindergarten"
            }
        ]
    },
    "townhall": {
        "count": 1,
        "detail": [
            {
                "amenity": "townhall",
                "building": "yes",
                "addr:city": "Белебей",
                "addr:street": "Красная улица",
                "addr:country": "RU",
                "addr:housenumber": "113/1"
            }
        ]
    },
    "school": {
        "count": 1,
        "detail": [
            {
                "building": "school"
            }
        ]
    }
}