{
    "residents": 1413,
    "bus_stop": {
        "count": 6,
        "detail": [
            {
                "name": "Улица Свердлова",
                "highway": "bus_stop",
                "public_transport": "platform"
            },
            {
                "name": "Школа №7",
                "bench": "yes",
                "highway": "bus_stop",
                "shelter": "yes",
                "tactile_paving": "no",
                "public_transport": "platform"
            },
            {
                "name": "Школа №7",
                "bench": "yes",
                "highway": "bus_stop",
                "shelter": "yes",
                "tactile_paving": "no",
                "public_transport": "platform"
            },
            {
                "bus": "yes",
                "public_transport": "stop_position"
            },
            {
                "bus": "yes",
                "public_transport": "stop_position"
            },
            {
                "bus": "yes",
                "public_transport": "stop_position"
            }
        ]
    },
    "convenience": {
        "count": 2,
        "detail": [
            {
                "name": "Любава",
                "shop": "convenience"
            },
            {
                "name": "Маячок",
                "shop": "convenience",
                "website": "https://vk.com/kopeechka74",
                "opening_hours": "Mo-Su 18:00-08:00"
            }
        ]
    },
    "car_wash": {
        "count": 1,
        "detail": [
            {
                "name": "Pit Stop",
                "amenity": "car_wash",
                "addr:street": "Подгорная улица",
                "opening_hours": "Mo-Su 09:00-21:00",
                "addr:housenumber": "68"
            }
        ]
    },
    "car_repair": {
        "count": 1,
        "detail": [
            {
                "name": "Шиномонтаж Pit Stop",
                "shop": "car_repair",
                "service": "tyres",
                "addr:street": "Подгорная улица",
                "opening_hours": "Mo-Su 09:00-21:00",
                "addr:housenumber": "68"
            }
        ]
    },
    "waste_disposal": {
        "count": 1,
        "detail": [
            {
                "amenity": "waste_disposal"
            }
        ]
    },
    "car_parts": {
        "count": 1,
        "detail": [
            {
                "name": "Перекрёсток",
                "shop": "car_parts"
            }
        ]
    },
    "school": {
        "count": 1,
        "detail": [
            {
                "addr:housenumber": "2А",
                "addr:street": "улица Качинского",
                "building": "school",
                "start_date": "1971"
            }
        ]
    },
    "service": {
        "count": 3,
        "detail": [
            {
                "ref": "51",
                "power": "substation",
                "building": "service",
                "building:levels": "1"
            },
            {
                "power": "substation",
                "building": "service",
                "building:levels": "1",
                "building:material": "brick"
            },
            {
                "ref": "5",
                "name": "Канализационная насосная станция",
                "building": "service",
                "man_made": "water_works",
                "short_name": "КНС",
                "building:levels": "1"
            }
        ]
    },
    "commercial": {
        "count": 1,
        "detail": [
            {
                "addr:housenumber": "15",
                "addr:street": "улица Качинского",
                "building": "commercial",
                "building:levels": "1"
            }
        ]
    }
}