{
    "residents": 714,
    "cafe": {
        "count": 1,
        "detail": [
            {
                "name": "Вкусное и не дорогое Кафе",
                "amenity": "cafe",
                "name:en": "beautiful cafe"
            }
        ]
    },
    "electronics": {
        "count": 1,
        "detail": [
            {
                "alt_name": "ДНС",
                "brand": "DNS",
                "brand:en": "DNS",
                "brand:ru": "ДНС",
                "brand:wikidata": "Q4036922",
                "brand:wikipedia": "DNS (сеть магазинов)",
                "contact:facebook": "https://www.facebook.com/dnsshop",
                "contact:phone": "+7 800 7707999",
                "contact:twitter": "https://twitter.com/dnsshop",
                "contact:vk": "https://vk.com/dnsstore",
                "contact:website": "http://dns-shop.ru/",
                "contact:youtube": "https://www.youtube.com/c/DNSSHOPvideo",
                "name": "DNS",
                "name:en": "DNS",
                "name:ru": "ДНС",
                "opening_hours": "Mo-Su 10:00-20:00",
                "operator": "ДНС Ритейл",
                "shop": "electronics"
            }
        ]
    },
    "commercial": {
        "count": 1,
        "detail": [
            {
                "building": "commercial",
                "addr:city": "Давлеканово",
                "addr:street": "улица Красная площадь",
                "addr:housenumber": "14"
            }
        ]
    }
}