{
    "residents": 6012,
    "police": {
        "count": 1,
        "detail": [
            {
                "name": "OVD",
                "amenity": "police"
            }
        ]
    },
    "townhall": {
        "count": 2,
        "detail": [
            {
                "name": "Администрация городского округа города Октябрьский",
                "amenity": "townhall"
            },
            {
                "name": "Мэрия",
                "amenity": "townhall",
                "name:ru": "Мэрия"
            }
        ]
    },
    "bank": {
        "count": 5,
        "detail": [
            {
                "atm": "yes",
                "name": "Уралсиб",
                "amenity": "bank",
                "addr:street": "проспект Ленина",
                "addr:housenumber": "1"
            },
            {
                "amenity": "bank",
                "atm": "yes",
                "branch": "Уральский банк",
                "contact:facebook": "https://www.facebook.com/sberbank",
                "contact:instagram": "https://instagram.com/sberbank",
                "contact:ok": "https://ok.ru/sberbank",
                "contact:phone": "+7 800 5555550",
                "contact:twitter": "https://twitter.com/sberbank/",
                "contact:vk": "https://vk.com/sberbank",
                "contact:website": "https://www.sberbank.ru",
                "contact:youtube": "https://www.youtube.com/sberbank",
                "name": "Сбербанк",
                "name:en": "Sberbank",
                "name:ru": "Сбербанк",
                "opening_hours": "Mo-Fr 09:00-18:00",
                "operator": "ПАО Сбербанк",
                "operator:wikidata": "Q205012",
                "operator:wikipedia": "ru:Сбербанк России",
                "phone": "+7 34767 51888",
                "ref": "8598/0632",
                "wheelchair": "yes"
            },
            {
                "amenity": "bank",
                "atm": "yes",
                "bic": "VTBRRUMM",
                "brand": "ВТБ",
                "contact:email": "info@vtb.ru",
                "contact:facebook": "https://www.facebook.com/vtbgroup",
                "contact:phone": "+7 800 2007799",
                "contact:twitter": "https://twitter.com/vtb",
                "contact:vk": "https://vk.com/vtb",
                "contact:website": "https://www.vtb.ru",
                "contact:youtube": "https://www.youtube.com/user/vtbgroup",
                "name": "ВТБ",
                "name:en": "VTB",
                "name:ru": "ВТБ",
                "operator": "Банк ВТБ (публичное акционерное общество)",
                "operator:wikidata": "Q1549389",
                "operator:wikipedia": "ru:Банк ВТБ"
            },
            {
                "amenity": "bank",
                "contact:phone": "+7 800 2005303",
                "contact:website": "https://akbars.ru/",
                "name": "Ак Барс Банк",
                "opening_hours": "Mo-Fr 09:00-18:00;Sa 09:00-14:00"
            },
            {
                "amenity": "bank",
                "contact:phone": "+7 800 7004040",
                "contact:website": "https://www.rgsbank.ru/",
                "name": "РГС Банк",
                "opening_hours": "Mo-Fr 09:00-18:00"
            }
        ]
    },
    "alcohol": {
        "count": 1,
        "detail": [
            {
                "name": "Алкомаркет",
                "shop": "alcohol",
                "addr:street": "улица Чапаева",
                "addr:housenumber": "21"
            }
        ]
    },
    "fountain": {
        "count": 1,
        "detail": [
            {
                "amenity": "fountain"
            }
        ]
    },
    "books": {
        "count": 1,
        "detail": [
            {
                "name": "Читай-Город",
                "shop": "books"
            }
        ]
    },
    "hifi": {
        "count": 2,
        "detail": [
            {
                "name": "ПК Эксперт",
                "shop": "hifi",
                "website": "https://oktbexpert.ru/",
                "alt_name": "ПК Эксперт",
                "int_name": "PC Expert",
                "addr:street": "проспект Ленина",
                "addr:postcode": "452600",
                "addr:housenumber": "12"
            },
            {
                "name": "КламаС Октябрьский",
                "opening_hours": "Mo-Fr 10:00-20:00; Sa-Su 10:00-19:00",
                "operator": "КламаС",
                "phone": "+7 34767 50370",
                "shop": "hifi",
                "website": "https://www.klamas.ru/"
            }
        ]
    },
    "pharmacy": {
        "count": 2,
        "detail": [
            {
                "name": "Аптека 36,6",
                "amenity": "pharmacy",
                "website": "https://366.ru/",
                "dispensing": "yes"
            },
            {
                "amenity": "pharmacy",
                "contact:facebook": "http://facebook.com/aptekivita",
                "contact:instagram": "https://www.instagram.com/vita_express/",
                "contact:phone": "+7 800 7550003",
                "contact:vk": "https://vk.com/aptekivita",
                "contact:website": "https://vitaexpress.ru/",
                "name": "Вита Экспресс",
                "opening_hours": "Mo-Fr 08:00-21:00;Sa-Su 09:00-21:00"
            }
        ]
    },
    "kiosk": {
        "count": 1,
        "detail": [
            {
                "shop": "kiosk"
            }
        ]
    },
    "bus_stop": {
        "count": 2,
        "detail": [
            {
                "highway": "bus_stop"
            },
            {
                "highway": "bus_stop"
            }
        ]
    },
    "training": {
        "count": 1,
        "detail": [
            {
                "name": "Детская спортивная школа № 3",
                "amenity": "training",
                "leisure": "sports_centre",
                "training": "sport"
            }
        ]
    },
    "post_office": {
        "count": 1,
        "detail": [
            {
                "ref": "452614",
                "name": "Отделение связи №452614",
                "amenity": "post_office",
                "operator": "Почта России",
                "addr:country": "RU",
                "addr:postcode": "452614",
                "contact:phone": "+7 34767 51520",
                "opening_hours": "Mo-Fr 09:00-13:00,14:00-19:00; Sa 09:00-13:00,14:00-17:00; Su off",
                "contact:website": "http://www.russianpost.ru"
            }
        ]
    },
    "restaurant": {
        "count": 2,
        "detail": [
            {
                "name": "Отдых",
                "amenity": "restaurant"
            },
            {
                "addr:city": "Октябрьский",
                "addr:housenumber": "12",
                "addr:street": "проспект Ленина",
                "amenity": "restaurant",
                "contact:instagram": "prontorestoranchik",
                "cuisine": "italian;pizza",
                "delivery": "yes",
                "name": "Pronto",
                "phone": "+7 34767 60788",
                "smoking": "no",
                "takeaway": "yes",
                "wheelchair": "yes"
            }
        ]
    },
    "hairdresser": {
        "count": 1,
        "detail": [
            {
                "shop": "hairdresser"
            }
        ]
    },
    "atm": {
        "count": 5,
        "detail": [
            {
                "addr:housenumber": "36",
                "addr:street": "улица Горького",
                "amenity": "atm",
                "brand": "Ак Барс Банк",
                "contact:email": "kanc@akbars.ru",
                "contact:facebook": "https://www.facebook.com/akbarsbank",
                "contact:instagram": "https://www.instagram.com/akbars_bank/",
                "contact:ok": "https://ok.ru/akbarsbank",
                "contact:phone": "+7 800 2005303;+7 843 2303303",
                "contact:twitter": "https://twitter.com/akbars_ru",
                "contact:vk": "https://vk.com/akbars_ru",
                "contact:website": "https://akbars.ru/",
                "name": "Ак Барс Банк",
                "name:en": "AkBars bank",
                "opening_hours": "Mo-Fr 09:00-18:00;Sa 09:00-14:00",
                "telegram": "https://t.me/akbars_ru"
            },
            {
                "amenity": "atm",
                "contact:phone": "+7 800 2005303",
                "contact:website": "https://akbars.ru/",
                "name": "Ак Барс Банк",
                "opening_hours": "Mo-Fr 09:00-18:00; Sa 09:00-14:00"
            },
            {
                "amenity": "atm",
                "contact:email": "kanc@akbars.ru",
                "contact:facebook": "https://www.facebook.com/akbarsbank",
                "contact:instagram": "https://www.instagram.com/akbars_bank/",
                "contact:ok": "https://ok.ru/akbarsbank",
                "contact:phone": "+7 800 2005303",
                "contact:twitter": "https://twitter.com/akbars_ru",
                "contact:vk": "https://vk.com/akbars_ru",
                "contact:website": "https://akbars.ru/",
                "opening_hours": "Mo-Su 10:00-19:00",
                "operator": "Ак Барс Банк",
                "telegram": "https://t.me/akbars_ru"
            },
            {
                "amenity": "atm",
                "contact:email": "kanc@akbars.ru",
                "contact:facebook": "https://www.facebook.com/akbarsbank",
                "contact:instagram": "https://www.instagram.com/akbars_bank/",
                "contact:ok": "https://ok.ru/akbarsbank",
                "contact:phone": "+7 800 2005303",
                "contact:twitter": "https://twitter.com/akbars_ru",
                "contact:vk": "https://vk.com/akbars_ru",
                "contact:website": "https://akbars.ru/",
                "opening_hours": "24/7",
                "operator": "Ак Барс Банк",
                "telegram": "https://t.me/akbars_ru"
            },
            {
                "amenity": "atm",
                "contact:website": "https://www.rgsbank.ru/",
                "opening_hours": "Mo-Fr 09:00-18:00",
                "operator": "РГС банк"
            }
        ]
    },
    "clothes": {
        "count": 1,
        "detail": [
            {
                "name": "Westland",
                "shop": "clothes",
                "name:ru": "Вестланд"
            }
        ]
    },
    "fast_food": {
        "count": 2,
        "detail": [
            {
                "name": "Папа Гриль",
                "amenity": "fast_food",
                "name:en": "Papa Grill",
                "addr:street": "улица Свердлова",
                "opening_hours": "24/7",
                "addr:housenumber": "35"
            },
            {
                "amenity": "fast_food",
                "contact:email": "hotline@coffee-like.com",
                "contact:phone": "+7 341 2908292;+7 800 3334130",
                "contact:website": "https://coffee-like.com/",
                "cuisine": "coffee_shop",
                "name": "Coffee Like",
                "opening_hours": "Mo-Su 09:00-02:00",
                "operator": "Хафизова Альфия Ринатовна",
                "takeaway": "yes"
            }
        ]
    },
    "sports": {
        "count": 1,
        "detail": [
            {
                "email": "e-commerce@sportmaster.ru",
                "name": "Спортмастер",
                "name:en": "Sportmaster",
                "name:ru": "Спортмастер",
                "opening_hours": "Mo-Su 10:00-21:00",
                "operator": "ООО «Спортмастер»",
                "phone": "+7 800 7777771; +7 34767 50694; +7 967 4558527",
                "shop": "sports",
                "website": "https://www.sportmaster.ru/store/5524/"
            }
        ]
    },
    "electronics": {
        "count": 2,
        "detail": [
            {
                "alt_name": "ДНС",
                "brand": "DNS",
                "brand:en": "DNS",
                "brand:ru": "ДНС",
                "brand:wikidata": "Q4036922",
                "brand:wikipedia": "DNS (сеть магазинов)",
                "contact:email": "Soldatkin.AI@dns-shop.ru",
                "contact:facebook": "https://www.facebook.com/dnsshop",
                "contact:phone": "+7 800 7707999",
                "contact:twitter": "https://twitter.com/dnsshop",
                "contact:vk": "https://vk.com/dnsstore",
                "contact:website": "http://dns-shop.ru/",
                "contact:youtube": "https://www.youtube.com/c/DNSSHOPvideo",
                "name": "DNS",
                "name:en": "DNS",
                "name:ru": "ДНС",
                "opening_hours": "Mo-Su 10:00-20:00",
                "operator": "ДНС Ритейл",
                "shop": "electronics",
                "website": "https://www.dns-shop.ru"
            },
            {
                "contact:email": "24@mvideo.ru",
                "contact:facebook": "https://www.facebook.com/mvideo.ru",
                "contact:instagram": "https://www.instagram.com/mvideo_ru/",
                "contact:ok": "https://ok.ru/mvideo",
                "contact:phone": "+7 800 6007775",
                "contact:twitter": "https://twitter.com/mvideo",
                "contact:vk": "https://vk.com/mvideo",
                "contact:website": "https://mvideo.ru/",
                "name": "М.Видео",
                "opening_hours": "Mo-Su 10:00-20:00",
                "operator": "МВМ",
                "shop": "electronics"
            }
        ]
    },
    "ice_cream": {
        "count": 1,
        "detail": [
            {
                "amenity": "cafe",
                "contact:email": "horeca@33pingvina.ru",
                "contact:phone": "+7 800 1005033",
                "contact:website": "https://33pingvina.ru/",
                "cuisine": "ice_cream",
                "name": "33 пингвина",
                "opening_hours": "Mo-Su 10:00-19:00",
                "operator": "Интеропт",
                "shop": "ice_cream"
            }
        ]
    },
    "cosmetics": {
        "count": 1,
        "detail": [
            {
                "addr:city": "Октябрьский",
                "addr:housenumber": "6А",
                "addr:street": "улица Островского",
                "contact:email": "yrru.rocketdata@gmail.com",
                "contact:phone": "+7 347 6770622",
                "contact:website": "https://www.yves-rocher.ru/",
                "name": "Ив Роше",
                "opening_hours": "Mo-Su 10:00-21:00",
                "operator": "ГРИНЕВА ГУЛЬНАЗ ГАЛИХАНОВНА",
                "shop": "cosmetics"
            }
        ]
    },
    "furniture": {
        "count": 1,
        "detail": [
            {
                "contact:phone": "+7 903 3563017;+7 903 3563020",
                "contact:website": "https://lazurit.com/",
                "name": "Lazurit",
                "opening_hours": "Mo-Su 10:00-20:00",
                "shop": "furniture"
            }
        ]
    },
    "school": {
        "count": 3,
        "detail": [
            {
                "building": "school",
                "addr:city": "Октябрьский",
                "addr:street": "улица Свердлова",
                "addr:housenumber": "76"
            },
            {
                "name": "Детская школа искусств № 2",
                "amenity": "training",
                "building": "school",
                "training": "art",
                "addr:city": "Октябрьский",
                "addr:street": "улица Салавата Батыра",
                "building:levels": "5",
                "addr:housenumber": "3"
            },
            {
                "building": "school",
                "addr:street": "улица Лермонтова",
                "building:levels": "4",
                "addr:housenumber": "3"
            }
        ]
    },
    "mall": {
        "count": 3,
        "detail": [
            {
                "name": "ТЦ Аструм",
                "shop": "mall",
                "building": "yes",
                "addr:street": "улица Свердлова",
                "addr:housenumber": "35"
            },
            {
                "name": "Аструм 2",
                "shop": "mall",
                "building": "yes",
                "addr:street": "улица Свердлова",
                "addr:housenumber": "35"
            },
            {
                "name": "Орбита",
                "shop": "mall",
                "building": "yes",
                "addr:street": "улица Островского",
                "addr:housenumber": "4"
            }
        ]
    },
    "department_store": {
        "count": 1,
        "detail": [
            {
                "name": "Браво",
                "shop": "department_store",
                "building": "yes",
                "addr:street": "улица Островского",
                "addr:housenumber": "6А"
            }
        ]
    }
}