{
    "residents": 318,
    "convenience": {
        "count": 2,
        "detail": [
            {
                "shop": "convenience"
            },
            {
                "shop": "convenience"
            }
        ]
    },
    "fountain": {
        "count": 1,
        "detail": [
            {
                "amenity": "fountain"
            }
        ]
    },
    "bus_station": {
        "count": 2,
        "detail": [
            {
                "name": "Автостанция г.Правдинск",
                "phone": "+7 40157 21433",
                "amenity": "bus_station",
                "addr:city": "Правдинск",
                "addr:street": "Набережная улица",
                "addr:postcode": "238400",
                "addr:housenumber": "1"
            },
            {
                "addr:city": "Правдинск",
                "addr:housenumber": "1",
                "addr:postcode": "238400",
                "addr:street": "Набережная улица",
                "amenity": "bus_station",
                "building": "bus_station",
                "bus": "yes",
                "name": "Автостанция г. Правдинск",
                "public_transport": "station"
            }
        ]
    },
    "drinking_water": {
        "count": 1,
        "detail": [
            {
                "access": "yes",
                "amenity": "drinking_water",
                "bottle": "yes",
                "charge": "3 RUR/liter",
                "fee": "yes"
            }
        ]
    },
    "cafe": {
        "count": 2,
        "detail": [
            {
                "amenity": "cafe",
                "name": "у Жанны",
                "opening_hours": "Mo-Fr 08:00-17:00; Sa-Su 08:00-16:00",
                "phone": "89520550393"
            },
            {
                "addr:housenumber": "3А",
                "addr:street": "улица Багратиона",
                "amenity": "cafe",
                "name": "у Жанны",
                "opening_hours": "Mo-Fr 08:00-17:00; Sa-Su 08:00-16:00",
                "phone": "89520550393"
            }
        ]
    },
    "school": {
        "count": 1,
        "detail": [
            {
                "addr:city": "Правдинск",
                "addr:housenumber": "2",
                "addr:street": "Комсомольская улица",
                "amenity": "school",
                "building": "yes",
                "name": "Правдинская школа"
            }
        ]
    },
    "pitch": {
        "count": 1,
        "detail": [
            {
                "building": "yes",
                "leisure": "pitch"
            }
        ]
    },
    "place_of_worship": {
        "count": 1,
        "detail": [
            {
                "addr:city": "Правдинск",
                "addr:housenumber": "13",
                "addr:street": "Школьная улица",
                "amenity": "place_of_worship",
                "building": "church",
                "denomination": "russian_orthodox",
                "name": "Свято-Георгиевский храм",
                "opening_hours": "08:00-17:00",
                "religion": "christian",
                "wikidata": "Q4492723",
                "wikipedia": "ru:Фридландская кирха"
            }
        ]
    },
    "courthouse": {
        "count": 1,
        "detail": [
            {
                "addr:city": "Правдинск",
                "addr:housenumber": "16",
                "addr:street": "Торговая улица",
                "amenity": "courthouse",
                "building": "yes",
                "name": "Правдинский районный суд Калининградской области"
            }
        ]
    },
    "townhall": {
        "count": 1,
        "detail": [
            {
                "amenity": "townhall",
                "building": "yes",
                "name": "Администрация МО \"Правдинский городской округ\""
            }
        ]
    }
}