{
    "library": {
        "count": 1,
        "detail": [
            {
                "name": "Центральная городская библиотека",
                "amenity": "library",
                "addr:street": "улица Олега Кошевого",
                "addr:postcode": "452751"
            }
        ]
    },
    "dentist": {
        "count": 1,
        "detail": [
            {
                "amenity": "dentist",
                "opening_hours": "Mo-Fr 08:30-20:00"
            }
        ]
    },
    "residents": 3951,
    "hospital": {
        "count": 1,
        "detail": [
            {
                "amenity": "hospital",
                "name": "Туймазинская центральная районная больница, ГБУЗ",
                "phone": "+7 34782 21021",
                "website": "http://www.tmzcrb.ru"
            }
        ]
    },
    "kindergarten": {
        "count": 3,
        "detail": [
            {
                "amenity": "kindergarten",
                "name": "Детский сад#6",
                "phone": "+7 34782 50610",
                "website": "http://tuimdc6.edu-rb.ru"
            },
            {
                "building": "kindergarten",
                "addr:street": "улица Аксакова",
                "addr:postcode": "452751",
                "building:levels": "2",
                "addr:housenumber": "5А"
            },
            {
                "building": "kindergarten",
                "addr:street": "улица Островского",
                "addr:postcode": "452751",
                "building:levels": "3",
                "addr:housenumber": "50А"
            }
        ]
    },
    "post_office": {
        "count": 1,
        "detail": [
            {
                "addr:postcode": "452751",
                "amenity": "post_office",
                "name": "Почтовое отделение №452751",
                "opening_hours": "Mo-Fr 08:00-13:00, 14:00-20:00; Sa 09:00-13:00, 14:00-18:00",
                "phone": "+7 34782 50536",
                "website": "https://www.pochta.ru/"
            }
        ]
    },
    "townhall": {
        "count": 1,
        "detail": [
            {
                "amenity": "townhall",
                "building": "yes",
                "addr:city": "Туймазы",
                "addr:street": "улица Островского",
                "addr:postcode": "452751",
                "building:levels": "5",
                "addr:housenumber": "52"
            }
        ]
    },
    "mall": {
        "count": 1,
        "detail": [
            {
                "addr:city": "Туймазы",
                "addr:housenumber": "1",
                "addr:street": "Южная улица",
                "building": "yes",
                "building:levels": "3",
                "name": "Апельсин",
                "opening_hours": "Mo-Su 09:00-23:00",
                "shop": "mall"
            }
        ]
    }
}