{
    "residents": 5262,
    "toys": {
        "count": 1,
        "detail": [
            {
                "name": "Детский мир",
                "shop": "toys"
            }
        ]
    },
    "sports_centre": {
        "count": 1,
        "detail": [
            {
                "name": "Олимпиец",
                "sport": "multi",
                "leisure": "sports_centre"
            }
        ]
    },
    "bank": {
        "count": 1,
        "detail": [
            {
                "name": "Газпромбанк",
                "phone": "+73478274200 +73478274288 +73478275218",
                "amenity": "bank",
                "addr:street": "улица Пугачёва",
                "opening_hours": "Mo-Fr 09:00-20:00; Sa 11:00-15:00",
                "addr:housenumber": "19Б"
            }
        ]
    },
    "atm": {
        "count": 1,
        "detail": [
            {
                "brand": "Газпромбанк",
                "amenity": "atm",
                "operator": "Газпромбанк",
                "opening_hours": "24/7"
            }
        ]
    },
    "college": {
        "count": 1,
        "detail": [
            {
                "addr:housenumber": "6А",
                "addr:postcode": "452754",
                "addr:street": "улица Пугачёва",
                "amenity": "college",
                "name": "Туймазинский медицинский колледж, ГАПОУ",
                "phone": "+7 34782 71044",
                "website": "http://tmk-rb.ucoz.ru"
            }
        ]
    },
    "electronics": {
        "count": 1,
        "detail": [
            {
                "alt_name": "ДНС",
                "brand": "DNS",
                "brand:en": "DNS",
                "brand:ru": "ДНС",
                "brand:wikidata": "Q4036922",
                "brand:wikipedia": "DNS (сеть магазинов)",
                "contact:email": "askin.r@dns-shop.ru",
                "contact:facebook": "https://www.facebook.com/dnsshop",
                "contact:phone": "+7 800 7707999",
                "contact:twitter": "https://twitter.com/dnsshop",
                "contact:vk": "https://vk.com/dnsstore",
                "contact:website": "http://dns-shop.ru/",
                "contact:youtube": "https://www.youtube.com/c/DNSSHOPvideo",
                "name": "DNS",
                "name:en": "DNS",
                "name:ru": "ДНС",
                "opening_hours": "Mo-Su 10:00-20:00",
                "operator": "ДНС Ритейл",
                "shop": "electronics",
                "website": "https://www.dns-shop.ru"
            }
        ]
    },
    "commercial": {
        "count": 5,
        "detail": [
            {
                "name": "Полиция",
                "amenity": "police",
                "building": "commercial",
                "addr:city": "Туймазы",
                "addr:street": "улица Мичурина"
            },
            {
                "addr:city": "Туймазы",
                "addr:housenumber": "10",
                "addr:street": "улица Пугачёва",
                "amenity": "courthouse",
                "building": "commercial",
                "building:levels": "3",
                "name": "Туймазинский районный суд",
                "phone": "+7 34782 73057"
            },
            {
                "name": "Мировые судья",
                "amenity": "courthouse",
                "building": "commercial",
                "addr:city": "Туймазы",
                "addr:street": "улица Пугачёва",
                "building:levels": "2",
                "addr:housenumber": "14"
            },
            {
                "name": "СОК Олимпиец",
                "building": "commercial",
                "addr:city": "Туймазы",
                "addr:street": "улица Мичурина",
                "building:levels": "2",
                "addr:housenumber": "6"
            },
            {
                "addr:city": "Туймазы",
                "addr:housenumber": "12",
                "addr:postcode": "452754",
                "addr:street": "улица Пугачёва",
                "building": "commercial",
                "building:levels": "2",
                "government": "prosecutor",
                "name": "Прокуратура",
                "office": "government",
                "phone": "+7 34782 72242",
                "website": "https://tuimazi.procrb.ru/"
            }
        ]
    },
    "school": {
        "count": 1,
        "detail": [
            {
                "name": "ТСШ №6",
                "amenity": "school",
                "building": "yes"
            }
        ]
    },
    "townhall": {
        "count": 1,
        "detail": [
            {
                "name": "Администрация",
                "amenity": "townhall",
                "building": "yes",
                "addr:city": "Туймазы",
                "addr:street": "Площадь Октября",
                "addr:postcode": "452754",
                "building:levels": "3",
                "addr:housenumber": "1"
            }
        ]
    },
    "kindergarten": {
        "count": 1,
        "detail": [
            {
                "building": "kindergarten",
                "addr:street": "улица Комарова",
                "building:levels": "2",
                "addr:housenumber": "12А"
            }
        ]
    }
}