{
    "residents": 6162,
    "convenience": {
        "count": 2,
        "detail": [
            {
                "name": "Брусничка",
                "shop": "convenience"
            },
            {
                "name": "Магазин продукты",
                "shop": "convenience",
                "addr:street": "улица Аксакова",
                "addr:housenumber": "129"
            }
        ]
    },
    "post_office": {
        "count": 1,
        "detail": [
            {
                "name": "Отделение связи №236003",
                "amenity": "post_office",
                "addr:street": "улица Аксакова",
                "addr:postcode": "236003",
                "addr:housenumber": "129"
            }
        ]
    },
    "fitness_centre": {
        "count": 1,
        "detail": [
            {
                "name": "Геркулес",
                "leisure": "fitness_centre",
                "name:ru": "Геркулес"
            }
        ]
    },
    "pharmacy": {
        "count": 2,
        "detail": [
            {
                "addr:housenumber": "129",
                "addr:street": "улица Аксакова",
                "amenity": "pharmacy"
            },
            {
                "name": "Алоэ",
                "amenity": "pharmacy",
                "website": "http://aloe39.ru"
            }
        ]
    },
    "restaurant": {
        "count": 1,
        "detail": [
            {
                "name": "Геркулес",
                "phone": "+7 4012 367422",
                "amenity": "restaurant",
                "addr:street": "улица Аксакова",
                "addr:postcode": "236003",
                "addr:housenumber": "133"
            }
        ]
    },
    "school": {
        "count": 3,
        "detail": [
            {
                "name": "роллер школа",
                "amenity": "school"
            },
            {
                "addr:housenumber": "6",
                "addr:postcode": "236048",
                "addr:street": "Флотская улица",
                "amenity": "school",
                "name": "Средняя общеобразовательная школа №57"
            },
            {
                "addr:city": "Калининград",
                "addr:housenumber": "6",
                "addr:postcode": "236048",
                "addr:street": "Флотская улица",
                "building": "school",
                "building:levels": "4",
                "name": "Средняя общеобразовательная школа №57"
            }
        ]
    },
    "cosmetics": {
        "count": 1,
        "detail": [
            {
                "name": "Бьюти Рум",
                "shop": "cosmetics",
                "email": "nastya38nails@gmail.com",
                "phone": "+7 911 4637491",
                "name:en": "Beauty Room",
                "website": "https://beauty-room.business.site",
                "addr:street": "улица Виктора Денисова",
                "addr:postcode": "236049",
                "opening_hours": "Mo-Su 10:00-20:00",
                "addr:housenumber": "18"
            }
        ]
    },
    "veterinary": {
        "count": 1,
        "detail": [
            {
                "name": "Ветеринарная клиника Нова",
                "phone": "+74012611112",
                "amenity": "veterinary",
                "website": "https://nova39.ru",
                "addr:city": "Калининград",
                "addr:street": "улица Аксакова",
                "addr:country": "RU",
                "addr:housenumber": "112"
            }
        ]
    },
    "beauty": {
        "count": 1,
        "detail": [
            {
                "name:en": "MAGIC TOUCH STUDIO",
                "shop": "beauty"
            }
        ]
    },
    "bookmaker": {
        "count": 1,
        "detail": [
            {
                "contact:email": "info@ligastavok.ru",
                "contact:phone": "+7 800 5554455",
                "contact:website": "https://www.ligastavok.ru/",
                "name": "Лига Ставок",
                "opening_hours": "Mo-Su 12:00-01:00",
                "operator": "Первая международная букмекерская компания",
                "shop": "bookmaker"
            }
        ]
    },
    "atm": {
        "count": 1,
        "detail": [
            {
                "amenity": "atm",
                "contact:email": "cc@bspb.ru",
                "contact:facebook": "https://www.facebook.com/bspb/",
                "contact:instagram": "https://instagram.com/bank_spb",
                "contact:ok": "https://ok.ru/bspb",
                "contact:phone": "+7 401 2995700;+7 800 2225050",
                "contact:twitter": "https://twitter.com/bank_spb",
                "contact:vk": "https://vk.com/bspb",
                "contact:website": "https://www.bspb.ru/",
                "name": "Банк Санкт-Петербург",
                "opening_hours": "Mo-Su 08:00-23:00",
                "operator": "Санкт-Петербург",
                "telegram": "https://t.me/mybspb"
            }
        ]
    },
    "supermarket": {
        "count": 1,
        "detail": [
            {
                "name": "SPAR",
                "shop": "supermarket",
                "building": "commercial",
                "addr:city": "Калининград",
                "addr:street": "улица Аксакова",
                "building:levels": "1",
                "addr:housenumber": "125"
            }
        ]
    },
    "car_wash": {
        "count": 1,
        "detail": [
            {
                "amenity": "car_wash",
                "building": "yes",
                "name": "Чудо мойка"
            }
        ]
    }
}