{
    "residents": 4635,
    "bus_stop": {
        "count": 5,
        "detail": [
            {
                "name": "Гостиница Башкортостан",
                "bench": "yes",
                "highway": "bus_stop",
                "shelter": "yes",
                "public_transport": "platform"
            },
            {
                "name": "Гостиный двор",
                "highway": "bus_stop",
                "public_transport": "platform"
            },
            {
                "name": "УГАТУ",
                "highway": "bus_stop",
                "public_transport": "platform"
            },
            {
                "name": "Сквер Маяковского",
                "highway": "bus_stop",
                "public_transport": "platform"
            },
            {
                "name": "Кинотеатр Родина",
                "highway": "bus_stop",
                "public_transport": "platform"
            }
        ]
    },
    "vending_machine": {
        "count": 1,
        "detail": [
            {
                "amenity": "vending_machine",
                "vending": "parking_tickets"
            }
        ]
    },
    "bank": {
        "count": 6,
        "detail": [
            {
                "amenity": "bank",
                "atm": "yes",
                "name": "Райффайзенбанк",
                "website": "https://www.raiffeisen.ru/"
            },
            {
                "atm": "yes",
                "name": "Уралсиб",
                "amenity": "bank"
            },
            {
                "amenity": "bank",
                "atm": "yes",
                "brand:wikidata": "Q1377835",
                "brand:wikipedia": "ru:Альфа-банк",
                "contact:phone": "+7 495 7888878",
                "contact:website": "https://alfabank.ru",
                "description": "Кредитно-кассовый офис «Агидель»",
                "name": "Альфа-Банк",
                "name:en": "Alfa-Bank",
                "name:ru": "Альфа-Банк",
                "opening_hours": "Mo-Fr 09:00-20:00; Sa 10:00-18:00; Su off",
                "operator": "АО \"Альфа-Банк\"",
                "ref": "0810"
            },
            {
                "addr:city": "Уфа",
                "addr:housenumber": "7",
                "addr:postcode": "450077",
                "addr:street": "улица Крупской",
                "amenity": "bank",
                "atm": "yes",
                "branch": "Уфимский филиал",
                "drive_through": "no",
                "name": "Центркомбанк",
                "opening_hours": "09:00-20:00",
                "phone": "+7 347 2625001",
                "website": "www.ufa.ccbank.ru"
            },
            {
                "name": "Банк Уралсиб",
                "amenity": "bank",
                "name:ru": "Банк Уралсиб",
                "opening_hours": "Mo-Fr 09:00-20:00"
            },
            {
                "amenity": "bank",
                "bic": "VTBRRUMM",
                "brand": "ВТБ",
                "contact:email": "info@vtb.ru",
                "contact:facebook": "https://www.facebook.com/vtbgroup",
                "contact:phone": "+7 800 2007799",
                "contact:twitter": "https://twitter.com/vtb",
                "contact:vk": "https://vk.com/vtb",
                "contact:website": "https://www.vtb.ru",
                "contact:youtube": "https://www.youtube.com/user/vtbgroup",
                "name": "ВТБ",
                "name:en": "VTB",
                "name:ru": "ВТБ",
                "operator": "Банк ВТБ (публичное акционерное общество)",
                "operator:wikidata": "Q1549389",
                "operator:wikipedia": "ru:Банк ВТБ"
            }
        ]
    },
    "pharmacy": {
        "count": 3,
        "detail": [
            {
                "amenity": "pharmacy",
                "dispensing": "no",
                "name": "Фармленд",
                "operator": "Фармленд",
                "phone": "+7 347 2725525",
                "ref": "55",
                "website": "https://farmlend.ru/"
            },
            {
                "name": "Ригла",
                "amenity": "pharmacy"
            },
            {
                "amenity": "pharmacy",
                "contact:facebook": "http://facebook.com/aptekivita",
                "contact:instagram": "https://www.instagram.com/vita_express/",
                "contact:phone": "+7 800 7550003",
                "contact:vk": "https://vk.com/aptekivita",
                "contact:website": "https://vitaexpress.ru/",
                "name": "Вита Экспресс",
                "opening_hours": "Mo-Fr 08:00-22:00;Sa-Su 09:00-21:00"
            }
        ]
    },
    "mobile_phone": {
        "count": 3,
        "detail": [
            {
                "name": "Связной",
                "shop": "mobile_phone",
                "website": "http://www.svyaznoy.ru/"
            },
            {
                "name": "Евросеть",
                "opening_hours": "24/7",
                "shop": "mobile_phone",
                "website": "https://euroset.ru/"
            },
            {
                "name": "МТС",
                "shop": "mobile_phone",
                "operator": "МТС"
            }
        ]
    },
    "fast_food": {
        "count": 7,
        "detail": [
            {
                "name": "Шахта",
                "amenity": "fast_food",
                "cuisine": "burger"
            },
            {
                "name": "Шаверма по-питерски",
                "amenity": "fast_food",
                "opening_hours": "Mo-Su 09:00-22:00"
            },
            {
                "addr:country": "RU",
                "addr:housenumber": "49",
                "addr:street": "Коммунистическая улица",
                "alt_name": "Kentucky Fried Chicken",
                "amenity": "fast_food",
                "brand": "KFC",
                "brand:wikidata": "Q524757",
                "brand:wikipedia": "en:KFC",
                "cuisine": "chicken",
                "internet_access": "wlan",
                "int_name": "KFC",
                "name": "KFC",
                "name:de": "KFC",
                "name:en": "KFC",
                "old_name": "Ростик’с-KFC / Ростикс",
                "takeaway": "yes",
                "website": "http://www.kfc.ru/"
            },
            {
                "name": "Pizza Mia",
                "amenity": "fast_food"
            },
            {
                "name": "Ашхана Уфа",
                "amenity": "fast_food",
                "fast_food": "cafeteria",
                "contact:phone": "+7 347 2721970"
            },
            {
                "name": "Вилка-Ложка",
                "amenity": "fast_food",
                "fast_food": "cafeteria",
                "opening_hours": "09:00-22:00"
            },
            {
                "name": "Сытый Батыр",
                "amenity": "fast_food"
            }
        ]
    },
    "post_office": {
        "count": 1,
        "detail": [
            {
                "ref": "450000",
                "name": "Отделение связи №450000",
                "amenity": "post_office",
                "alt_name": "Уфимский почтамт",
                "operator": "Почта России",
                "contact:phone": "+7 347 2721212",
                "opening_hours": "Mo-Fr 08:00-22:00; Sa-Su 09:00-18:00",
                "contact:website": "http://www.russianpost.ru"
            }
        ]
    },
    "atm": {
        "count": 3,
        "detail": [
            {
                "amenity": "atm",
                "operator": "Сбербанк России",
                "website": "https://www.sberbank.ru/"
            },
            {
                "amenity": "atm",
                "operator": "Банк Уралсиб",
                "opening_hours": "24/7"
            },
            {
                "amenity": "atm",
                "operator": "Банк Уралсиб"
            }
        ]
    },
    "fountain": {
        "count": 1,
        "detail": [
            {
                "amenity": "fountain"
            }
        ]
    },
    "telephone": {
        "count": 1,
        "detail": [
            {
                "amenity": "telephone",
                "operator": "Башинформсвязь",
                "payment:telephone_cards": "yes"
            }
        ]
    },
    "kiosk": {
        "count": 1,
        "detail": [
            {
                "name": "Уфа-печать",
                "shop": "kiosk"
            }
        ]
    },
    "community_centre": {
        "count": 3,
        "detail": [
            {
                "amenity": "community_centre",
                "name": "Государственный концертный зал Башкортостан",
                "website": "gkzbashkortostan.ru"
            },
            {
                "name": "Аквапарк",
                "amenity": "community_centre"
            },
            {
                "amenity": "community_centre",
                "name": "Арт-Квадрат",
                "opening_hours": "24/7"
            }
        ]
    },
    "restaurant": {
        "count": 15,
        "detail": [
            {
                "amenity": "restaurant",
                "cuisine": "sushi",
                "name": "Планета суши",
                "opening_hours": "Mo-Su 12:00-24:00",
                "website": "https://grufa.ru/"
            },
            {
                "amenity": "restaurant",
                "cuisine": "irish",
                "name": "Mс Highlander",
                "opening_hours": "Mo-Su 13:00-01:00",
                "phone": "+73472945430",
                "website": "http://www.mchighlander.ru"
            },
            {
                "name": "Чайхана Rahat",
                "amenity": "restaurant",
                "cuisine": "regional",
                "operator": "Исламский колледж им. Марьям Султановой",
                "contact:phone": "+7 347 2944493"
            },
            {
                "name": "Бархан",
                "amenity": "restaurant",
                "cuisine": "uzbek",
                "operator": "ООО \"Дары востока\"",
                "opening_hours": "Su-Th 12:00-02:00; Fr-Sa 12:00-05:00"
            },
            {
                "amenity": "restaurant",
                "cuisine": "georgian",
                "name": "Барашки",
                "name:en": "Cafe Barashki",
                "opening_hours": "Mo-Su 12:00-23:00",
                "operator": "Dasko Group",
                "phone": "+7 347 2465553",
                "website": "http://daskogroup.ru/"
            },
            {
                "name": "Дуслык",
                "amenity": "restaurant",
                "cuisine": "regional",
                "operator": "ООО «БАР»",
                "addr:city": "Уфа",
                "addr:street": "улица Крупской",
                "addr:housenumber": "9"
            },
            {
                "name": "Бута",
                "amenity": "restaurant",
                "cuisine": "azerbajani",
                "operator": "ИП Сафаров А. А."
            },
            {
                "name": "Кунак-Ашы",
                "amenity": "restaurant",
                "cuisine": "regional",
                "operator": "Пышка"
            },
            {
                "name": "Мясо мясо",
                "amenity": "restaurant",
                "cuisine": "grill",
                "website": "http://www.dackogroup.ru/myaso-myaso"
            },
            {
                "name": "Jagger Bar",
                "amenity": "restaurant",
                "cuisine": "bar&grill",
                "website": "http://www.dackogroup.ru/restaraunts/jagger"
            },
            {
                "name": "Дорогая, я перезвоню!",
                "amenity": "restaurant",
                "cuisine": "fine_dining",
                "opening_hours": "Mo-Su 10:00-00:00",
                "internet_access": "wlan"
            },
            {
                "name": "Шок",
                "amenity": "restaurant"
            },
            {
                "name": "Шерлок Холмс",
                "phone": "+73472934530",
                "amenity": "restaurant",
                "name:en": "Sherlock Holmes",
                "name:ru": "Шерлок Холмс",
                "opening_hours": "Mo-Su 12:00-02:00"
            },
            {
                "amenity": "restaurant",
                "contact:email": "adzhikinezhal@yandex.ru",
                "contact:phone": "+7 347 2854545",
                "contact:website": "http://adjiki.ru/",
                "name": "Аджикинежаль",
                "opening_hours": "Mo-Su 12:00-23:00",
                "operator": "Профито"
            },
            {
                "addr:city": "Уфа",
                "addr:country": "RU",
                "addr:housenumber": "24/1",
                "addr:street": "улица Карла Маркса",
                "amenity": "restaurant",
                "building": "yes",
                "building:levels": "1",
                "name": "McHighlander"
            }
        ]
    },
    "cinema": {
        "count": 2,
        "detail": [
            {
                "name": "Синема-парк",
                "amenity": "cinema",
                "website": "http://www.cinemapark.ru/",
                "contact:phone": "+7 347 2926887"
            },
            {
                "name": "Родина",
                "source": "Bing",
                "amenity": "cinema",
                "building": "yes",
                "addr:city": "Уфа",
                "addr:street": "улица Ленина",
                "building:levels": "2",
                "addr:housenumber": "42"
            }
        ]
    },
    "electronics": {
        "count": 2,
        "detail": [
            {
                "name": "Техно",
                "shop": "electronics",
                "opening_hours": "Mo-Su 10:00-21:00"
            },
            {
                "name": "Эльдорадо",
                "shop": "electronics",
                "addr:city": "Уфа",
                "addr:street": "улица Чернышевского",
                "opening_hours": "10:00-21:00",
                "addr:housenumber": "100"
            }
        ]
    },
    "parking": {
        "count": 1,
        "detail": [
            {
                "access": "customers",
                "amenity": "parking",
                "layer": "-1",
                "parking": "underground"
            }
        ]
    },
    "clothes": {
        "count": 2,
        "detail": [
            {
                "name": "Glance",
                "shop": "clothes"
            },
            {
                "name": "Music & Jeans",
                "shop": "clothes"
            }
        ]
    },
    "place_of_worship": {
        "count": 2,
        "detail": [
            {
                "name": "Мечеть им. Марьям Султановой",
                "source": "Bing",
                "amenity": "place_of_worship",
                "religion": "muslim",
                "addr:street": "улица Мустая Карима",
                "denomination": "sunni",
                "addr:housenumber": "3"
            },
            {
                "name": "Галия",
                "amenity": "place_of_worship",
                "building": "yes",
                "religion": "muslim",
                "addr:city": "Уфа",
                "addr:street": "улица Мустая Карима",
                "addr:postcode": "450077",
                "addr:housenumber": "3"
            }
        ]
    },
    "police": {
        "count": 3,
        "detail": [
            {
                "name": "Министерство внутренних дел по Республике Башкортостан",
                "amenity": "police"
            },
            {
                "name": "ФСБ",
                "amenity": "police"
            },
            {
                "name": "Прокуратура РБ",
                "amenity": "police"
            }
        ]
    },
    "school": {
        "count": 1,
        "detail": [
            {
                "amenity": "school",
                "name": "Лицей № 153"
            }
        ]
    },
    "greengrocer": {
        "count": 1,
        "detail": [
            {
                "name": "Фрукты",
                "shop": "greengrocer"
            }
        ]
    },
    "bar": {
        "count": 4,
        "detail": [
            {
                "amenity": "bar"
            },
            {
                "name": "Дорогая, я перезвоню",
                "amenity": "bar",
                "name:ru": "Дорогая, я перезвоню"
            },
            {
                "amenity": "bar",
                "contact:email": "monacoufa@mail.ru",
                "contact:instagram": "https://instagram.com/monacoufa",
                "contact:phone": "+7 347 2145232;+7 919 1545232",
                "contact:vk": "https://vk.com/monacoufa",
                "contact:website": "https://monacorestoran.ru/",
                "name": "Monaco",
                "opening_hours": "Fr-Sa 12:00-04:00;Mo-Th,Su 12:00-02:00",
                "operator": "Monaco"
            },
            {
                "amenity": "bar",
                "contact:phone": "+7 917 3444442",
                "name": "Meduza",
                "opening_hours": "24/7",
                "operator": "ИП Шайхутдинов А.М."
            }
        ]
    },
    "university": {
        "count": 1,
        "detail": [
            {
                "name": "Башкирский институт физической культуры",
                "amenity": "university"
            }
        ]
    },
    "bicycle_parking": {
        "count": 6,
        "detail": [
            {
                "amenity": "bicycle_parking"
            },
            {
                "amenity": "bicycle_parking",
                "capacity": "5",
                "bicycle_parking": "stands"
            },
            {
                "amenity": "bicycle_parking",
                "capacity": "10",
                "bicycle_parking": "stands"
            },
            {
                "amenity": "bicycle_parking",
                "capacity": "3",
                "bicycle_parking": "stands"
            },
            {
                "amenity": "bicycle_parking"
            },
            {
                "amenity": "bicycle_parking"
            }
        ]
    },
    "cafe": {
        "count": 7,
        "detail": [
            {
                "name": "Kumpan Cafe",
                "amenity": "cafe",
                "operator": "ООО «Компания Милли»"
            },
            {
                "name": "Хурма",
                "amenity": "cafe"
            },
            {
                "name": "Coffeebook",
                "amenity": "cafe",
                "cuisine": "coffee_shop",
                "contact:phone": "+7 905 0000709"
            },
            {
                "addr:housenumber": "88",
                "addr:street": "улица Чернышевского",
                "amenity": "cafe",
                "name": "Вино и сыр",
                "opening_hours": "Mo-Su 12:00-02:00",
                "phone": "+73472930693",
                "website": "https://www.ldgr.ru/"
            },
            {
                "amenity": "cafe",
                "contact:email": "hotline@coffee-like.com",
                "contact:phone": "+7 341 2908292;+7 800 3334130",
                "contact:website": "https://coffee-like.com/",
                "name": "Coffee Like",
                "opening_hours": "Mo-Su 09:00-21:00",
                "operator": "Кагиров Тимур Салаватович"
            },
            {
                "amenity": "cafe",
                "contact:email": "hotline@coffee-like.com",
                "contact:phone": "+7 341 2908292;+7 800 3334130",
                "contact:website": "https://coffee-like.com/",
                "cuisine": "coffee_shop",
                "name": "Coffee Like",
                "opening_hours": "09:00-23:00",
                "operator": "Зарифьянова Алиса Ришатовна"
            },
            {
                "amenity": "cafe",
                "cuisine": "regional",
                "building": "yes",
                "addr:city": "Уфа",
                "addr:street": "улица Мустая Карима",
                "addr:postcode": "450077",
                "building:levels": "2",
                "addr:housenumber": "3 к2"
            }
        ]
    },
    "deli": {
        "count": 2,
        "detail": [
            {
                "name": "Пышка Эксклюзив",
                "shop": "deli",
                "operator": "ИП Садриева Д. Г.",
                "contact:phone": "+7 347 2768082"
            },
            {
                "name": "Глобус Гурман",
                "shop": "deli",
                "operator": "ООО «Европейская столичная торговая компания»",
                "contact:website": "http://www.gurman-ufa.ru/"
            }
        ]
    },
    "recycling": {
        "count": 1,
        "detail": [
            {
                "amenity": "recycling",
                "recycling_type": "container",
                "recycling:batteries": "no"
            }
        ]
    },
    "bench": {
        "count": 3,
        "detail": [
            {
                "amenity": "bench"
            },
            {
                "amenity": "bench"
            },
            {
                "amenity": "bench"
            }
        ]
    },
    "pub": {
        "count": 1,
        "detail": [
            {
                "name": "BrewКВА",
                "amenity": "pub"
            }
        ]
    },
    "drinking_water": {
        "count": 1,
        "detail": [
            {
                "amenity": "drinking_water"
            }
        ]
    },
    "cosmetics": {
        "count": 1,
        "detail": [
            {
                "contact:email": "yrru.rocketdata@gmail.com",
                "contact:phone": "+7 347 2728681",
                "contact:website": "https://www.yves-rocher.ru/",
                "name": "Ив Роше",
                "opening_hours": "Mo-Fr 10:00-20:00;Sa-Su 11:00-19:00",
                "operator": "ХАЙРЕТДИНОВ МАРАТ ЕМАЛИТОВИЧ",
                "shop": "cosmetics"
            }
        ]
    },
    "e-cigarette": {
        "count": 1,
        "detail": [
            {
                "contact:facebook": "https://www.facebook.com/babylonvape",
                "contact:instagram": "https://www.instagram.com/babylonvape/",
                "contact:phone": "+7 800 5050501 ext. 1316",
                "contact:vk": "https://vk.com/babylonvape",
                "contact:website": "https://babylonvape.ru/",
                "contact:youtube": "https://www.youtube.com/c/BABYLONVAPE28",
                "name": "BabylonVapeShop",
                "opening_hours": "Mo-Su 11:00-22:00",
                "shop": "e-cigarette"
            }
        ]
    },
    "sewing": {
        "count": 1,
        "detail": [
            {
                "clothes": "fur",
                "contact:email": "office@ruelle17.com",
                "contact:instagram": "https://instagram.com/ruelle__17",
                "contact:phone": "+7 987 1359717;+7 987 2545517",
                "name": "Ruelle 17",
                "opening_hours": "Mo-Su 10:00-20:00",
                "operator": "Ruelle 17",
                "shop": "sewing"
            }
        ]
    },
    "music_school": {
        "count": 2,
        "detail": [
            {
                "amenity": "music_school",
                "contact:email": "gaazg@mail.ru",
                "contact:instagram": "https://instagram.com/music_school_artkvdrt",
                "contact:phone": "+7 800 6005232",
                "contact:vk": "https://vk.com/music_school_artkvdrt",
                "contact:website": "https://xn--80aaaganij1acr0d1ad5j.xn--p1ai/",
                "name": "Музыка в квадрате",
                "opening_hours": "Mo-Su 09:00-22:00",
                "operator": "Музыка в квадрате"
            },
            {
                "amenity": "music_school",
                "contact:email": "gaazg@mail.ru",
                "contact:instagram": "https://instagram.com/music_shop_artkvdrt",
                "contact:phone": "+7 800 6005232",
                "contact:vk": "https://vk.com/music_shop_artkvdrt",
                "contact:website": "https://xn--80aaaganij1acr0d1ad5j.xn--p1ai/",
                "name": "Музыка в квадрате",
                "opening_hours": "Mo-Su 11:00-21:00",
                "operator": "Музыка в квадрате"
            }
        ]
    },
    "driving_school": {
        "count": 1,
        "detail": [
            {
                "amenity": "driving_school",
                "contact:email": "sss065@mail.ru",
                "contact:instagram": "https://instagram.com/akademia.ufa",
                "contact:phone": "+7 937 3001070",
                "contact:vk": "https://vk.com/public37067299",
                "contact:website": "https://avtoshkola.turbo.site/",
                "name": "БашАвтоАкадемия",
                "opening_hours": "Fr 09:00-11:00,13:00-17:00;Mo-Th 09:00-11:00,13:00-22:00",
                "operator": "БашАвтоАкадемия"
            }
        ]
    },
    "mall": {
        "count": 3,
        "detail": [
            {
                "name": "Гостиный Двор",
                "shop": "mall",
                "building": "yes",
                "addr:city": "Уфа",
                "addr:street": "Верхнеторговая площадь",
                "addr:country": "RU",
                "building:levels": "2",
                "addr:housenumber": "1"
            },
            {
                "name": "Галерея Арт",
                "shop": "mall",
                "source": "Bing",
                "building": "yes",
                "addr:city": "Уфа",
                "addr:street": "улица Чернышевского",
                "building:levels": "4",
                "addr:housenumber": "75"
            },
            {
                "name": "Александровский пассаж",
                "shop": "mall",
                "source": "Bing",
                "building": "yes",
                "addr:city": "Уфа",
                "addr:street": "улица Карла Маркса",
                "addr:country": "RU",
                "building:levels": "4",
                "addr:housenumber": "20"
            }
        ]
    },
    "public_building": {
        "count": 3,
        "detail": [
            {
                "amenity": "public_building",
                "building": "yes",
                "addr:city": "Уфа",
                "addr:street": "улица Ленина",
                "addr:country": "RU",
                "building:levels": "2",
                "addr:housenumber": "5/3"
            },
            {
                "amenity": "public_building",
                "building": "yes",
                "addr:city": "Уфа",
                "addr:street": "улица Ленина",
                "addr:country": "RU",
                "building:levels": "2",
                "addr:housenumber": "5/4"
            },
            {
                "name": "Межрайонная инспекция ФНС России №40 по Республике Башкортостан",
                "source": "Bing",
                "amenity": "public_building",
                "building": "yes",
                "addr:street": "Коммунистическая улица",
                "addr:housenumber": "59"
            }
        ]
    },
    "townhall": {
        "count": 1,
        "detail": [
            {
                "addr:city": "Уфа",
                "addr:housenumber": "19",
                "addr:postcode": "450008",
                "addr:street": "улица Мустая Карима",
                "amenity": "townhall",
                "building": "yes",
                "building:levels": "3",
                "email": "lenadm@ufacity.info",
                "name": "Администрация Ленинского района городского округа город Уфа Республики Башкортостан",
                "opening_hours": "Mo-Fr 09:00-13:00, 14:00-18:00",
                "phone": "+73472290400",
                "source": "Bing",
                "website": "www.ufacity.info"
            }
        ]
    },
    "commercial": {
        "count": 4,
        "detail": [
            {
                "building": "commercial",
                "addr:city": "Уфа",
                "addr:street": "Коммунистическая улица",
                "addr:country": "RU",
                "addr:postcode": "450077",
                "building:levels": "2",
                "addr:housenumber": "45 к1"
            },
            {
                "addr:city": "Уфа",
                "addr:country": "RU",
                "addr:housenumber": "26",
                "addr:street": "улица Ленина",
                "building": "commercial",
                "building:levels": "4",
                "source": "Bing"
            },
            {
                "name": "Деловой двор",
                "building": "commercial",
                "addr:city": "Уфа",
                "addr:street": "Коммунистическая улица",
                "addr:postcode": "450077",
                "building:levels": "3",
                "addr:housenumber": "45/3"
            },
            {
                "building": "commercial",
                "addr:city": "Уфа",
                "addr:street": "Коммунистическая улица",
                "addr:postcode": "450077",
                "building:levels": "2",
                "addr:housenumber": "45А"
            }
        ]
    }
}