{
    "doityourself": {
        "count": 1,
        "detail": [
            {
                "name": "Стекландия",
                "shop": "doityourself"
            }
        ]
    },
    "residents": 4894,
    "supermarket": {
        "count": 2,
        "detail": [
            {
                "name": "Пятёрочка",
                "shop": "supermarket"
            },
            {
                "name": "Магнит",
                "shop": "supermarket"
            }
        ]
    },
    "beauty": {
        "count": 1,
        "detail": [
            {
                "name": "Клеопатра",
                "shop": "beauty"
            }
        ]
    },
    "convenience": {
        "count": 1,
        "detail": [
            {
                "name": "Домашний уголок",
                "shop": "convenience"
            }
        ]
    },
    "pawnbroker": {
        "count": 1,
        "detail": [
            {
                "name": "Фианит",
                "shop": "pawnbroker"
            }
        ]
    },
    "atm": {
        "count": 2,
        "detail": [
            {
                "name": "Сбербанк",
                "amenity": "atm"
            },
            {
                "name": "Сбербанк",
                "amenity": "atm"
            }
        ]
    },
    "bank": {
        "count": 1,
        "detail": [
            {
                "amenity": "bank",
                "contact:email": "bank@ubrr.ru",
                "contact:phone": "+7 800 1000200",
                "contact:website": "https://yemanzhelinsk.ubrr.ru/",
                "name": "Уральский банк реконструкции и развития",
                "opening_hours": "Mo-Fr 09:00-18:00",
                "operator": "УБРиР"
            }
        ]
    },
    "post_office": {
        "count": 1,
        "detail": [
            {
                "amenity": "post_office",
                "brand": "Почта России",
                "brand:wikidata": "Q1502763",
                "brand:wikipedia": "ru:Почта России",
                "contact:email": "client@russianpost.ru",
                "contact:facebook": "https://www.facebook.com/ruspost",
                "contact:instagram": "https://www.instagram.com/ruspostofficial",
                "contact:ok": "https://ok.ru/ruspostofficial",
                "contact:twitter": "https://twitter.com/ruspostofficial",
                "contact:vk": "https://vk.com/russianpost",
                "contact:website": "https://www.pochta.ru",
                "name": "Еманжелинск 456596",
                "opening_hours": "Tu,Th,Sa 08:00-12:00,13:00-14:00",
                "operator": "АО «Почта России»",
                "operator:wikidata": "Q1502763",
                "operator:wikipedia": "ru:Почта России",
                "ref": "456596"
            }
        ]
    },
    "kindergarten": {
        "count": 4,
        "detail": [
            {
                "building": "kindergarten",
                "addr:city": "Еманжелинск",
                "addr:street": "улица Чкалова",
                "addr:postcode": "456580",
                "addr:housenumber": "16Б"
            },
            {
                "building": "kindergarten",
                "addr:street": "улица Чкалова",
                "addr:postcode": "456580",
                "addr:housenumber": "24"
            },
            {
                "amenity": "kindergarten",
                "building": "kindergarten",
                "addr:city": "Еманжелинск",
                "addr:street": "улица Чкалова",
                "addr:housenumber": "20"
            },
            {
                "building": "kindergarten"
            }
        ]
    },
    "school": {
        "count": 2,
        "detail": [
            {
                "addr:city": "Еманжелинск",
                "addr:housenumber": "10",
                "addr:street": "улица Чкалова",
                "building": "school",
                "name": "Школа №4"
            },
            {
                "name": "ШКОЛА №2",
                "amenity": "school",
                "building": "school",
                "addr:city": "Еманжелинск",
                "addr:street": "улица Чкалова",
                "addr:postcode": "456580",
                "addr:housenumber": "26"
            }
        ]
    },
    "trade": {
        "count": 1,
        "detail": [
            {
                "shop": "trade",
                "building": "yes"
            }
        ]
    },
    "alcohol": {
        "count": 1,
        "detail": [
            {
                "name": "Красное & Белое",
                "shop": "alcohol",
                "building": "yes",
                "addr:city": "Еманжелинск",
                "addr:street": "улица Бажова",
                "addr:housenumber": "7А"
            }
        ]
    },
    "bus_station": {
        "count": 1,
        "detail": [
            {
                "addr:city": "Еманжелинск",
                "addr:housenumber": "8",
                "addr:street": "улица Ленина",
                "amenity": "bus_station",
                "building": "yes",
                "building:levels": "1",
                "bus": "yes",
                "name": "Автостанция Еманжелинск",
                "public_transport": "station"
            }
        ]
    },
    "toilets": {
        "count": 1,
        "detail": [
            {
                "unisex": "yes",
                "amenity": "toilets",
                "building": "yes",
                "addr:housenumber": "8Б"
            }
        ]
    },
    "townhall": {
        "count": 1,
        "detail": [
            {
                "amenity": "townhall",
                "building": "yes",
                "addr:city": "Еманжелинск",
                "addr:street": "улица Мира",
                "addr:housenumber": "4"
            }
        ]
    }
}