{
    "bus_stop": {
        "count": 2,
        "detail": [
            {
                "name": "Химволокно",
                "bench": "yes",
                "highway": "bus_stop",
                "shelter": "yes"
            },
            {
                "name": "Химволокно",
                "bench": "yes",
                "highway": "bus_stop",
                "shelter": "yes"
            }
        ]
    },
    "residents": 1587,
    "library": {
        "count": 1,
        "detail": [
            {
                "amenity": "library"
            }
        ]
    },
    "electronics": {
        "count": 1,
        "detail": [
            {
                "name": "Рембыттехника",
                "name:ru": "Рембыттехника",
                "opening_hours": "Mo-Fr 10:00-18:00",
                "phone": "+7 4967 760966",
                "shop": "electronics",
                "website": "http://serpremont.ru"
            }
        ]
    },
    "car_repair": {
        "count": 1,
        "detail": [
            {
                "name": "Автосервис+",
                "name:ru": "Автосервис+",
                "opening_hours": "Mo-Su 09:00-20:00",
                "phone": "+7 916 7100808",
                "shop": "car_repair"
            }
        ]
    },
    "convenience": {
        "count": 1,
        "detail": [
            {
                "name": "24часа",
                "shop": "convenience",
                "name:ru": "24часа",
                "opening_hours": "24/7"
            }
        ]
    },
    "car_wash": {
        "count": 1,
        "detail": [
            {
                "name": "H2o",
                "amenity": "car_wash",
                "name:ru": "H2o",
                "opening_hours": "Mo-Su 09:00-22:00"
            }
        ]
    },
    "cafe": {
        "count": 1,
        "detail": [
            {
                "name": "Ешьте",
                "amenity": "cafe",
                "name:ru": "Ешьте"
            }
        ]
    },
    "clinic": {
        "count": 1,
        "detail": [
            {
                "addr:street": "улица Химиков",
                "amenity": "clinic",
                "name": "Центр медицины труда"
            }
        ]
    },
    "commercial": {
        "count": 1,
        "detail": [
            {
                "building": "commercial",
                "name": "ООО \"СЕРТОВ\""
            }
        ]
    }
}