{
    "convenience": {
        "count": 1,
        "detail": [
            {
                "name": "Восток",
                "shop": "convenience",
                "addr:city": "Лебяжье",
                "addr:street": "Спортивная улица",
                "addr:housenumber": "36"
            }
        ]
    },
    "school": {
        "count": 2,
        "detail": [
            {
                "building": "school",
                "addr:street": "Спортивная улица",
                "building:levels": "2"
            },
            {
                "name": "Школа",
                "building": "school",
                "addr:city": "Лебяжье",
                "addr:street": "Спортивная улица",
                "building:levels": "2",
                "addr:housenumber": "30"
            }
        ]
    },
    "doityourself": {
        "count": 1,
        "detail": [
            {
                "name": "Хозтовары",
                "shop": "doityourself"
            }
        ]
    },
    "bus_stop": {
        "count": 1,
        "detail": [
            {
                "highway": "bus_stop"
            }
        ]
    },
    "residents": 1173,
    "farm": {
        "count": 1,
        "detail": [
            {
                "name": "М-н \"Восторг\"",
                "shop": "farm",
                "building": "yes",
                "addr:city": "Лебяжье",
                "addr:street": "Спортивная улица",
                "building:levels": "1",
                "addr:housenumber": "53А"
            }
        ]
    },
    "commercial": {
        "count": 1,
        "detail": [
            {
                "building": "commercial",
                "addr:city": "Лебяжье",
                "addr:street": "2-я Заводская улица"
            }
        ]
    }
}