{
    "residents": 309,
    "hospital": {
        "count": 1,
        "detail": [
            {
                "name": "Детская поликлиника Старая",
                "amenity": "hospital"
            }
        ]
    },
    "supermarket": {
        "count": 1,
        "detail": [
            {
                "name": "dobriy market",
                "shop": "supermarket"
            }
        ]
    },
    "dentist": {
        "count": 1,
        "detail": [
            {
                "name": "Стоматологическая поликлиника",
                "amenity": "dentist"
            }
        ]
    },
    "bus_stop": {
        "count": 2,
        "detail": [
            {
                "highway": "bus_stop"
            },
            {
                "highway": "bus_stop"
            }
        ]
    },
    "playground": {
        "count": 1,
        "detail": [
            {
                "leisure": "playground"
            }
        ]
    },
    "pharmacy": {
        "count": 3,
        "detail": [
            {
                "amenity": "pharmacy"
            },
            {
                "amenity": "pharmacy"
            },
            {
                "amenity": "pharmacy",
                "contact:facebook": "http://facebook.com/aptekivita",
                "contact:instagram": "https://www.instagram.com/vita_express/",
                "contact:phone": "+7 800 7550003",
                "contact:vk": "https://vk.com/aptekivita",
                "contact:website": "https://vitaexpress.ru/",
                "name": "Вита Экспресс",
                "opening_hours": "Mo-Sa 09:00-21:00;Su 09:00-21:10"
            }
        ]
    },
    "atm": {
        "count": 1,
        "detail": [
            {
                "amenity": "atm"
            }
        ]
    },
    "mobile_phone": {
        "count": 4,
        "detail": [
            {
                "shop": "mobile_phone"
            },
            {
                "shop": "mobile_phone"
            },
            {
                "name": "МТС",
                "shop": "mobile_phone",
                "name:ru": "МТС"
            },
            {
                "name": "МТС",
                "shop": "mobile_phone",
                "name:ru": "МТС"
            }
        ]
    },
    "electronics": {
        "count": 1,
        "detail": [
            {
                "name": "орбита",
                "shop": "electronics"
            }
        ]
    },
    "convenience": {
        "count": 3,
        "detail": [
            {
                "shop": "convenience"
            },
            {
                "shop": "convenience"
            },
            {
                "name": "10. Прогресс ООО",
                "shop": "convenience"
            }
        ]
    },
    "alcohol": {
        "count": 1,
        "detail": [
            {
                "name": "Мастер вин",
                "shop": "alcohol",
                "name:ru": "Мастер вин"
            }
        ]
    },
    "social_facility": {
        "count": 1,
        "detail": [
            {
                "name": "Забота",
                "email": "info@zabotadurtuli.ru",
                "amenity": "social_facility",
                "smoking": "outside",
                "addr:city": "Дюртюли",
                "short_name": "АНО ЦСОН \"Забота\"",
                "addr:street": "Первомайская улица",
                "addr:postcode": "452320",
                "official_name": "Автономная некоммерческая организация Центр социального обслуживания населения \"Забота\"",
                "opening_hours": "Mo-Fr 08:00-17:00",
                "addr:housenumber": "10А"
            }
        ]
    },
    "kindergarten": {
        "count": 2,
        "detail": [
            {
                "source": "Bing",
                "building": "kindergarten",
                "addr:city": "Дюртюли",
                "addr:postcode": "452320"
            },
            {
                "building": "kindergarten",
                "addr:street": "Первомайская улица",
                "addr:housenumber": "5А"
            }
        ]
    },
    "school": {
        "count": 1,
        "detail": [
            {
                "name": "5 школа",
                "building": "school",
                "building:levels": "2"
            }
        ]
    }
}