{
    "car_wash": {
        "count": 1,
        "detail": [
            {
                "amenity": "car_wash"
            }
        ]
    },
    "hospital": {
        "count": 1,
        "detail": [
            {
                "amenity": "hospital"
            }
        ]
    },
    "convenience": {
        "count": 2,
        "detail": [
            {
                "shop": "convenience"
            },
            {
                "opening_hours": "24/7",
                "shop": "convenience"
            }
        ]
    },
    "bank": {
        "count": 1,
        "detail": [
            {
                "ref": "8615/035",
                "name": "Сбербанк",
                "amenity": "bank"
            }
        ]
    },
    "post_office": {
        "count": 1,
        "detail": [
            {
                "amenity": "post_office"
            }
        ]
    },
    "pharmacy": {
        "count": 1,
        "detail": [
            {
                "amenity": "pharmacy"
            }
        ]
    },
    "hairdresser": {
        "count": 1,
        "detail": [
            {
                "shop": "hairdresser"
            }
        ]
    },
    "supermarket": {
        "count": 2,
        "detail": [
            {
                "shop": "supermarket"
            },
            {
                "shop": "supermarket"
            }
        ]
    },
    "atm": {
        "count": 1,
        "detail": [
            {
                "amenity": "atm"
            }
        ]
    },
    "bus_stop": {
        "count": 1,
        "detail": [
            {
                "highway": "bus_stop"
            }
        ]
    },
    "residents": 462,
    "kindergarten": {
        "count": 4,
        "detail": [
            {
                "name": "Детский сад №181",
                "amenity": "kindergarten",
                "building": "yes",
                "addr:street": "улица Халтурина",
                "addr:housenumber": "39А"
            },
            {
                "name": "Детский сад №206",
                "amenity": "kindergarten",
                "building": "yes",
                "addr:street": "улица Халтурина",
                "addr:housenumber": "41А"
            },
            {
                "name": "Детский сад №186",
                "amenity": "kindergarten",
                "building": "yes",
                "addr:street": "улица Халтурина",
                "addr:housenumber": "31А"
            },
            {
                "name": "Детский сад №175",
                "amenity": "kindergarten",
                "building": "yes",
                "addr:street": "улица Халтурина",
                "addr:housenumber": "33А"
            }
        ]
    }
}