{
    "residents": 6834,
    "car_parts": {
        "count": 1,
        "detail": [
            {
                "shop": "car_parts"
            }
        ]
    },
    "police": {
        "count": 1,
        "detail": [
            {
                "amenity": "police"
            }
        ]
    },
    "playground": {
        "count": 3,
        "detail": [
            {
                "leisure": "playground"
            },
            {
                "leisure": "playground"
            },
            {
                "leisure": "playground"
            }
        ]
    },
    "parking": {
        "count": 5,
        "detail": [
            {
                "amenity": "parking"
            },
            {
                "amenity": "parking"
            },
            {
                "amenity": "parking"
            },
            {
                "amenity": "parking"
            },
            {
                "amenity": "parking"
            }
        ]
    },
    "waste_disposal": {
        "count": 2,
        "detail": [
            {
                "amenity": "waste_disposal"
            },
            {
                "amenity": "waste_disposal"
            }
        ]
    },
    "florist": {
        "count": 1,
        "detail": [
            {
                "shop": "florist",
                "building": "kiosk",
                "building:levels": "1"
            }
        ]
    },
    "tobacco": {
        "count": 1,
        "detail": [
            {
                "shop": "tobacco",
                "building": "kiosk",
                "building:levels": "1"
            }
        ]
    },
    "ice_cream": {
        "count": 1,
        "detail": [
            {
                "amenity": "ice_cream",
                "building": "kiosk",
                "building:levels": "1"
            }
        ]
    },
    "newsagent": {
        "count": 2,
        "detail": [
            {
                "name": "Союзпечать",
                "shop": "newsagent",
                "building": "kiosk",
                "building:levels": "1"
            },
            {
                "shop": "newsagent",
                "building": "kiosk",
                "building:levels": "1"
            }
        ]
    },
    "taxi": {
        "count": 1,
        "detail": [
            {
                "amenity": "taxi"
            }
        ]
    },
    "bus_stop": {
        "count": 1,
        "detail": [
            {
                "name": "Больница",
                "highway": "bus_stop"
            }
        ]
    },
    "dentist": {
        "count": 1,
        "detail": [
            {
                "amenity": "dentist"
            }
        ]
    },
    "pharmacy": {
        "count": 1,
        "detail": [
            {
                "amenity": "pharmacy",
                "name": "Будь здоров!"
            }
        ]
    },
    "supermarket": {
        "count": 1,
        "detail": [
            {
                "name": "Пятёрочка",
                "shop": "supermarket"
            }
        ]
    },
    "alcohol": {
        "count": 1,
        "detail": [
            {
                "brand": "Красное&Белое",
                "brand:wikidata": "Q24933790",
                "brand:wikipedia": "ru:Красное & Белое",
                "contact:facebook": "https://www.facebook.com/krasnoe.beloe",
                "contact:instagram": "https://www.instagram.com/krasnoebeloe",
                "contact:ok": "https://ok.ru/krasnoebeloe",
                "contact:phone": "+7 800 1000804",
                "contact:telegram": "+7 922 7033000",
                "contact:viber": "+7 922 7033000",
                "contact:vk": "https://vk.com/krasnoebeloe",
                "contact:website": "https://krasnoeibeloe.ru",
                "contact:whatsapp": "+7 922 7033000",
                "name": "Красное&Белое",
                "name:ru": "Красное&Белое",
                "opening_hours": "Mo-Su 09:00-22:05",
                "payment:cards": "yes",
                "shop": "alcohol"
            }
        ]
    },
    "atm": {
        "count": 1,
        "detail": [
            {
                "amenity": "atm",
                "opening_hours": "24/7",
                "operator": "Возрождение"
            }
        ]
    },
    "convenience": {
        "count": 2,
        "detail": [
            {
                "shop": "convenience",
                "building": "yes",
                "building:levels": "1"
            },
            {
                "shop": "convenience",
                "building": "yes",
                "building:levels": "1"
            }
        ]
    },
    "school": {
        "count": 1,
        "detail": [
            {
                "name": "Школа №2",
                "amenity": "school",
                "building": "yes",
                "roof:shape": "hipped",
                "addr:street": "Пионерская улица",
                "addr:housenumber": "6"
            }
        ]
    },
    "kindergarten": {
        "count": 1,
        "detail": [
            {
                "name": "Детский сад №4 \"Малыш\"",
                "amenity": "kindergarten",
                "building": "yes"
            }
        ]
    }
}