{
    "residents": 489,
    "car_parts": {
        "count": 1,
        "detail": [
            {
                "name": "Автозапчасти",
                "shop": "car_parts"
            }
        ]
    },
    "bus_stop": {
        "count": 1,
        "detail": [
            {
                "name": "Универбаза",
                "highway": "bus_stop",
                "name:cv": "Универбаза"
            }
        ]
    },
    "veterinary": {
        "count": 1,
        "detail": [
            {
                "name": "4 лапы",
                "amenity": "veterinary"
            }
        ]
    },
    "hardware": {
        "count": 1,
        "detail": [
            {
                "name": "Электрик",
                "shop": "hardware",
                "opening_hours": "Mo-Fr 08:00-18:00; Sa,Su 09:00-15:00"
            }
        ]
    },
    "police": {
        "count": 2,
        "detail": [
            {
                "name": "ГИБДД г. Канаш",
                "amenity": "police",
                "addr:street": "улица Пушкина",
                "addr:housenumber": "43А"
            },
            {
                "amenity": "police",
                "name": "Канашское ГОВД"
            }
        ]
    },
    "cafe": {
        "count": 1,
        "detail": [
            {
                "amenity": "cafe",
                "name": "Наш бар"
            }
        ]
    },
    "fire_station": {
        "count": 1,
        "detail": [
            {
                "amenity": "fire_station",
                "name": "Пожарная часть № 15"
            }
        ]
    },
    "sports_centre": {
        "count": 1,
        "detail": [
            {
                "leisure": "sports_centre"
            }
        ]
    },
    "car_wash": {
        "count": 1,
        "detail": [
            {
                "amenity": "car_wash",
                "name": "Водолей"
            }
        ]
    },
    "fitness_station": {
        "count": 1,
        "detail": [
            {
                "leisure": "fitness_station"
            }
        ]
    },
    "mall": {
        "count": 2,
        "detail": [
            {
                "name": "ТД \"Кристалл\"",
                "shop": "mall",
                "building": "yes",
                "addr:city": "Канаш",
                "addr:street": "улица Карла Маркса",
                "addr:housenumber": "3А"
            },
            {
                "name": "ТЦ \"Орион\"",
                "shop": "mall",
                "building": "yes"
            }
        ]
    },
    "department_store": {
        "count": 1,
        "detail": [
            {
                "name": "Меркурий",
                "shop": "department_store",
                "building": "yes",
                "building:levels": "5"
            }
        ]
    },
    "courthouse": {
        "count": 1,
        "detail": [
            {
                "name": "Районный суд",
                "amenity": "courthouse",
                "building": "yes",
                "addr:city": "Канаш",
                "addr:street": "улица Чкалова",
                "addr:housenumber": "1"
            }
        ]
    },
    "bar": {
        "count": 1,
        "detail": [
            {
                "addr:city": "Канаш",
                "addr:housenumber": "47",
                "addr:street": "проспект Ленина",
                "amenity": "bar",
                "building": "yes"
            }
        ]
    },
    "bank": {
        "count": 1,
        "detail": [
            {
                "name": "Центральный банк РФ",
                "amenity": "bank",
                "building": "yes"
            }
        ]
    }
}