{
    "residents": 7974,
    "supermarket": {
        "count": 1,
        "detail": [
            {
                "brand": "Billa",
                "brand:wikidata": "Q537781",
                "brand:wikipedia": "en:Billa (supermarket)",
                "name": "Billa",
                "name:en": "Billa",
                "name:ru": "Билла",
                "opening_hours": "08:30-24:00",
                "operator": "ООО \"Билла Россия\"",
                "shop": "supermarket"
            }
        ]
    },
    "bus_stop": {
        "count": 1,
        "detail": [
            {
                "bus": "yes",
                "name": "Школа",
                "bench": "yes",
                "source": "bing; yandex panorams",
                "highway": "bus_stop",
                "shelter": "yes",
                "public_transport": "platform"
            }
        ]
    },
    "recycling": {
        "count": 1,
        "detail": [
            {
                "amenity": "recycling",
                "recycling_type": "container"
            }
        ]
    },
    "pharmacy": {
        "count": 1,
        "detail": [
            {
                "amenity": "pharmacy",
                "healthcare": "pharmacy"
            }
        ]
    },
    "veterinary": {
        "count": 1,
        "detail": [
            {
                "amenity": "veterinary",
                "name": "Сфинкс",
                "opening_hours": "Mo-Su 09:00-21:00",
                "phone": "+7 495 7204430",
                "website": "http://vetsfinks.ru"
            }
        ]
    },
    "playground": {
        "count": 1,
        "detail": [
            {
                "leisure": "playground"
            }
        ]
    },
    "driving_school": {
        "count": 1,
        "detail": [
            {
                "amenity": "driving_school"
            }
        ]
    },
    "alcohol": {
        "count": 1,
        "detail": [
            {
                "name": "Красное и белое",
                "shop": "alcohol"
            }
        ]
    },
    "kindergarten": {
        "count": 2,
        "detail": [
            {
                "name": "Детский сад № 2682",
                "source": "bing",
                "building": "kindergarten",
                "addr:street": "Изюмская улица",
                "roof:levels": "0",
                "building:levels": "3",
                "addr:housenumber": "53"
            },
            {
                "building": "kindergarten",
                "addr:street": "Изюмская улица",
                "addr:housenumber": "49"
            }
        ]
    }
}