{
    "residents": 7461,
    "convenience": {
        "count": 1,
        "detail": [
            {
                "name": "Продукты",
                "shop": "convenience",
                "wheelchair": "yes"
            }
        ]
    },
    "bus_stop": {
        "count": 2,
        "detail": [
            {
                "bus": "yes",
                "name": "Изюмская улица",
                "bench": "yes",
                "source": "bing; yandex panorams",
                "highway": "bus_stop",
                "shelter": "yes",
                "public_transport": "platform"
            },
            {
                "bus": "yes",
                "name": "Изюмская улица",
                "bench": "yes",
                "source": "bing; yandex panorams",
                "highway": "bus_stop",
                "shelter": "yes",
                "public_transport": "platform"
            }
        ]
    },
    "parking_entrance": {
        "count": 1,
        "detail": [
            {
                "amenity": "parking_entrance"
            }
        ]
    },
    "doctors": {
        "count": 1,
        "detail": [
            {
                "addr:postcode": "117624",
                "amenity": "doctors",
                "name": "РиалМед",
                "name:ru": "РиалМед",
                "opening_hours": "Mo-Fr 09:00-21:00; Sa 09:00-20:00; Su 09:00-19:00",
                "phone": "+7 495 9736865",
                "website": "http://www.realmed-center.ru"
            }
        ]
    },
    "car_parts": {
        "count": 1,
        "detail": [
            {
                "name": "Exist.ru",
                "shop": "car_parts",
                "opening_hours": "Mo-Fr 09:00-21:00, Sa 10:00-20:00, Su 11:00-18:00"
            }
        ]
    },
    "drinking_water": {
        "count": 1,
        "detail": [
            {
                "amenity": "drinking_water",
                "description": "Питьевая колонка",
                "man_made": "water_well"
            }
        ]
    },
    "beauty": {
        "count": 1,
        "detail": [
            {
                "shop": "beauty"
            }
        ]
    },
    "pharmacy": {
        "count": 1,
        "detail": [
            {
                "amenity": "pharmacy",
                "name": "Столички",
                "opening_hours": "Mo-Su 09:00-21:00"
            }
        ]
    },
    "alcohol": {
        "count": 1,
        "detail": [
            {
                "name": "Красное & Белое",
                "shop": "alcohol"
            }
        ]
    },
    "kindergarten": {
        "count": 3,
        "detail": [
            {
                "building": "kindergarten",
                "addr:street": "Скобелевская улица",
                "building:levels": "3",
                "addr:housenumber": "25 к3"
            },
            {
                "name": "Детский сад № 2681",
                "source": "bing",
                "building": "kindergarten",
                "addr:street": "Изюмская улица",
                "roof:levels": "0",
                "building:levels": "3",
                "addr:housenumber": "55"
            },
            {
                "name": "Детский сад № 2682",
                "source": "bing",
                "building": "kindergarten",
                "addr:street": "Изюмская улица",
                "roof:levels": "0",
                "building:levels": "3",
                "addr:housenumber": "53"
            }
        ]
    },
    "school": {
        "count": 1,
        "detail": [
            {
                "name": "Школа № 2049",
                "building": "school",
                "addr:street": "Изюмская улица",
                "building:levels": "3",
                "addr:housenumber": "61 к2"
            }
        ]
    },
    "car_wash": {
        "count": 1,
        "detail": [
            {
                "amenity": "car_wash",
                "building": "yes"
            }
        ]
    },
    "parking": {
        "count": 1,
        "detail": [
            {
                "fee": "yes",
                "access": "customers",
                "amenity": "parking",
                "parking": "multi-storey",
                "building": "yes",
                "addr:street": "Изюмская улица",
                "addr:housenumber": "63"
            }
        ]
    }
}