{
    "residents": 5046,
    "school": {
        "count": 1,
        "detail": [
            {
                "name": "АНО СОШ \"Учебный центр Перспектива\"",
                "amenity": "school"
            }
        ]
    },
    "clothes": {
        "count": 2,
        "detail": [
            {
                "name": "Sela",
                "shop": "clothes",
                "operator": "Sela"
            },
            {
                "name": "Reima",
                "shop": "clothes"
            }
        ]
    },
    "atm": {
        "count": 1,
        "detail": [
            {
                "amenity": "atm",
                "operator": "ОАО \"Газпромбанк\""
            }
        ]
    },
    "fast_food": {
        "count": 4,
        "detail": [
            {
                "name": "Tempo Pizza",
                "amenity": "fast_food"
            },
            {
                "name": "Крошка-картошка",
                "amenity": "fast_food"
            },
            {
                "name": "Ам Бургер",
                "amenity": "fast_food"
            },
            {
                "amenity": "fast_food",
                "brand": "Бургер Кинг",
                "brand:wikidata": "Q177054",
                "brand:wikipedia": "ru:Burger King",
                "contact:email": "bk-167@burgerking.ru",
                "contact:facebook": "https://www.facebook.com/BurgerKingRussia",
                "contact:instagram": "https://instagram.com/burgerking_russia",
                "contact:phone": "+7 964 7864400",
                "contact:vk": "https://vk.com/burgerking",
                "contact:website": "https://burgerking.ru",
                "cuisine": "burger",
                "diet:vegetarian": "no",
                "internet_access": "wlan",
                "internet_access:fee": "no",
                "name": "Бургер Кинг",
                "name:en": "Burger King",
                "name:ru": "Бургер Кинг",
                "opening_hours": "24/7",
                "ref": "167",
                "takeaway": "yes"
            }
        ]
    },
    "baby_goods": {
        "count": 2,
        "detail": [
            {
                "shop": "baby_goods"
            },
            {
                "addr:city": "Москва",
                "addr:housenumber": "95",
                "addr:street": "Варшавское шоссе",
                "name": "Олант",
                "opening_hours": "Mo-Su 10:00-22:00",
                "phone": "+7 985 7647790",
                "shop": "baby_goods",
                "website": "https://www.olant-shop.ru/"
            }
        ]
    },
    "bus_stop": {
        "count": 3,
        "detail": [
            {
                "bus": "yes",
                "highway": "bus_stop",
                "name": "Метродепо",
                "public_transport": "platform",
                "shelter": "no"
            },
            {
                "bus": "yes",
                "highway": "bus_stop",
                "name": "Метродепо",
                "public_transport": "platform"
            },
            {
                "bus": "yes",
                "highway": "bus_stop",
                "name": "Варшавское ш.",
                "public_transport": "platform"
            }
        ]
    },
    "fitness_station": {
        "count": 1,
        "detail": [
            {
                "leisure": "fitness_station"
            }
        ]
    },
    "shelter": {
        "count": 1,
        "detail": [
            {
                "amenity": "shelter"
            }
        ]
    },
    "parking": {
        "count": 3,
        "detail": [
            {
                "amenity": "parking"
            },
            {
                "amenity": "parking"
            },
            {
                "amenity": "parking"
            }
        ]
    },
    "playground": {
        "count": 3,
        "detail": [
            {
                "leisure": "playground"
            },
            {
                "leisure": "playground"
            },
            {
                "leisure": "playground"
            }
        ]
    },
    "pharmacy": {
        "count": 1,
        "detail": [
            {
                "amenity": "pharmacy"
            }
        ]
    },
    "kindergarten": {
        "count": 4,
        "detail": [
            {
                "building": "kindergarten",
                "addr:street": "Сумской проезд",
                "addr:housenumber": "2А"
            },
            {
                "name": "Школа №856, филиал №3 (бывш. д/с 1750)",
                "building": "kindergarten",
                "addr:street": "Варшавское шоссе",
                "addr:housenumber": "114А"
            },
            {
                "addr:housenumber": "3Б",
                "addr:street": "Балаклавский проспект",
                "building": "kindergarten"
            },
            {
                "building": "kindergarten",
                "addr:street": "Сумской проезд",
                "addr:housenumber": "4Б"
            }
        ]
    },
    "mall": {
        "count": 1,
        "detail": [
            {
                "name": "Аэробус",
                "shop": "mall",
                "building": "retail",
                "addr:street": "Варшавское шоссе",
                "addr:housenumber": "95 к1"
            }
        ]
    },
    "service": {
        "count": 1,
        "detail": [
            {
                "building": "service",
                "building:levels": "1",
                "height": "6",
                "location": "indoor",
                "power": "substation",
                "substation": "minor_distribution"
            }
        ]
    },
    "supermarket": {
        "count": 1,
        "detail": [
            {
                "addr:housenumber": "114 к2",
                "addr:street": "Варшавское шоссе",
                "building": "yes",
                "building:levels": "1",
                "contact:email": "info@agrohold.ru",
                "contact:phone": "+7 495 6441701",
                "contact:website": "https://shop.miratorg.ru/",
                "name": "Мираторг",
                "opening_hours": "Mo-Su 08:00-23:00",
                "operator": "ПродМир",
                "shop": "supermarket"
            }
        ]
    }
}