{
    "residents": 9579,
    "bus_stop": {
        "count": 5,
        "detail": [
            {
                "bus": "yes",
                "name": "Больница имени Семашко",
                "bench": "yes",
                "highway": "bus_stop",
                "shelter": "yes",
                "public_transport": "platform"
            },
            {
                "bus": "yes",
                "name": "Больница имени Семашко",
                "bench": "yes",
                "highway": "bus_stop",
                "shelter": "yes",
                "public_transport": "platform"
            },
            {
                "bus": "yes",
                "name": "Ставропольская улица, 54",
                "bench": "yes",
                "highway": "bus_stop",
                "shelter": "yes",
                "public_transport": "platform"
            },
            {
                "bus": "yes",
                "highway": "bus_stop",
                "name": "Ставропольская улица, 54",
                "public_transport": "platform",
                "shelter": "yes"
            },
            {
                "bus": "yes",
                "name": "Ставропольская улица, 60",
                "bench": "yes",
                "highway": "bus_stop",
                "shelter": "yes",
                "public_transport": "platform"
            }
        ]
    },
    "bar": {
        "count": 1,
        "detail": [
            {
                "name": "Погребок",
                "amenity": "bar"
            }
        ]
    },
    "supermarket": {
        "count": 1,
        "detail": [
            {
                "alt_name": "Пятерочка",
                "brand": "Пятёрочка",
                "brand:wikidata": "Q1768969",
                "brand:wikipedia": "ru:Пятёрочка",
                "contact:email": "vopros@5ka.ru",
                "contact:facebook": "https://www.facebook.com/pyaterochka",
                "contact:instagram": "https://www.instagram.com/pyaterochka_official",
                "contact:ok": "https://ok.ru/pyaterochka",
                "contact:phone": "+7 800 5555505",
                "contact:vk": "https://vk.com/club19098821",
                "contact:website": "https://5ka.ru",
                "name": "Пятёрочка",
                "name:en": "Pyaterochka",
                "name:ru": "Пятёрочка",
                "shop": "supermarket",
                "wheelchair": "yes"
            }
        ]
    },
    "vending_machine": {
        "count": 1,
        "detail": [
            {
                "amenity": "vending_machine",
                "contact:phone": "+7 495 5395454",
                "contact:website": "http://parking.mos.ru/",
                "opening_hours": "24/7",
                "operator": "ГКУ «Администратор Московского парковочного пространства»",
                "payment:cash": "no",
                "payment:credit_cards": "yes",
                "payment:debit_cards": "yes",
                "ref": "4061",
                "ref:mos_parking": "859915284",
                "vending": "parking_tickets",
                "zone:parking": "4080"
            }
        ]
    },
    "hairdresser": {
        "count": 2,
        "detail": [
            {
                "name": "Город Красоты",
                "shop": "hairdresser"
            },
            {
                "name": "Бритва",
                "shop": "hairdresser"
            }
        ]
    },
    "chemist": {
        "count": 1,
        "detail": [
            {
                "name": "Южный Двор",
                "shop": "chemist"
            }
        ]
    },
    "cafe": {
        "count": 3,
        "detail": [
            {
                "name": "Папа Джонс",
                "brand": "Папа Джонс",
                "amenity": "cafe",
                "cuisine": "pizza",
                "name:en": "Papa John's",
                "name:ru": "Папа Джонс",
                "delivery": "yes",
                "contact:vk": "https://vk.com/papajohnsru",
                "contact:website": "https://www.papajohns.ru",
                "diet:vegetarian": "no",
                "contact:facebook": "https://www.facebook.com/papajohnsru",
                "contact:instagram": "https://www.instagram.com/papajohnsru"
            },
            {
                "amenity": "cafe",
                "name": "Гурман"
            },
            {
                "amenity": "cafe",
                "name": "House"
            }
        ]
    },
    "medical_supply": {
        "count": 1,
        "detail": [
            {
                "contact:email": "info@orteka.ru",
                "contact:facebook": "https://www.facebook.com/orteka.rus",
                "contact:instagram": "https://www.instagram.com/orteka_rus/",
                "contact:phone": "+7 800 3333112",
                "contact:vk": "https://vk.com/orteka_ru",
                "contact:website": "https://orteka.ru/salon/orteka-lyublino.php",
                "name": "Ортека",
                "opening_hours": "Mo-Su 09:00-21:00",
                "operator": "НИКАМЕД",
                "shop": "medical_supply"
            }
        ]
    },
    "car_repair": {
        "count": 1,
        "detail": [
            {
                "name": "Профиль",
                "service": "tyres",
                "shop": "car_repair"
            }
        ]
    },
    "police": {
        "count": 1,
        "detail": [
            {
                "amenity": "police",
                "name": "Участковый пункт полиции"
            }
        ]
    },
    "convenience": {
        "count": 1,
        "detail": [
            {
                "name": "Экомаркет \"Гурман\"",
                "shop": "convenience"
            }
        ]
    },
    "pharmacy": {
        "count": 2,
        "detail": [
            {
                "amenity": "pharmacy"
            },
            {
                "amenity": "pharmacy",
                "name": "Трика",
                "opening_hours": "24/7"
            }
        ]
    },
    "bicycle_parking": {
        "count": 1,
        "detail": [
            {
                "amenity": "bicycle_parking",
                "operator": "Пятёрочка"
            }
        ]
    },
    "greengrocer": {
        "count": 1,
        "detail": [
            {
                "shop": "greengrocer"
            }
        ]
    },
    "copyshop": {
        "count": 1,
        "detail": [
            {
                "shop": "copyshop"
            }
        ]
    },
    "playground": {
        "count": 1,
        "detail": [
            {
                "leisure": "playground"
            }
        ]
    },
    "clothes": {
        "count": 1,
        "detail": [
            {
                "brand": "Milavitsa",
                "clothes": "underwear",
                "contact:vk": "https://vk.com/public127126041",
                "contact:website": "http://www.milavitsa.com/",
                "name": "Milavitsa",
                "shop": "clothes"
            }
        ]
    },
    "school": {
        "count": 3,
        "detail": [
            {
                "addr:city": "Москва",
                "addr:housenumber": "54 к3",
                "addr:postcode": "109559",
                "addr:street": "Ставропольская улица",
                "building": "school",
                "building:levels": "4"
            },
            {
                "addr:city": "Москва",
                "addr:housenumber": "8А",
                "addr:postcode": "109559",
                "addr:street": "Тихорецкий бульвар",
                "building": "school",
                "building:levels": "4",
                "name": "Школа № 460 имени дважды Героев Советского Союза А.А. Головачёва и С.Ф. Шутова (ШП-4)",
                "old_name": "Школа №572",
                "website": "https://sch460uv.mskobr.ru"
            },
            {
                "addr:city": "Район Люблино",
                "addr:housenumber": "53",
                "addr:postcode": "109559",
                "addr:street": "Краснодарская улица",
                "building": "school",
                "building:levels": "3",
                "name": "ГБОУ школа № 572  Дошкольное Отделение № 4"
            }
        ]
    },
    "kindergarten": {
        "count": 2,
        "detail": [
            {
                "addr:city": "Москва",
                "addr:housenumber": "16 к2",
                "addr:postcode": "109559",
                "addr:street": "Совхозная улица",
                "building": "kindergarten",
                "building:levels": "3"
            },
            {
                "addr:housenumber": "52 к2",
                "addr:postcode": "109559",
                "addr:street": "Ставропольская улица",
                "building": "kindergarten",
                "building:levels": "3"
            }
        ]
    },
    "yes": {
        "count": 1,
        "detail": [
            {
                "shop": "yes",
                "building": "yes"
            }
        ]
    }
}