{
    "residents": 8850,
    "department_store": {
        "count": 1,
        "detail": [
            {
                "name": "Фамилия",
                "shop": "department_store"
            }
        ]
    },
    "supermarket": {
        "count": 2,
        "detail": [
            {
                "alt_name": "Пятерочка",
                "brand": "Пятёрочка",
                "brand:wikidata": "Q1768969",
                "brand:wikipedia": "ru:Пятёрочка",
                "contact:email": "vopros@5ka.ru",
                "contact:facebook": "https://www.facebook.com/pyaterochka",
                "contact:instagram": "https://www.instagram.com/pyaterochka_official",
                "contact:ok": "https://ok.ru/pyaterochka",
                "contact:phone": "+7 800 5555505",
                "contact:vk": "https://vk.com/club19098821",
                "contact:website": "https://5ka.ru",
                "name": "Пятёрочка",
                "name:ru": "Пятёрочка",
                "shop": "supermarket"
            },
            {
                "alt_name": "Пятерочка",
                "brand": "Пятёрочка",
                "brand:wikidata": "Q1768969",
                "brand:wikipedia": "ru:Пятёрочка",
                "contact:email": "vopros@5ka.ru",
                "contact:facebook": "https://www.facebook.com/pyaterochka",
                "contact:instagram": "https://www.instagram.com/pyaterochka_official",
                "contact:ok": "https://ok.ru/pyaterochka",
                "contact:phone": "+7 800 5555505",
                "contact:vk": "https://vk.com/club19098821",
                "contact:website": "https://5ka.ru",
                "name": "Пятёрочка",
                "name:ru": "Пятёрочка",
                "shop": "supermarket"
            }
        ]
    },
    "library": {
        "count": 2,
        "detail": [
            {
                "amenity": "library",
                "name": "Библиотека № 135",
                "name:ru": "Библиотека № 135",
                "opening_hours": "Tu-Sa 12:00-22:00; Su 12:00-20:00",
                "phone": "+7 499 3560712"
            },
            {
                "amenity": "library",
                "name": "Библиотека №181",
                "phone": "+7 495 3569003"
            }
        ]
    },
    "cafe": {
        "count": 2,
        "detail": [
            {
                "name": "Рай",
                "amenity": "cafe"
            },
            {
                "amenity": "cafe",
                "level": "1",
                "name": "WOW Пицца"
            }
        ]
    },
    "police": {
        "count": 1,
        "detail": [
            {
                "name": "Опорный пункт полиции",
                "amenity": "police"
            }
        ]
    },
    "arts_centre": {
        "count": 1,
        "detail": [
            {
                "name": "Дом творчества детей и молодёжи \"Марьино\". Филиал №1",
                "amenity": "arts_centre"
            }
        ]
    },
    "alcohol": {
        "count": 2,
        "detail": [
            {
                "name": "Магазин разливного пива",
                "shop": "alcohol"
            },
            {
                "name": "Бристоль",
                "opening_hours": "Mo-Su 08:00-23:00",
                "shop": "alcohol"
            }
        ]
    },
    "bus_stop": {
        "count": 9,
        "detail": [
            {
                "bus": "yes",
                "name": "Донецкая улица, 26",
                "highway": "bus_stop",
                "trolleybus": "yes",
                "public_transport": "platform"
            },
            {
                "highway": "bus_stop",
                "name": "Донецкая улица",
                "old_name": "Марьино",
                "public_transport": "platform"
            },
            {
                "highway": "bus_stop",
                "name": "Донецкая улица",
                "old_name": "Марьино",
                "public_transport": "platform"
            },
            {
                "name": "Марьино",
                "highway": "bus_stop",
                "public_transport": "platform"
            },
            {
                "bus": "yes",
                "name": "Детская поликлиника",
                "bench": "yes",
                "highway": "bus_stop",
                "shelter": "yes",
                "public_transport": "platform"
            },
            {
                "bus": "yes",
                "name": "Детская поликлиника",
                "bench": "yes",
                "highway": "bus_stop",
                "shelter": "yes",
                "public_transport": "platform"
            },
            {
                "bus": "yes",
                "name": "Подольская улица, 33",
                "bench": "yes",
                "highway": "bus_stop",
                "shelter": "yes",
                "public_transport": "platform"
            },
            {
                "bus": "yes",
                "name": "Подольская улица, 33",
                "bench": "yes",
                "highway": "bus_stop",
                "shelter": "yes",
                "public_transport": "platform"
            },
            {
                "bus": "yes",
                "name": "Батайский проезд, 3",
                "highway": "bus_stop",
                "public_transport": "platform"
            }
        ]
    },
    "pharmacy": {
        "count": 1,
        "detail": [
            {
                "name": "Нео-ФАРМ",
                "amenity": "pharmacy"
            }
        ]
    },
    "waste_disposal": {
        "count": 6,
        "detail": [
            {
                "amenity": "waste_disposal"
            },
            {
                "amenity": "waste_disposal"
            },
            {
                "amenity": "waste_disposal"
            },
            {
                "amenity": "waste_disposal"
            },
            {
                "amenity": "waste_disposal"
            },
            {
                "amenity": "waste_disposal"
            }
        ]
    },
    "bank": {
        "count": 1,
        "detail": [
            {
                "amenity": "bank",
                "atm": "yes",
                "bic": "SABRRUMM",
                "branch": "Московский банк",
                "contact:facebook": "https://www.facebook.com/sberbank",
                "contact:instagram": "https://www.instagram.com/sberbank/",
                "contact:ok": "https://ok.ru/sberbank",
                "contact:phone": "+7 800 5555550",
                "contact:twitter": "https://twitter.com/sberbank/",
                "contact:vk": "https://vk.com/sberbank",
                "contact:website": "https://www.sberbank.ru",
                "contact:youtube": "https://www.youtube.com/sberbank",
                "name": "Сбербанк",
                "name:en": "Sberbank",
                "name:ru": "Сбербанк",
                "opening_hours": "Mo-Fr 09:00-20:00; Sa 10:00-18:00",
                "operator": "ПАО Сбербанк",
                "operator:wikidata": "Q205012",
                "operator:wikipedia": "ru:Сбербанк России",
                "ref": "9038/01426",
                "wheelchair": "yes"
            }
        ]
    },
    "dentist": {
        "count": 1,
        "detail": [
            {
                "amenity": "dentist",
                "name": "Tridental",
                "website": "https://tridental.ru/"
            }
        ]
    },
    "pub": {
        "count": 1,
        "detail": [
            {
                "name": "Разливное пиво",
                "amenity": "pub"
            }
        ]
    },
    "bench": {
        "count": 20,
        "detail": [
            {
                "amenity": "bench",
                "backrest": "yes"
            },
            {
                "amenity": "bench",
                "backrest": "yes"
            },
            {
                "amenity": "bench",
                "backrest": "yes"
            },
            {
                "amenity": "bench",
                "backrest": "yes"
            },
            {
                "amenity": "bench",
                "backrest": "yes"
            },
            {
                "amenity": "bench",
                "backrest": "yes"
            },
            {
                "amenity": "bench",
                "backrest": "yes"
            },
            {
                "amenity": "bench",
                "backrest": "yes"
            },
            {
                "amenity": "bench",
                "backrest": "no"
            },
            {
                "amenity": "bench",
                "backrest": "yes"
            },
            {
                "amenity": "bench",
                "backrest": "yes"
            },
            {
                "amenity": "bench",
                "backrest": "yes"
            },
            {
                "amenity": "bench",
                "backrest": "yes"
            },
            {
                "amenity": "bench",
                "backrest": "no"
            },
            {
                "amenity": "bench",
                "backrest": "no"
            },
            {
                "amenity": "bench",
                "backrest": "no"
            },
            {
                "amenity": "bench",
                "backrest": "no"
            },
            {
                "amenity": "bench",
                "backrest": "no"
            },
            {
                "amenity": "bench",
                "backrest": "no"
            },
            {
                "amenity": "bench",
                "backrest": "no"
            }
        ]
    },
    "waste_basket": {
        "count": 24,
        "detail": [
            {
                "amenity": "waste_basket"
            },
            {
                "amenity": "waste_basket"
            },
            {
                "amenity": "waste_basket"
            },
            {
                "amenity": "waste_basket"
            },
            {
                "amenity": "waste_basket"
            },
            {
                "amenity": "waste_basket"
            },
            {
                "amenity": "waste_basket"
            },
            {
                "amenity": "waste_basket"
            },
            {
                "amenity": "waste_basket"
            },
            {
                "amenity": "waste_basket"
            },
            {
                "amenity": "waste_basket"
            },
            {
                "amenity": "waste_basket"
            },
            {
                "amenity": "waste_basket"
            },
            {
                "amenity": "waste_basket"
            },
            {
                "amenity": "waste_basket"
            },
            {
                "amenity": "waste_basket"
            },
            {
                "amenity": "waste_basket"
            },
            {
                "amenity": "waste_basket"
            },
            {
                "amenity": "waste_basket"
            },
            {
                "amenity": "waste_basket"
            },
            {
                "amenity": "waste_basket"
            },
            {
                "amenity": "waste_basket"
            },
            {
                "amenity": "waste_basket"
            },
            {
                "amenity": "waste_basket"
            }
        ]
    },
    "recycling": {
        "count": 4,
        "detail": [
            {
                "amenity": "recycling",
                "recycling:plastic_bottles": "yes",
                "recycling_type": "container"
            },
            {
                "amenity": "recycling",
                "recycling:plastic_bottles": "yes",
                "recycling_type": "container"
            },
            {
                "amenity": "recycling",
                "recycling:plastic_bottles": "yes",
                "recycling_type": "container"
            },
            {
                "amenity": "recycling",
                "recycling:plastic_bottles": "yes",
                "recycling_type": "container"
            }
        ]
    },
    "newsagent": {
        "count": 1,
        "detail": [
            {
                "name": "Пресса",
                "shop": "newsagent"
            }
        ]
    },
    "convenience": {
        "count": 2,
        "detail": [
            {
                "name": "SimpleMarket",
                "shop": "convenience"
            },
            {
                "name": "Минимаркет 24",
                "shop": "convenience"
            }
        ]
    },
    "fast_food": {
        "count": 1,
        "detail": [
            {
                "amenity": "fast_food",
                "cuisine": "sushi",
                "name": "Суши Фиш"
            }
        ]
    },
    "hairdresser": {
        "count": 1,
        "detail": [
            {
                "contact:email": "info@elbloom.ru",
                "contact:instagram": "https://instagram.com/elbloom_salon",
                "contact:phone": "+7 495 9991777",
                "contact:website": "https://www.elbloom.ru/",
                "name": "Elbloom",
                "opening_hours": "Mo-Su 10:00-21:00",
                "operator": "Elbloom",
                "shop": "hairdresser"
            }
        ]
    },
    "kindergarten": {
        "count": 3,
        "detail": [
            {
                "amenity": "kindergarten",
                "building": "kindergarten",
                "addr:street": "Батайский проезд",
                "addr:housenumber": "15"
            },
            {
                "addr:housenumber": "31",
                "addr:street": "Донецкая улица",
                "building": "kindergarten",
                "building:levels": "2"
            },
            {
                "addr:housenumber": "7",
                "addr:street": "Батайский проезд",
                "amenity": "kindergarten",
                "building": "yes",
                "building:levels": "2"
            }
        ]
    },
    "mall": {
        "count": 1,
        "detail": [
            {
                "name": "Торговый корпус \"Евромаг\"",
                "shop": "mall",
                "height": "20",
                "website": "http://euromag-marino.ru/",
                "building": "yes",
                "addr:street": "Новочеркасский бульвар",
                "building:levels": "4",
                "addr:housenumber": "10 к1"
            }
        ]
    },
    "service": {
        "count": 7,
        "detail": [
            {
                "building": "service",
                "building:levels": "1",
                "operator": "МОЭСК"
            },
            {
                "addr:city": "Москва",
                "addr:housenumber": "вл17 с2",
                "addr:street": "Батайский проезд",
                "building": "service",
                "building:levels": "1",
                "operator": "МОЭСК"
            },
            {
                "building": "service",
                "building:levels": "1",
                "operator": "МОЭСК",
                "power": "substation"
            },
            {
                "addr:city": "Москва",
                "addr:housenumber": "17 с2",
                "addr:street": "Батайский проезд",
                "building": "service",
                "building:levels": "1",
                "operator": "МОЭК"
            },
            {
                "addr:city": "Москва",
                "addr:housenumber": "2 с2",
                "addr:street": "Новочеркасский бульвар",
                "building": "service",
                "building:levels": "1",
                "operator": "МОЭК"
            },
            {
                "addr:city": "Москва",
                "addr:housenumber": "5 с2",
                "addr:street": "Батайский проезд",
                "building": "service",
                "building:levels": "1"
            },
            {
                "building": "service",
                "building:levels": "1",
                "operator": "МОЭСК",
                "power": "substation"
            }
        ]
    },
    "clinic": {
        "count": 1,
        "detail": [
            {
                "addr:housenumber": "6 с1",
                "addr:street": "Новочеркасский бульвар",
                "amenity": "clinic",
                "building": "yes",
                "building:levels": "4",
                "healthcare": "clinic",
                "health_facility:type": "clinic",
                "name": "Детская поликлиника №112",
                "provided_for:adolescent": "yes",
                "provided_for:child": "yes",
                "provided_for:infant": "yes",
                "provided_for:toddler": "yes"
            }
        ]
    },
    "place_of_worship": {
        "count": 1,
        "detail": [
            {
                "addr:housenumber": "вл6-8",
                "addr:street": "Новочеркасский бульвар",
                "amenity": "place_of_worship",
                "building": "church",
                "denomination": "russian_orthodox",
                "image": "https://yadi.sk/i/_AzrDQ_ixbCCBg",
                "name": "Храм в честь святого праведного Симеона Верхотурского",
                "religion": "christian"
            }
        ]
    }
}