{
    "residents": 7233,
    "fuel": {
        "count": 2,
        "detail": [
            {
                "amenity": "fuel",
                "fuel:diesel": "yes",
                "fuel:octane_92": "yes",
                "fuel:octane_95": "yes",
                "fuel:octane_98": "yes",
                "name": "Shell",
                "operator": "Shell",
                "website": "https://www.shell.com.ru/"
            },
            {
                "addr:housenumber": "70 к3",
                "addr:postcode": "127490",
                "addr:street": "Привольная улица",
                "amenity": "fuel",
                "building": "yes",
                "building:levels": "1",
                "start_date": "2000"
            }
        ]
    },
    "car_wash": {
        "count": 2,
        "detail": [
            {
                "name": "Shell",
                "amenity": "car_wash",
                "operator": "Shell"
            },
            {
                "amenity": "car_wash"
            }
        ]
    },
    "convenience": {
        "count": 4,
        "detail": [
            {
                "name": "Shell",
                "shop": "convenience"
            },
            {
                "description": "Магазин на АЗС Нефтьмагистраль",
                "name": "QuickShop",
                "opening_hours": "24/7",
                "shop": "convenience"
            },
            {
                "addr:city": "Люберцы",
                "addr:housenumber": "1А",
                "addr:street": "Новорязанское шоссе",
                "name": "Да!",
                "opening_hours": "08:00-23:00",
                "shop": "convenience",
                "website": "https://market-da.ru/"
            },
            {
                "shop": "convenience"
            }
        ]
    },
    "bus_stop": {
        "count": 11,
        "detail": [
            {
                "bus": "yes",
                "name": "Новорязанское шоссе",
                "highway": "bus_stop",
                "public_transport": "platform"
            },
            {
                "bus": "yes",
                "name": "Метро «Котельники»",
                "bench": "yes",
                "highway": "bus_stop",
                "shelter": "yes",
                "public_transport": "platform"
            },
            {
                "bus": "yes",
                "name": "6-й микрорайон Жулебина",
                "bench": "yes",
                "highway": "bus_stop",
                "shelter": "yes",
                "public_transport": "platform"
            },
            {
                "bench": "yes",
                "bus": "yes",
                "highway": "bus_stop",
                "name": "Гаражи",
                "public_transport": "platform",
                "shelter": "yes"
            },
            {
                "bus": "yes",
                "name": "Новорязанское шоссе",
                "highway": "bus_stop",
                "public_transport": "platform"
            },
            {
                "name": "Гаражи",
                "highway": "bus_stop",
                "public_transport": "platform"
            },
            {
                "bus": "yes",
                "highway": "bus_stop",
                "name": "Метро «Котельники»",
                "public_transport": "platform"
            },
            {
                "bus": "yes",
                "highway": "bus_stop",
                "name": "Улица Авиаконструктора Миля",
                "public_transport": "platform",
                "shelter": "yes"
            },
            {
                "name": "Метро «Котельники»",
                "highway": "bus_stop"
            },
            {
                "name": "Метро «Котельники»",
                "highway": "bus_stop",
                "public_transport": "platform"
            },
            {
                "bus": "yes",
                "highway": "bus_stop",
                "public_transport": "platform",
                "shelter": "yes"
            }
        ]
    },
    "car": {
        "count": 7,
        "detail": [
            {
                "addr:housenumber": "70",
                "addr:street": "Привольная улица",
                "brand": "Citroën",
                "name": "Автоэксис",
                "shop": "car",
                "website": "http://citroenaxis.ru/"
            },
            {
                "name": "КлючАвто - Hyundai",
                "shop": "car",
                "brand": "Hyundai",
                "service": "dealer;repair",
                "website": "http://hyundai.keyauto.ru/",
                "addr:city": "Люберцы",
                "addr:street": "Новорязанское шоссе",
                "addr:housenumber": "1",
                "service:vehicle:sale": "yes",
                "service:vehicle:car_parts": "yes",
                "service:vehicle:car_repair": "yes"
            },
            {
                "addr:housenumber": "70 к1",
                "addr:postcode": "127490",
                "addr:street": "Привольная улица",
                "building": "yes",
                "building:levels": "6",
                "name": "Энви Моторс",
                "phone": "+7 495 6440000",
                "roof:material": "metal",
                "shop": "car",
                "start_date": "2003"
            },
            {
                "addr:housenumber": "вл1Б",
                "addr:postcode": "140011",
                "addr:street": "Новорязанское шоссе",
                "building": "yes",
                "name": "Ильинка",
                "roof:shape": "gambrel",
                "shop": "car",
                "start_date": "1994"
            },
            {
                "addr:housenumber": "1",
                "addr:postcode": "140011",
                "addr:street": "Новорязанское шоссе",
                "building": "yes",
                "building:levels": "1",
                "name": "КлючАвто",
                "roof:material": "metal",
                "shop": "car",
                "smoking": "no"
            },
            {
                "addr:housenumber": "1А к1",
                "addr:street": "Новорязанское шоссе",
                "building": "yes",
                "building:levels": "1",
                "roof:material": "metal",
                "shop": "car"
            },
            {
                "addr:housenumber": "1Г",
                "addr:postcode": "140011",
                "addr:street": "Новорязанское шоссе",
                "building": "yes",
                "building:levels": "3",
                "name": "КлючАвто",
                "shop": "car",
                "start_date": "2009"
            }
        ]
    },
    "clothes": {
        "count": 2,
        "detail": [
            {
                "clothes": "workwear",
                "level": "7",
                "name": "Лига спецодежды",
                "phone": "+7 495 3634840",
                "shop": "clothes",
                "website": "https://www.liga-spec.ru/"
            },
            {
                "name": "Woss",
                "shop": "clothes"
            }
        ]
    },
    "supermarket": {
        "count": 1,
        "detail": [
            {
                "name": "Пятёрочка",
                "shop": "supermarket",
                "brand": "Пятёрочка",
                "name:en": "Pyatyorochka",
                "name:ru": "Пятёрочка",
                "alt_name": "Пятерочка",
                "wheelchair": "yes",
                "brand:wikidata": "Q1768969",
                "brand:wikipedia": "ru:Пятёрочка",
                "contact:website": "https://5ka.ru",
                "contact:facebook": "https://www.facebook.com/pyaterochka"
            }
        ]
    },
    "fast_food": {
        "count": 5,
        "detail": [
            {
                "amenity": "fast_food",
                "cuisine": "burger",
                "internet_access": "wlan",
                "name": "МагБургер",
                "opening_hours": "24/7",
                "smoking": "no"
            },
            {
                "amenity": "fast_food",
                "brand": "Бургер Кинг",
                "brand:en": "Burger King",
                "brand:ru": "Бургер Кинг",
                "brand:wikidata": "Q177054",
                "brand:wikipedia": "en:Burger King",
                "contact:email": "FeedBack@burgerking.ru",
                "contact:facebook": "https://www.facebook.com/BurgerKingRussia",
                "contact:phone": "+7 495 5445000-4087",
                "contact:website": "https://burgerking.ru/",
                "cuisine": "burger",
                "diet:vegetarian": "no",
                "internet_access": "wlan",
                "internet_access:fee": "no",
                "name": "Бургер Кинг",
                "name:en": "Burger King",
                "name:ru": "Бургер Кинг",
                "opening_hours": "Mo-Su 00:00-03:00,05:00-24:00",
                "operator": "БУРГЕР РУС",
                "operator:phone": "+7 495 5445000",
                "ref": "87",
                "takeaway": "yes"
            },
            {
                "name": "Пельменная №1",
                "amenity": "fast_food",
                "cuisine": "regional"
            },
            {
                "name": "Куры-гриль",
                "amenity": "fast_food"
            },
            {
                "addr:city": "Москва",
                "addr:country": "RU",
                "addr:housenumber": "70 к2",
                "addr:street": "Привольная улица",
                "amenity": "fast_food",
                "brand": "Макдоналдс",
                "brand:en": "McDonald's",
                "brand:ru": "Макдоналдс",
                "brand:wikidata": "Q38076",
                "brand:wikipedia": "en:McDonald's",
                "building": "yes",
                "building:colour": "green",
                "building:levels": "1",
                "contact:email": "info@ru.mcd.com",
                "contact:facebook": "https://www.facebook.com/mcdonaldsrussia",
                "contact:instagram": "https://www.instagram.com/mcdonalds_rus",
                "contact:phone": "+7 499 7421570",
                "contact:vk": "https://vk.com/mcdonaldsrussia",
                "contact:website": "https://mcdonalds.ru",
                "contact:youtube": "https://www.youtube.com/user/McDonaldsRussia",
                "cuisine": "burger",
                "diet:vegetarian": "no",
                "name": "Макдоналдс",
                "name:en": "McDonald's",
                "name:ru": "Макдоналдс",
                "roof:colour": "brown",
                "roof:shape": "gabled",
                "start_date": "2000",
                "takeaway": "yes"
            }
        ]
    },
    "toilets": {
        "count": 1,
        "detail": [
            {
                "amenity": "toilets"
            }
        ]
    },
    "car_repair": {
        "count": 3,
        "detail": [
            {
                "shop": "car_repair"
            },
            {
                "name": "Автотаун",
                "shop": "car_repair"
            },
            {
                "contact:email": "mtc24@nakolesah.ru",
                "contact:facebook": "https://facebook.com/nakolesah",
                "contact:instagram": "https://instagram.com/nakolesah.ru",
                "contact:phone": "+7 499 6813424",
                "contact:vk": "https://vk.com/nakolesahru",
                "contact:website": "https://www.nakolesah.ru/",
                "name": "На Колесах.ru",
                "opening_hours": "Mo-Su 09:00-21:00",
                "operator": "На Колесах.ru",
                "shop": "car_repair"
            }
        ]
    },
    "hardware": {
        "count": 1,
        "detail": [
            {
                "brand": "220 вольт",
                "brand:en": "220 Volt",
                "brand:ru": "220 вольт",
                "brand:wikidata": "Q18635304",
                "brand:wikipedia": "ru:220 Вольт (компания)",
                "name": "220 вольт",
                "name:en": "220 Volt",
                "name:ru": "220 вольт",
                "shop": "hardware",
                "website": "https://www.220-volt.ru/shop-93165121/1/"
            }
        ]
    },
    "vending_machine": {
        "count": 3,
        "detail": [
            {
                "ref": "5001-103",
                "name": "PickPoint",
                "brand": "PickPoint",
                "level": "2",
                "amenity": "vending_machine",
                "vending": "parcel_pickup",
                "operator": "ООО 'Сеть автоматизированных пунктов выдачи'",
                "contact:phone": "+7 800 7007909",
                "opening_hours": "Mo-Su 10:00-22:00",
                "payment:notes": "yes",
                "contact:website": "https://pickpoint.ru",
                "payment:debit_cards": "yes",
                "payment:credit_cards": "yes"
            },
            {
                "amenity": "vending_machine",
                "vending": "fuel"
            },
            {
                "amenity": "vending_machine",
                "contact:phone": "+7 800 7753553",
                "contact:website": "http://omnicdek.com/",
                "name": "ОмниСДЭК",
                "opening_hours": "Mo-Su 10:00-22:00",
                "ref": "6106",
                "vending": "parcel_pickup"
            }
        ]
    },
    "beauty": {
        "count": 6,
        "detail": [
            {
                "name": "НоготкИкудри",
                "shop": "beauty",
                "website": "https://www.salon-nogotki.com/"
            },
            {
                "beauty": "nails",
                "name": "Пальчики",
                "shop": "beauty"
            },
            {
                "name": "SunShine1",
                "shop": "beauty"
            },
            {
                "name": "La.Ti.Sa",
                "shop": "beauty"
            },
            {
                "name": "EpiBar",
                "shop": "beauty"
            },
            {
                "name": "Verona",
                "shop": "beauty"
            }
        ]
    },
    "playground": {
        "count": 1,
        "detail": [
            {
                "leisure": "playground"
            }
        ]
    },
    "furniture": {
        "count": 1,
        "detail": [
            {
                "name": "Мебель из сосны",
                "shop": "furniture"
            }
        ]
    },
    "bank": {
        "count": 1,
        "detail": [
            {
                "name": "Росбанк",
                "amenity": "bank"
            }
        ]
    },
    "payment_terminal": {
        "count": 3,
        "detail": [
            {
                "name": "Элекснет",
                "amenity": "payment_terminal",
                "opening_hours": "24/7"
            },
            {
                "amenity": "payment_terminal",
                "name": "МКБ"
            },
            {
                "amenity": "payment_terminal",
                "brand": "Qiwi",
                "brand:wikidata": "Q4047736",
                "brand:wikipedia": "en:Qiwi",
                "name": "Qiwi"
            }
        ]
    },
    "bar": {
        "count": 2,
        "detail": [
            {
                "name": "Nice Meet",
                "amenity": "bar"
            },
            {
                "amenity": "bar",
                "name": "Brou S"
            }
        ]
    },
    "alcohol": {
        "count": 2,
        "detail": [
            {
                "name": "Красное&Белое",
                "shop": "alcohol"
            },
            {
                "shop": "alcohol"
            }
        ]
    },
    "dentist": {
        "count": 4,
        "detail": [
            {
                "amenity": "dentist",
                "name": "Эгида-Стом"
            },
            {
                "amenity": "dentist",
                "contact:email": "doctorzhulebino@mail.ru",
                "contact:facebook": "https://facebook.com/preambulamsk",
                "contact:instagram": "https://instagram.com/preambula_clinic",
                "contact:ok": "https://ok.ru/preambula",
                "contact:phone": "+7 495 1913349",
                "contact:vk": "https://vk.com/pre_ambua",
                "contact:website": "https://www.pre-ambula.ru/",
                "healthcare": "clinic",
                "name": "Преамбула",
                "opening_hours": "Mo-Su 09:00-19:00",
                "operator": "Преамбула"
            },
            {
                "amenity": "dentist",
                "healthcare": "dentist",
                "name": "Veedenta"
            },
            {
                "amenity": "dentist",
                "healthcare": "dentist",
                "name": "СитиДент"
            }
        ]
    },
    "fitness_centre": {
        "count": 1,
        "detail": [
            {
                "leisure": "fitness_centre",
                "name": "СпортЛэнд"
            }
        ]
    },
    "parking": {
        "count": 1,
        "detail": [
            {
                "amenity": "parking"
            }
        ]
    },
    "cosmetics": {
        "count": 1,
        "detail": [
            {
                "name": "Л'этуаль",
                "shop": "cosmetics"
            }
        ]
    },
    "doctors": {
        "count": 1,
        "detail": [
            {
                "amenity": "doctors"
            }
        ]
    },
    "pharmacy": {
        "count": 3,
        "detail": [
            {
                "name": "А-Мега",
                "amenity": "pharmacy"
            },
            {
                "amenity": "pharmacy",
                "dispensing": "yes",
                "healthcare": "pharmacy",
                "name": "Вита Ностра"
            },
            {
                "amenity": "pharmacy",
                "contact:phone": "+7 800 1008063;+7 916 6308767",
                "contact:website": "http://apteka-nf.ru/",
                "name": "Надежда-Фарм",
                "opening_hours": "Mo-Su 10:00-22:00",
                "operator": "ООО ФАРМ-АЛЬЯНС"
            }
        ]
    },
    "variety_store": {
        "count": 1,
        "detail": [
            {
                "name": "Fix Price",
                "amenity": "variety_store"
            }
        ]
    },
    "bicycle_parking": {
        "count": 5,
        "detail": [
            {
                "amenity": "bicycle_parking"
            },
            {
                "amenity": "bicycle_parking"
            },
            {
                "amenity": "bicycle_parking"
            },
            {
                "amenity": "bicycle_parking"
            },
            {
                "amenity": "bicycle_parking"
            }
        ]
    },
    "power_tools": {
        "count": 1,
        "detail": [
            {
                "brand": "220 вольт",
                "brand:en": "220 Volt",
                "brand:ru": "220 вольт",
                "brand:wikidata": "Q18635304",
                "brand:wikipedia": "ru:220 Вольт (компания)",
                "contact:email": "msk14@220-volt.ru",
                "contact:facebook": "https://www.facebook.com/likevolt",
                "contact:instagram": "https://www.instagram.com/220volt.ru/",
                "contact:ok": "https://ok.ru/likevolt",
                "contact:phone": "+7 495 6405683;+7 800 3339220",
                "contact:twitter": "https://twitter.com/likevolt",
                "contact:vk": "http://vk.com/likevolt",
                "contact:website": "https://www.220-volt.ru/",
                "contact:youtube": "https://www.youtube.com/channel/UCnLPlH6bk0KDSSUVB8iseOg",
                "int_name": "220 Volt",
                "name": "220 вольт",
                "name:en": "220 Volt",
                "name:ru": "220 вольт",
                "opening_hours": "Mo-Su 10:00-20:00",
                "operator": "Торговый дом Северо-западный",
                "shop": "power_tools"
            }
        ]
    },
    "atm": {
        "count": 1,
        "detail": [
            {
                "amenity": "atm",
                "contact:email": "info@psbank.ru",
                "contact:phone": "+7 495 7873333;+7 800 3330303",
                "contact:website": "https://psbank.ru/",
                "opening_hours": "Mo-Su 10:00-22:00",
                "operator": "Промсвязьбанк"
            }
        ]
    },
    "interior_decoration": {
        "count": 1,
        "detail": [
            {
                "name": "Двери оптом",
                "shop": "interior_decoration"
            }
        ]
    },
    "waste_basket": {
        "count": 17,
        "detail": [
            {
                "amenity": "waste_basket"
            },
            {
                "amenity": "waste_basket"
            },
            {
                "amenity": "waste_basket"
            },
            {
                "amenity": "waste_basket"
            },
            {
                "amenity": "waste_basket"
            },
            {
                "amenity": "waste_basket"
            },
            {
                "amenity": "waste_basket"
            },
            {
                "amenity": "waste_basket"
            },
            {
                "amenity": "waste_basket"
            },
            {
                "amenity": "waste_basket"
            },
            {
                "amenity": "waste_basket"
            },
            {
                "amenity": "waste_basket"
            },
            {
                "amenity": "waste_basket"
            },
            {
                "amenity": "waste_basket"
            },
            {
                "amenity": "waste_basket"
            },
            {
                "amenity": "waste_basket"
            },
            {
                "amenity": "waste_basket"
            }
        ]
    },
    "clinic": {
        "count": 1,
        "detail": [
            {
                "amenity": "clinic",
                "contact:email": "doctorzhulebino@mail.ru",
                "contact:facebook": "https://facebook.com/preambulamsk",
                "contact:instagram": "https://instagram.com/preambula_clinic",
                "contact:ok": "https://ok.ru/preambula",
                "contact:phone": "+7 495 1913349",
                "contact:vk": "https://vk.com/pre_ambua",
                "contact:website": "https://www.pre-ambula.ru/",
                "healthcare": "clinic",
                "name": "Преамбула",
                "opening_hours": "Mo-Su 09:00-19:00",
                "operator": "Преамбула"
            }
        ]
    },
    "bench": {
        "count": 27,
        "detail": [
            {
                "amenity": "bench"
            },
            {
                "amenity": "bench"
            },
            {
                "amenity": "bench"
            },
            {
                "amenity": "bench"
            },
            {
                "amenity": "bench"
            },
            {
                "amenity": "bench"
            },
            {
                "amenity": "bench"
            },
            {
                "amenity": "bench"
            },
            {
                "amenity": "bench"
            },
            {
                "amenity": "bench",
                "material": "wood"
            },
            {
                "amenity": "bench",
                "material": "wood"
            },
            {
                "amenity": "bench",
                "backrest": "yes",
                "material": "wood",
                "seats": "2"
            },
            {
                "amenity": "bench",
                "backrest": "yes",
                "material": "wood",
                "seats": "4"
            },
            {
                "amenity": "bench",
                "material": "wood"
            },
            {
                "amenity": "bench",
                "material": "wood",
                "seats": "4"
            },
            {
                "amenity": "bench",
                "backrest": "yes",
                "material": "wood",
                "seats": "4"
            },
            {
                "amenity": "bench",
                "backrest": "yes",
                "construction": "yes",
                "material": "wood",
                "seats": "4"
            },
            {
                "amenity": "bench",
                "backrest": "yes",
                "construction": "yes",
                "material": "wood",
                "seats": "2"
            },
            {
                "amenity": "bench",
                "backrest": "yes",
                "construction": "yes",
                "material": "wood",
                "seats": "2"
            },
            {
                "amenity": "bench",
                "backrest": "no",
                "material": "wood",
                "seats": "2"
            },
            {
                "amenity": "bench",
                "backrest": "no",
                "material": "wood",
                "seats": "2"
            },
            {
                "amenity": "bench",
                "backrest": "yes",
                "material": "wood",
                "seats": "2"
            },
            {
                "amenity": "bench",
                "backrest": "yes",
                "material": "wood",
                "seats": "2"
            },
            {
                "amenity": "bench"
            },
            {
                "amenity": "bench"
            },
            {
                "amenity": "bench"
            },
            {
                "amenity": "bench"
            }
        ]
    },
    "picnic_table": {
        "count": 4,
        "detail": [
            {
                "bench": "yes",
                "leisure": "picnic_table"
            },
            {
                "bench": "yes",
                "leisure": "picnic_table"
            },
            {
                "bench": "yes",
                "construction": "yes",
                "leisure": "picnic_table",
                "material": "wood"
            },
            {
                "bench": "yes",
                "leisure": "picnic_table",
                "material": "wood"
            }
        ]
    },
    "waste_disposal": {
        "count": 4,
        "detail": [
            {
                "amenity": "waste_disposal"
            },
            {
                "amenity": "waste_disposal"
            },
            {
                "amenity": "waste_disposal"
            },
            {
                "amenity": "waste_disposal"
            }
        ]
    },
    "medical_supply": {
        "count": 1,
        "detail": [
            {
                "contact:email": "info@ksd-med.ru",
                "contact:instagram": "https://instagram.com/ooo_ksd",
                "contact:phone": "+7 495 7065494;+7 985 1757175",
                "contact:website": "https://ksd-med.ru/",
                "name": "Клиника современной диагностики",
                "opening_hours": "Mo-Sa 08:00-21:00;Su 08:00-20:00",
                "operator": "ООО КСД",
                "shop": "medical_supply"
            }
        ]
    },
    "florist": {
        "count": 1,
        "detail": [
            {
                "name": "Цветкофф",
                "shop": "florist"
            }
        ]
    },
    "travel_agency": {
        "count": 2,
        "detail": [
            {
                "name": "Слетать.ру",
                "shop": "travel_agency"
            },
            {
                "name": "TUI",
                "shop": "travel_agency"
            }
        ]
    },
    "confectionery": {
        "count": 1,
        "detail": [
            {
                "name": "Eat me, please",
                "shop": "confectionery"
            }
        ]
    },
    "hairdresser": {
        "count": 1,
        "detail": [
            {
                "name": "ЭЛ'Арт Studio",
                "shop": "hairdresser"
            }
        ]
    },
    "school": {
        "count": 1,
        "detail": [
            {
                "addr:housenumber": "18 к2",
                "addr:postcode": "109156",
                "addr:street": "улица Авиаконструктора Миля",
                "building": "school",
                "building:levels": "4",
                "roof:colour": "8f8b8c",
                "start_date": "1997"
            }
        ]
    },
    "kindergarten": {
        "count": 2,
        "detail": [
            {
                "addr:housenumber": "27 к3",
                "addr:postcode": "109156",
                "addr:street": "улица Генерала Кузнецова",
                "building": "kindergarten",
                "building:levels": "3",
                "roof:colour": "8f8b8c",
                "start_date": "1999"
            },
            {
                "addr:housenumber": "22 к2",
                "addr:postcode": "109156",
                "addr:street": "улица Авиаконструктора Миля",
                "amenity": "kindergarten",
                "building": "kindergarten",
                "building:levels": "3",
                "roof:colour": "8f8b8c",
                "start_date": "1998"
            }
        ]
    },
    "service": {
        "count": 7,
        "detail": [
            {
                "power": "substation",
                "building": "service",
                "substation": "minor_distribution",
                "building:levels": "1"
            },
            {
                "addr:housenumber": "19 с1",
                "addr:postcode": "109156",
                "addr:street": "улица Авиаконструктора Миля",
                "building": "service",
                "building:levels": "1",
                "roof:colour": "8f8b8c",
                "start_date": "2002"
            },
            {
                "addr:housenumber": "15 к1 с1",
                "addr:postcode": "109156",
                "addr:street": "улица Авиаконструктора Миля",
                "building": "service",
                "building:levels": "1",
                "roof:colour": "8f8b8c"
            },
            {
                "building": "service",
                "building:levels": "1",
                "power": "substation",
                "roof:material": "metal",
                "substation": "minor_distribution"
            },
            {
                "addr:housenumber": "19 с2",
                "addr:street": "улица Авиаконструктора Миля",
                "building": "service",
                "building:levels": "1"
            },
            {
                "building": "service"
            },
            {
                "building": "service",
                "building:colour": "black",
                "building:levels": "1",
                "roof:colour": "black",
                "roof:shape": "gabled"
            }
        ]
    }
}