{
    "residents": 2682,
    "bus_stop": {
        "count": 3,
        "detail": [
            {
                "name": "1-й автобусный парк",
                "source": "http://bus.ruz.net",
                "highway": "bus_stop",
                "bus_ruz_net_id": "6209",
                "public_transport": "platform"
            },
            {
                "name": "Улица Введенского, 8",
                "source": "http://bus.ruz.net",
                "highway": "bus_stop",
                "bus_ruz_net_id": "6203",
                "public_transport": "platform"
            },
            {
                "name": "Улица Введенского, 8",
                "source": "http://bus.ruz.net",
                "highway": "bus_stop",
                "bus_ruz_net_id": "6210",
                "public_transport": "platform"
            }
        ]
    },
    "bank": {
        "count": 2,
        "detail": [
            {
                "amenity": "bank",
                "branch": "Московский банк",
                "contact:facebook": "https://www.facebook.com/sberbank",
                "contact:instagram": "https://www.instagram.com/sberbank/",
                "contact:ok": "https://ok.ru/sberbank",
                "contact:phone": "+7 800 5555550",
                "contact:twitter": "https://twitter.com/sberbank/",
                "contact:vk": "https://vk.com/sberbank",
                "contact:website": "https://www.sberbank.ru",
                "contact:youtube": "https://www.youtube.com/sberbank",
                "name": "Сбербанк",
                "name:en": "Sberbank",
                "name:ru": "Сбербанк",
                "opening_hours": "Mo-Fr 08:30-19:30; Sa 10:00-18:00",
                "operator": "ПАО Сбербанк",
                "operator:wikidata": "Q205012",
                "operator:wikipedia": "ru:Сбербанк России",
                "ref": "9038/01697",
                "wheelchair": "yes"
            },
            {
                "amenity": "bank",
                "branch": "Московский банк",
                "contact:facebook": "https://www.facebook.com/sberbank",
                "contact:instagram": "https://www.instagram.com/sberbank/",
                "contact:ok": "https://ok.ru/sberbank",
                "contact:phone": "+7 800 5555777",
                "contact:twitter": "https://twitter.com/sberbank/",
                "contact:vk": "https://vk.com/sberbank",
                "contact:website": "https://www.sberbank.ru",
                "contact:youtube": "https://www.youtube.com/sberbank",
                "name": "Сбербанк",
                "name:en": "Sberbank",
                "name:ru": "Сбербанк",
                "opening_hours": "Mo-Fr 09:00-18:00",
                "operator": "ПАО Сбербанк",
                "operator:wikidata": "Q205012",
                "operator:wikipedia": "ru:Сбербанк России",
                "ref": "9038/25899",
                "wheelchair": "no"
            }
        ]
    },
    "vending_machine": {
        "count": 1,
        "detail": [
            {
                "amenity": "vending_machine",
                "contact:phone": "+7 495 5395454",
                "contact:website": "http://parking.mos.ru/",
                "opening_hours": "24/7",
                "operator": "ГКУ «Администратор Московского парковочного пространства»",
                "payment:cash": "no",
                "payment:credit_cards": "yes",
                "payment:debit_cards": "yes",
                "payment:mastercard": "yes",
                "ref": "3340",
                "ref:mos_parking": "5005158",
                "source": "dit.mos.ru",
                "vending": "parking_tickets",
                "zone:parking": "4057"
            }
        ]
    },
    "atm": {
        "count": 1,
        "detail": [
            {
                "brand": "Сбербанк",
                "amenity": "atm",
                "opening_hours": "24/7"
            }
        ]
    },
    "university": {
        "count": 1,
        "detail": [
            {
                "addr:housenumber": "1А",
                "addr:street": "улица Введенского",
                "amenity": "university",
                "building": "university",
                "name": "Московский финансово-юридический университет",
                "short_name": "МФЮА",
                "website": "https://www.mfua.ru"
            }
        ]
    }
}