{
    "residents": 13605,
    "post_office": {
        "count": 1,
        "detail": [
            {
                "ref": "105037",
                "name": "Москва 105037",
                "amenity": "post_office",
                "operator": "ФГУП «Почта России»",
                "contact:vk": "https://vk.com/russianpost",
                "addr:postcode": "105037",
                "contact:phone": "+7 800 2005888",
                "opening_hours": "Mo-Fr 08:00-13:00,14:00-20:00; Sa 09:00-13:00,14:00-18:00; Su off",
                "contact:twitter": "https://twitter.com/ruspostofficial",
                "contact:website": "https://www.pochta.ru",
                "contact:facebook": "https://www.facebook.com/ruspost",
                "operator:wikidata": "Q1502763",
                "operator:wikipedia": "ru:Почта России"
            }
        ]
    },
    "supermarket": {
        "count": 3,
        "detail": [
            {
                "name": "Billa",
                "shop": "supermarket",
                "brand": "Billa",
                "name:en": "Billa",
                "name:ru": "Билла",
                "operator": "ООО \"Билла\"",
                "contact:ok": "https://ok.ru/group/53124549640396",
                "contact:vk": "https://vk.com/billarussia",
                "addr:street": "Измайловская площадь",
                "contact:fax": "+7 495 7857501",
                "payment:cash": "yes",
                "payment:visa": "yes",
                "contact:email": "mail@billa.ru",
                "brand:wikidata": "Q537781",
                "brand:wikipedia": "ru:Billa",
                "contact:website": "http://www.billa.ru",
                "contact:youtube": "https://www.youtube.com/channel/UCSx84zsrpnikJX2PDnOYbMA",
                "addr:housenumber": "8",
                "contact:facebook": "https://www.facebook.com/billa.ru",
                "contact:instagram": "https://www.instagram.com/billarussia",
                "operator:wikidata": "Q537781",
                "operator:wikipedia": "ru:Billa",
                "payment:mastercard": "yes"
            },
            {
                "addr:city": "Москва",
                "addr:housenumber": "3 к2",
                "addr:postcode": "105037",
                "addr:street": "Измайловский проезд",
                "brand": "Billa",
                "brand:wikidata": "Q537781",
                "brand:wikipedia": "en:Billa (supermarket)",
                "contact:email": "mail@billa.ru",
                "contact:facebook": "https://www.facebook.com/billa.ru",
                "contact:fax": "+7 495 7857501",
                "contact:instagram": "https://www.instagram.com/billarussia",
                "contact:ok": "https://ok.ru/group/53124549640396",
                "contact:vk": "https://vk.com/billarussia",
                "contact:website": "http://www.billa.ru",
                "contact:youtube": "https://www.youtube.com/channel/UCSx84zsrpnikJX2PDnOYbMA",
                "name": "Billa",
                "name:en": "Billa",
                "name:ru": "Билла",
                "opening_hours": "Mo-Su 07:00-23:00",
                "operator": "ООО \"Билла\"",
                "operator:wikidata": "Q537781",
                "operator:wikipedia": "ru:Billa",
                "phone": "+7 495 7857500",
                "shop": "supermarket",
                "website": "https://www.billa.ru/",
                "wheelchair": "yes"
            },
            {
                "addr:city": "Москва",
                "addr:housenumber": "16 к2",
                "addr:postcode": "105037",
                "addr:street": "Измайловский проезд",
                "brand": "Магнит",
                "brand:en": "Magnit",
                "brand:wikidata": "Q940518",
                "brand:wikipedia": "ru:Магнит (сеть магазинов)",
                "name": "Магнит",
                "name:en": "Magnit",
                "opening_hours": "09:30-22:00",
                "shop": "supermarket"
            }
        ]
    },
    "alcohol": {
        "count": 3,
        "detail": [
            {
                "brand": "Красное&Белое",
                "brand:wikidata": "Q24933790",
                "brand:wikipedia": "ru:Красное & Белое",
                "contact:facebook": "https://www.facebook.com/krasnoe.beloe",
                "contact:instagram": "https://www.instagram.com/krasnoebeloe",
                "contact:ok": "https://ok.ru/krasnoebeloe",
                "contact:telegram": "+7 922 7033000",
                "contact:viber": "+7 922 7033000",
                "contact:vk": "https://vk.com/krasnoebeloe",
                "contact:website": "https://krasnoeibeloe.ru",
                "contact:whatsapp": "+7 922 7033000",
                "name": "Красное&Белое",
                "name:ru": "Красное&Белое",
                "shop": "alcohol"
            },
            {
                "shop": "alcohol",
                "drink:beer": "yes",
                "inscription": "Пиво"
            },
            {
                "amenity": "bar",
                "name": "Зелёный Змий",
                "opening_hours": "Mo-Su 00:00-09:00,21:00-24:00",
                "shop": "alcohol"
            }
        ]
    },
    "bus_stop": {
        "count": 3,
        "detail": [
            {
                "bus": "yes",
                "highway": "bus_stop",
                "public_transport": "platform",
                "tactile_paving": "no"
            },
            {
                "highway": "bus_stop",
                "name": "Измайловская площадь",
                "public_transport": "platform",
                "shelter": "yes",
                "tactile_paving": "no"
            },
            {
                "bench": "yes",
                "bus": "yes",
                "highway": "bus_stop",
                "name": "2-я Прядильная улица",
                "public_transport": "platform",
                "shelter": "yes"
            }
        ]
    },
    "pet": {
        "count": 1,
        "detail": [
            {
                "name": "К-9",
                "shop": "pet",
                "opening_hours": "Mo-Fr 10:00-20:00; Sa-Su 10:00-19:00"
            }
        ]
    },
    "post_box": {
        "count": 1,
        "detail": [
            {
                "amenity": "post_box",
                "operator": "Почта России",
                "collection_times": "Mo-Fr 15:13,19:58; Sa 15:13,17:58; Su 19:19"
            }
        ]
    },
    "university": {
        "count": 2,
        "detail": [
            {
                "addr:housenumber": "9 к2",
                "addr:street": "Измайловская площадь",
                "amenity": "university",
                "name": "Российская правовая академия Министерства юстиции Российской Федерации",
                "short_name": "РПА Минюста России"
            },
            {
                "addr:housenumber": "7",
                "addr:postcode": "105037",
                "addr:street": "Измайловская площадь",
                "amenity": "university",
                "building": "yes",
                "building:levels": "3",
                "fax": "+7 499 3670581",
                "name": "Роботоцентр МГТУ",
                "official_name": "Кафедра РК 10 МГТУ им. Баумана, Научно-Учебный Центр «Робототехника»",
                "phone": "+7 499 1651701",
                "website": "www.robot.bmstu.ru"
            }
        ]
    },
    "toilets": {
        "count": 1,
        "detail": [
            {
                "fee": "no",
                "level": "-1",
                "access": "public",
                "amenity": "toilets",
                "wheelchair": "no",
                "drinking_water": "no",
                "toilets:disposal": "flush",
                "toilets:position": "seated;urinal"
            }
        ]
    },
    "telephone": {
        "count": 1,
        "detail": [
            {
                "amenity": "telephone"
            }
        ]
    },
    "parking_entrance": {
        "count": 2,
        "detail": [
            {
                "amenity": "parking_entrance",
                "parking": "underground"
            },
            {
                "amenity": "parking_entrance",
                "parking": "underground"
            }
        ]
    },
    "pharmacy": {
        "count": 2,
        "detail": [
            {
                "amenity": "pharmacy",
                "contact:phone": "+7 929 6575984",
                "name": "Век Живи",
                "opening_hours": "Mo-Su 09:00-21:00"
            },
            {
                "amenity": "pharmacy",
                "addr:city": "Москва",
                "addr:street": "Измайловский проезд",
                "addr:postcode": "105037",
                "drive_through": "no",
                "addr:housenumber": "7 к2"
            }
        ]
    },
    "restaurant": {
        "count": 1,
        "detail": [
            {
                "amenity": "restaurant",
                "addr:city": "Москва",
                "addr:street": "Измайловский проезд",
                "addr:postcode": "105037",
                "addr:housenumber": "5 к2"
            }
        ]
    },
    "parking": {
        "count": 3,
        "detail": [
            {
                "amenity": "parking",
                "parking": "surface"
            },
            {
                "fee": "no",
                "amenity": "parking"
            },
            {
                "fee": "no",
                "amenity": "parking"
            }
        ]
    },
    "convenience": {
        "count": 3,
        "detail": [
            {
                "shop": "convenience"
            },
            {
                "name": "Копеечка",
                "shop": "convenience",
                "opening_hours": "Mo-Su 09:00-23:00"
            },
            {
                "brand": "ВкусВилл",
                "contact:email": "info@izbenka.msk.ru",
                "contact:facebook": "https://www.facebook.com/izbenka",
                "contact:instagram": "https://www.instagram.com/izbenka_vkusvill",
                "contact:phone": "+7 495 6638602",
                "contact:telegram": "https://telegram.me/vkusvillbot",
                "contact:vk": "https://vk.com/izbenka",
                "contact:website": "https://vkusvill.ru",
                "name": "ВкусВилл",
                "name:ru": "ВкусВилл",
                "shop": "convenience"
            }
        ]
    },
    "training": {
        "count": 1,
        "detail": [
            {
                "amenity": "training",
                "name": "Центр Циркового Искуства",
                "phone": "+7 495 1649494",
                "website": "http://centr-cirkovogo.alloy.ru"
            }
        ]
    },
    "car_repair": {
        "count": 1,
        "detail": [
            {
                "shop": "car_repair",
                "service": "tyres",
                "description": "Шиномонтаж"
            }
        ]
    },
    "wine": {
        "count": 1,
        "detail": [
            {
                "name": "Винлаб",
                "opening_hours": "Mo-Su 10:00-22:00",
                "shop": "wine"
            }
        ]
    },
    "waste_disposal": {
        "count": 5,
        "detail": [
            {
                "amenity": "waste_disposal"
            },
            {
                "amenity": "waste_disposal"
            },
            {
                "amenity": "waste_disposal"
            },
            {
                "amenity": "waste_disposal"
            },
            {
                "amenity": "waste_disposal"
            }
        ]
    },
    "hairdresser": {
        "count": 1,
        "detail": [
            {
                "shop": "hairdresser"
            }
        ]
    },
    "bank": {
        "count": 1,
        "detail": [
            {
                "amenity": "bank",
                "name": "Почта Банк"
            }
        ]
    },
    "bicycle_parking": {
        "count": 1,
        "detail": [
            {
                "amenity": "bicycle_parking",
                "bicycle_parking": "wall_loops",
                "capacity": "14",
                "covered": "no"
            }
        ]
    },
    "bakery": {
        "count": 1,
        "detail": [
            {
                "name": "Пекарня",
                "shop": "bakery"
            }
        ]
    },
    "car_wash": {
        "count": 1,
        "detail": [
            {
                "amenity": "car_wash",
                "level": "-1",
                "note": "В подземном паркинге. Для всех.",
                "opening_hours": "24/7"
            }
        ]
    },
    "playground": {
        "count": 2,
        "detail": [
            {
                "leisure": "playground"
            },
            {
                "leisure": "playground"
            }
        ]
    },
    "fitness_station": {
        "count": 1,
        "detail": [
            {
                "leisure": "fitness_station"
            }
        ]
    },
    "school": {
        "count": 2,
        "detail": [
            {
                "addr:city": "Москва",
                "addr:housenumber": "4А",
                "addr:postcode": "105037",
                "addr:street": "Никитинская улица",
                "building": "school",
                "building:levels": "5"
            },
            {
                "name": "Школа №707",
                "amenity": "school",
                "building": "school",
                "addr:city": "Москва",
                "addr:street": "Никитинская улица",
                "building:levels": "5",
                "addr:housenumber": "7"
            }
        ]
    },
    "clinic": {
        "count": 1,
        "detail": [
            {
                "name": "Медицинский центр",
                "amenity": "clinic",
                "building": "yes",
                "addr:city": "Москва",
                "healthcare": "clinic",
                "roof:shape": "hipped",
                "addr:street": "1-я Прядильная улица",
                "addr:postcode": "105037",
                "roof:material": "metal",
                "building:levels": "2",
                "addr:housenumber": "5",
                "health_facility:type": "clinic"
            }
        ]
    },
    "kindergarten": {
        "count": 2,
        "detail": [
            {
                "name": "Детский сад №412",
                "amenity": "kindergarten",
                "building": "yes",
                "addr:city": "Москва",
                "addr:street": "2-я Прядильная улица",
                "addr:postcode": "105037",
                "addr:housenumber": "3Б"
            },
            {
                "addr:housenumber": "17А",
                "addr:street": "Первомайская улица",
                "building": "kindergarten",
                "building:levels": "3"
            }
        ]
    },
    "car": {
        "count": 1,
        "detail": [
            {
                "name": "ОБУХОВ Измайлово",
                "shop": "car",
                "building": "yes",
                "addr:street": "Измайловский проезд",
                "building:levels": "2",
                "addr:housenumber": "8А"
            }
        ]
    },
    "service": {
        "count": 18,
        "detail": [
            {
                "building": "service"
            },
            {
                "building": "service"
            },
            {
                "building": "service"
            },
            {
                "building": "service"
            },
            {
                "building": "service"
            },
            {
                "building": "service"
            },
            {
                "building": "service"
            },
            {
                "building": "service"
            },
            {
                "building": "service"
            },
            {
                "building": "service"
            },
            {
                "building": "service"
            },
            {
                "building": "service"
            },
            {
                "building": "service"
            },
            {
                "building": "service"
            },
            {
                "building": "service"
            },
            {
                "building": "service"
            },
            {
                "building": "service"
            },
            {
                "building": "service",
                "power": "substation",
                "substation": "minor_distribution"
            }
        ]
    }
}