{
    "residents": 2841,
    "convenience": {
        "count": 4,
        "detail": [
            {
                "shop": "convenience"
            },
            {
                "shop": "convenience"
            },
            {
                "name": "Продукты",
                "shop": "convenience"
            },
            {
                "name": "Пятёрочка",
                "shop": "convenience"
            }
        ]
    },
    "bus_stop": {
        "count": 2,
        "detail": [
            {
                "name": "Улица Фрунзе",
                "source": "bing",
                "highway": "bus_stop"
            },
            {
                "name": "Улица Фрунзе",
                "source": "bing",
                "highway": "bus_stop"
            }
        ]
    },
    "parking": {
        "count": 2,
        "detail": [
            {
                "amenity": "parking"
            },
            {
                "amenity": "parking"
            }
        ]
    },
    "pharmacy": {
        "count": 2,
        "detail": [
            {
                "name": "Эконом",
                "amenity": "pharmacy"
            },
            {
                "amenity": "pharmacy"
            }
        ]
    },
    "supermarket": {
        "count": 2,
        "detail": [
            {
                "name": "Дикси",
                "shop": "supermarket"
            },
            {
                "name": "Сити-центр",
                "shop": "supermarket"
            }
        ]
    },
    "restaurant": {
        "count": 2,
        "detail": [
            {
                "name": "Мимино",
                "amenity": "restaurant"
            },
            {
                "name": "Старый Дворик",
                "phone": "+7 49643 22538",
                "amenity": "restaurant",
                "building": "yes",
                "addr:city": "Павловский Посад",
                "addr:street": "Покровская улица",
                "opening_hours": "24/7",
                "addr:housenumber": "44"
            }
        ]
    },
    "car_wash": {
        "count": 1,
        "detail": [
            {
                "amenity": "car_wash"
            }
        ]
    },
    "kiosk": {
        "count": 1,
        "detail": [
            {
                "name": "СМИ",
                "shop": "kiosk"
            }
        ]
    },
    "playground": {
        "count": 2,
        "detail": [
            {
                "leisure": "playground"
            },
            {
                "leisure": "playground"
            }
        ]
    },
    "bicycle_parking": {
        "count": 1,
        "detail": [
            {
                "amenity": "bicycle_parking"
            }
        ]
    },
    "hardware": {
        "count": 2,
        "detail": [
            {
                "shop": "hardware"
            },
            {
                "shop": "hardware"
            }
        ]
    },
    "pet": {
        "count": 1,
        "detail": [
            {
                "contact:email": "welcome@4lapy.ru",
                "contact:phone": "+7 800 7700022;1161",
                "contact:website": "https://4lapy.ru/",
                "name": "Четыре Лапы",
                "opening_hours": "Mo-Su 10:00-21:00",
                "operator": "Модуль",
                "shop": "pet"
            }
        ]
    },
    "atm": {
        "count": 1,
        "detail": [
            {
                "amenity": "atm",
                "contact:email": "info@psbank.ru",
                "contact:phone": "+7 495 7873333;+7 800 3330303",
                "contact:website": "https://psbank.ru/",
                "opening_hours": "Mo-Su 09:00-23:00",
                "operator": "Промсвязьбанк"
            }
        ]
    },
    "baby_goods": {
        "count": 1,
        "detail": [
            {
                "clothes": "children",
                "contact:email": "pr@detoc.ru",
                "contact:facebook": "https://www.facebook.com/dochkisynochki/",
                "contact:instagram": "https://www.instagram.com/dochkisinochki/",
                "contact:phone": "+7 495 4616704",
                "contact:vk": "https://vk.com/dochkisinochki",
                "contact:website": "https://www.dochkisinochki.ru/",
                "name": "Дочки-сыночки",
                "opening_hours": "Mo-Su 09:00-21:00",
                "operator": "Волга",
                "shop": "baby_goods"
            }
        ]
    },
    "cosmetics": {
        "count": 1,
        "detail": [
            {
                "contact:email": "contact@yves-rocher.ru",
                "contact:facebook": "https://www.facebook.com/YvesRocherRussia",
                "contact:instagram": "https://www.instagram.com/yvesrocher_russia/",
                "contact:ok": "https://ok.ru/yves.rocher.russia",
                "contact:phone": "+7 926 1635520",
                "contact:vk": "https://vk.com/yves.rocher.russia",
                "contact:website": "https://www.yves-rocher.ru/",
                "name": "Ив Роше",
                "opening_hours": "Mo-Su 10:00-22:00",
                "operator": "БЕЛОВ ИГОРЬ ЮРЬЕВИЧ",
                "shop": "cosmetics"
            }
        ]
    },
    "mall": {
        "count": 2,
        "detail": [
            {
                "name": "ТК Континент",
                "shop": "mall",
                "building": "yes",
                "addr:street": "Большая Покровская улица",
                "addr:housenumber": "41"
            },
            {
                "shop": "mall",
                "building": "yes"
            }
        ]
    },
    "arts_centre": {
        "count": 1,
        "detail": [
            {
                "name": "Павлово-Покровский дворец культуры",
                "amenity": "arts_centre",
                "building": "yes",
                "addr:street": "Большая Покровская улица",
                "building:levels": "2",
                "addr:housenumber": "37",
                "building:architecture": "constructivism"
            }
        ]
    },
    "school": {
        "count": 1,
        "detail": [
            {
                "amenity": "school",
                "building": "yes"
            }
        ]
    },
    "service": {
        "count": 1,
        "detail": [
            {
                "power": "substation",
                "building": "service"
            }
        ]
    }
}