{
    "residents": 16035,
    "parking": {
        "count": 6,
        "detail": [
            {
                "amenity": "parking"
            },
            {
                "amenity": "parking"
            },
            {
                "amenity": "parking"
            },
            {
                "amenity": "parking"
            },
            {
                "amenity": "parking",
                "surface": "asphalt"
            },
            {
                "fee": "yes",
                "amenity": "parking",
                "parking": "surface",
                "surface": "asphalt"
            }
        ]
    },
    "police": {
        "count": 1,
        "detail": [
            {
                "name": "66 отделение",
                "amenity": "police"
            }
        ]
    },
    "bus_stop": {
        "count": 7,
        "detail": [
            {
                "bin": "yes",
                "name": "13-я Парковая улица",
                "bench": "yes",
                "highway": "bus_stop",
                "shelter": "yes",
                "public_transport": "platform"
            },
            {
                "bin": "yes",
                "name": "13-я Парковая улица",
                "bench": "no",
                "highway": "bus_stop",
                "shelter": "no",
                "public_transport": "platform"
            },
            {
                "bin": "yes",
                "name": "15-я Парковая улица",
                "bench": "yes",
                "highway": "bus_stop",
                "shelter": "yes",
                "public_transport": "platform"
            },
            {
                "bus": "yes",
                "name": "13-я Парковая улица",
                "public_transport": "stop_position",
                "share_taxi": "yes"
            },
            {
                "bus": "yes",
                "name": "13-я Парковая улица",
                "public_transport": "stop_position"
            },
            {
                "bus": "yes",
                "name": "12-я Парковая улица",
                "public_transport": "stop_position"
            },
            {
                "highway": "bus_stop",
                "name": "12-я Парковая улица",
                "public_transport": "platform",
                "shelter": "yes"
            }
        ]
    },
    "supermarket": {
        "count": 5,
        "detail": [
            {
                "name": "Пятёрочка",
                "shop": "supermarket",
                "brand": "Пятёрочка",
                "name:en": "Pyatyorochka",
                "name:ru": "Пятёрочка",
                "alt_name": "Пятерочка",
                "opening_hours": "24/7",
                "brand:wikidata": "Q1768969",
                "brand:wikipedia": "ru:Пятёрочка",
                "contact:website": "https://5ka.ru",
                "contact:facebook": "https://www.facebook.com/pyaterochka"
            },
            {
                "contact:email": "info@agrohold.ru",
                "contact:instagram": "https://www.instagram.com/supermarket_miratorg/",
                "contact:phone": "+7 495 6441701",
                "contact:website": "https://shop.miratorg.ru/",
                "name": "Мираторг",
                "opening_hours": "24/7",
                "operator": "ООО Продмир",
                "shop": "supermarket",
                "wheelchair": "yes"
            },
            {
                "brand": "Дикси",
                "brand:en": "Dixy",
                "brand:wikidata": "Q4161561",
                "contact:website": "http://dixy.ru",
                "name": "Дикси",
                "name:en": "Dixy",
                "name:ru": "Дикси",
                "opening_hours": "24/7",
                "payment:cards": "yes",
                "payment:cash": "yes",
                "phone": "+7 800 3330201",
                "shop": "supermarket"
            },
            {
                "alt_name": "Пятерочка",
                "brand": "Пятёрочка",
                "brand:wikidata": "Q1768969",
                "brand:wikipedia": "ru:Пятёрочка",
                "contact:email": "vopros@5ka.ru",
                "contact:facebook": "https://www.facebook.com/pyaterochka",
                "contact:instagram": "https://www.instagram.com/pyaterochka_official",
                "contact:ok": "https://ok.ru/pyaterochka",
                "contact:phone": "+7 800 5555505",
                "contact:vk": "https://vk.com/club19098821",
                "contact:website": "https://5ka.ru",
                "name": "Пятёрочка",
                "name:ru": "Пятёрочка",
                "opening_hours": "24/7",
                "shop": "supermarket"
            },
            {
                "alt_name": "Пятерочка",
                "brand": "Пятёрочка",
                "brand:wikidata": "Q1768969",
                "brand:wikipedia": "ru:Пятёрочка",
                "contact:email": "vopros@5ka.ru",
                "contact:facebook": "https://www.facebook.com/pyaterochka",
                "contact:instagram": "https://www.instagram.com/pyaterochka_official",
                "contact:ok": "https://ok.ru/pyaterochka",
                "contact:phone": "+7 800 5555505",
                "contact:vk": "https://vk.com/pyaterochka_shop",
                "contact:website": "https://5ka.ru",
                "name": "Пятёрочка",
                "name:ru": "Пятёрочка",
                "shop": "supermarket"
            }
        ]
    },
    "pharmacy": {
        "count": 4,
        "detail": [
            {
                "amenity": "pharmacy",
                "brand": "Горздрав",
                "contact:email": "info@gor-zdrav.ru",
                "contact:facebook": "https://www.facebook.com/AptekaGorzdrav",
                "contact:instagram": "https://www.instagram.com/gorzdrav",
                "contact:ok": "https://ok.ru/group/57486617870381",
                "contact:vk": "https://vk.com/gorzdrav",
                "contact:website": "https://gorzdrav.org",
                "name": "Горздрав",
                "name:ru": "Горздрав"
            },
            {
                "amenity": "pharmacy",
                "opening_hours": "24/7"
            },
            {
                "amenity": "pharmacy",
                "opening_hours": "24/7"
            },
            {
                "name": "Семейная",
                "amenity": "pharmacy"
            }
        ]
    },
    "school": {
        "count": 5,
        "detail": [
            {
                "name": "Центр образования \"Измайлово\" № 1811",
                "amenity": "school"
            },
            {
                "name": "Школа №440",
                "amenity": "school",
                "building": "school",
                "addr:street": "Измайловский проспект",
                "building:levels": "5",
                "addr:housenumber": "115"
            },
            {
                "building": "school",
                "addr:street": "Нижняя Первомайская улица",
                "building:levels": "5",
                "addr:housenumber": "52"
            },
            {
                "name": "Колледж архитектуры и менеджмента в строительстве",
                "amenity": "college",
                "building": "school",
                "addr:street": "Нижняя Первомайская улица",
                "building:levels": "3",
                "addr:housenumber": "50А",
                "building:basement:levels": "1"
            },
            {
                "name": "Детский сад №1522",
                "amenity": "school",
                "building": "yes",
                "addr:street": "Первомайская улица",
                "building:levels": "2",
                "addr:housenumber": "104"
            }
        ]
    },
    "restaurant": {
        "count": 2,
        "detail": [
            {
                "amenity": "restaurant",
                "name": "Кампус",
                "opening_hours": "Mo-Su 10:00-24:00"
            },
            {
                "name": "Чайхона №1",
                "amenity": "restaurant",
                "cuisine": "uzbek",
                "name:en": "Chaihona #1",
                "contact:phone": "+7 495 2340233",
                "opening_hours": "Mo-Su 12:00-02:00; Fr,Sa 12:00-06:00",
                "contact:website": "http://chaihona.ru"
            }
        ]
    },
    "fast_food": {
        "count": 3,
        "detail": [
            {
                "name": "Домино’c Пицца",
                "brand": "Домино’c Пицца",
                "amenity": "fast_food",
                "cuisine": "pizza",
                "name:en": "Domino’s Pizza",
                "name:ru": "Домино’c Пицца",
                "delivery": "yes",
                "contact:vk": "https://vk.com/dominospizza_ru",
                "wheelchair": "yes",
                "opening_hours": "Mo-Su 10:00-23:00",
                "brand:wikidata": "Q839466",
                "brand:wikipedia": "ru:Domino’s Pizza",
                "contact:website": "https://dominospizza.ru",
                "diet:vegetarian": "no",
                "contact:facebook": "https://www.facebook.com/dominospizzarussia",
                "contact:instagram": "https://www.instagram.com/dominospizza_ru"
            },
            {
                "amenity": "fast_food",
                "cuisine": "kebab"
            },
            {
                "amenity": "fast_food"
            }
        ]
    },
    "bank": {
        "count": 5,
        "detail": [
            {
                "amenity": "bank",
                "name": "Банк Хоум Кредит",
                "opening_hours": "Mo-Fr 10:00-20:00, Sa 10:00-17:00",
                "website": "https://www.homecredit.ru/",
                "wheelchair": "no"
            },
            {
                "amenity": "bank",
                "atm": "yes",
                "bic": "SABRRUMM",
                "branch": "Московский банк",
                "contact:facebook": "https://www.facebook.com/sberbank",
                "contact:instagram": "https://www.instagram.com/sberbank/",
                "contact:ok": "https://ok.ru/sberbank",
                "contact:phone": "+7 800 5555550",
                "contact:twitter": "https://twitter.com/sberbank/",
                "contact:vk": "https://vk.com/sberbank",
                "contact:website": "https://www.sberbank.ru",
                "contact:youtube": "https://www.youtube.com/sberbank",
                "name": "Сбербанк",
                "name:en": "Sberbank",
                "name:ru": "Сбербанк",
                "opening_hours": "Mo-Fr 08:30-19:30; Sa 09:00-17:00",
                "operator": "ПАО Сбербанк",
                "operator:wikidata": "Q205012",
                "operator:wikipedia": "ru:Сбербанк России",
                "ref": "9038/01014",
                "wheelchair": "yes"
            },
            {
                "name": "Росденьги",
                "amenity": "bank"
            },
            {
                "name": "СДМ-Банк",
                "amenity": "bank",
                "opening_hours": "Mo-Fr 09:00-18:00; Sa-Su 00:00-24:00"
            },
            {
                "amenity": "bank",
                "bic": "POSBRUMM",
                "brand": "Почта Банк",
                "brand:wikidata": "Q24930461",
                "brand:wikipedia": "ru:Почта Банк",
                "contact:email": "welcome@pochtabank.ru",
                "contact:facebook": "https://www.facebook.com/pochtabank",
                "contact:instagram": "https://www.instagram.com/pochtabank",
                "contact:ok": "https://ok.ru/pochtabank",
                "contact:phone": "+7 800 5500770",
                "contact:twitter": "https://twitter.com/pochtabank",
                "contact:vk": "https://vk.com/pochtabank",
                "contact:website": "https://www.pochtabank.ru",
                "contact:youtube": "https://www.youtube.com/channel/UCs2NW4p10fwTar-zqw7mUIw",
                "name": "Почта Банк",
                "name:en": "Post Bank",
                "name:ru": "Почта Банк"
            }
        ]
    },
    "cafe": {
        "count": 3,
        "detail": [
            {
                "amenity": "cafe",
                "brand": "Баскин Роббинс",
                "contact:facebook": "https://www.facebook.com/BaskinRobbinsRussia",
                "contact:website": "http://baskinrobbins.ru",
                "cuisine": "ice_cream",
                "diet:vegan": "no",
                "diet:vegetarian": "yes",
                "name": "Баскин Роббинс",
                "name:en": "Baskin-Robbins",
                "name:ru": "Баскин Роббинс",
                "opening_hours": "Mo-Su 10:00-22:00",
                "operator:wikidata": "Q584601",
                "operator:wikipedia": "en:Baskin-Robbins"
            },
            {
                "amenity": "cafe",
                "cuisine": "coffee",
                "opening_hours": "Mo-Fr 08:00-20:00; Sa,Su 10:00-20:00"
            },
            {
                "amenity": "cafe",
                "cuisine": "coffee_shop",
                "name": "Кофейня",
                "opening_hours": "Mo-Fr 09:00-19:00; Sa-Su 11:00-19:00",
                "operator": "ИП Орлова Н.Ю.",
                "phone": "+7 929 6751212"
            }
        ]
    },
    "stationery": {
        "count": 1,
        "detail": [
            {
                "name": "Комус",
                "opening_hours": "Mo-Fr 09:00-21:00, Sa,Su 10:00-20:00",
                "shop": "stationery",
                "website": "https://www.komus.ru/"
            }
        ]
    },
    "ticket": {
        "count": 1,
        "detail": [
            {
                "description": "Билеты авиационные железнодорожные",
                "name": "Мострансагентство",
                "opening_hours": "Mo-Fr 08:00-20:00; Sa,Su 08:00-19:00",
                "shop": "ticket",
                "website": "https://www.mta.ru/"
            }
        ]
    },
    "convenience": {
        "count": 5,
        "detail": [
            {
                "shop": "convenience",
                "wheelchair": "limited",
                "opening_hours": "24/7"
            },
            {
                "name": "Мясновъ",
                "opening_hours": "Mo-Su 09:00-23:00",
                "shop": "convenience"
            },
            {
                "name": "Селянка",
                "shop": "convenience"
            },
            {
                "shop": "convenience",
                "opening_hours": "24/7"
            },
            {
                "name": "Продукты Беларуси",
                "shop": "convenience",
                "opening_hours": "Mo-Su 09:00-21:00"
            }
        ]
    },
    "atm": {
        "count": 4,
        "detail": [
            {
                "amenity": "atm",
                "operator": "ПАО \"Сбербанк\""
            },
            {
                "brand": "Альфа-Банк",
                "amenity": "atm",
                "operator": "Альфа-Банк"
            },
            {
                "amenity": "atm",
                "operator": "ПАО \"Сбербанк\"",
                "opening_hours": "24/7"
            },
            {
                "amenity": "atm",
                "operator": "СДМ-Банк"
            }
        ]
    },
    "alcohol": {
        "count": 3,
        "detail": [
            {
                "brand": "Отдохни",
                "contact:email": "somelie@coolclever.ru",
                "contact:facebook": "https://www.facebook.com/somelie.community",
                "contact:instagram": "https://www.instagram.com/somelie__community",
                "contact:vk": "https://vk.com/somelie.community",
                "contact:website": "https://www.somelie.ru",
                "drink:beer": "bottled",
                "drink:cognac": "bottled",
                "drink:soft_drink": "bottled",
                "drink:sparkling_wine": "bottled",
                "drink:vodka": "bottled",
                "drink:whisky": "bottled",
                "drink:wine": "bottled",
                "name": "Отдохни",
                "name:ru": "Отдохни",
                "opening_hours": "Mo-Su 09:00-23:00",
                "shop": "alcohol"
            },
            {
                "name": "Хмельной сбор",
                "shop": "alcohol",
                "name:ru": "Хмельной сбор",
                "website": "https://m.vk.com/public124621714",
                "wheelchair": "yes",
                "opening_hours": "Mo-Fr 09:00-20:00, Sa,Su 10:00-20:00"
            },
            {
                "brand": "Красное&Белое",
                "brand:en": "Red&White",
                "brand:wikidata": "Q24933790",
                "brand:wikipedia": "ru:Красное & Белое",
                "contact:facebook": "https://www.facebook.com/krasnoe.beloe",
                "contact:instagram": "https://www.instagram.com/krasnoebeloe",
                "contact:ok": "https://ok.ru/krasnoebeloe",
                "contact:telegram": "+7 922 7033000",
                "contact:viber": "+7 922 7033000",
                "contact:vk": "https://vk.com/krasnoebeloe",
                "contact:website": "https://krasnoeibeloe.ru",
                "contact:whatsapp": "+7 922 7033000",
                "name": "Красное&Белое",
                "name:en": "Red&White",
                "name:ru": "Красное&Белое",
                "opening_hours": "Mo-Su 09:00-22:00",
                "shop": "alcohol",
                "wheelchair": "yes"
            }
        ]
    },
    "toilets": {
        "count": 1,
        "detail": [
            {
                "amenity": "toilets",
                "opening_hours": "Mo-Su 08:00-20:00"
            }
        ]
    },
    "post_office": {
        "count": 1,
        "detail": [
            {
                "ref": "105203",
                "name": "Отделение связи №105203",
                "amenity": "post_office",
                "operator": "Почта России"
            }
        ]
    },
    "post_box": {
        "count": 2,
        "detail": [
            {
                "amenity": "post_box",
                "opening_hours": "24/7"
            },
            {
                "amenity": "post_box",
                "opening_hours": "24/7"
            }
        ]
    },
    "university": {
        "count": 1,
        "detail": [
            {
                "name": "Московский институт банковского дела",
                "amenity": "university"
            }
        ]
    },
    "theatre": {
        "count": 1,
        "detail": [
            {
                "amenity": "theatre",
                "name": "АТО",
                "website": "https://www.ato-teatr.ru/"
            }
        ]
    },
    "houseware": {
        "count": 1,
        "detail": [
            {
                "name": "Товары для дома",
                "opening_hours": "Mo-Sa 10:00-21:00; Su 11:00-19:00",
                "shop": "houseware"
            }
        ]
    },
    "bench": {
        "count": 2,
        "detail": [
            {
                "amenity": "bench"
            },
            {
                "amenity": "bench"
            }
        ]
    },
    "doctors": {
        "count": 1,
        "detail": [
            {
                "name": "Лаборатория",
                "amenity": "doctors"
            }
        ]
    },
    "mobile_phone": {
        "count": 1,
        "detail": [
            {
                "brand": "МТС",
                "brand:wikidata": "Q1368919",
                "brand:wikipedia": "ru:МТС (компания)",
                "contact:facebook": "https://www.facebook.com/mts",
                "contact:ok": "https://ok.ru/mts",
                "contact:phone": "+7 800 2500890",
                "contact:twitter": "https://twitter.com/ru_mts",
                "contact:vk": "https://vk.com/mts",
                "contact:website": "https://shop.mts.ru",
                "name": "МТС",
                "name:en": "MTS",
                "name:ru": "МТС",
                "office": "telecommunication",
                "opening_hours": "Mo-Su 10:00-21:00",
                "operator:wikidata": "Q1368919",
                "operator:wikipedia": "ru:МТС (компания)",
                "shop": "mobile_phone",
                "wheelchair": "no"
            }
        ]
    },
    "butcher": {
        "count": 3,
        "detail": [
            {
                "brand": "Мясницкий ряд",
                "contact:email": "info2@kolbasa.ru",
                "contact:facebook": "https://www.facebook.com/kolbasaMR",
                "contact:phone": "+7 495 9811719",
                "contact:vk": "https://vk.com/kolbasamr",
                "contact:website": "http://www.kolbasa.ru",
                "name": "Мясницкий ряд",
                "name:ru": "Мясницкий ряд",
                "opening_hours": "Mo-Fr 09:00-22:00; Sa,Su 09:00-21:00",
                "shop": "butcher",
                "wheelchair": "no"
            },
            {
                "name": "Элика",
                "shop": "butcher"
            },
            {
                "name": "Домашние колбасы",
                "shop": "butcher"
            }
        ]
    },
    "car_repair": {
        "count": 1,
        "detail": [
            {
                "name": "Глушители. Катализаторы.",
                "shop": "car_repair"
            }
        ]
    },
    "training": {
        "count": 2,
        "detail": [
            {
                "amenity": "training",
                "education": "facultative_school",
                "education_form:parttime": "yes",
                "education_level:primary": "yes",
                "education_profile:visual_art": "yes",
                "education_system:ru_standard": "yes",
                "name": "Детская художественная школа № 7",
                "name:en": "ART SCHOOL 7",
                "name:ru": "Детская художественная школа № 7",
                "phone": "+7 495 4652013",
                "training": "art"
            },
            {
                "amenity": "training",
                "email": "shkola.iq007@bk.ru",
                "name": "IQ007",
                "opening_hours": "Mo-Fr 11:00-20:00; Sa 11:00-15:00",
                "phone": "+7 495 7961007"
            }
        ]
    },
    "bicycle_parking": {
        "count": 3,
        "detail": [
            {
                "amenity": "bicycle_parking",
                "covered": "yes",
                "capacity": "6"
            },
            {
                "access": "private",
                "amenity": "bicycle_parking"
            },
            {
                "amenity": "bicycle_parking",
                "capacity": "6"
            }
        ]
    },
    "copyshop": {
        "count": 1,
        "detail": [
            {
                "name": "Лика",
                "shop": "copyshop",
                "contact:email": "lika128@yandex.ru",
                "contact:phone": "+7 495 4651154",
                "opening_hours": "Mo-Fr 10:00-19:00",
                "contact:website": "http://www.licka.ru"
            }
        ]
    },
    "playground": {
        "count": 1,
        "detail": [
            {
                "leisure": "playground"
            }
        ]
    },
    "hairdresser": {
        "count": 2,
        "detail": [
            {
                "shop": "hairdresser",
                "opening_hours": "Mo-Su 10:00-21:00"
            },
            {
                "name": "Студия красоты",
                "shop": "hairdresser"
            }
        ]
    },
    "florist": {
        "count": 1,
        "detail": [
            {
                "shop": "florist",
                "opening_hours": "24/7"
            }
        ]
    },
    "clothes": {
        "count": 5,
        "detail": [
            {
                "shop": "clothes",
                "clothes": "underwear",
                "opening_hours": "Mo-Su 09:00-21:00"
            },
            {
                "name": "Шалун",
                "shop": "clothes",
                "opening_hours": "Mo-Su 09:00-22:00"
            },
            {
                "name": "Ивановский трикотаж",
                "shop": "clothes"
            },
            {
                "name": "Смешные цены",
                "shop": "clothes",
                "brand": "Смешные цены",
                "name:ru": "Смешные цены",
                "contact:website": "http://smeshniyeceni.ru"
            },
            {
                "name": "Магазин рампродаж",
                "shop": "clothes"
            }
        ]
    },
    "greengrocer": {
        "count": 1,
        "detail": [
            {
                "shop": "greengrocer",
                "opening_hours": "Mo-Su 09:00-21:00"
            }
        ]
    },
    "dairy": {
        "count": 1,
        "detail": [
            {
                "shop": "dairy"
            }
        ]
    },
    "fashion": {
        "count": 1,
        "detail": [
            {
                "name": "Модная одежда",
                "shop": "fashion",
                "opening_hours": "Mo-Su 10:00-21:00"
            }
        ]
    },
    "pawnbroker": {
        "count": 1,
        "detail": [
            {
                "shop": "pawnbroker",
                "opening_hours": "Mo-Fr 10:00-20:00; Sa,Su 11:00-19:00"
            }
        ]
    },
    "tobacco": {
        "count": 2,
        "detail": [
            {
                "shop": "tobacco"
            },
            {
                "shop": "tobacco"
            }
        ]
    },
    "furniture": {
        "count": 1,
        "detail": [
            {
                "shop": "furniture"
            }
        ]
    },
    "kitchen": {
        "count": 1,
        "detail": [
            {
                "name": "Ликарион",
                "shop": "kitchen"
            }
        ]
    },
    "dry_cleaning": {
        "count": 1,
        "detail": [
            {
                "name": "Диана",
                "shop": "dry_cleaning",
                "brand": "Диана",
                "name:ru": "Диана",
                "contact:vk": "https://vk.com/diana.dryclean",
                "addr:postcode": "111394",
                "contact:email": "diana@dryclean.ru",
                "opening_hours": "Mo-Fr 09:00-20:00; Sa 09:00-18:00",
                "contact:website": "http://www.dryclean.ru",
                "contact:facebook": "https://www.facebook.com/diana.dryclean",
                "contact:instagram": "https://www.instagram.com/dryclean.ru"
            }
        ]
    },
    "vending_machine": {
        "count": 1,
        "detail": [
            {
                "amenity": "vending_machine",
                "contact:phone": "+7 495 5395454",
                "contact:website": "http://parking.mos.ru/",
                "opening_hours": "24/7",
                "operator": "ГКУ «Администратор Московского парковочного пространства»",
                "payment:cash": "no",
                "payment:credit_cards": "yes",
                "payment:debit_cards": "yes",
                "ref": "3308",
                "ref:mos_parking": "831262348",
                "vending": "parking_tickets",
                "zone:parking": "4043"
            }
        ]
    },
    "bicycle": {
        "count": 1,
        "detail": [
            {
                "name": "РемВел",
                "shop": "bicycle",
                "website": "http://rem-vel.ru"
            }
        ]
    },
    "baby_goods": {
        "count": 1,
        "detail": [
            {
                "clothes": "children",
                "contact:email": "a_abrosimov@detoc.ru",
                "contact:phone": "+7 495 4616704",
                "contact:website": "https://www.dochkisinochki.ru/",
                "name": "Дочки-сыночки",
                "opening_hours": "Mo-Su 10:00-22:00",
                "operator": "Волга",
                "shop": "baby_goods"
            }
        ]
    },
    "driving_school": {
        "count": 1,
        "detail": [
            {
                "amenity": "driving_school",
                "education": "courses",
                "education_form:parttime": "yes",
                "education_level:primary": "yes",
                "education_profile:driving": "yes"
            }
        ]
    },
    "variety_store": {
        "count": 1,
        "detail": [
            {
                "brand": "Fix price",
                "brand:wikidata": "Q4038791",
                "brand:wikipedia": "ru:Fix Price (сеть магазинов)",
                "contact:facebook": "https://www.facebook.com/fixprice.russia",
                "contact:instagram": "https://www.instagram.com/fixprice.russia",
                "contact:ok": "https://ok.ru/fixprice",
                "contact:phone": "+7 800 7753515",
                "contact:twitter": "https://twitter.com/fix_price",
                "contact:vk": "https://vk.com/fix_price",
                "contact:website": "https://www.fix-price.ru",
                "contact:youtube": "https://www.youtube.com/user/fixprice36",
                "level": "2",
                "name": "Fix price",
                "name:en": "Fix price",
                "shop": "variety_store"
            }
        ]
    },
    "language_school": {
        "count": 1,
        "detail": [
            {
                "amenity": "language_school",
                "contact:email": "bambini.club.izmailovo@gmail.com",
                "contact:instagram": "https://instagram.com/bambiniclub.moskow",
                "contact:phone": "+7 925 9295234",
                "contact:vk": "https://vk.com/bambinimvi",
                "contact:website": "https://bambinisad.ru/",
                "name": "Bambini-Club",
                "opening_hours": "24/7",
                "operator": "Bambini-Club"
            }
        ]
    },
    "beauty": {
        "count": 1,
        "detail": [
            {
                "shop": "beauty"
            }
        ]
    },
    "dentist": {
        "count": 1,
        "detail": [
            {
                "name": "Детская стоматологическая поликлиника №45",
                "amenity": "dentist",
                "building": "yes",
                "healthcare": "dentist",
                "addr:street": "Нижняя Первомайская улица",
                "contact:phone": "+7 495 4651452",
                "opening_hours": "Mo-Th 08:30-19:00; Fr 08:30-18:00; Sa 09:00-15:00",
                "building:levels": "3",
                "addr:housenumber": "63",
                "health_facility:type": "clinic",
                "medical_system:western": "yes",
                "health_specialty:dentistry": "yes"
            }
        ]
    },
    "clinic": {
        "count": 1,
        "detail": [
            {
                "addr:housenumber": "65",
                "addr:street": "Нижняя Первомайская улица",
                "amenity": "clinic",
                "building": "hospital",
                "building:levels": "8",
                "contact:phone": "+7 495 9650000",
                "healthcare": "clinic",
                "name": "Консультативно-диагностический центр «Измайловский» НМХЦ им. Пирогова",
                "opening_hours": "Mo-Fr 08:00-20:00; Sa 09:00-16:00; Su 09:00-14:00"
            }
        ]
    },
    "commercial": {
        "count": 1,
        "detail": [
            {
                "building": "commercial",
                "addr:street": "Нижняя Первомайская улица",
                "building:levels": "4",
                "addr:housenumber": "43А"
            }
        ]
    }
}