{
    "residents": 11418,
    "bus_stop": {
        "count": 9,
        "detail": [
            {
                "bench": "no",
                "highway": "bus_stop",
                "public_transport": "platform",
                "shelter": "no"
            },
            {
                "bus": "yes",
                "name": "Торговый дом «Даниловский»",
                "bench": "yes",
                "source": "yandex panorams;bing",
                "highway": "bus_stop",
                "shelter": "yes",
                "public_transport": "platform"
            },
            {
                "bench": "yes",
                "bin": "yes",
                "highway": "bus_stop",
                "name": "Даниловская площадь",
                "operator": "Мосгортранс",
                "public_transport": "platform",
                "shelter": "yes",
                "tactile_paving": "no"
            },
            {
                "bench": "yes",
                "bin": "yes",
                "highway": "bus_stop",
                "name": "Улица Шухова",
                "operator": "Мосгортранс",
                "public_transport": "platform",
                "shelter": "yes",
                "tactile_paving": "no"
            },
            {
                "bench": "yes",
                "highway": "bus_stop",
                "name": "Детская поликлиника",
                "public_transport": "platform",
                "shelter": "yes",
                "source": "bing; yandex panorams",
                "tactile_paving": "no"
            },
            {
                "bench": "no",
                "bus": "no",
                "highway": "bus_stop",
                "name": "Улица Шухова",
                "public_transport": "platform",
                "route_ref:trolleybus": "10",
                "shelter": "no",
                "tactile_paving": "no",
                "trolleybus": "yes"
            },
            {
                "bus": "yes",
                "name": "Даниловская площадь",
                "public_transport": "stop_position"
            },
            {
                "bus": "yes",
                "name": "Улица Шухова",
                "public_transport": "stop_position"
            },
            {
                "bus": "yes",
                "name": "Улица Шухова",
                "public_transport": "stop_position"
            }
        ]
    },
    "pharmacy": {
        "count": 3,
        "detail": [
            {
                "amenity": "pharmacy",
                "brand": "Горздрав",
                "contact:email": "info@gor-zdrav.ru",
                "contact:facebook": "https://www.facebook.com/AptekaGorzdrav",
                "contact:instagram": "https://www.instagram.com/gorzdrav",
                "contact:ok": "https://ok.ru/group/57486617870381",
                "contact:phone": "+7 499 6536277",
                "contact:vk": "https://vk.com/gorzdrav",
                "contact:website": "https://gorzdrav.org",
                "description": "Аптечный пункт №622",
                "name": "Горздрав",
                "name:ru": "Горздрав",
                "opening_hours": "Mo-Su 09:00-21:00",
                "wheelchair": "limited"
            },
            {
                "amenity": "pharmacy",
                "name": "Здоровье",
                "opening_hours": "Mo-Su 09:00-21:00",
                "operator": "ООО Здоровье",
                "wheelchair": "no"
            },
            {
                "amenity": "pharmacy",
                "brand": "А5",
                "contact:facebook": "https://www.facebook.com/apteka5/",
                "contact:vk": "https://vk.com/apteka_a5",
                "contact:website": "http://apteka5.ru",
                "healthcare": "pharmacy",
                "inscription:ru": "аптечный пункт№1953",
                "level": "1",
                "name": "А5",
                "name:ru": "А5",
                "opening_hours": "Mo-Su 10:00-22:00",
                "phone": "+7 495 6536277",
                "ref": "1953"
            }
        ]
    },
    "supermarket": {
        "count": 3,
        "detail": [
            {
                "brand": "Дикси",
                "brand:wikidata": "Q4161561",
                "brand:wikipedia": "ru:Дикси (сеть магазинов)",
                "contact:phone": "+7 800 3330201",
                "contact:website": "http://dixy.ru",
                "name": "Дикси",
                "name:en": "Dixy",
                "name:ru": "Дикси",
                "opening_hours": "24/7",
                "shop": "supermarket",
                "wheelchair": "yes"
            },
            {
                "contact:phone": "+7 495 5043478;+7 800 7003487",
                "contact:website": "https://av.ru/shops/lyusinovskaya_60",
                "name": "Азбука Вкуса",
                "name:en": "Azbuka Vkusa",
                "name:ru": "Азбука Вкуса",
                "opening_hours": "24/7",
                "operator": "ООО «Городской супермаркет»",
                "ref:av": "198454",
                "shop": "supermarket"
            },
            {
                "alt_name": "Перекрёсток",
                "brand": "Перекресток",
                "contact:facebook": "https://www.facebook.com/perekrestok",
                "contact:instagram": "http://instagram.com/perekrestok",
                "contact:ok": "https://ok.ru/perekrestok.shop",
                "contact:phone": "+7 495 6600496",
                "contact:twitter": "https://twitter.com/perekrestok",
                "contact:vk": "https://vk.com/perekrestok_shop",
                "contact:website": "https://www.perekrestok.ru",
                "level": "-1",
                "name": "Перекресток",
                "name:en": "Perekryostok",
                "name:ru": "Перекресток",
                "opening_hours": "Mo-Su 08:00-23:00",
                "operator": "Торговый дом \"ПЕРЕКРЕСТОК\"",
                "operator:wikidata": "Q1684639",
                "operator:wikipedia": "ru:Перекрёсток (сеть магазинов)",
                "shop": "supermarket"
            }
        ]
    },
    "hairdresser": {
        "count": 6,
        "detail": [
            {
                "description": "Мужские стрижки и опасное бритье — это именно наш профиль, и мы уверены, что мы стрижем и бреем лучше всех. Даже не обсуждается! Как говорил Фрэнк Синатра «Костюм, шляпа, хорошая работа и одинокое пьянство по выходным – вот что украшает мужчину».",
                "male": "yes",
                "name": "OldBoy",
                "opening_hours": "Mo-Su 10:00-22:00",
                "phone": "+7 929 5709696;+7 968 5709696",
                "shop": "hairdresser",
                "website": "https://oldboybarbershop.com/moscow/shabolovka",
                "wheelchair": "no"
            },
            {
                "shop": "hairdresser"
            },
            {
                "description": "мужская парикмахерская",
                "name": "Аляска",
                "opening_hours": "Mo-Su 10:00-22:00",
                "payment:credit_cards": "yes",
                "payment:debit_cards": "yes",
                "payment:mir": "yes",
                "shop": "hairdresser"
            },
            {
                "contact:instagram": "@frant_moscow",
                "email": "info@b-frant.ru",
                "full_name": "Академия Барберинга Франт",
                "male": "yes",
                "name": "Франт",
                "opening_hours": "Mo-Su 10:00-22:00",
                "operator": "Barbershop Франт",
                "phone": "+7 499 6861134",
                "shop": "hairdresser",
                "website": "http://b-frant.ru/"
            },
            {
                "name": "Brothers",
                "opening_hours": "Mo-Su 10:00-21:00",
                "shop": "hairdresser",
                "website": "www.brothers_msk.ru"
            },
            {
                "name": "Brothers barber shop",
                "shop": "hairdresser"
            }
        ]
    },
    "service": {
        "count": 9,
        "detail": [
            {
                "power": "substation",
                "building": "service",
                "building:levels": "1"
            },
            {
                "addr:housenumber": "3 с2",
                "addr:street": "улица Лестева",
                "building": "service"
            },
            {
                "power": "substation",
                "building": "service",
                "location": "indoor",
                "roof:shape": "9.0",
                "substation": "minor_distribution",
                "addr:street": "Мытная улица",
                "building:levels": "1",
                "addr:housenumber": "23 к1 с2"
            },
            {
                "addr:housenumber": "58 с2",
                "addr:street": "Мытная улица",
                "building": "service",
                "building:levels": "1"
            },
            {
                "addr:housenumber": "13 с7",
                "addr:street": "улица Татищева",
                "building": "service"
            },
            {
                "addr:housenumber": "62 с2",
                "addr:street": "Большая Серпуховская улица",
                "building": "service",
                "building:levels": "1",
                "power": "substation",
                "substation": "minor_distribution"
            },
            {
                "building": "service",
                "building:levels": "1"
            },
            {
                "note": "Переход между зданиями, выше 1го этажа, капитальная крытая конструкция.",
                "layer": "2",
                "building": "service"
            },
            {
                "building": "service"
            }
        ]
    },
    "bicycle": {
        "count": 1,
        "detail": [
            {
                "name": "Веломир",
                "opening_hours": "Mo-Su 11:00-20:00",
                "phone": "+7 499 237 86 82",
                "service:bicycle:rental": "no",
                "service:bicycle:repair": "yes",
                "service:bicycle:retail": "yes",
                "service:bicycle:second_hand": "no",
                "shop": "bicycle",
                "website": "https://velomirshop.ru/",
                "wheelchair": "no"
            }
        ]
    },
    "convenience": {
        "count": 6,
        "detail": [
            {
                "name": "Монастырский",
                "opening_hours": "Mo-Fr 09:00-20:00; Sa-Su 10:00-19:00",
                "phone": "+7 965 3886448",
                "shop": "convenience",
                "website": "https://medospas.ru/"
            },
            {
                "name": "Вкусвилл",
                "opening_hours": "09:00-22:00",
                "shop": "convenience",
                "wheelchair": "yes"
            },
            {
                "check_date:opening_hours": "2020-11-17",
                "inscription": "минимаркет",
                "name": "То, что надо",
                "opening_hours": "Mo-Su 09:00-23:00",
                "payment:mastercard": "yes",
                "payment:mir": "yes",
                "payment:visa": "yes",
                "shop": "convenience",
                "wheelchair": "yes"
            },
            {
                "name": "Продукты 24",
                "opening_hours": "24/7",
                "shop": "convenience",
                "wheelchair": "limited"
            },
            {
                "brand": "ВкусВилл",
                "contact:email": "info@izbenka.msk.ru",
                "contact:facebook": "https://www.facebook.com/vkusvill.ru",
                "contact:instagram": "https://www.instagram.com/izbenka_vkusvill",
                "contact:phone": "+7 495 6638602",
                "contact:telegram": "https://telegram.me/vkusvillbot",
                "contact:vk": "https://vk.com/vkusvill_ru",
                "contact:website": "https://vkusvill.ru",
                "name": "ВкусВилл",
                "name:ru": "ВкусВилл",
                "shop": "convenience"
            },
            {
                "delivery": "only",
                "name": "Яндекс лавка",
                "opening_hours": "Mo-Su 07:00-24:00",
                "shop": "convenience"
            }
        ]
    },
    "beauty": {
        "count": 8,
        "detail": [
            {
                "shop": "beauty"
            },
            {
                "brand": "Brava",
                "description": "косметологический центр",
                "name": "Мир красоты и здоровья",
                "opening_hours": "Mo-Su 10:00-21:00",
                "phone": "+7 495 1086492",
                "shop": "beauty",
                "website": "https://www.brava-clinic.ru/",
                "wheelchair": "no"
            },
            {
                "name": "Дива",
                "shop": "beauty"
            },
            {
                "name": "Маникюр",
                "shop": "beauty",
                "website": "moicorner.com"
            },
            {
                "description": "Студия красоты",
                "name": "Army of beauty",
                "opening_hours": "Mo-Su 10:00-22:00",
                "phone": "+7 495 2550333",
                "shop": "beauty",
                "website": "https://www.asna.ru/"
            },
            {
                "name": "Манхэттен маникюр",
                "shop": "beauty",
                "contact:phone": "+7 916 8024943",
                "opening_hours": "Mo-Fr 10:00-22:00; Sa,Su 10:00-21:00",
                "contact:website": "http://www.mm-manicure.ru"
            },
            {
                "name": "ON Orchid Nails",
                "shop": "beauty",
                "description": "Маникюр, педикюр",
                "opening_hours": "Mo-Su 10:00-22:00"
            },
            {
                "email": "mynatalli@mail.ru",
                "name": "Face.expert",
                "name:en": "Face.expert",
                "opening_hours": "Mo-Su 09:00-22:00",
                "phone": "+7 985 1199682",
                "shop": "beauty",
                "website": "http://face-expert.pro/"
            }
        ]
    },
    "kitchen": {
        "count": 1,
        "detail": [
            {
                "name": "Кухни Беларуси",
                "opening_hours": "Mo-Su 10:00-21:00",
                "shop": "kitchen",
                "wheelchair": "no"
            }
        ]
    },
    "clothes": {
        "count": 2,
        "detail": [
            {
                "name": "Ирокез",
                "shop": "clothes",
                "opening_hours": "Mo-Sa 11:00-20:00; Su 11:00-18:00"
            },
            {
                "name": "Types of beauty",
                "shop": "clothes"
            }
        ]
    },
    "doctors": {
        "count": 2,
        "detail": [
            {
                "amenity": "doctors",
                "contact:phone": "+7 495 6608377",
                "contact:website": "http://www.genomed.ru",
                "healthcare": "doctor",
                "health_facility:type": "laboratory",
                "health_specialty:microbiology": "yes",
                "medical_system:western": "yes",
                "name": "Геномед",
                "opening_hours": "Mo-Fr 08:00-19:00; Sa 08:00-17:00; Su 08:00-15:00",
                "wheelchair": "no"
            },
            {
                "amenity": "doctors",
                "brand": "Гемотест",
                "contact:email": "client@gemotest.ru",
                "contact:facebook": "https://www.facebook.com/gemotestlab",
                "contact:ok": "https://ok.ru/gemotest",
                "contact:phone": "+7 495 5321313",
                "contact:skype": "vrachgemotest",
                "contact:vk": "https://vk.com/gemotestlab",
                "contact:website": "https://www.gemotest.ru",
                "healthcare": "laboratory",
                "health_facility:type": "laboratory",
                "health_specialty:microbiology": "yes",
                "medical_system:western": "yes",
                "name": "Гемотест",
                "name:en": "Gemotest",
                "name:ru": "Гемотест",
                "office": "research",
                "opening_hours": "Mo-Fr 07:30-19:30; Sa-Su 07:30-14:30",
                "phone": "+7 495 5321313",
                "website": "https://www.gemotest.ru/"
            }
        ]
    },
    "waste_disposal": {
        "count": 6,
        "detail": [
            {
                "amenity": "waste_disposal"
            },
            {
                "amenity": "waste_disposal"
            },
            {
                "amenity": "waste_disposal"
            },
            {
                "amenity": "waste_disposal"
            },
            {
                "amenity": "waste_disposal"
            },
            {
                "amenity": "waste_disposal"
            }
        ]
    },
    "bakery": {
        "count": 2,
        "detail": [
            {
                "name": "Добрынинский и партнеры",
                "opening_hours": "Mo-Fr 08:00-21:00; Sa,Su 10:00-20:00",
                "shop": "bakery",
                "website": "https://xn--90afnafetbfvo0j.xn--p1ai/gde-kupit-/",
                "wheelchair": "no"
            },
            {
                "email": "stardoner1@mail.ru",
                "name": "Донеретто пекарня",
                "opening_hours": "24/7",
                "phone": "+7 965 2859999",
                "shop": "bakery",
                "wheelchair": "yes"
            }
        ]
    },
    "alcohol": {
        "count": 3,
        "detail": [
            {
                "brand": "Ароматный мир",
                "contact:facebook": "https://www.facebook.com/amwine.ru",
                "contact:instagram": "https://instagram.com/amwine.ru",
                "contact:twitter": "https://twitter.com/amwineru",
                "contact:vk": "https://vk.com/amwineru",
                "contact:website": "https://amwine.ru",
                "drink:beer": "bottled",
                "drink:cider": "bottled",
                "drink:cognac": "bottled",
                "drink:soft_drink": "bottled",
                "drink:sparkling_wine": "bottled",
                "drink:vodka": "bottled",
                "drink:whisky": "bottled",
                "drink:wine": "bottled",
                "name": "Ароматный мир",
                "name:ru": "Ароматный мир",
                "opening_hours": "Mo-Sa 09:30-22:30; Su 10:00-22:00",
                "shop": "alcohol",
                "wheelchair": "no"
            },
            {
                "brand": "Красное&Белое",
                "brand:wikidata": "Q24933790",
                "brand:wikipedia": "ru:Красное & Белое",
                "contact:facebook": "https://www.facebook.com/krasnoe.beloe",
                "contact:instagram": "https://www.instagram.com/krasnoebeloe",
                "contact:ok": "https://ok.ru/krasnoebeloe",
                "contact:telegram": "+7 922 7033000",
                "contact:viber": "+7 922 7033000",
                "contact:vk": "https://vk.com/krasnoebeloe",
                "contact:website": "https://krasnoeibeloe.ru",
                "contact:whatsapp": "+7 922 7033000",
                "name": "Красное&Белое",
                "name:ru": "Красное&Белое",
                "opening_hours": "Mo-Su 09:00-22:05",
                "shop": "alcohol"
            },
            {
                "name": "Бристоль",
                "shop": "alcohol",
                "opening_hours": "Mo-Su 08:00-23:00"
            }
        ]
    },
    "playground": {
        "count": 8,
        "detail": [
            {
                "access": "yes",
                "leisure": "playground"
            },
            {
                "access": "yes",
                "leisure": "playground"
            },
            {
                "access": "yes",
                "leisure": "playground"
            },
            {
                "access": "yes",
                "leisure": "playground"
            },
            {
                "access": "yes",
                "leisure": "playground"
            },
            {
                "access": "yes",
                "leisure": "playground"
            },
            {
                "access": "yes",
                "leisure": "playground"
            },
            {
                "access": "yes",
                "leisure": "playground"
            }
        ]
    },
    "bicycle_parking": {
        "count": 5,
        "detail": [
            {
                "amenity": "bicycle_parking",
                "bicycle_parking": "wall_loops",
                "capacity": "7",
                "covered": "no"
            },
            {
                "amenity": "bicycle_parking",
                "covered": "no"
            },
            {
                "amenity": "bicycle_parking",
                "bicycle_parking": "wall_loops",
                "capacity": "9",
                "covered": "no"
            },
            {
                "amenity": "bicycle_parking",
                "bicycle_parking": "wall_loops",
                "capacity": "7",
                "covered": "no"
            },
            {
                "amenity": "bicycle_parking",
                "covered": "no"
            }
        ]
    },
    "bank": {
        "count": 3,
        "detail": [
            {
                "amenity": "bank",
                "atm": "yes",
                "branch": "Московский банк",
                "contact:facebook": "https://www.facebook.com/sberbank",
                "contact:instagram": "https://www.instagram.com/sberbank/",
                "contact:ok": "https://ok.ru/sberbank",
                "contact:phone": "+7 800 5555550",
                "contact:twitter": "https://twitter.com/sberbank/",
                "contact:vk": "https://vk.com/sberbank",
                "contact:website": "https://www.sberbank.ru",
                "contact:youtube": "https://www.youtube.com/sberbank",
                "name": "Сбербанк",
                "name:en": "Sberbank",
                "name:ru": "Сбербанк",
                "opening_hours": "Mo-Fr 09:00-19:00",
                "operator": "ПАО Сбербанк",
                "operator:wikidata": "Q205012",
                "operator:wikipedia": "ru:Сбербанк России",
                "ref": "9038/0100",
                "wheelchair": "yes"
            },
            {
                "amenity": "bank",
                "bic": "RZBMRUMM",
                "contact:email": "info@raiffeisen.ru",
                "contact:facebook": "https://www.facebook.com/raiffeisenbankrus",
                "contact:instagram": "https://www.instagram.com/raiffeisenbank_rus",
                "contact:phone": "+7 495 7219900",
                "contact:telegram": "https://telegram.me/RaiffeisenbankBot",
                "contact:twitter": "https://twitter.com/Raiffeisen_Ru",
                "contact:vk": "https://vk.com/raiffeisenbankrus",
                "contact:website": "https://www.raiffeisen.ru",
                "name": "Райффайзен",
                "name:en": "Raiffeisen",
                "name:ru": "Райффайзен",
                "opening_hours": "Mo-Fr 11:00-20:00; Sa 11:00-16:00",
                "operator:wikidata": "Q4389244",
                "operator:wikipedia": "ru:Райффайзенбанк",
                "wheelchair": "yes"
            },
            {
                "amenity": "bank",
                "atm": "yes",
                "branch": "Московский банк",
                "contact:facebook": "https://www.facebook.com/sberbank",
                "contact:instagram": "https://www.instagram.com/sberbank/",
                "contact:ok": "https://ok.ru/sberbank",
                "contact:phone": "+7 800 5555777",
                "contact:twitter": "https://twitter.com/sberbank/",
                "contact:vk": "https://vk.com/sberbank",
                "contact:website": "https://www.sberbank.ru",
                "contact:youtube": "https://www.youtube.com/sberbank",
                "name": "Сбербанк",
                "name:en": "Sberbank",
                "name:ru": "Сбербанк",
                "opening_hours": "Mo-Fr 09:00-18:00",
                "operator": "ПАО Сбербанк",
                "operator:wikidata": "Q205012",
                "operator:wikipedia": "ru:Сбербанк России",
                "ref": "9038/26299",
                "wheelchair": "no"
            }
        ]
    },
    "atm": {
        "count": 2,
        "detail": [
            {
                "amenity": "atm",
                "operator": "Райффайзен",
                "opening_hours": "24/7"
            },
            {
                "amenity": "atm",
                "contact:email": "sberbank@sberbank.ru",
                "contact:facebook": "https://www.facebook.com/bankdruzey",
                "contact:instagram": "https://instagram.com/sberbank",
                "contact:website": "https://www.sberbank.ru",
                "currency:RUB": "yes",
                "level": "1",
                "operator": "Сбербанк",
                "operator:wikidata": "Q205012",
                "operator:wikipedia": "ru:Сбербанк России"
            }
        ]
    },
    "fabric": {
        "count": 1,
        "detail": [
            {
                "description": "Ткани высокой моды",
                "opening_hours": "Mo-Fr 10:00-21:00; Sa,Su 11:00-20:00",
                "phone": "+7 499 2375878",
                "shop": "fabric"
            }
        ]
    },
    "restaurant": {
        "count": 1,
        "detail": [
            {
                "name": "Синдбад",
                "amenity": "restaurant",
                "cuisine": "lebanese",
                "addr:street": "Люсиновская улица",
                "contact:phone": "+7 495 1146301",
                "opening_hours": "Mo-Fr 12:00-24:00; Sa,Su 12:30-24:00",
                "contact:website": "http://sindbad-kafe.ru",
                "addr:housenumber": "62"
            }
        ]
    },
    "kindergarten": {
        "count": 4,
        "detail": [
            {
                "amenity": "kindergarten",
                "description": "Центр досуга \"Даниил\"",
                "name": "Даниил",
                "phone": "+7 499 2379040",
                "website": "цдданиил.рф"
            },
            {
                "phone": "+7 495 1312662",
                "amenity": "kindergarten",
                "website": "http://thewonderschool.ru",
                "education": "yes",
                "preschool": "yes",
                "description": "creative learning preschool",
                "inscription": "детский билингвальный центр \"Wander\"",
                "opening_hours": "Mo-Su 08:00-19:00"
            },
            {
                "addr:housenumber": "3А",
                "addr:street": "улица Татищева",
                "amenity": "kindergarten",
                "building": "yes",
                "building:levels": "3"
            },
            {
                "name": "Детский сад № 1084",
                "amenity": "kindergarten",
                "building": "kindergarten",
                "addr:street": "Городская улица",
                "building:levels": "2",
                "addr:housenumber": "7"
            }
        ]
    },
    "waste_basket": {
        "count": 10,
        "detail": [
            {
                "amenity": "waste_basket"
            },
            {
                "amenity": "waste_basket"
            },
            {
                "amenity": "waste_basket",
                "check_date": "2021-04-11"
            },
            {
                "amenity": "waste_basket"
            },
            {
                "amenity": "waste_basket"
            },
            {
                "amenity": "waste_basket"
            },
            {
                "amenity": "waste_basket"
            },
            {
                "amenity": "waste_basket"
            },
            {
                "amenity": "waste_basket"
            },
            {
                "amenity": "waste_basket"
            }
        ]
    },
    "bench": {
        "count": 14,
        "detail": [
            {
                "amenity": "bench",
                "backrest": "no",
                "check_date": "2021-04-11"
            },
            {
                "amenity": "bench"
            },
            {
                "amenity": "bench"
            },
            {
                "amenity": "bench",
                "backrest": "no",
                "check_date": "2021-04-11"
            },
            {
                "amenity": "bench",
                "backrest": "no"
            },
            {
                "amenity": "bench",
                "backrest": "yes",
                "check_date": "2021-02-14"
            },
            {
                "amenity": "bench",
                "backrest": "no"
            },
            {
                "amenity": "bench",
                "backrest": "no"
            },
            {
                "amenity": "bench",
                "backrest": "yes"
            },
            {
                "amenity": "bench",
                "backrest": "yes"
            },
            {
                "amenity": "bench",
                "backrest": "yes"
            },
            {
                "amenity": "bench",
                "backrest": "yes"
            },
            {
                "amenity": "bench",
                "backrest": "yes"
            },
            {
                "amenity": "bench",
                "backrest": "yes"
            }
        ]
    },
    "parking": {
        "count": 2,
        "detail": [
            {
                "access": "private",
                "amenity": "parking",
                "parking": "surface"
            },
            {
                "access": "yes",
                "amenity": "parking",
                "fee": "no",
                "parking": "surface"
            }
        ]
    },
    "cafe": {
        "count": 5,
        "detail": [
            {
                "name": "Urban kitchen",
                "amenity": "cafe",
                "website": "https://www.instagram.com/urbankitchen_gastro/",
                "payment:jcb": "yes",
                "opening_hours": "Mo-Sa 10:00-23:00",
                "internet_access": "wlan",
                "payment:debit_cards": "yes",
                "payment:credit_cards": "yes",
                "payment:discover_card": "yes",
                "payment:american_express": "yes"
            },
            {
                "name": "Бурекас Бейкери",
                "amenity": "cafe",
                "inscription": "кафе-пекарня",
                "opening_hours": "Mo-Su 08:00-22:00",
                "internet_access": "wlan",
                "payment:union_card": "yes",
                "payment:debit_cards": "yes",
                "internet_access:type": "WiFi",
                "payment:credit_cards": "yes"
            },
            {
                "amenity": "cafe",
                "name": "Кофе и другие прелести",
                "opening_hours": "Mo-Fr 10:00-21:00; Sa,Su 11:00-20:00",
                "operator": "ИП Лютенко Мария Юрьевна",
                "outdoor_seating": "no",
                "phone": "+7 499 2375878",
                "takeaway": "yes"
            },
            {
                "amenity": "cafe",
                "name": "Jam nail cafe",
                "opening_hours": "Mo-Su 10:00-22:00",
                "phone": "+7 495 1993999;+7 909 9393339",
                "website": "https://www.instagram.com/jam.nail.cafe/"
            },
            {
                "amenity": "cafe",
                "name": "Jam nail cafe",
                "opening_hours": "10:00-22:00"
            }
        ]
    },
    "houseware": {
        "count": 1,
        "detail": [
            {
                "name": "Товары для дома",
                "shop": "houseware",
                "description": "электроинструмент, бытовая химия, пульты, замки, фурнитура, сантехника"
            }
        ]
    },
    "vending_machine": {
        "count": 5,
        "detail": [
            {
                "amenity": "vending_machine",
                "contact:phone": "+7 495 5395454",
                "contact:website": "http://parking.mos.ru/",
                "opening_hours": "24/7",
                "operator": "ГКУ «Администратор Московского парковочного пространства»",
                "payment:cash": "no",
                "payment:credit_cards": "yes",
                "payment:debit_cards": "yes",
                "ref": "3035",
                "ref:mos_parking": "282084610",
                "source": "dit.mos.ru",
                "vending": "parking_tickets",
                "zone:parking": "3219"
            },
            {
                "amenity": "vending_machine",
                "contact:phone": "+7 495 5395454",
                "contact:website": "http://parking.mos.ru/",
                "opening_hours": "24/7",
                "operator": "ГКУ «Администратор Московского парковочного пространства»",
                "payment:cash": "no",
                "payment:credit_cards": "yes",
                "payment:debit_cards": "yes",
                "ref": "3041",
                "ref:mos_parking": "5004765",
                "source": "dit.mos.ru",
                "vending": "parking_tickets",
                "zone:parking": "3019"
            },
            {
                "amenity": "vending_machine",
                "contact:phone": "+7 495 5395454",
                "contact:website": "http://parking.mos.ru/",
                "opening_hours": "24/7",
                "operator": "ГКУ «Администратор Московского парковочного пространства»",
                "payment:cash": "no",
                "payment:credit_cards": "yes",
                "payment:debit_cards": "yes",
                "ref": "3015",
                "ref:mos_parking": "282084594",
                "source": "dit.mos.ru",
                "vending": "parking_tickets",
                "zone:parking": "3219"
            },
            {
                "amenity": "vending_machine",
                "contact:phone": "+7 495 5395454",
                "contact:website": "http://parking.mos.ru/",
                "opening_hours": "24/7",
                "operator": "ГКУ «Администратор Московского парковочного пространства»",
                "payment:cash": "no",
                "payment:credit_cards": "yes",
                "payment:debit_cards": "yes",
                "ref": "4130",
                "ref:mos_parking": "859915353",
                "vending": "parking_tickets",
                "zone:parking": "3219"
            },
            {
                "amenity": "vending_machine",
                "brand": "Утконос",
                "contact:facebook": "https://www.facebook.com/utkonos.ru",
                "contact:instagram": "https://www.instagram.com/utkonos_online",
                "contact:phone": "+7 495 7775444;+7 800 7377775",
                "contact:vk": "https://vk.com/viputkonos",
                "contact:website": "https://www.utkonos.ru/",
                "contact:youtube": "https://www.youtube.com/channel/UCK9LgxKP13gduzbLXiu5iug",
                "name": "Продуктомат Утконос",
                "opening_hours": "Mo-Su 12:00-21:00",
                "operator": "Новый Импульс-50",
                "vending": "parcel_pickup"
            }
        ]
    },
    "erotic": {
        "count": 1,
        "detail": [
            {
                "level": "1",
                "min_age": "18",
                "name": "Джага-джага",
                "opening_hours": "24/7",
                "shop": "erotic"
            }
        ]
    },
    "antiques": {
        "count": 1,
        "detail": [
            {
                "description": "Посуда, бокалы из цветного стекла, произведенные в 20м веке.",
                "name": "Сундучок",
                "opening_hours": "Tu-Sa 12:00-19:00",
                "shop": "antiques",
                "wheelchair": "no"
            }
        ]
    },
    "dentist": {
        "count": 4,
        "detail": [
            {
                "amenity": "dentist",
                "construction": "yes",
                "name": "Улыбка",
                "opening_hours": "Mo-Su 10:00-20:00",
                "phone": "+7 495 2057755"
            },
            {
                "amenity": "dentist",
                "name": "А-Лина",
                "opening_hours": "Mo-Su 10:00-20:00",
                "payment:apple_pay": "yes",
                "payment:mastercard": "yes",
                "payment:mir": "yes",
                "payment:samsung_pay": "yes",
                "payment:union_card": "yes",
                "payment:visa": "yes",
                "phone": "+7 495 9599171"
            },
            {
                "name": "Центр Имплантации Федорова",
                "amenity": "dentist",
                "healthcare": "dentist",
                "opening_hours": "Mo-Su 09:00-21:00"
            },
            {
                "amenity": "dentist",
                "construction": "yes",
                "healthcare": "dentist",
                "inscription": "центр инновационной стоматологии",
                "name": "Regale",
                "opening_hours": "Mo-Su 09:00-21:00",
                "opening_hours:covid19": "open",
                "operator": "ООО \"БЛстом\"",
                "phone": "+7 495 9001039",
                "wheelchair": "limited"
            }
        ]
    },
    "wine": {
        "count": 1,
        "detail": [
            {
                "brand": "ООО \"Стор Вайнстайл\"",
                "description": "Элитные вина и алкоголь",
                "name": "WineStyle",
                "opening_hours": "Mo-Su 11:00-23:00",
                "payment:credit_cards": "yes",
                "payment:debit_cards": "yes",
                "payment:samsung_pay": "yes",
                "phone": "+7 499 7034861",
                "shop": "wine"
            }
        ]
    },
    "training": {
        "count": 3,
        "detail": [
            {
                "amenity": "training",
                "description:ru": "Академический рисунок, живопись, композиция, колористика, история исскуств, подготовка в художественные вузы. Для взрослых: академический рисунок, живопись (масло, акварель, пастель).",
                "education": "facultative_school",
                "education_form:parttime": "yes",
                "education_profile:visual_art": "yes",
                "email": "danart_72@mail.ru",
                "name": "Художественная школа",
                "phone": "+7 925 5287003;+7 925 5287009;+7 968 0927110",
                "training": "art",
                "website": "www.danartschool.ru"
            },
            {
                "name": "Мартинес Имидж",
                "amenity": "training",
                "contact:website": "https://www.martines.ru"
            },
            {
                "amenity": "training",
                "description": "для детей: ментальная арифметика, курсы скорочтения, подготовка к ВПР, подготовка к школе, английский язык",
                "education": "facultative_school",
                "education_form:parttime": "yes",
                "education_level:preschool": "yes",
                "name": "Квентин",
                "opening_hours": "Mo-Su 09:00-21:00",
                "phone": "+7 929 6380506;+7 499 3902901",
                "website": "квентиндети.рф"
            }
        ]
    },
    "dry_cleaning": {
        "count": 2,
        "detail": [
            {
                "description": "Вход через магазин Дикси",
                "name": "Диана",
                "opening_hours": "Mo-Sa 09:00-14:00, 14:30-21:00; Su 10:00-14:00, 14:30-18:00",
                "shop": "dry_cleaning"
            },
            {
                "name": "Подшиваем.ру",
                "opening_hours": "Tu-Sa 12:00-20:00",
                "phone": "+7 495 3749407*6",
                "shop": "dry_cleaning",
                "website": "https://www.podshivaem.ru/kontakty/138-himchistka-v-seti-atele-podshivaemru",
                "wheelchair": "no"
            }
        ]
    },
    "post_box": {
        "count": 1,
        "detail": [
            {
                "ref": "7199",
                "amenity": "post_box",
                "operator:ru": "Почта России",
                "collection_times": "Mo-Fr 23:57; Sa 23:57"
            }
        ]
    },
    "newsagent": {
        "count": 1,
        "detail": [
            {
                "building": "kiosk",
                "building:levels": "1",
                "inscription": "Пресса",
                "name:signed": "no",
                "shop": "newsagent"
            }
        ]
    },
    "florist": {
        "count": 1,
        "detail": [
            {
                "name": "Цветы 24",
                "shop": "florist"
            }
        ]
    },
    "clinic": {
        "count": 3,
        "detail": [
            {
                "name": "Клиника коррекции обменных нарушений - Diet test",
                "amenity": "clinic",
                "website": "http://www.diettest.ru/",
                "operator": "ООО \"Институт Экологической Реабилитации\"",
                "healthcare": "clinic",
                "health_facility:type": "clinic",
                "health_specialty:dietetics": "yes"
            },
            {
                "amenity": "clinic",
                "contact:phone": "+7 495 7440762",
                "contact:website": "http://goznak-med.ru",
                "full_name": "Медико-санитарная часть Московской печатной фабрики Гознака",
                "healthcare": "clinic",
                "health_facility:type": "clinic",
                "medical_system:western": "yes",
                "name": "МСЧ Гознака",
                "name:ru": "МСЧ Гознака",
                "opening_hours": "Mo-Fr 08:00-20:00; Sa 08:00-14:00"
            },
            {
                "name": "Детская поликлиника №108",
                "amenity": "clinic",
                "building": "yes",
                "healthcare": "clinic",
                "addr:street": "улица Лестева",
                "building:levels": "3",
                "addr:housenumber": "5",
                "provided_for:child": "yes",
                "provided_for:infant": "yes",
                "health_facility:type": "clinic",
                "provided_for:toddler": "yes",
                "provided_for:adolescent": "yes"
            }
        ]
    },
    "internet_cafe": {
        "count": 1,
        "detail": [
            {
                "amenity": "internet_cafe",
                "description": "Большой выбор консолей, Guitar Hero, настольные игры, классные дни рождения",
                "email": "info@clubkopernik.ru",
                "name": "Коперник",
                "opening_hours": "Mo-Su 11:00-23:00",
                "phone": "+7 903 7900929",
                "website": "http://clubkopernik.ru/",
                "wheelchair": "no"
            }
        ]
    },
    "outpost": {
        "count": 1,
        "detail": [
            {
                "description": "Пункт выдачи заказов интернет магазина",
                "name": "ЗайШоп",
                "opening_hours": "Mo-Sa 10:00-18:00",
                "shop": "outpost",
                "website": "dustbag.ru; cleanstore.ru"
            }
        ]
    },
    "glaziery": {
        "count": 1,
        "detail": [
            {
                "description": "Багетная мастерская: багет, картины, зеркала",
                "name": "Золотой лев",
                "shop": "glaziery"
            }
        ]
    },
    "community_centre": {
        "count": 1,
        "detail": [
            {
                "amenity": "community_centre",
                "brand": "Questoria",
                "phone": "+7 499 2816949",
                "website": "moscow.questoria.ru"
            }
        ]
    },
    "frame": {
        "count": 1,
        "detail": [
            {
                "inscription": "Багет картины зеркала",
                "name": "Золотой лев",
                "opening_hours": "Mo-Su 10:00-20:00",
                "shop": "frame"
            }
        ]
    },
    "wifihotspot": {
        "count": 1,
        "detail": [
            {
                "amenity": "wifihotspot",
                "indoor": "no",
                "internet_access": "wlan",
                "internet_access:type": "wifi",
                "name": "WIFI",
                "support": "roof_mounted"
            }
        ]
    },
    "optician": {
        "count": 1,
        "detail": [
            {
                "name": "GlassCraft",
                "opening_hours": "Mo-Sa 10:00-20:00",
                "shop": "optician"
            }
        ]
    },
    "fast_food": {
        "count": 1,
        "detail": [
            {
                "amenity": "fast_food",
                "delivery": "only",
                "level": "-1",
                "name": "Кухня на районе",
                "opening_hours": "Mo-Su 08:00-22:00",
                "outdoor_seating": "no",
                "website": "https://localkitchen.ru"
            }
        ]
    },
    "escape_game": {
        "count": 1,
        "detail": [
            {
                "contact:email": "msk@strashnotemno.ru",
                "contact:phone": "+7-800-5558083",
                "contact:website": "https://strashnotemno.ru/",
                "leisure": "escape_game",
                "name": "Прятки в темноте"
            }
        ]
    },
    "department_store": {
        "count": 1,
        "detail": [
            {
                "addr:city": "Москва",
                "addr:housenumber": "70 с1",
                "addr:street": "Люсиновская улица",
                "building": "commercial",
                "building:levels": "5",
                "name": "Даниловский универмаг",
                "note": "Промтоварный универмаг",
                "shop": "department_store",
                "wikidata": "Q29014441"
            }
        ]
    },
    "commercial": {
        "count": 3,
        "detail": [
            {
                "office": "yes",
                "building": "commercial",
                "addr:street": "Люсиновская улица",
                "building:levels": "2",
                "addr:housenumber": "70 с5"
            },
            {
                "addr:city": "Москва",
                "addr:housenumber": "8",
                "addr:street": "Подольское шоссе",
                "building": "commercial",
                "building:levels": "4"
            },
            {
                "addr:housenumber": "53 к2",
                "addr:street": "Люсиновская улица",
                "building": "commercial",
                "building:levels": "2",
                "note:ru": "здание бывшей котельной",
                "office": "yes"
            }
        ]
    },
    "yes": {
        "count": 1,
        "detail": [
            {
                "addr:housenumber": "70 с2",
                "addr:street": "Люсиновская улица",
                "building": "commercial",
                "building:levels": "1",
                "shop": "yes"
            }
        ]
    },
    "school": {
        "count": 2,
        "detail": [
            {
                "building": "school",
                "addr:street": "Хавская улица",
                "building:levels": "3",
                "addr:housenumber": "5"
            },
            {
                "name": "Центр образования №1451",
                "amenity": "school",
                "name:de": "Schule 1451",
                "building": "school",
                "old_name": "Школа №675",
                "addr:street": "Мытная улица",
                "building:levels": "4",
                "addr:housenumber": "50 к3"
            }
        ]
    }
}