{
    "residents": 9426,
    "supermarket": {
        "count": 3,
        "detail": [
            {
                "name": "Метромаркет",
                "shop": "supermarket",
                "wheelchair": "yes"
            },
            {
                "alt_name": "Перекрёсток",
                "brand": "Перекресток",
                "contact:facebook": "https://www.facebook.com/perekrestok",
                "contact:instagram": "http://instagram.com/perekrestok",
                "contact:ok": "https://ok.ru/perekrestok.shop",
                "contact:phone": "+7 495 6628888",
                "contact:twitter": "https://twitter.com/perekrestok",
                "contact:vk": "https://vk.com/perekrestok_shop",
                "contact:website": "https://www.perekrestok.ru",
                "level": "-0.5",
                "name": "Перекресток",
                "name:en": "Perekryostok",
                "name:ru": "Перекресток",
                "opening_hours": "Mo-Su 09:00-23:59",
                "operator": "Торговый дом \"ПЕРЕКРЕСТОК\"",
                "operator:wikidata": "Q1684639",
                "operator:wikipedia": "ru:Перекрёсток (сеть магазинов)",
                "shop": "supermarket",
                "wheelchair": "yes"
            },
            {
                "alt_name": "Пятерочка",
                "brand": "Пятёрочка",
                "brand:wikidata": "Q1768969",
                "brand:wikipedia": "ru:Пятёрочка",
                "contact:email": "vopros@5ka.ru",
                "contact:facebook": "https://www.facebook.com/pyaterochka",
                "contact:instagram": "https://www.instagram.com/pyaterochka_official",
                "contact:ok": "https://ok.ru/pyaterochka",
                "contact:phone": "+7 800 5555505",
                "contact:vk": "https://vk.com/pyaterochka_shop",
                "contact:website": "https://5ka.ru",
                "name": "Пятёрочка",
                "name:ru": "Пятёрочка",
                "opening_hours": "09:00-23:00",
                "shop": "supermarket"
            }
        ]
    },
    "kindergarten": {
        "count": 1,
        "detail": [
            {
                "name": "Детский сад №281",
                "amenity": "kindergarten",
                "addr:street": "Донская улица",
                "addr:housenumber": "8 с1"
            }
        ]
    },
    "restaurant": {
        "count": 8,
        "detail": [
            {
                "addr:city": "Москва",
                "addr:housenumber": "25",
                "addr:postcode": "119049",
                "addr:street": "улица Шаболовка",
                "amenity": "restaurant",
                "brand": "Тануки",
                "brand:wikidata": "Q62758690",
                "contact:email": "shabolovka@tanuki.ru",
                "contact:phone": "+7 495 2232223",
                "contact:website": "https://tanuki.ru/",
                "cuisine": "japanese",
                "delivery": "yes",
                "name": "Тануки",
                "name:en": "Tanuki",
                "name:ru": "Тануки",
                "opening_hours": "Mo-Su 11:30-24:00",
                "operator": "ЮНИКС",
                "smoking": "no",
                "takeaway": "yes"
            },
            {
                "amenity": "restaurant",
                "contact:phone": "+7 495 6505618",
                "contact:website": "http://www.cafedemarco.ru",
                "cuisine": "italian",
                "internet_access": "wlan",
                "internet_access:fee": "no",
                "name": "Де Марко",
                "name:en": "De Marco",
                "opening_hours": "24/7",
                "wheelchair": "limited"
            },
            {
                "name": "Порто Мальтезе",
                "amenity": "restaurant",
                "cuisine": "fish",
                "name:en": "Porto Maltese",
                "wheelchair": "yes",
                "contact:phone": "+7 495 2364546",
                "opening_hours": "Mo-Su 12:00-24:00",
                "contact:website": "http://www.portomaltese.ru",
                "internet_access": "wlan",
                "internet_access:fee": "no"
            },
            {
                "amenity": "restaurant",
                "contact:phone": "+7 499 2361770",
                "contact:website": "http://primavera.su/",
                "cuisine": "italian",
                "internet_access": "wlan",
                "name": "Примавера",
                "name:en": "Primavera",
                "name:ru": "Примавера",
                "opening_hours": "Mo-Fr 11:00-23:00; Sa,Su 12:00-23:00",
                "wheelchair": "limited"
            },
            {
                "name": "Югос",
                "amenity": "restaurant",
                "cuisine": "serbian"
            },
            {
                "amenity": "restaurant",
                "contact:facebook": "https://www.facebook.com/CafeOdessaMama",
                "contact:phone": "+7 919 7649898",
                "contact:website": "http://www.cafeodessa.ru",
                "internet_access": "wlan",
                "internet_access:fee": "no",
                "name": "Одесса-мама",
                "name:en": "Odessa-Mama",
                "opening_hours": "Mo-Th 09:00-23:00; Fr 09:00-24:00; Sa 00:00-02:00,11:00-24:00; Su 00:00-02:00,11:00-23:00",
                "reservation": "recommended",
                "wheelchair": "yes"
            },
            {
                "amenity": "restaurant",
                "contact:phone": "+7 919 7649393",
                "contact:website": "http://www.hacha.ru",
                "cuisine": "georgian",
                "internet_access": "wlan",
                "internet_access:fee": "no",
                "name": "Хачапури",
                "name:en": "Hachapuri",
                "opening_hours": "Mo-Th 11:00-23:00; Fr 11:00-24:00; Sa 00:00-02:00,11:00-24:00; Su 00:00-02:00,11:00-23:00",
                "wheelchair": "yes"
            },
            {
                "amenity": "restaurant",
                "contact:website": "http://www.reefbistro.ru/",
                "cuisine": "seafood",
                "name": "Reef",
                "opening_hours": "Mo-Su 11:00-23:00"
            }
        ]
    },
    "post_office": {
        "count": 1,
        "detail": [
            {
                "amenity": "post_office",
                "brand": "Почта России",
                "brand:wikidata": "Q1502763",
                "brand:wikipedia": "ru:Почта России",
                "contact:phone": "+7 800 2005888",
                "contact:twitter": "https://twitter.com/ruspostofficial",
                "contact:vk": "https://vk.com/russianpost",
                "contact:website": "https://www.pochta.ru",
                "name": "Москва 119049",
                "opening_hours": "Mo-Fr 08:00-20:00; Sa-Su 09:00-18:00",
                "operator": "АО «Почта России»",
                "operator:wikidata": "Q1502763",
                "operator:wikipedia": "ru:Почта России",
                "ref": "119049"
            }
        ]
    },
    "bus_stop": {
        "count": 3,
        "detail": [
            {
                "bus": "yes",
                "name": "1-я городская больница",
                "public_transport": "stop_position"
            },
            {
                "highway": "bus_stop",
                "name": "1-я городская больница",
                "public_transport": "platform",
                "shelter": "yes",
                "tactile_paving": "no"
            },
            {
                "highway": "bus_stop",
                "name": "1-я городская больница",
                "public_transport": "platform",
                "shelter": "yes",
                "tactile_paving": "no"
            }
        ]
    },
    "alcohol": {
        "count": 1,
        "detail": [
            {
                "contact:website": "http://www.vino-i-co.ru",
                "name": "Вино и Ко",
                "shop": "alcohol",
                "wheelchair": "yes"
            }
        ]
    },
    "florist": {
        "count": 4,
        "detail": [
            {
                "contact:phone": "+7 499 2361031",
                "inscription": "Цветы 24",
                "opening_hours": "24/7",
                "shop": "florist"
            },
            {
                "level": "-0.5",
                "name": "Роза-плаза",
                "opening_hours": "Mo-Su 09:00-22:00",
                "shop": "florist",
                "wheelchair": "yes"
            },
            {
                "name": "Бутик цветов",
                "opening_hours": "Mo-Su 10:00-22:00",
                "shop": "florist",
                "wheelchair": "yes"
            },
            {
                "opening_hours": "24/7",
                "shop": "florist"
            }
        ]
    },
    "bicycle_rental": {
        "count": 1,
        "detail": [
            {
                "amenity": "bicycle_rental",
                "capacity": "12",
                "capacity:electric": "0",
                "contact:email": "info@velobike.ru",
                "contact:phone": "+7 495 9664669",
                "contact:website": "https://velobike.ru/",
                "fee": "yes",
                "network": "Велобайк",
                "opening_hours": "24/7",
                "operator": "АО «СитиБайк»",
                "payment:cash": "no",
                "payment:mastercard": "yes",
                "payment:troika": "no",
                "payment:visa": "yes",
                "ref": "315",
                "seasonal": "yes"
            }
        ]
    },
    "waste_disposal": {
        "count": 2,
        "detail": [
            {
                "amenity": "waste_disposal"
            },
            {
                "amenity": "waste_disposal",
                "collection_times": "6.00"
            }
        ]
    },
    "clothes": {
        "count": 1,
        "detail": [
            {
                "clothes": "fur",
                "contact:phone": "+7 495 2909114",
                "contact:website": "http://www.mexa.ru",
                "name": "Второй меховой",
                "opening_hours": "Mo-Su 10:00-21:00",
                "shop": "clothes",
                "wheelchair": "no"
            }
        ]
    },
    "bank": {
        "count": 3,
        "detail": [
            {
                "addr:housenumber": "10",
                "addr:postcode": "119049",
                "addr:street": "улица Шаболовка",
                "amenity": "bank",
                "atm": "yes",
                "branch": "Московский банк",
                "contact:facebook": "https://www.facebook.com/sberbank",
                "contact:instagram": "https://www.instagram.com/sberbank/",
                "contact:ok": "https://ok.ru/sberbank",
                "contact:phone": "+7 800 5555550",
                "contact:twitter": "https://twitter.com/sberbank/",
                "contact:vk": "https://vk.com/sberbank",
                "contact:website": "https://www.sberbank.ru",
                "contact:youtube": "https://www.youtube.com/sberbank",
                "drive_through": "no",
                "name": "Сбербанк",
                "name:en": "Sberbank",
                "name:ru": "Сбербанк",
                "opening_hours": "Mo-Sa 10:00-20:00",
                "operator": "ПАО Сбербанк",
                "operator:wikidata": "Q205012",
                "operator:wikipedia": "ru:Сбербанк России",
                "ref": "9038/0409",
                "wheelchair": "yes"
            },
            {
                "amenity": "bank",
                "atm": "yes",
                "branch": "Дополнительный офис «Ленинский проспект» Центрального филиала АБ «РОССИЯ»",
                "name": "Россия",
                "opening_hours": "Mo-Fr 09:30-19:30; Sa 09:30-15:30",
                "website": "http://abr.ru/about/contacts/#map",
                "wheelchair": "no"
            },
            {
                "amenity": "bank",
                "bic": "VTBRRUMM",
                "brand": "ВТБ",
                "contact:email": "info@vtb.ru",
                "contact:facebook": "https://www.facebook.com/vtbgroup",
                "contact:phone": "+7 800 2007799",
                "contact:twitter": "https://twitter.com/vtb",
                "contact:vk": "https://vk.com/vtb24",
                "contact:website": "https://www.vtb.ru",
                "contact:youtube": "https://www.youtube.com/user/vtbgroup",
                "name": "ВТБ",
                "name:en": "VTB",
                "name:ru": "ВТБ",
                "opening_hours": "Mo-Fr 10:00-19:00",
                "operator": "Банк ВТБ (публичное акционерное общество)",
                "operator:wikidata": "Q1549389",
                "operator:wikipedia": "ru:Банк ВТБ",
                "wheelchair": "yes"
            }
        ]
    },
    "bakery": {
        "count": 2,
        "detail": [
            {
                "addr:housenumber": "25 к2",
                "addr:street": "улица Шаболовка",
                "name": "Тирольские пироги",
                "opening_hours": "Mo-Su 08:00-22:00",
                "phone": "+7 499 2363648",
                "shop": "bakery",
                "website": "http://tirolpirog.ru/"
            },
            {
                "amenity": "cafe",
                "contact:instagram": "https://www.instagram.com/pechorin_bakery/",
                "contact:website": "https://www.pechorinbakery.ru/",
                "name": "Печорин",
                "opening_hours": "Mo-Su 08:00-21:00",
                "shop": "bakery",
                "wheelchair": "yes"
            }
        ]
    },
    "pet": {
        "count": 1,
        "detail": [
            {
                "level": "-0.5",
                "name": "Бетховен",
                "opening_hours": "Mo-Su 09:00-22:00",
                "phone": "+7 800 5552211",
                "shop": "pet",
                "wheelchair": "yes"
            }
        ]
    },
    "toys": {
        "count": 1,
        "detail": [
            {
                "level": "-0.5",
                "name": "Правильные игрушки",
                "opening_hours": "Mo-Su 10:00-22:00",
                "shop": "toys",
                "wheelchair": "yes"
            }
        ]
    },
    "toilets": {
        "count": 2,
        "detail": [
            {
                "fee": "no",
                "level": "1",
                "access": "customers",
                "amenity": "toilets",
                "wheelchair": "no"
            },
            {
                "amenity": "toilets",
                "building": "yes",
                "building:levels": "1",
                "fee": "no",
                "female": "yes",
                "level": "-1",
                "male": "yes",
                "note": "Возможно, что работает только летом. В октябре 2017г не работал, до этого - летом - работал. Надо понаблюдать.",
                "opening_hours": "Mo-Su ?-23:00",
                "toilets:disposal": "flush"
            }
        ]
    },
    "mobile_phone": {
        "count": 2,
        "detail": [
            {
                "brand": "МегаФон",
                "brand:wikidata": "Q1720713",
                "brand:wikipedia": "ru:Мегафон (компания)",
                "contact:facebook": "https://www.facebook.com/MegaFon.ru",
                "contact:habrahabr": "https://habrahabr.ru/company/megafon",
                "contact:ok": "https://ok.ru/megafon",
                "contact:phone": "+7 800 5500500",
                "contact:twitter": "https://twitter.com/megafonru",
                "contact:vk": "https://vk.com/megafon",
                "contact:website": "https://megafon.ru",
                "contact:youtube": "https://www.youtube.com/user/MegaFonTV",
                "level": "-0.5",
                "name": "МегаФон",
                "name:en": "MegaFon",
                "name:ru": "МегаФон",
                "office": "telecommunication",
                "opening_hours": "Mo-Su 10:00-22:00",
                "operator:wikidata": "Q1720713",
                "operator:wikipedia": "ru:Мегафон (компания)",
                "shop": "mobile_phone",
                "wheelchair": "yes"
            },
            {
                "brand": "МТС",
                "brand:wikidata": "Q1368919",
                "brand:wikipedia": "ru:МТС (компания)",
                "contact:facebook": "https://www.facebook.com/mts",
                "contact:ok": "https://ok.ru/mts",
                "contact:phone": "+7 800 2500890",
                "contact:twitter": "https://twitter.com/ru_mts",
                "contact:vk": "https://vk.com/mts",
                "contact:website": "https://shop.mts.ru",
                "level": "-0.5",
                "name": "МТС",
                "name:en": "MTS",
                "name:ru": "МТС",
                "office": "telecommunication",
                "operator:wikidata": "Q1368919",
                "operator:wikipedia": "ru:МТС (компания)",
                "shop": "mobile_phone",
                "wheelchair": "yes"
            }
        ]
    },
    "hairdresser": {
        "count": 1,
        "detail": [
            {
                "addr:city": "Москва",
                "addr:housenumber": "16",
                "addr:street": "улица Шаболовка",
                "brand": "TOPGUN",
                "contact:facebook": "https://www.facebook.com/topgunbarbershopmoscow",
                "contact:instagram": "https://www.instagram.com/topgun_barbershop",
                "contact:phone": "+7 985 6608444",
                "contact:vk": "https://vk.com/topgunmoscow",
                "contact:website": "http://topgunbarbershop.ru",
                "contact:youtube": "https://www.youtube.com/user/lokoncev",
                "level": "0",
                "male": "yes",
                "name": "TOPGUN",
                "name:en": "TOPGUN",
                "opening_hours": "Mo-Su 10:00-22:00",
                "operator": "TopGun",
                "shop": "hairdresser"
            }
        ]
    },
    "playground": {
        "count": 1,
        "detail": [
            {
                "access": "yes",
                "leisure": "playground"
            }
        ]
    },
    "cafe": {
        "count": 3,
        "detail": [
            {
                "name": "Даблби",
                "brand": "Даблби",
                "amenity": "cafe",
                "cuisine": "coffee_shop",
                "name:en": "Double B",
                "name:ru": "Даблби",
                "takeaway": "yes",
                "drink:coffee": "yes",
                "contact:email": "info@double-b.ru",
                "contact:website": "http://double-b.ru",
                "diet:vegetarian": "no",
                "contact:facebook": "https://www.facebook.com/DoubleBCoffeeTea",
                "contact:telegram": "https://telegram.me/doublebdaily",
                "contact:instagram": "https://www.instagram.com/doublebcoffeetea"
            },
            {
                "amenity": "cafe",
                "name": "Николай"
            },
            {
                "amenity": "cafe",
                "name": "Поке Парк!"
            }
        ]
    },
    "vending_machine": {
        "count": 3,
        "detail": [
            {
                "amenity": "vending_machine",
                "contact:phone": "+7 495 5395454",
                "contact:website": "http://parking.mos.ru/",
                "opening_hours": "24/7",
                "operator": "ГКУ «Администратор Московского парковочного пространства»",
                "payment:cash": "no",
                "payment:credit_cards": "yes",
                "payment:debit_cards": "yes",
                "ref": "3007",
                "ref:mos_parking": "282084584",
                "source": "dit.mos.ru",
                "vending": "parking_tickets",
                "zone:parking": "3210"
            },
            {
                "amenity": "vending_machine",
                "contact:phone": "+7 495 5395454",
                "contact:website": "http://parking.mos.ru/",
                "opening_hours": "24/7",
                "operator": "ГКУ «Администратор Московского парковочного пространства»",
                "payment:cash": "no",
                "payment:credit_cards": "yes",
                "payment:debit_cards": "yes",
                "ref": "3293",
                "ref:mos_parking": "282084775",
                "source": "dit.mos.ru",
                "vending": "parking_tickets",
                "zone:parking": "3210"
            },
            {
                "amenity": "vending_machine",
                "contact:phone": "+7 495 5395454",
                "contact:website": "http://parking.mos.ru/",
                "opening_hours": "24/7",
                "operator": "ГКУ «Администратор Московского парковочного пространства»",
                "payment:cash": "no",
                "payment:credit_cards": "yes",
                "payment:debit_cards": "yes",
                "ref": "3016",
                "ref:mos_parking": "282084595",
                "source": "dit.mos.ru",
                "vending": "parking_tickets",
                "zone:parking": "3210"
            }
        ]
    },
    "medical_supply": {
        "count": 1,
        "detail": [
            {
                "contact:phone": "+7 495 2250200",
                "contact:website": "https://www.medirus.ru",
                "name": "medi",
                "opening_hours": "Mo-Su 09:00-22:00",
                "shop": "medical_supply",
                "wheelchair": "yes"
            }
        ]
    },
    "wine": {
        "count": 1,
        "detail": [
            {
                "contact:phone": "+7 962 9289081",
                "name": "Вина & сигары",
                "opening_hours": "Mo-Su 10:00-22:00",
                "shop": "wine",
                "wheelchair": "no"
            }
        ]
    },
    "dentist": {
        "count": 1,
        "detail": [
            {
                "amenity": "dentist",
                "contact:phone": "+7 499 2374444",
                "healthcare": "dentist",
                "health_facility:type": "clinic",
                "health_specialty:dentistry": "yes",
                "medical_system:western": "yes",
                "name": "Меда",
                "opening_hours": "Mo-Fr 11:00-16:00; Sa,Su 11:00-15:00",
                "wheelchair": "yes"
            }
        ]
    },
    "gift": {
        "count": 1,
        "detail": [
            {
                "contact:phone": "+7 499 2371427",
                "contact:website": "http://versal-podarki.ru",
                "name": "Версаль",
                "opening_hours": "Mo-Su 09:00-21:00",
                "shop": "gift",
                "wheelchair": "no"
            }
        ]
    },
    "pharmacy": {
        "count": 1,
        "detail": [
            {
                "amenity": "pharmacy",
                "name": "Форте",
                "opening_hours": "24/7",
                "wheelchair": "yes"
            }
        ]
    },
    "atm": {
        "count": 2,
        "detail": [
            {
                "brand": "РосЕвроБанк",
                "amenity": "atm",
                "operator": "АКБ «РосЕвроБанк» (АО)",
                "currency:RUB": "yes",
                "opening_hours": "Mo-Fr 09:00-18:00"
            },
            {
                "amenity": "atm",
                "contact:email": "sberbank@sberbank.ru",
                "contact:facebook": "https://www.facebook.com/bankdruzey",
                "contact:instagram": "https://instagram.com/sberbank",
                "contact:website": "https://www.sberbank.ru",
                "currency:RUB": "yes",
                "opening_hours": "24/7",
                "operator": "Сбербанк",
                "operator:wikidata": "Q205012",
                "operator:wikipedia": "ru:Сбербанк России"
            }
        ]
    },
    "antiques": {
        "count": 1,
        "detail": [
            {
                "inscription": "Антиквариат",
                "opening_hours:signed": "no",
                "shop": "antiques",
                "wheelchair": "no"
            }
        ]
    },
    "pawnbroker": {
        "count": 1,
        "detail": [
            {
                "name": "Ломбард на Ленинском",
                "opening_hours": "24/7",
                "shop": "pawnbroker",
                "wheelchair": "no"
            }
        ]
    },
    "convenience": {
        "count": 1,
        "detail": [
            {
                "brand": "ВкусВилл",
                "contact:email": "info@izbenka.msk.ru",
                "contact:facebook": "https://www.facebook.com/vkusvill.ru",
                "contact:instagram": "https://www.instagram.com/izbenka_vkusvill",
                "contact:phone": "+7 495 6638602",
                "contact:telegram": "https://telegram.me/vkusvillbot",
                "contact:vk": "https://vk.com/vkusvill_ru",
                "contact:website": "https://vkusvill.ru",
                "name": "ВкусВилл",
                "name:en": "Vkusvill",
                "name:ru": "ВкусВилл",
                "opening_hours": "Mo-Su 09:00-21:00",
                "operator": "ООО Вкусвилл",
                "shop": "convenience",
                "wheelchair": "yes"
            }
        ]
    },
    "fast_food": {
        "count": 1,
        "detail": [
            {
                "amenity": "fast_food",
                "fast_food": "cafeteria",
                "inscription": "Столовая",
                "opening_hours:signed": "no",
                "wheelchair": "yes"
            }
        ]
    },
    "jewelry": {
        "count": 1,
        "detail": [
            {
                "name": "МЭЮЗ",
                "opening_hours": "Mo-Sa 10:00-20:00; Su 10:00-18:00",
                "shop": "jewelry",
                "wheelchair": "no"
            }
        ]
    },
    "beauty": {
        "count": 1,
        "detail": [
            {
                "name": "Tatiana V. Lyalina",
                "shop": "beauty"
            }
        ]
    },
    "clinic": {
        "count": 1,
        "detail": [
            {
                "amenity": "clinic",
                "healthcare": "clinic",
                "name": "Медпрайм",
                "phone": "+7 926 6068904",
                "website": "https://medprime.info/"
            }
        ]
    },
    "recycling": {
        "count": 1,
        "detail": [
            {
                "amenity": "recycling",
                "recycling_type": "container"
            }
        ]
    },
    "bench": {
        "count": 2,
        "detail": [
            {
                "amenity": "bench"
            },
            {
                "amenity": "bench"
            }
        ]
    },
    "bicycle_parking": {
        "count": 1,
        "detail": [
            {
                "amenity": "bicycle_parking",
                "capacity": "7"
            }
        ]
    },
    "bar": {
        "count": 1,
        "detail": [
            {
                "amenity": "bar",
                "contact:instagram": "https://www.instagram.com/tramwinebar/",
                "name": "Трамвай",
                "opening_hours": "Mo-Su 12:00-23:00"
            }
        ]
    },
    "bicycle": {
        "count": 1,
        "detail": [
            {
                "opening_hours": "Mo-Su 11:00-21:00",
                "service:bicycle:retail": "yes",
                "shop": "bicycle"
            }
        ]
    },
    "school": {
        "count": 2,
        "detail": [
            {
                "name": "ГБОУ Многопрофильный лицей №1799 СП \"Лицей Плехановец\"",
                "building": "school",
                "addr:city": "Москва",
                "addr:street": "Донская улица",
                "building:levels": "4",
                "addr:housenumber": "21"
            },
            {
                "addr:housenumber": "10",
                "addr:street": "Донская улица",
                "amenity": "school",
                "building": "school",
                "building:levels": "3",
                "name": "Центр образования №1496",
                "roof:shape": "hipped"
            }
        ]
    },
    "courthouse": {
        "count": 1,
        "detail": [
            {
                "addr:housenumber": "11 к1",
                "addr:postcode": "119049",
                "addr:street": "Донская улица",
                "amenity": "courthouse",
                "building": "yes",
                "building:levels": "5",
                "email": "gagarinsky.msk@sudrf.ru",
                "name": "Гагаринский районный суд",
                "opening_hours": "Mo-Th 09:00-13:00,13:45-18:00; Fr 09:00-13:00,13:45-16:45",
                "phone": "+7 499 2364921",
                "website": "http://gagarinsky.msk.sudrf.ru/"
            }
        ]
    },
    "commercial": {
        "count": 3,
        "detail": [
            {
                "addr:housenumber": "9",
                "addr:street": "Донская улица",
                "building": "commercial",
                "building:levels": "2"
            },
            {
                "addr:housenumber": "15",
                "addr:street": "Донская улица",
                "building": "commercial",
                "building:levels": "9"
            },
            {
                "addr:housenumber": "13",
                "addr:street": "Донская улица",
                "building": "commercial",
                "building:levels": "6"
            }
        ]
    },
    "mall": {
        "count": 1,
        "detail": [
            {
                "addr:housenumber": "10 к2",
                "addr:street": "улица Шаболовка",
                "building": "commercial",
                "building:levels": "4",
                "name": "Конкорд",
                "shop": "mall",
                "toilets": "yes",
                "wheelchair": "yes"
            }
        ]
    },
    "service": {
        "count": 6,
        "detail": [
            {
                "addr:housenumber": "19 с2",
                "addr:street": "Донская улица",
                "building": "service",
                "building:levels": "1",
                "location": "indoor",
                "man_made": "heat_exchange_station",
                "operator": "МОЭСК",
                "pipeline": "substation",
                "ref": "01-08-0803/112",
                "substance": "heat",
                "substation": "distribution"
            },
            {
                "addr:housenumber": "16 с5",
                "addr:street": "улица Шаболовка",
                "building": "service",
                "building:levels": "1",
                "power": "substation",
                "ref": "303",
                "substation": "minor_distribution"
            },
            {
                "addr:housenumber": "16 с4",
                "addr:street": "улица Шаболовка",
                "building": "service",
                "building:levels": "1",
                "location": "indoor",
                "man_made": "heat_exchange_station",
                "operator": "МОЭСК",
                "pipeline": "substation",
                "power": "substation",
                "ref": "01-08-0803/076",
                "substance": "heat",
                "substation": "distribution"
            },
            {
                "building": "service",
                "building:levels": "1",
                "power": "substation",
                "ref": "28809; 28810",
                "substation": "minor_distribution"
            },
            {
                "building": "service",
                "building:levels": "1",
                "location": "indoor",
                "power": "substation",
                "substation": "minor_distribution"
            },
            {
                "building": "service",
                "description:ru": "Вентиляционная шахта метрополитена",
                "railway": "ventilation_shaft",
                "service": "ventilation"
            }
        ]
    },
    "place_of_worship": {
        "count": 2,
        "detail": [
            {
                "addr:housenumber": "21 с1",
                "addr:street": "улица Шаболовка",
                "amenity": "place_of_worship",
                "artist_name": "Н.И. Козловский; Н.В. Никитин; М.П. Иванов",
                "building": "church",
                "building:levels": "4",
                "denomination": "russian_orthodox",
                "email": "shabolovka@yandex.ru",
                "name": "Храм Троицы Живоначальной на Шаболовке",
                "opening_hours": "08:00-19:00",
                "phone": "+7 499 2368702;+7 499 2363002",
                "religion": "christian",
                "roof:shape": "many",
                "website": "http://www.hram-na-shabolovke.ru/",
                "wheelchair": "no",
                "wikipedia": "ru:Храм Троицы Живоначальной на Шаболовке"
            },
            {
                "amenity": "place_of_worship",
                "building": "church",
                "denomination": "orthodox",
                "religion": "christian"
            }
        ]
    },
    "cinema": {
        "count": 1,
        "detail": [
            {
                "amenity": "cinema",
                "building": "yes",
                "contact:phone": "+7 495 6450520",
                "contact:website": "https://garagemca.org/ru/events/garage_screen",
                "name": "Garage Screen"
            }
        ]
    }
}