{
    "residents": 16920,
    "bus_stop": {
        "count": 8,
        "detail": [
            {
                "alt_name": "Станция метро «Первомайская»",
                "bus": "yes",
                "name": "Метро «Первомайская»",
                "public_transport": "stop_position"
            },
            {
                "bin": "yes",
                "name": "Метро «Первомайская»",
                "bench": "yes",
                "highway": "bus_stop",
                "shelter": "yes",
                "alt_name": "Станция метро «Первомайская»",
                "tactile_paving": "no",
                "public_transport": "platform"
            },
            {
                "bin": "yes",
                "name": "Метро «Первомайская»",
                "bench": "yes",
                "highway": "bus_stop",
                "shelter": "yes",
                "alt_name": "Станция метро «Первомайская»",
                "tactile_paving": "no",
                "public_transport": "platform"
            },
            {
                "name": "7-я Парковая улица",
                "highway": "bus_stop",
                "shelter": "yes",
                "tactile_paving": "no",
                "public_transport": "platform"
            },
            {
                "bin": "yes",
                "name": "7-я Парковая улица",
                "bench": "yes",
                "highway": "bus_stop",
                "shelter": "yes",
                "tactile_paving": "no",
                "public_transport": "platform"
            },
            {
                "bin": "yes",
                "name": "Метро «Первомайская»",
                "bench": "no",
                "highway": "bus_stop",
                "shelter": "no",
                "alt_name": "Станция метро «Первомайская»",
                "tactile_paving": "no",
                "public_transport": "platform"
            },
            {
                "bin": "yes",
                "name": "Метро «Первомайская»",
                "bench": "no",
                "highway": "bus_stop",
                "shelter": "no",
                "alt_name": "Станция метро «Первомайская»",
                "tactile_paving": "no",
                "public_transport": "platform"
            },
            {
                "alt_name": "Станция метро «Первомайская»",
                "bus": "yes",
                "name": "Метро «Первомайская»",
                "public_transport": "stop_position"
            }
        ]
    },
    "parking": {
        "count": 1,
        "detail": [
            {
                "amenity": "parking",
                "parking": "surface"
            }
        ]
    },
    "post_office": {
        "count": 2,
        "detail": [
            {
                "addr:housenumber": "11А",
                "addr:postcode": "105950",
                "addr:street": "8-я Парковая улица",
                "amenity": "post_office",
                "name": "Городской почтамп Москва МРП-1",
                "official_name": "Городской почтамп Москва МРП-1",
                "phone": "+7 495 9655093",
                "ref": "105950"
            },
            {
                "amenity": "post_office",
                "contact:facebook": "https://www.facebook.com/ruspost?filter=2",
                "contact:phone": "+7 800 2005888",
                "contact:twitter": "https://twitter.com/ruspostofficial",
                "contact:vk": "https://vk.com/russianpost",
                "contact:website": "https://www.pochta.ru",
                "operator": "ФГУП «Почта России»",
                "operator:wikidata": "Q1502763",
                "operator:wikipedia": "ru:Почта России"
            }
        ]
    },
    "kindergarten": {
        "count": 2,
        "detail": [
            {
                "name": "Детский сад №2251",
                "amenity": "kindergarten",
                "description": "встр"
            },
            {
                "name": "Дошкольное отделение ГБОУ Школы №444",
                "amenity": "kindergarten",
                "old_name": "Детский сад №2280",
                "description": "ещё ранее детский сад №323"
            }
        ]
    },
    "bicycle_parking": {
        "count": 3,
        "detail": [
            {
                "amenity": "bicycle_parking",
                "covered": "no",
                "capacity": "8",
                "supervised": "no",
                "bicycle_parking": "wall_loops"
            },
            {
                "amenity": "bicycle_parking",
                "covered": "no",
                "capacity": "8",
                "bicycle_parking": "wall_loops"
            },
            {
                "amenity": "bicycle_parking",
                "capacity": "2",
                "covered": "yes"
            }
        ]
    },
    "alcohol": {
        "count": 4,
        "detail": [
            {
                "brand": "Отдохни",
                "contact:email": "somelie@coolclever.ru",
                "contact:facebook": "https://www.facebook.com/somelie.community",
                "contact:instagram": "https://www.instagram.com/somelie__community",
                "contact:vk": "https://vk.com/somelie.community",
                "contact:website": "https://www.somelie.ru",
                "drink:beer": "bottled",
                "drink:cognac": "bottled",
                "drink:soft_drink": "bottled",
                "drink:sparkling_wine": "bottled",
                "drink:vodka": "bottled",
                "drink:whisky": "bottled",
                "drink:wine": "bottled",
                "name": "Отдохни",
                "name:ru": "Отдохни",
                "opening_hours": "Mo-Su 09:00-23:00",
                "shop": "alcohol"
            },
            {
                "brand": "Красное&Белое",
                "brand:wikidata": "Q24933790",
                "brand:wikipedia": "ru:Красное & Белое",
                "contact:facebook": "https://www.facebook.com/krasnoe.beloe",
                "contact:instagram": "https://www.instagram.com/krasnoebeloe",
                "contact:ok": "https://ok.ru/krasnoebeloe",
                "contact:telegram": "+7 922 7033000",
                "contact:viber": "+7 922 7033000",
                "contact:vk": "https://vk.com/krasnoebeloe",
                "contact:website": "https://krasnoeibeloe.ru",
                "contact:whatsapp": "+7 922 7033000",
                "name": "Красное&Белое",
                "name:ru": "Красное&Белое",
                "shop": "alcohol"
            },
            {
                "name": "Бристоль",
                "shop": "alcohol",
                "opening_hours": "Mo-Su 08:00-23:00"
            },
            {
                "name": "Виновайн",
                "shop": "alcohol",
                "level": "0",
                "name:en": "Vinowine",
                "operator": "ООО \"Виновайн\"",
                "opening_hours": "Mo-Sa 10:00-21:00"
            }
        ]
    },
    "pharmacy": {
        "count": 2,
        "detail": [
            {
                "amenity": "pharmacy"
            },
            {
                "amenity": "pharmacy"
            }
        ]
    },
    "convenience": {
        "count": 8,
        "detail": [
            {
                "shop": "convenience",
                "opening_hours": "Mo-Su 09:00-22:00"
            },
            {
                "name": "Ассорти",
                "shop": "convenience",
                "opening_hours": "09:00-23:00"
            },
            {
                "brand": "МясновЪ",
                "contact:email": "info@coolclever.ru",
                "contact:facebook": "https://www.facebook.com/myasnov.russia",
                "contact:instagram": "https://instagram.com/myasnov.russia/",
                "contact:vk": "https://vk.com/myasnov.russia",
                "contact:website": "https://www.myasnov.ru/",
                "name": "МясновЪ",
                "name:ru": "МясновЪ",
                "opening_hours": "Mo-Su 09:00-23:00",
                "shop": "convenience"
            },
            {
                "addr:street": "Первомайская улица",
                "brand": "У Палыча",
                "contact:email": "com@palich.ru",
                "contact:phone": "+7 800 3330163",
                "contact:website": "http://www.palich.ru",
                "name": "У Палыча",
                "name:ru": "У Палыча",
                "opening_hours": "Mo-Fr 09:00-22:00; Sa,Su 10:00-21:00",
                "shop": "convenience",
                "wheelchair": "no"
            },
            {
                "shop": "convenience",
                "description": "Работает до 23 часов"
            },
            {
                "shop": "convenience",
                "opening_hours": "Mo-Su 09:00-21:00"
            },
            {
                "name": "Кулинария Экомаркет",
                "shop": "convenience",
                "operator": "ИП Куценко Н.А.",
                "payment:mir": "yes",
                "payment:cash": "yes",
                "payment:visa": "yes",
                "opening_hours": "Mo-Su 00:00-01:00,08:00-24:00",
                "payment:unionpay": "yes",
                "payment:apple_pay": "yes",
                "payment:mastercard": "yes",
                "payment:android_pay": "yes",
                "payment:samsung_pay": "yes"
            },
            {
                "brand": "ВкусВилл",
                "contact:email": "info@izbenka.msk.ru",
                "contact:facebook": "https://www.facebook.com/izbenka",
                "contact:instagram": "https://www.instagram.com/izbenka_vkusvill",
                "contact:phone": "+7 495 6638602",
                "contact:telegram": "https://telegram.me/vkusvillbot",
                "contact:vk": "https://vk.com/izbenka",
                "contact:website": "http://vkusvill.ru",
                "name": "ВкусВилл",
                "name:ru": "ВкусВилл",
                "shop": "convenience"
            }
        ]
    },
    "bank": {
        "count": 2,
        "detail": [
            {
                "name": "Инвестбанк",
                "amenity": "bank",
                "opening_hours": "Mo-Fr 09:00-20:00; Sa 10:00-16:00"
            },
            {
                "amenity": "bank",
                "name": "Почта Банк"
            }
        ]
    },
    "hairdresser": {
        "count": 5,
        "detail": [
            {
                "phone": "+7 495 5184274;+7 495 7809366",
                "shop": "hairdresser"
            },
            {
                "shop": "hairdresser",
                "level": "0",
                "opening_hours": "Mo-Su 10:00-21:00"
            },
            {
                "name": "Бурый",
                "shop": "hairdresser",
                "description": "мужские стрижки"
            },
            {
                "contact:phone": "+7 985 9860164",
                "name": "То, что надо",
                "opening_hours": "Mo-Su 09:00-21:00",
                "shop": "hairdresser"
            },
            {
                "shop": "hairdresser"
            }
        ]
    },
    "dentist": {
        "count": 3,
        "detail": [
            {
                "name": "Стоматология на 1майской",
                "amenity": "dentist",
                "healthcare": "dentist",
                "opening_hours": "Mo-Su 09:00-21:00",
                "health_facility:type": "clinic",
                "medical_system:western": "yes",
                "health_specialty:dentistry": "yes"
            },
            {
                "amenity": "dentist"
            },
            {
                "name": "ValiDent",
                "amenity": "dentist"
            }
        ]
    },
    "shoes": {
        "count": 1,
        "detail": [
            {
                "brand": "TERVOLINA",
                "level": "0",
                "name": "Терволина",
                "opening_hours": "Mo-Su 10:00-22:00",
                "operator": "ООО \"Терволина\"",
                "payment:cash": "yes",
                "payment:jcb": "yes",
                "payment:mastercard": "yes",
                "payment:visa": "yes",
                "phone": "+7 499 3677109",
                "shop": "shoes",
                "website": "https://www.tervolina.ru/",
                "wheelchair": "no"
            }
        ]
    },
    "beauty": {
        "count": 1,
        "detail": [
            {
                "name": "Шик",
                "shop": "beauty",
                "opening_hours": "Mo-Sa 08:00-20:00"
            }
        ]
    },
    "playground": {
        "count": 5,
        "detail": [
            {
                "leisure": "playground"
            },
            {
                "leisure": "playground"
            },
            {
                "leisure": "playground"
            },
            {
                "leisure": "playground"
            },
            {
                "leisure": "playground"
            }
        ]
    },
    "toilets": {
        "count": 1,
        "detail": [
            {
                "fee": "no",
                "amenity": "toilets"
            }
        ]
    },
    "newsagent": {
        "count": 4,
        "detail": [
            {
                "shop": "newsagent"
            },
            {
                "shop": "newsagent"
            },
            {
                "shop": "newsagent"
            },
            {
                "name": "Пресса",
                "shop": "newsagent",
                "building": "kiosk"
            }
        ]
    },
    "post_box": {
        "count": 1,
        "detail": [
            {
                "amenity": "post_box",
                "opening_hours": "24/7"
            }
        ]
    },
    "veterinary": {
        "count": 1,
        "detail": [
            {
                "addr:city": "Москва",
                "addr:housenumber": "12А",
                "addr:street": "Нижняя Первомайская улица",
                "amenity": "veterinary",
                "level": "-1",
                "name": "Био-Вет Первомайская",
                "opening_hours": "24/7",
                "opening_hours:covid19": "24/7",
                "operator": "Био-Вет",
                "phone": "+7 495 1912988",
                "website": "https://bio-vet.ru/address/pervomayskaya.html"
            }
        ]
    },
    "fast_food": {
        "count": 4,
        "detail": [
            {
                "amenity": "fast_food",
                "cuisine": "kebab",
                "inscription": "буфет 24 донер тандыр",
                "name": "Тандыр",
                "opening_hours": "24/7",
                "takeaway": "yes"
            },
            {
                "name": "Пончики на углу",
                "amenity": "fast_food",
                "cuisine": "donut",
                "diet:vegan": "no",
                "wheelchair": "yes",
                "payment:cash": "yes",
                "opening_hours": "Mo-Fr 09:00-18:00",
                "payment:debit_cards": "no",
                "payment:credit_cards": "no"
            },
            {
                "amenity": "fast_food",
                "diet:halal": "yes",
                "name": "Донар Кебаб",
                "opening_hours": "24/7",
                "payment:cash": "yes",
                "payment:credit_cards": "no",
                "payment:debit_cards": "no",
                "takeaway": "only",
                "wheelchair": "yes"
            },
            {
                "amenity": "fast_food",
                "fast_food": "cafeteria",
                "opening_hours": "Mo-Fr 10:00-18:00; Sa 10:00-17:00"
            }
        ]
    },
    "florist": {
        "count": 2,
        "detail": [
            {
                "name": "Цветочный ряд",
                "shop": "florist",
                "level": "-1",
                "wheelchair": "no"
            },
            {
                "shop": "florist"
            }
        ]
    },
    "copyshop": {
        "count": 1,
        "detail": [
            {
                "name": "Копирка",
                "shop": "copyshop",
                "website": "https://kopirka.ru",
                "opening_hours": "Mo-Fr 08:00-21:00, Sa,Su 10:00-19:00"
            }
        ]
    },
    "telephone": {
        "count": 2,
        "detail": [
            {
                "amenity": "telephone"
            },
            {
                "amenity": "telephone"
            }
        ]
    },
    "mobile_phone": {
        "count": 2,
        "detail": [
            {
                "addr:street": "Первомайская улица",
                "brand": "МегаФон",
                "brand:wikidata": "Q1720713",
                "brand:wikipedia": "ru:Мегафон (компания)",
                "contact:facebook": "https://www.facebook.com/MegaFon.ru",
                "contact:habrahabr": "https://habrahabr.ru/company/megafon",
                "contact:ok": "https://ok.ru/megafon",
                "contact:phone": "+7 800 5500500",
                "contact:twitter": "https://twitter.com/megafonru",
                "contact:vk": "https://vk.com/megafon",
                "contact:website": "https://megafon.ru",
                "contact:youtube": "https://www.youtube.com/user/MegaFonTV",
                "name": "МегаФон",
                "name:en": "MegaFon",
                "name:ru": "МегаФон",
                "office": "telecommunication",
                "opening_hours": "Mo-Su 09:00-22:00",
                "operator:wikidata": "Q1720713",
                "operator:wikipedia": "ru:Мегафон (компания)",
                "shop": "mobile_phone",
                "wheelchair": "yes"
            },
            {
                "name": "Евросеть",
                "shop": "mobile_phone",
                "brand": "Евросеть",
                "name:en": "Euroset",
                "name:ru": "Евросеть",
                "building": "retail",
                "addr:street": "Первомайская улица",
                "contact:phone": "+7 800 7000010",
                "building:levels": "1",
                "contact:website": "http://euroset.ru",
                "addr:housenumber": "77 с2",
                "contact:facebook": "https://www.facebook.com/euroset",
                "operator:wikidata": "Q65310",
                "operator:wikipedia": "ru:Евросеть"
            }
        ]
    },
    "bureau_de_change": {
        "count": 1,
        "detail": [
            {
                "amenity": "bureau_de_change"
            }
        ]
    },
    "pet": {
        "count": 1,
        "detail": [
            {
                "name": "Барбос",
                "shop": "pet",
                "opening_hours": "Mo-Su 09:00-21:00"
            }
        ]
    },
    "supermarket": {
        "count": 2,
        "detail": [
            {
                "alt_name": "Пятерочка",
                "brand": "Пятёрочка",
                "brand:wikidata": "Q1768969",
                "brand:wikipedia": "ru:Пятёрочка",
                "contact:email": "vopros@5ka.ru",
                "contact:facebook": "https://www.facebook.com/pyaterochka",
                "contact:instagram": "https://www.instagram.com/pyaterochka_official",
                "contact:ok": "https://ok.ru/pyaterochka",
                "contact:phone": "+7 800 5555505",
                "contact:vk": "https://vk.com/club19098821",
                "contact:website": "https://5ka.ru",
                "name": "Пятёрочка",
                "name:ru": "Пятёрочка",
                "opening_hours": "Mo-Su 08:00-23:00",
                "shop": "supermarket"
            },
            {
                "contact:email": "info@agrohold.ru",
                "contact:instagram": "https://www.instagram.com/supermarket_miratorg/",
                "contact:phone": "+7 495 6441701",
                "contact:website": "https://shop.miratorg.ru/",
                "name": "Мираторг",
                "name:en": "Miratorg",
                "name:ru": "Мираторг",
                "opening_hours": "24/7",
                "operator": "ООО Продмир",
                "shop": "supermarket"
            }
        ]
    },
    "car_parts": {
        "count": 1,
        "detail": [
            {
                "contact:email": "ShopAGA.M61@amag.ru",
                "contact:phone": "+7 985 2621673",
                "contact:website": "https://www.amag.ru/",
                "name": "Автомаг",
                "opening_hours": "Mo-Sa 09:00-21:00;Su 10:00-18:00",
                "operator": "Автохимия-Инвест",
                "shop": "car_parts"
            }
        ]
    },
    "ticket": {
        "count": 2,
        "detail": [
            {
                "name": "Проездные билеты",
                "shop": "ticket",
                "name:en": "Public transport tickets",
                "building": "kiosk",
                "operator": "ГУП «Мосгортранс»",
                "building:levels": "1",
                "contact:website": "http://www.mosgortrans.ru",
                "tickets:public_transport": "yes"
            },
            {
                "name": "Проездные билеты \"Мосгортранс\"",
                "shop": "ticket"
            }
        ]
    },
    "bench": {
        "count": 4,
        "detail": [
            {
                "amenity": "bench"
            },
            {
                "amenity": "bench"
            },
            {
                "amenity": "bench"
            },
            {
                "amenity": "bench",
                "backrest": "yes",
                "covered": "yes"
            }
        ]
    },
    "waste_disposal": {
        "count": 3,
        "detail": [
            {
                "amenity": "waste_disposal"
            },
            {
                "amenity": "waste_disposal"
            },
            {
                "amenity": "waste_disposal"
            }
        ]
    },
    "clinic": {
        "count": 2,
        "detail": [
            {
                "name": "Городская поликлиника №191",
                "amenity": "clinic",
                "addr:city": "Москва",
                "addr:street": "7-я Парковая улица",
                "opening_hours": "Mo-Fr 07:30-21:00; Sa 09:00-18:00; Su 09:00-16:00",
                "addr:housenumber": "8"
            },
            {
                "amenity": "clinic",
                "building": "residential",
                "healthcare": "clinic",
                "roof:shape": "hipped",
                "addr:street": "Первомайская улица",
                "addr2:street": "Первомайская улица",
                "addr:postcode": "105043",
                "roof:material": "metal",
                "building:levels": "5",
                "addr:housenumber": "61/8",
                "addr2:housenumber": "61/8",
                "health_facility:type": "clinic"
            }
        ]
    },
    "houseware": {
        "count": 1,
        "detail": [
            {
                "name": "Всё для дома",
                "shop": "houseware"
            }
        ]
    },
    "vending_machine": {
        "count": 1,
        "detail": [
            {
                "amenity": "vending_machine",
                "contact:facebook": "https://www.facebook.com/parking.mos.ru",
                "contact:phone": "+7 495 5395454",
                "contact:twitter": "https://twitter.com/parking_mos_ru",
                "contact:vk": "https://vk.com/transportmos",
                "contact:website": "http://parking.mos.ru/",
                "opening_hours": "24/7",
                "operator": "ГКУ «Администратор Московского парковочного пространства»",
                "payment:cash": "no",
                "payment:credit_cards": "yes",
                "payment:debit_cards": "yes",
                "ref": "4007",
                "ref:mos_parking": "859915230",
                "vending": "parking_tickets",
                "zone:parking": "4042"
            }
        ]
    },
    "doctors": {
        "count": 2,
        "detail": [
            {
                "amenity": "doctors",
                "brand": "Гемотест",
                "contact:email": "client@gemotest.ru",
                "contact:facebook": "https://www.facebook.com/gemotestlab",
                "contact:ok": "https://ok.ru/gemotest",
                "contact:phone": "+7 800 5501313",
                "contact:skype": "vrachgemotest",
                "contact:vk": "https://vk.com/gemotestlab",
                "contact:website": "https://www.gemotest.ru",
                "healthcare": "laboratory",
                "health_facility:type": "laboratory",
                "health_specialty:microbiology": "yes",
                "level": "1",
                "medical_system:western": "yes",
                "name": "Гемотест",
                "name:ru": "Гемотест"
            },
            {
                "amenity": "doctors",
                "brand": "Инвитро",
                "brand:wikidata": "Q4200546",
                "brand:wikipedia": "ru:Медицинская компания Инвитро",
                "contact:email": "info@invitro.ru",
                "contact:facebook": "https://www.facebook.com/invitro.ru",
                "contact:instagram": "https://www.instagram.com/invitro.ru",
                "contact:phone": "+7 800 2003630",
                "contact:vk": "https://vk.com/invitro",
                "contact:website": "https://www.invitro.ru",
                "healthcare": "laboratory",
                "health_facility:type": "laboratory",
                "health_specialty:microbiology": "yes",
                "medical_system:western": "yes",
                "name": "Инвитро",
                "name:ru": "Инвитро"
            }
        ]
    },
    "photo": {
        "count": 2,
        "detail": [
            {
                "name": "Профотограф",
                "shop": "photo",
                "operator": "ООО \"Профотограф\"",
                "description": "Багет. Полиграфия.",
                "opening_hours": "Mo-Fr 10:00-19:45; Sa,Su 10:00-18:00"
            },
            {
                "shop": "photo"
            }
        ]
    },
    "tobacco": {
        "count": 1,
        "detail": [
            {
                "shop": "tobacco",
                "wheelchair": "yes"
            }
        ]
    },
    "estate_agent": {
        "count": 1,
        "detail": [
            {
                "name": "Простор",
                "shop": "estate_agent",
                "description": "офис \"Измайлово\"",
                "opening_hours": "Mo-Fr 09:00-21:00; Sa, Su 10:00-20:00"
            }
        ]
    },
    "bakery": {
        "count": 1,
        "detail": [
            {
                "name": "Хлебница",
                "shop": "bakery"
            }
        ]
    },
    "school": {
        "count": 6,
        "detail": [
            {
                "addr:housenumber": "59",
                "addr:street": "Первомайская улица",
                "building": "school",
                "building:levels": "4"
            },
            {
                "addr:housenumber": "65",
                "addr:street": "Первомайская улица",
                "building": "school",
                "building:levels": "3",
                "wikidata": "Q4198640",
                "wikipedia": "ru:Измайловская гимназия"
            },
            {
                "name": "Центр образования №1483 (встр)",
                "amenity": "school",
                "building": "school",
                "addr:street": "Нижняя Первомайская улица",
                "building:levels": "5",
                "addr:housenumber": "10"
            },
            {
                "building": "school",
                "building:levels": "3"
            },
            {
                "addr:housenumber": "1А",
                "addr:street": "7-я Парковая улица",
                "amenity": "school",
                "building": "school",
                "building:levels": "5",
                "name": "Школа №444"
            },
            {
                "name": "Школа №444",
                "amenity": "school",
                "building": "school",
                "addr:street": "Нижняя Первомайская улица",
                "official_name": "Средняя Общеобразовательная Школа №444",
                "building:levels": "5",
                "addr:housenumber": "14"
            }
        ]
    },
    "sauna": {
        "count": 1,
        "detail": [
            {
                "name": "Измайловские Бани‎",
                "leisure": "sauna",
                "building": "yes",
                "roof:shape": "hipped",
                "addr:street": "6-я Парковая улица",
                "roof:material": "metal",
                "building:levels": "3",
                "addr:housenumber": "21"
            }
        ]
    },
    "college": {
        "count": 1,
        "detail": [
            {
                "name": "Математический колледж",
                "amenity": "college",
                "building": "yes",
                "addr:street": "8-я Парковая улица",
                "building:levels": "6",
                "addr:housenumber": "9"
            }
        ]
    }
}