{
    "cafe": {
        "count": 2,
        "detail": [
            {
                "amenity": "cafe"
            },
            {
                "name": "Sub Cafe",
                "amenity": "cafe"
            }
        ]
    },
    "residents": 7013,
    "hairdresser": {
        "count": 2,
        "detail": [
            {
                "shop": "hairdresser"
            },
            {
                "name": "Элегант",
                "shop": "hairdresser"
            }
        ]
    },
    "supermarket": {
        "count": 1,
        "detail": [
            {
                "brand": "Дикси",
                "brand:en": "Dixy",
                "brand:wikidata": "Q4161561",
                "brand:wikipedia": "ru:Дикси (сеть магазинов)",
                "contact:phone": "+7 800 3330201",
                "contact:vk": "https://vk.com/dixyclub",
                "contact:website": "https://dixy.ru",
                "contact:youtube": "https://www.youtube.com/channel/UCfFxD9xhL67LxHvsDOp_rvg",
                "name": "Дикси",
                "name:en": "Dixy",
                "name:ru": "Дикси",
                "opening_hours": "09:00-23:00",
                "payment:cards": "yes",
                "shop": "supermarket"
            }
        ]
    },
    "car_repair": {
        "count": 1,
        "detail": [
            {
                "shop": "car_repair",
                "service": "tyres"
            }
        ]
    },
    "toilets": {
        "count": 1,
        "detail": [
            {
                "amenity": "toilets"
            }
        ]
    },
    "pharmacy": {
        "count": 1,
        "detail": [
            {
                "amenity": "pharmacy",
                "brand": "Горздрав",
                "contact:email": "info@gor-zdrav.ru",
                "contact:facebook": "https://www.facebook.com/AptekaGorzdrav",
                "contact:instagram": "https://www.instagram.com/gorzdrav",
                "contact:ok": "https://ok.ru/group/57486617870381",
                "contact:vk": "https://vk.com/gorzdrav",
                "contact:website": "https://gorzdrav.org",
                "healthcare": "pharmacy",
                "name": "Горздрав",
                "name:ru": "Горздрав",
                "opening_hours": "Mo-Fr 09:00-22:00; Sa-Su 09:00-21:00"
            }
        ]
    },
    "convenience": {
        "count": 2,
        "detail": [
            {
                "name": "Quick Shop",
                "shop": "convenience"
            },
            {
                "shop": "convenience"
            }
        ]
    },
    "car_wash": {
        "count": 1,
        "detail": [
            {
                "amenity": "car_wash",
                "name": "Автомойка"
            }
        ]
    },
    "alcohol": {
        "count": 1,
        "detail": [
            {
                "brand": "Красное & Белое",
                "brand:en": "Red&White",
                "brand:wikidata": "Q24933790",
                "brand:wikipedia": "en:Krasnoe & Beloe",
                "contact:facebook": "https://www.facebook.com/krasnoe.beloe",
                "contact:instagram": "https://www.instagram.com/krasnoebeloe",
                "contact:ok": "https://ok.ru/krasnoebeloe",
                "contact:telegram": "+7 922 7033000",
                "contact:viber": "+7 922 7033000",
                "contact:vk": "https://vk.com/krasnoebeloe",
                "contact:website": "https://krasnoeibeloe.ru",
                "contact:whatsapp": "+7 922 7033000",
                "name": "Красное & Белое",
                "name:en": "Red&White",
                "name:ru": "Красное&Белое",
                "shop": "alcohol"
            }
        ]
    },
    "veterinary": {
        "count": 1,
        "detail": [
            {
                "amenity": "veterinary",
                "name": "Like Vet",
                "opening_hours": "10:00-22:00",
                "phone": "+7 991 3327592"
            }
        ]
    },
    "vending_machine": {
        "count": 1,
        "detail": [
            {
                "amenity": "vending_machine",
                "contact:phone": "+7 800 7753553",
                "contact:website": "http://omnicdek.com/",
                "name": "ОмниСДЭК",
                "opening_hours": "Mo-Su 08:00-23:00",
                "ref": "7042",
                "vending": "parcel_pickup"
            }
        ]
    },
    "kindergarten": {
        "count": 1,
        "detail": [
            {
                "addr:housenumber": "3",
                "addr:street": "2-я Пугачёвская улица",
                "building": "kindergarten",
                "building:levels": "2"
            }
        ]
    },
    "school": {
        "count": 2,
        "detail": [
            {
                "addr:housenumber": "26",
                "addr:street": "Большая Черкизовская улица",
                "building": "school",
                "building:levels": "4"
            },
            {
                "addr:housenumber": "7",
                "addr:street": "2-я Пугачёвская улица",
                "building": "school",
                "building:levels": "4"
            }
        ]
    },
    "service": {
        "count": 3,
        "detail": [
            {
                "building": "service",
                "building:levels": "1"
            },
            {
                "building": "service",
                "building:levels": "1"
            },
            {
                "building": "service",
                "power": "substation",
                "substation": "yes"
            }
        ]
    }
}