{
    "residents": 11184,
    "bank": {
        "count": 8,
        "detail": [
            {
                "amenity": "bank",
                "atm": "yes",
                "operator": "Альфа-Банк",
                "website": "https://alfabank.ru/",
                "wheelchair": "no"
            },
            {
                "amenity": "bank",
                "atm": "yes",
                "bic": "SABRRUMM",
                "branch": "Московский банк",
                "brand": "Сбербанк",
                "brand:en": "Sberbank",
                "brand:ru": "Сбербанк",
                "brand:wikidata": "Q205012",
                "brand:wikipedia": "en:Sberbank of Russia",
                "contact:facebook": "https://www.facebook.com/sberbank",
                "contact:instagram": "https://www.instagram.com/sberbank/",
                "contact:ok": "https://ok.ru/sberbank",
                "contact:phone": "+7 800 5555550",
                "contact:twitter": "https://twitter.com/sberbank/",
                "contact:vk": "https://vk.com/sberbank",
                "contact:website": "https://www.sberbank.ru",
                "contact:youtube": "https://www.youtube.com/sberbank",
                "name": "Сбербанк",
                "name:en": "Sberbank",
                "name:ru": "Сбербанк",
                "opening_hours": "Mo-Fr 08:30-19:30; Sa 09:30-17:00",
                "operator": "ПАО Сбербанк",
                "operator:wikidata": "Q205012",
                "operator:wikipedia": "ru:Сбербанк России",
                "ref": "9038/01687",
                "wheelchair": "yes"
            },
            {
                "name": "Кубаньторгбанк",
                "amenity": "bank",
                "contact:website": "http://bktb.ru/"
            },
            {
                "atm": "yes",
                "name": "Народный кредит",
                "amenity": "bank",
                "name:en": "Narodny Credit",
                "wheelchair": "limited",
                "contact:phone": "+7 499 9678010",
                "opening_hours": "Mo-Sa 09:30-20:00",
                "contact:website": "http://www.narcred.ru"
            },
            {
                "name": "Глобус",
                "amenity": "bank",
                "contact:phone": "+7 495 6440011",
                "contact:website": "http://www.bankglobus.ru"
            },
            {
                "name": "Союз",
                "amenity": "bank",
                "contact:website": "https://www.banksoyuz.ru"
            },
            {
                "amenity": "bank",
                "atm": "yes",
                "bic": "POSBRUMM",
                "brand": "Почта Банк",
                "brand:wikidata": "Q24930461",
                "brand:wikipedia": "ru:Почта Банк",
                "contact:email": "welcome@pochtabank.ru",
                "contact:facebook": "https://www.facebook.com/pochtabank",
                "contact:instagram": "https://www.instagram.com/pochtabank",
                "contact:ok": "https://ok.ru/pochtabank",
                "contact:phone": "+7 800 5500770",
                "contact:twitter": "https://twitter.com/pochtabank",
                "contact:vk": "https://vk.com/pochtabank",
                "contact:website": "https://www.pochtabank.ru",
                "contact:youtube": "https://www.youtube.com/channel/UCs2NW4p10fwTar-zqw7mUIw",
                "name": "Почта Банк",
                "name:en": "Post Bank",
                "name:ru": "Почта Банк",
                "opening_hours": "Mo 11:00-20:00; Tu-Fr 09:00-20:00; Sa 09:00-18:00"
            },
            {
                "amenity": "bank",
                "brand": "Зенит",
                "brand:en": "Zenit",
                "brand:ru": "Зенит",
                "brand:wikidata": "Q4191388",
                "brand:wikipedia": "ru:Зенит (банк)",
                "contact:email": "info@zenit.ru",
                "contact:phone": "+7 800 5006677",
                "contact:website": "https://www.zenit.ru/",
                "name": "Зенит",
                "name:en": "Zenit",
                "name:ru": "Зенит",
                "opening_hours": "Mo-Fr 10:00-20:00;Sa-Su 11:00-19:00",
                "operator": "Банк Зенит"
            }
        ]
    },
    "restaurant": {
        "count": 7,
        "detail": [
            {
                "amenity": "restaurant",
                "brand": "Тануки",
                "brand:wikidata": "Q62758690",
                "contact:email": "piat@tanuki.ru",
                "contact:facebook": "https://www.facebook.com/tanuki.official/",
                "contact:phone": "+7 495 2232223",
                "contact:vk": "https://vk.com/tanuki.official",
                "contact:website": "https://tanuki.ru/",
                "cuisine": "japanese",
                "name": "Тануки",
                "name:en": "Tanuki",
                "name:ru": "Тануки",
                "opening_hours": "Fr-Sa 11:00-02:00;Mo-Th,Su 11:00-24:00",
                "operator": "ВОСХОД",
                "wheelchair": "no"
            },
            {
                "name": "Хинкалoff",
                "amenity": "restaurant",
                "cuisine": "georgian",
                "name:en": "Hinkaloff",
                "wheelchair": "no",
                "contact:phone": "+7 495 9536933",
                "opening_hours": "Mo-Su 11:00-23:00",
                "contact:website": "http://www.hinkaloff.com",
                "internet_access": "wlan"
            },
            {
                "name": "TownHouse",
                "amenity": "restaurant",
                "contact:phone": "+7 495 7205303",
                "opening_hours": "Mo-Su 06:30-23:00",
                "internet_access": "wlan",
                "contact:facebook": "https://www.facebook.com/townhousemoscow",
                "internet_access:fee": "no"
            },
            {
                "name": "Казан Чай Бар",
                "amenity": "restaurant",
                "diet:halal": "only",
                "contact:phone": "+7 495 9799119",
                "opening_hours": "Mo-Su 10:00-22:00",
                "contact:website": "http://kazancafe.tatar"
            },
            {
                "amenity": "restaurant",
                "contact:facebook": "https://www.facebook.com/cerettomore",
                "contact:phone": "+7 495 9514080",
                "name": "Черетто Море",
                "opening_hours": "Mo-Su 12:00-24:00"
            },
            {
                "amenity": "restaurant",
                "contact:phone": "+7 499 3505160",
                "contact:website": "https://www.drinks-dinners.ru/",
                "name": "Drinks@Dinners",
                "opening_hours": "Mo-Su 12:00-24:00"
            },
            {
                "amenity": "restaurant",
                "contact:facebook": "https://www.facebook.com/moscow.richter/",
                "diet:vegan": "yes",
                "diet:vegetarian": "only",
                "name": "Рихтер",
                "opening_hours": "Mo-Su 08:00-23:00"
            }
        ]
    },
    "pharmacy": {
        "count": 4,
        "detail": [
            {
                "addr:housenumber": "34/2 с1",
                "addr:street": "Большая Татарская улица",
                "amenity": "pharmacy",
                "brand": "Горздрав",
                "contact:email": "info@gor-zdrav.ru",
                "contact:facebook": "https://www.facebook.com/AptekaGorzdrav",
                "contact:instagram": "https://www.instagram.com/gorzdrav",
                "contact:ok": "https://ok.ru/group/57486617870381",
                "contact:phone": "+7 499 6536277",
                "contact:vk": "https://vk.com/gorzdrav",
                "contact:website": "https://gorzdrav.org",
                "healthcare": "pharmacy",
                "name": "Горздрав",
                "name:en": "Gorzdrav",
                "name:ru": "Горздрав",
                "opening_hours": "Mo-Fr 08:00-21:00; Sa-Su 09:00-21:00",
                "operator": "ООО \"Старый лекарь\"",
                "ref": "266",
                "wheelchair": "limited"
            },
            {
                "name": "Ригла",
                "brand": "Ригла",
                "amenity": "pharmacy",
                "name:ru": "Ригла",
                "contact:ok": "https://ok.ru/rigla.ru",
                "contact:vk": "https://vk.com/rigla_ru",
                "healthcare": "pharmacy",
                "wheelchair": "no",
                "contact:email": "msk@rigla.ru",
                "contact:phone": "+7 495 2311697-6719",
                "opening_hours": "Mo-Su 09:00-21:00",
                "brand:wikidata": "Q4394431",
                "brand:wikipedia": "ru:Ригла",
                "contact:website": "http://www.rigla.ru",
                "contact:facebook": "https://www.facebook.com/rigla.ru",
                "contact:instagram": "https://www.instagram.com/rigla.ru/"
            },
            {
                "amenity": "pharmacy",
                "healthcare": "pharmacy"
            },
            {
                "amenity": "pharmacy",
                "healthcare": "pharmacy",
                "name": "М3",
                "opening_hours": "Mo-Su 09:15-21:00",
                "operator": "Пегас",
                "wheelchair": "no"
            }
        ]
    },
    "cosmetics": {
        "count": 1,
        "detail": [
            {
                "alt_name": "Летуаль",
                "brand": "Л'Этуаль",
                "brand:wikidata": "Q18400706",
                "brand:wikipedia": "ru:Л’Этуаль",
                "contact:facebook": "https://www.facebook.com/letoile.ru",
                "contact:instagram": "https://instagram.com/letoile_official",
                "contact:livejournal": "http://letoile-ru.livejournal.com/",
                "contact:ok": "https://ok.ru/letoileru",
                "contact:phone": "+7 800 3337711-31711",
                "contact:twitter": "https://twitter.com/letoile_ru",
                "contact:vk": "https://vk.com/letoile_official",
                "contact:website": "https://www.letoile.ru",
                "level": "1",
                "name": "Л'Этуаль",
                "name:en": "L'etoile",
                "name:ru": "Л'Этуаль",
                "opening_hours": "Mo-Su 10:00-21:00",
                "operator:wikidata": "Q18400706",
                "operator:wikipedia": "ru:Л'Этуаль",
                "shop": "cosmetics"
            }
        ]
    },
    "gift": {
        "count": 2,
        "detail": [
            {
                "name": "Путь к себе",
                "shop": "gift",
                "diet:vegan": "yes",
                "contact:phone": "+7 495 9519129",
                "opening_hours": "Mo-Su 10:00-22:00",
                "contact:website": "http://putks.ru/",
                "diet:vegetarian": "only"
            },
            {
                "shop": "gift"
            }
        ]
    },
    "waste_disposal": {
        "count": 11,
        "detail": [
            {
                "waste": "trash",
                "amenity": "waste_disposal",
                "covered": "yes"
            },
            {
                "amenity": "waste_disposal"
            },
            {
                "amenity": "waste_disposal"
            },
            {
                "amenity": "waste_disposal"
            },
            {
                "amenity": "waste_disposal"
            },
            {
                "amenity": "waste_disposal"
            },
            {
                "amenity": "waste_disposal"
            },
            {
                "amenity": "waste_disposal"
            },
            {
                "amenity": "waste_disposal"
            },
            {
                "amenity": "waste_disposal"
            },
            {
                "amenity": "waste_disposal"
            }
        ]
    },
    "convenience": {
        "count": 7,
        "detail": [
            {
                "name": "Гастроном",
                "shop": "convenience",
                "opening_hours": "24/7"
            },
            {
                "shop": "convenience",
                "opening_hours": "Mo-Sa 08:00-22:00; Su 08:00-18:00"
            },
            {
                "brand": "У Палыча",
                "contact:email": "com@palich.ru",
                "contact:phone": "+7 800 3330163",
                "contact:website": "http://www.palich.ru",
                "name": "У Палыча",
                "name:ru": "У Палыча",
                "opening_hours": "Mo-Su 09:00-21:00",
                "shop": "convenience"
            },
            {
                "brand": "ВкусВилл",
                "brand:wikidata": "Q57271676",
                "brand:wikipedia": "ru:Вкусвилл",
                "contact:email": "info@izbenka.msk.ru",
                "contact:facebook": "https://www.facebook.com/izbenka",
                "contact:instagram": "https://instagram.com/izbenka_vkusvill",
                "contact:phone": "+7 495 6638602",
                "contact:telegram": "https://telegram.me/vkusvillbot",
                "contact:vk": "https://vk.com/izbenka",
                "contact:website": "http://vkusvill.ru",
                "name": "ВкусВилл",
                "name:ru": "ВкусВилл",
                "opening_hours": "09:00-22:00",
                "shop": "convenience"
            },
            {
                "shop": "convenience",
                "inscription": "Продукты"
            },
            {
                "name": "МясновЪ",
                "shop": "convenience",
                "brand": "МясновЪ",
                "name:en": "Myasnov",
                "name:ru": "МясновЪ",
                "contact:vk": "https://vk.com/myasnov.russia",
                "contact:email": "info@coolclever.ru",
                "contact:website": "https://www.myasnov.ru",
                "contact:facebook": "https://www.facebook.com/myasnov.russia",
                "contact:instagram": "https://www.instagram.com/myasnov.russia"
            },
            {
                "contact:website": "https://av.ru/shops/bolshaya-tatarskaya-d-30",
                "name": "АВ Daily",
                "opening_hours": "24/7",
                "operator": "ООО «Городской супермаркет»",
                "ref:av": "359074",
                "shop": "convenience",
                "wheelchair": "yes"
            }
        ]
    },
    "cafe": {
        "count": 10,
        "detail": [
            {
                "addr:housenumber": "53",
                "addr:street": "Пятницкая улица",
                "amenity": "cafe",
                "contact:phone": "+7 495 9535523",
                "contact:website": "http://bar-bufet.ru",
                "name": "Николай",
                "name:en": "Nikolay",
                "opening_hours": "Mo-Su 09:00-23:00",
                "wheelchair": "no"
            },
            {
                "amenity": "cafe",
                "contact:facebook": "https://www.facebook.com/dadacafemoscow",
                "contact:instagram": "https://www.instagram.com/dada.cafe.moscow/",
                "contact:phone": "+7 966 076 67 32",
                "name": "Dada",
                "opening_hours": "Mo-Su 09:00-23:00",
                "wheelchair": "yes"
            },
            {
                "addr:city": "Москва",
                "addr:housenumber": "54 с1",
                "addr:street": "Пятницкая улица",
                "amenity": "cafe",
                "contact:email": "ddcoffeemoscow@gmail.com",
                "contact:facebook": "https://facebook.com/ddcoffeemoscow",
                "contact:instagram": "https://instagram.com/ddcoffeemoscow",
                "contact:phone": "+7 903 6138551",
                "cuisine": "coffee_shop",
                "name": "Делюсь душой",
                "opening_hours": "Mo-Fr 08:00-22:00;Sa-Su 09:00-22:00",
                "operator": "Делюсь Душой"
            },
            {
                "amenity": "cafe",
                "contact:facebook": "https://www.facebook.com/lamms.ru",
                "contact:phone": "+7 495 7653095",
                "cuisine": "cake",
                "diet:vegetarian": "no",
                "name": "Lamm's",
                "opening_hours": "Mo-Su 10:00-21:00",
                "wheelchair": "no"
            },
            {
                "name": "Feel Italian",
                "amenity": "cafe",
                "cuisine": "italian",
                "contact:phone": "+7 495 9519188",
                "opening_hours": "Mo-Su 10:00-23:00",
                "contact:website": "http://www.feelitalian.ru/"
            },
            {
                "amenity": "cafe",
                "contact:phone": "+7 916 9541118",
                "contact:website": "http://breakcafe.ru/",
                "name": "Break Cafe",
                "opening_hours": "Mo-Su 10:00-22:00; Fr,Sa 10:00-23:00"
            },
            {
                "amenity": "cafe",
                "name": "Шоколадный бункер"
            },
            {
                "amenity": "cafe",
                "brand": "Даблби",
                "contact:email": "info@double-b.ru",
                "contact:facebook": "https://www.facebook.com/DoubleBCoffeeTea",
                "contact:instagram": "https://www.instagram.com/doublebcoffeetea",
                "contact:telegram": "https://telegram.me/doublebdaily",
                "contact:website": "https://www.double-b.ru",
                "cuisine": "coffee_shop",
                "diet:vegetarian": "no",
                "level": "1",
                "name": "Даблби",
                "name:en": "Double B",
                "name:ru": "Даблби",
                "opening_hours": "Mo-Fr 08:00-22:00; Sa,Su 09:00-22:00",
                "takeaway": "yes"
            },
            {
                "amenity": "cafe",
                "contact:instagram": "https://www.instagram.com/mindal_and_coffee/",
                "cuisine": "coffee_shop",
                "name": "Миндаль"
            },
            {
                "addr:housenumber": "54 с2",
                "addr:postcode": "115184",
                "amenity": "cafe",
                "name": "Nicepricecafe",
                "website": "https://nicepricecafe.ru/"
            }
        ]
    },
    "alcohol": {
        "count": 1,
        "detail": [
            {
                "brand": "Ароматный мир",
                "contact:facebook": "https://www.facebook.com/amwine.ru",
                "contact:instagram": "https://instagram.com/amwine.ru",
                "contact:twitter": "https://twitter.com/amwineru",
                "contact:vk": "https://vk.com/amwineru",
                "contact:website": "https://amwine.ru",
                "drink:beer": "bottled",
                "drink:cider": "bottled",
                "drink:cognac": "bottled",
                "drink:soft_drink": "bottled",
                "drink:sparkling_wine": "bottled",
                "drink:vodka": "bottled",
                "drink:whisky": "bottled",
                "drink:wine": "bottled",
                "name": "Ароматный мир",
                "name:ru": "Ароматный мир",
                "opening_hours": "Mo-Sa 09:30-22:00, Su 11:00-22:00",
                "shop": "alcohol",
                "wheelchair": "yes"
            }
        ]
    },
    "beauty": {
        "count": 11,
        "detail": [
            {
                "name": "Моне",
                "shop": "beauty",
                "name:en": "Mone",
                "contact:phone": "+7 495 9516183",
                "opening_hours": "Mo-We 09:00-21:00; Th,Fr 09:00-22:00; Sa,Su 10:00-21:00",
                "contact:website": "http://www.salonmone.ru"
            },
            {
                "name": "Beauty Balm Bar",
                "shop": "beauty",
                "contact:phone": "+7 925 8490801",
                "contact:website": "http://www.bbalmbar.ru"
            },
            {
                "name": "Beauty Bistro",
                "shop": "beauty",
                "contact:phone": "+7 499 3912906",
                "contact:website": "http://beauty-bistro.ru"
            },
            {
                "name": "Матильда",
                "shop": "beauty",
                "contact:phone": "+7 903 7209000",
                "contact:website": "http://matildastyle.ru"
            },
            {
                "name": "Красный мак",
                "shop": "beauty",
                "contact:phone": "+7 495 7443047",
                "opening_hours": "Mo-Su 10:00-22:00"
            },
            {
                "name": "Салон красоты Надежды Кривошеевой",
                "shop": "beauty",
                "contact:phone": "+7 495 9532952",
                "opening_hours": "Mo-Su 10:00-21:00",
                "contact:website": "http://nksalon.ru"
            },
            {
                "contact:phone": "+7 966 1072238",
                "contact:website": "http://www.manicure-friday.ru",
                "name": "Пятница",
                "opening_hours": "Mo-Su 10:00-21:00",
                "shop": "beauty"
            },
            {
                "contact:phone": "+7 909 9736644",
                "contact:website": "http://salon-legatto.ru",
                "name": "Legatto",
                "opening_hours": "Mo-Su 09:00-21:00",
                "shop": "beauty"
            },
            {
                "email": "hairmair.beauty@gmail.com",
                "level": "2",
                "name": "Hair Mair",
                "phone": "+7 915 0361929",
                "shop": "beauty",
                "website": "https://instagram.com/hairmairbeauty"
            },
            {
                "beauty": "nails",
                "contact:instagram": "https://www.instagram.com/black___nail/",
                "contact:phone": "+7 968 5555668",
                "contact:website": "http://black-nail.ru/",
                "name": "Black Nail",
                "opening_hours": "Mo-Su 10:00-22:00",
                "shop": "beauty"
            },
            {
                "contact:email": "sensip@mail.ru",
                "contact:instagram": "https://instagram.com/sensipmsk",
                "contact:phone": "+7 499 9170148;+7 991 0983093",
                "contact:website": "https://sensip.ru/",
                "name": "SenSip",
                "opening_hours": "Mo-Su 10:00-22:00",
                "operator": "Дкс-Девелопмент",
                "shop": "beauty"
            }
        ]
    },
    "supermarket": {
        "count": 3,
        "detail": [
            {
                "addr:housenumber": "13 с1",
                "addr:street": "Новокузнецкая улица",
                "brand": "Дикси",
                "brand:en": "Dixy",
                "brand:wikidata": "Q4161561",
                "brand:wikipedia": "ru:Дикси (сеть магазинов)",
                "contact:phone": "+7 800 3330201",
                "contact:website": "http://dixy.ru",
                "name": "Дикси",
                "name:en": "Dixy",
                "name:ru": "Дикси",
                "opening_hours": "09:00-23:00",
                "shop": "supermarket"
            },
            {
                "addr:city": "Москва",
                "addr:housenumber": "36",
                "addr:postcode": "115184",
                "addr:street": "Большая Татарская улица",
                "brand": "Магнит",
                "brand:en": "Magnit",
                "brand:wikidata": "Q940518",
                "brand:wikipedia": "ru:Магнит (сеть магазинов)",
                "contact:website": "http://magnit-info.ru",
                "name": "Магнит",
                "name:en": "Magnit",
                "name:ru": "Магнит",
                "opening_hours": "Mo-Su 08:00-23:00",
                "operator": "АО \"Тандер\"",
                "phone": "+7 800 2009002",
                "shop": "supermarket",
                "wheelchair": "yes"
            },
            {
                "alt_name": "Пятерочка",
                "brand": "Пятёрочка",
                "brand:en": "Pyaterochka",
                "brand:wikidata": "Q1768969",
                "brand:wikipedia": "ru:Пятёрочка",
                "contact:email": "vopros@5ka.ru",
                "contact:facebook": "https://www.facebook.com/pyaterochka",
                "contact:instagram": "https://www.instagram.com/pyaterochka_official",
                "contact:ok": "https://ok.ru/pyaterochka",
                "contact:phone": "+7 800 5555505",
                "contact:vk": "https://vk.com/club19098821",
                "contact:website": "https://5ka.ru",
                "name": "Пятёрочка",
                "name:en": "Pyaterochka",
                "name:ru": "Пятёрочка",
                "shop": "supermarket"
            }
        ]
    },
    "post_office": {
        "count": 1,
        "detail": [
            {
                "amenity": "post_office",
                "contact:facebook": "https://www.facebook.com/ruspost",
                "contact:phone": "+7 800 2005888",
                "contact:twitter": "https://twitter.com/ruspostofficial",
                "contact:vk": "https://vk.com/russianpost",
                "contact:website": "https://www.pochta.ru",
                "name": "Москва 115095",
                "opening_hours": "Mo-Fr 08:00-13:00,14:00-20:00; Sa 09:00-13:00,14:00-18:00; Su off",
                "operator": "ФГУП «Почта России»",
                "operator:wikidata": "Q1502763",
                "operator:wikipedia": "ru:Почта России",
                "ref": "115095"
            }
        ]
    },
    "public_service": {
        "count": 1,
        "detail": [
            {
                "name": "Многофункциональный центр предоставления государственных и муниципальных услуг района Замоскворечье",
                "brand": "Мои документы",
                "office": "government",
                "source": "PGU",
                "amenity": "public_service",
                "name:en": "My Documents Government Services Center of Zamoskvorechye District",
                "name:ru": "Многофункциональный центр предоставления государственных и муниципальных услуг района Замоскворечье",
                "alt_name": "МФЦ Замоскворечье",
                "government": "public_service",
                "short_name": "МФЦ",
                "admin_level": "4",
                "contact:phone": "+7 495 6663080",
                "official_name": "Многофункциональный центр района Замоскворечье г. Москвы",
                "opening_hours": "Mo-Fr 08:00-20:00; Sa 09:00-15:45"
            }
        ]
    },
    "bus_stop": {
        "count": 1,
        "detail": [
            {
                "highway": "bus_stop",
                "name": "Вишняковский переулок",
                "public_transport": "platform",
                "shelter": "yes"
            }
        ]
    },
    "clothes": {
        "count": 6,
        "detail": [
            {
                "name": "Всё для танца и театра",
                "shop": "clothes",
                "alt_name": "Все для танца и театра",
                "wheelchair": "limited",
                "contact:phone": "+7 495 9593535",
                "opening_hours": "Mo-Su 11:00-20:00",
                "contact:website": "http://www.estadance.su"
            },
            {
                "name": "1001 платье",
                "shop": "clothes"
            },
            {
                "contact:phone": "+7 495 5324893",
                "contact:website": "http://rbworld.org",
                "name": "RBWorld",
                "shop": "clothes"
            },
            {
                "contact:phone": "+7 977 4598713",
                "contact:website": "http://blackstore.su",
                "name": "Blackstore",
                "opening_hours": "Mo-Su 12:00-22:00",
                "shop": "clothes"
            },
            {
                "name": "1001 футболка",
                "shop": "clothes",
                "contact:phone": "+7 495 1090450",
                "opening_hours": "Mo-Fr 10:00-20:00",
                "contact:website": "http://www.1001futbolka.ru"
            },
            {
                "contact:website": "https://www.dirkinshop.com/",
                "name": "Dirkin",
                "opening_hours": "Mo-Su 10:00-20:00",
                "shop": "clothes"
            }
        ]
    },
    "furniture": {
        "count": 2,
        "detail": [
            {
                "name": "Трио интерьер",
                "shop": "furniture",
                "name:en": "Trio Interier",
                "wheelchair": "limited",
                "contact:phone": "+7 495 9518619",
                "opening_hours": "Mo-Su 10:00-20:00",
                "contact:website": "http://www.trio.ru"
            },
            {
                "name": "Мебельлофт",
                "shop": "furniture"
            }
        ]
    },
    "library": {
        "count": 2,
        "detail": [
            {
                "amenity": "library",
                "contact:facebook": "https://www.facebook.com/843831162402097",
                "contact:phone": "+7 495 9516078",
                "name": "Библиотека № 13 имени Н.Г. Чернышевского",
                "opening_hours": "Tu-Fr 12:00-22:00; Sa 10:00-22:00; Su 10:00-20:00"
            },
            {
                "amenity": "library",
                "name": "Центральная детская библиотека №14",
                "opening_hours": "Tu-Sa 10:00-21:00; Su 10:00-20:00",
                "phone": "+7 495 9535406"
            }
        ]
    },
    "bicycle_rental": {
        "count": 4,
        "detail": [
            {
                "amenity": "bicycle_rental",
                "capacity": "10",
                "capacity:electric": "0",
                "contact:email": "info@velobike.ru",
                "contact:phone": "+7 495 9664669",
                "contact:website": "https://velobike.ru/",
                "fee": "yes",
                "network": "Велобайк",
                "opening_hours": "24/7",
                "operator": "АО «СитиБайк»",
                "payment:cash": "no",
                "payment:mastercard": "yes",
                "payment:troika": "no",
                "payment:visa": "yes",
                "ref": "77",
                "seasonal": "yes"
            },
            {
                "amenity": "bicycle_rental",
                "capacity": "12",
                "capacity:electric": "0",
                "contact:email": "info@velobike.ru",
                "contact:phone": "+7 495 9664669",
                "contact:website": "https://velobike.ru/",
                "fee": "yes",
                "network": "Велобайк",
                "opening_hours": "24/7",
                "operator": "АО «СитиБайк»",
                "payment:cash": "no",
                "payment:mastercard": "yes",
                "payment:troika": "no",
                "payment:visa": "yes",
                "ref": "78",
                "seasonal": "yes"
            },
            {
                "amenity": "bicycle_rental",
                "capacity": "12",
                "capacity:electric": "0",
                "contact:email": "info@velobike.ru",
                "contact:phone": "+7 495 9664669",
                "contact:website": "https://velobike.ru/",
                "fee": "yes",
                "network": "Велобайк",
                "opening_hours": "24/7",
                "operator": "АО «СитиБайк»",
                "payment:cash": "no",
                "payment:mastercard": "yes",
                "payment:troika": "no",
                "payment:visa": "yes",
                "ref": "84",
                "seasonal": "yes"
            },
            {
                "amenity": "bicycle_rental",
                "contact:email": "info@velobike.ru",
                "contact:phone": "+7 495 9664669",
                "contact:website": "https://velobike.ru/",
                "fee": "yes",
                "network": "Велобайк",
                "opening_hours": "24/7",
                "operator": "АО «СитиБайк»",
                "seasonal": "spring;summer;autumn"
            }
        ]
    },
    "dentist": {
        "count": 2,
        "detail": [
            {
                "amenity": "dentist",
                "contact:phone": "+7 495 9535352",
                "healthcare": "dentist",
                "health_facility:type": "clinic",
                "health_specialty:dentistry": "yes",
                "medical_system:western": "yes",
                "name": "Импланты и Партнеры",
                "opening_hours": "Mo-Sa 10:00-21:00",
                "wheelchair": "no"
            },
            {
                "name": "Нормодент",
                "amenity": "dentist"
            }
        ]
    },
    "bicycle_parking": {
        "count": 13,
        "detail": [
            {
                "amenity": "bicycle_parking"
            },
            {
                "fee": "no",
                "amenity": "bicycle_parking",
                "covered": "no",
                "capacity": "2",
                "supervised": "no",
                "opening_hours": "24/7",
                "bicycle_parking": "stands"
            },
            {
                "fee": "no",
                "amenity": "bicycle_parking",
                "covered": "no",
                "capacity": "8",
                "supervised": "no",
                "opening_hours": "24/7",
                "bicycle_parking": "stands"
            },
            {
                "amenity": "bicycle_parking",
                "bicycle_parking": "stands",
                "capacity": "6",
                "covered": "no",
                "fee": "no",
                "opening_hours": "24/7",
                "supervised": "no"
            },
            {
                "fee": "no",
                "amenity": "bicycle_parking",
                "covered": "no",
                "capacity": "2",
                "supervised": "no",
                "opening_hours": "24/7",
                "bicycle_parking": "stands"
            },
            {
                "fee": "no",
                "amenity": "bicycle_parking",
                "covered": "no",
                "capacity": "8",
                "supervised": "no",
                "opening_hours": "24/7",
                "bicycle_parking": "stands"
            },
            {
                "fee": "no",
                "amenity": "bicycle_parking",
                "covered": "no",
                "capacity": "2",
                "supervised": "no",
                "opening_hours": "24/7",
                "bicycle_parking": "stands"
            },
            {
                "fee": "no",
                "amenity": "bicycle_parking",
                "covered": "no",
                "capacity": "8",
                "supervised": "no",
                "opening_hours": "24/7",
                "bicycle_parking": "stands"
            },
            {
                "fee": "no",
                "amenity": "bicycle_parking",
                "covered": "no",
                "capacity": "8",
                "supervised": "no",
                "opening_hours": "24/7",
                "bicycle_parking": "stands"
            },
            {
                "amenity": "bicycle_parking",
                "capacity": "8",
                "bicycle_parking": "stands"
            },
            {
                "fee": "no",
                "amenity": "bicycle_parking",
                "covered": "no",
                "capacity": "6",
                "supervised": "no",
                "opening_hours": "24/7",
                "bicycle_parking": "stands"
            },
            {
                "amenity": "bicycle_parking",
                "bicycle_parking": "stands",
                "covered": "no",
                "fee": "no",
                "opening_hours": "24/7",
                "supervised": "no"
            },
            {
                "amenity": "bicycle_parking",
                "bicycle_parking": "stands",
                "capacity": "4",
                "covered": "no",
                "fee": "no",
                "opening_hours": "24/7",
                "supervised": "no"
            }
        ]
    },
    "charging_station": {
        "count": 1,
        "detail": [
            {
                "car": "yes",
                "amenity": "charging_station",
                "operator": "Московский электротранспорт"
            }
        ]
    },
    "computer": {
        "count": 2,
        "detail": [
            {
                "name": "ASUS",
                "opening_hours": "Mo-Fr 10:00-20:00; Sa-Su 11:00-18:00",
                "shop": "computer"
            },
            {
                "addr:postcode": "119017",
                "email": "mail@notik.ru",
                "name": "Нотик",
                "name:en": "Notik",
                "opening_hours": "Mo-Fr 10:00-20:00; Sa-Su 11:00-19:00",
                "phone": "+7 495 7699804",
                "shop": "computer",
                "website": "http://www.notik.ru"
            }
        ]
    },
    "florist": {
        "count": 2,
        "detail": [
            {
                "name": "Цветы & Куклы",
                "name:en": "Flowers & Dolls",
                "opening_hours": "Mo-Fr 08:00-21:00; Sa-Su 10:00-20:00",
                "phone": "+7 977 5718423",
                "shop": "florist"
            },
            {
                "contact:website": "http://www.krapivakrapiva.ru/",
                "name": "Krapiva",
                "shop": "florist"
            }
        ]
    },
    "confectionery": {
        "count": 1,
        "detail": [
            {
                "name": "РотФронт",
                "shop": "confectionery",
                "opening_hours": "Mo-Su 08:00-20:00"
            }
        ]
    },
    "bakery": {
        "count": 3,
        "detail": [
            {
                "name": "Добрынинский и партнеры",
                "opening_hours": "Mo-Fr 08:00-21:00, Sa,Su 10:00-20:00",
                "shop": "bakery"
            },
            {
                "alt_name": "Братья Караваевы",
                "amenity": "cafe",
                "contact:website": "http://karavaevi.ru",
                "diet:vegetarian": "yes",
                "name": "Кулинарная лавка братьев Караваевых",
                "name:en": "Bratya Karavaevy",
                "name:ru": "Кулинарная лавка братьев Караваевых",
                "opening_hours": "Mo-Su 08:00-23:00",
                "phone": "+7 495 9330170",
                "shop": "bakery",
                "smoking": "no",
                "takeaway": "yes"
            },
            {
                "shop": "bakery"
            }
        ]
    },
    "training": {
        "count": 2,
        "detail": [
            {
                "addr:housenumber": "4",
                "addr:street": "Большой Ордынский переулок",
                "amenity": "training",
                "email": "abc@shad.ru",
                "name": "Школа архитектуры и дизайна",
                "name:ru": "Школа архитектуры и дизайна",
                "opening_hours": "Mo-Su 10:00-21:00",
                "phone": "+7 499 2167106",
                "training": "art",
                "website": "https://www.shad.ru/"
            },
            {
                "addr:city": "Москва",
                "addr:housenumber": "35 с2",
                "addr:street": "Большая Татарская улица",
                "amenity": "training",
                "contact:facebook": "https://www.facebook.com/InstitutDRK",
                "contact:instagram": "https://www.instagram.com/institutdrk/",
                "contact:vk": "https://vk.com/institutdrk",
                "name": "Институт косметологии Дом Русской Косметики",
                "opening_hours": "Mo-Su 09:00-21:00",
                "phone": "74951896802",
                "website": "https://www.cosmeticru.com"
            }
        ]
    },
    "hardware": {
        "count": 2,
        "detail": [
            {
                "name": "Южный двор",
                "shop": "hardware",
                "opening_hours": "Mo-Su 09:00-21:00"
            },
            {
                "brand": "Мосхозторг",
                "brand:wikidata": "Q62499092",
                "contact:facebook": "https://www.facebook.com/MosHozTorg",
                "contact:instagram": "https://www.instagram.com/moshoztorg",
                "contact:ok": "https://ok.ru/group/54890146037790",
                "contact:phone": "+7 925 4005287",
                "contact:vk": "https://vk.com/moshoztorg",
                "contact:website": "https://moshoztorg.ru",
                "name": "Мосхозторг",
                "name:ru": "Мосхозторг",
                "opening_hours": "Mo-Fr 09:00-23:00; Sa,Su 10:00-22:00",
                "shop": "hardware"
            }
        ]
    },
    "fast_food": {
        "count": 4,
        "detail": [
            {
                "amenity": "fast_food",
                "brand": "Суши Wok",
                "brand:en": "Sushi Wok",
                "brand:ru": "Суши Wok",
                "brand:wikidata": "Q25444754",
                "brand:wikipedia": "uk:Суши Wok (мережа магазинів)",
                "contact:facebook": "https://www.facebook.com/sushiwokofficial",
                "contact:instagram": "https://www.instagram.com/sushi_wok/",
                "contact:ok": "https://ok.ru/group/53844357873904",
                "contact:phone": "+7 499 7544444",
                "contact:twitter": "https://twitter.com/WokSushi",
                "contact:vk": "https://vk.com/woksushi",
                "contact:website": "https://sushiwok.ru",
                "cuisine": "asian",
                "delivery": "yes",
                "name": "Суши Wok",
                "name:en": "Sushi Wok",
                "name:ru": "Суши Wok",
                "opening_hours": "Mo-Su 09:00-21:00",
                "takeaway": "yes"
            },
            {
                "amenity": "fast_food",
                "brand": "Папа Джонс",
                "brand:en": "Papa John's",
                "brand:ru": "Папа Джонс",
                "brand:wikidata": "Q2759586",
                "brand:wikipedia": "ru:Papa John’s",
                "contact:facebook": "https://www.facebook.com/papajohnsru",
                "contact:instagram": "https://www.instagram.com/papajohnsru",
                "contact:phone": "+7 495 7392692",
                "contact:vk": "https://vk.com/papajohnsru",
                "contact:website": "https://www.papajohns.ru",
                "cuisine": "pizza",
                "delivery": "yes",
                "diet:vegetarian": "no",
                "name": "Папа Джонс",
                "name:en": "Papa John's",
                "name:ru": "Папа Джонс",
                "opening_hours": "Mo-Su 11:00-23:00",
                "takeaway": "yes"
            },
            {
                "amenity": "fast_food",
                "brand": "Домино'c",
                "brand:en": "Domino's",
                "brand:ru": "Домино'c",
                "brand:wikidata": "Q839466",
                "brand:wikipedia": "ru:Domino’s Pizza",
                "contact:facebook": "https://www.facebook.com/dominospizzarussia",
                "contact:instagram": "https://www.instagram.com/dominospizza_ru",
                "contact:vk": "https://vk.com/dominospizza_ru",
                "contact:website": "https://dominospizza.ru",
                "cuisine": "pizza",
                "delivery": "yes",
                "diet:vegetarian": "no",
                "name": "Домино'c",
                "name:en": "Domino's",
                "name:ru": "Домино'c",
                "opening_hours": "Mo-Su 09:00-23:00",
                "phone": "+7 495 9000157",
                "short_name": "Domino's",
                "takeaway": "yes"
            },
            {
                "amenity": "fast_food",
                "contact:website": "https://www.bulker.ru/",
                "fast_food": "cafeteria",
                "name": "Булкер"
            }
        ]
    },
    "butcher": {
        "count": 2,
        "detail": [
            {
                "shop": "butcher"
            },
            {
                "opening_hours": "Mo-Su 09:00-21:00",
                "shop": "butcher",
                "website": "https://www.safahalal.ru/"
            }
        ]
    },
    "seafood": {
        "count": 1,
        "detail": [
            {
                "shop": "seafood"
            }
        ]
    },
    "dry_cleaning": {
        "count": 1,
        "detail": [
            {
                "name": "Лисичка",
                "shop": "dry_cleaning"
            }
        ]
    },
    "photo": {
        "count": 1,
        "detail": [
            {
                "name": "White studio",
                "shop": "photo",
                "name:ru": "White studio"
            }
        ]
    },
    "vending_machine": {
        "count": 7,
        "detail": [
            {
                "amenity": "vending_machine",
                "contact:phone": "+7 495 5395454",
                "contact:website": "http://parking.mos.ru/",
                "opening_hours": "24/7",
                "operator": "ГКУ «Администратор Московского парковочного пространства»",
                "payment:cash": "no",
                "payment:credit_cards": "yes",
                "payment:debit_cards": "yes",
                "ref": "2092",
                "ref:mos_parking": "282084299",
                "source": "dit.mos.ru",
                "vending": "parking_tickets",
                "zone:parking": "2109"
            },
            {
                "amenity": "vending_machine",
                "contact:phone": "+7 495 5395454",
                "contact:website": "http://parking.mos.ru/",
                "opening_hours": "24/7",
                "operator": "ГКУ «Администратор Московского парковочного пространства»",
                "payment:cash": "no",
                "payment:credit_cards": "yes",
                "payment:debit_cards": "yes",
                "ref": "2088",
                "ref:mos_parking": "1774418",
                "source": "dit.mos.ru",
                "vending": "parking_tickets",
                "zone:parking": "2009"
            },
            {
                "amenity": "vending_machine",
                "contact:phone": "+7 495 5395454",
                "contact:website": "http://parking.mos.ru/",
                "opening_hours": "24/7",
                "operator": "ГКУ «Администратор Московского парковочного пространства»",
                "payment:cash": "no",
                "payment:credit_cards": "yes",
                "payment:debit_cards": "yes",
                "ref": "2285",
                "ref:mos_parking": "282084469",
                "source": "dit.mos.ru",
                "vending": "parking_tickets",
                "zone:parking": "0309"
            },
            {
                "amenity": "vending_machine",
                "contact:phone": "+7 495 5395454",
                "contact:website": "http://parking.mos.ru/",
                "opening_hours": "24/7",
                "operator": "ГКУ «Администратор Московского парковочного пространства»",
                "payment:cash": "no",
                "payment:credit_cards": "yes",
                "payment:debit_cards": "yes",
                "ref": "2100",
                "ref:mos_parking": "282084308",
                "source": "dit.mos.ru",
                "vending": "parking_tickets",
                "zone:parking": "2109"
            },
            {
                "amenity": "vending_machine",
                "vending": "food"
            },
            {
                "amenity": "vending_machine",
                "vending": "coffee"
            },
            {
                "amenity": "vending_machine",
                "contact:phone": "+7 495 5395454",
                "contact:website": "http://parking.mos.ru/",
                "opening_hours": "24/7",
                "operator": "ГКУ «Администратор Московского парковочного пространства»",
                "payment:cash": "no",
                "payment:credit_cards": "yes",
                "payment:debit_cards": "yes",
                "ref": "4110",
                "ref:mos_parking": "859915333",
                "vending": "parking_tickets",
                "zone:parking": "2009"
            }
        ]
    },
    "fitness_centre": {
        "count": 2,
        "detail": [
            {
                "leisure": "fitness_centre",
                "name": "Force Factory",
                "name:en": "Force Factory",
                "opening_hours": "Mo-Fr 07:00-23:00; Sa-Su 09:00-22:00",
                "phone": "+7 495 6601551",
                "website": "http://fitness-fresh.ru/klub-na-paveleckoj"
            },
            {
                "leisure": "fitness_centre",
                "name": "F45"
            }
        ]
    },
    "hookah_lounge": {
        "count": 3,
        "detail": [
            {
                "amenity": "hookah_lounge",
                "email": "ba-ra-ba-ka@mail.ru",
                "internet_access": "wlan",
                "name": "Sweet Smoke",
                "name:en": "Sweet Smoke",
                "opening_hours": "Mo-Th 13:00-01:00; Fr-Su 13:00-05:00",
                "phone": "+7 985 9350101",
                "website": "http://sweet-smoke.org/pyatnitskaya"
            },
            {
                "name": "Lion's Lair Club",
                "amenity": "hookah_lounge",
                "contact:phone": "+7 999 9979696",
                "contact:facebook": "https://www.facebook.com/lionslairclubnvk"
            },
            {
                "amenity": "hookah_lounge",
                "contact:phone": "+7 495 1145361",
                "name": "Мята лаунж"
            }
        ]
    },
    "atm": {
        "count": 2,
        "detail": [
            {
                "amenity": "atm",
                "operator": "Ланта-банк",
                "opening_hours": "24/7"
            },
            {
                "access": "private",
                "amenity": "atm",
                "operator": "Гута-Банк"
            }
        ]
    },
    "travel_agency": {
        "count": 4,
        "detail": [
            {
                "name": "Содис",
                "shop": "travel_agency",
                "contact:phone": "+7 495 9335533",
                "opening_hours": "Mo-Su 10:00-19:00",
                "contact:website": "https://www.sodis.ru"
            },
            {
                "name": "Магазин горящих путевок",
                "shop": "travel_agency",
                "contact:website": "http://mgp.ru"
            },
            {
                "name": "ТриАтур",
                "shop": "travel_agency",
                "contact:phone": "+7 495 6486542",
                "opening_hours": "Mo-Su 10:00-21:00",
                "contact:website": "http://triatour.ru"
            },
            {
                "addr:door": "24",
                "alt_name": "Водоход",
                "brand": "ВодоходЪ",
                "contact:phone": "+7 800 5550505",
                "description": "ООО «ВодоходЪ» — судоходная компания, крупнейший российский туристический оператор речных круизов: перевозку, питание, экскурсионное обслуживание, развлекательные программы, подготовку персонала.",
                "inscription": "Офис продаж «ВодоходЪ» на Третьяковской",
                "level": "2",
                "name": "«ВодоходЪ» на Третьяковской",
                "opening_hours": "Mo-Fr 09:00-21:00; Sa-Su 10:00-17:00",
                "payment:credit_cards": "yes",
                "payment:debit_cards": "yes",
                "payment:mastercard": "yes",
                "payment:visa": "yes",
                "phone": "+7 495 7305885",
                "shop": "travel_agency",
                "website": "https://vodohod.com/about/contacts/vishnyakovsky.htm"
            }
        ]
    },
    "parking_entrance": {
        "count": 6,
        "detail": [
            {
                "access": "private",
                "amenity": "parking_entrance",
                "barrier": "gate",
                "parking": "underground"
            },
            {
                "access": "private",
                "amenity": "parking_entrance",
                "barrier": "gate",
                "parking": "underground"
            },
            {
                "access": "private",
                "amenity": "parking_entrance",
                "barrier": "gate",
                "parking": "underground"
            },
            {
                "access": "private",
                "amenity": "parking_entrance",
                "barrier": "gate",
                "parking": "underground"
            },
            {
                "access": "private",
                "amenity": "parking_entrance",
                "barrier": "gate",
                "parking": "underground"
            },
            {
                "access": "private",
                "amenity": "parking_entrance",
                "barrier": "gate",
                "parking": "underground"
            }
        ]
    },
    "e-cigarette": {
        "count": 1,
        "detail": [
            {
                "name": "ПарБюро",
                "shop": "e-cigarette",
                "contact:phone": "+7 985 1330404",
                "opening_hours": "Mo-Su 11:00-23:00",
                "contact:website": "http://parburo.ru",
                "contact:instagram": "https://www.instagram.com/parburo"
            }
        ]
    },
    "hairdresser": {
        "count": 2,
        "detail": [
            {
                "shop": "hairdresser"
            },
            {
                "contact:instagram": "https://www.instagram.com/mr___boroda/",
                "contact:phone": "+7 968 3230949",
                "contact:website": "https://www.mr-boroda.ru/",
                "male": "yes",
                "name": "Mr.Boroda",
                "opening_hours": "Mo-Su 10:00-22:00",
                "shop": "hairdresser"
            }
        ]
    },
    "outpost": {
        "count": 2,
        "detail": [
            {
                "name": "Lamoda",
                "shop": "outpost",
                "contact:phone": "+7 499 7501450",
                "opening_hours": "Mo-Su 10:00-22:00",
                "contact:website": "http://www.lamoda.ru"
            },
            {
                "brand": "Wildberries",
                "brand:wikidata": "Q24933714",
                "brand:wikipedia": "ru:Wildberries",
                "contact:email": "sales@wildberries.ru",
                "contact:facebook": "https://www.facebook.com/wbbot",
                "contact:instagram": "https://www.instagram.com/wildberriesru",
                "contact:ok": "https://ok.ru/wildberries",
                "contact:skype": "Wildberries_ru",
                "contact:telegram": "wbshop_bot",
                "contact:twitter": "https://twitter.com/wildberries_ru",
                "contact:viber": "wildberries",
                "contact:vk": "https://vk.com/wbbot",
                "contact:website": "https://www.wildberries.ru",
                "contact:whatsapp": "+7 926 5373137",
                "contact:youtube": "https://www.youtube.com/user/Wildberriesshop",
                "name": "Wildberries",
                "name:en": "Wildberries",
                "shop": "outpost"
            }
        ]
    },
    "language_school": {
        "count": 1,
        "detail": [
            {
                "name": "Высшие курсы иностранного языка МИЛ",
                "amenity": "language_school",
                "education": "courses",
                "contact:phone": "+7 495 9531807",
                "contact:website": "http://vkmil.ru",
                "education_programme:DE": "yes",
                "education_programme:EN": "yes",
                "education_programme:ES": "yes",
                "education_programme:FR": "yes",
                "education_programme:IT": "yes",
                "education_programme:ZH": "yes",
                "education_form:parttime": "yes",
                "education_profile:languages": "yes"
            }
        ]
    },
    "bench": {
        "count": 15,
        "detail": [
            {
                "amenity": "bench",
                "backrest": "yes"
            },
            {
                "amenity": "bench",
                "backrest": "yes",
                "material": "wood"
            },
            {
                "amenity": "bench",
                "backrest": "yes",
                "material": "wood"
            },
            {
                "amenity": "bench",
                "backrest": "yes",
                "material": "wood"
            },
            {
                "amenity": "bench",
                "backrest": "yes",
                "material": "wood"
            },
            {
                "amenity": "bench",
                "backrest": "yes",
                "material": "wood"
            },
            {
                "amenity": "bench",
                "backrest": "yes",
                "material": "wood"
            },
            {
                "amenity": "bench",
                "backrest": "yes",
                "material": "wood"
            },
            {
                "amenity": "bench",
                "backrest": "yes",
                "material": "wood"
            },
            {
                "amenity": "bench",
                "backrest": "yes",
                "material": "wood"
            },
            {
                "amenity": "bench",
                "backrest": "yes",
                "material": "wood"
            },
            {
                "amenity": "bench",
                "backrest": "yes",
                "material": "wood"
            },
            {
                "amenity": "bench",
                "backrest": "yes",
                "material": "wood"
            },
            {
                "amenity": "bench",
                "backrest": "yes"
            },
            {
                "amenity": "bench",
                "backrest": "yes"
            }
        ]
    },
    "fabric": {
        "count": 1,
        "detail": [
            {
                "contact:phone": "+7 495 9534244",
                "contact:website": "http://www.aisedorashop.ru",
                "name": "Айседора",
                "opening_hours": "Mo-Fr 10:00-20:00; Sa 10:00-19:00; Su 11:00-19:00",
                "shop": "fabric"
            }
        ]
    },
    "sports_centre": {
        "count": 2,
        "detail": [
            {
                "name": "Yoga-ru",
                "sport": "yoga",
                "leisure": "sports_centre",
                "contact:phone": "+7 495 9536410",
                "contact:website": "http://www.yoga-ru.ru"
            },
            {
                "name": "Йога ру",
                "sport": "yoga",
                "leisure": "sports_centre",
                "name:ru": "Йога ру"
            }
        ]
    },
    "community_centre": {
        "count": 3,
        "detail": [
            {
                "name": "Культурно-досуговый центр \"Орбита\"",
                "amenity": "community_centre",
                "contact:phone": "+7 495 9537955",
                "contact:facebook": "https://www.facebook.com/KdcOrbita"
            },
            {
                "addr:housenumber": "15 с1",
                "addr:street": "улица Бахрушина",
                "amenity": "community_centre",
                "building": "yes",
                "building:levels": "2",
                "name": "Центр детского творчества \"Замоскворечье\"",
                "roof:material": "metal",
                "roof:shape": "hipped",
                "start_date": "1863"
            },
            {
                "addr:housenumber": "17 с1",
                "addr:street": "улица Бахрушина",
                "amenity": "community_centre",
                "building": "yes",
                "building:levels": "2",
                "contact:website": "http://moskvorechie.mskobr.ru",
                "name": "Центр детского творчества \"Замоскворечье\"",
                "official_name": "Государственное бюджетное образовательное учреждение дополнительного образования города Москвы \"Центр детского творчества \"Замоскворечье\"",
                "start_date": "1887"
            }
        ]
    },
    "jewelry": {
        "count": 1,
        "detail": [
            {
                "name": "Style Me Up",
                "shop": "jewelry",
                "reservation": "required",
                "contact:phone": "+7 925 5174125",
                "contact:website": "http://www.stylemeup.ru"
            }
        ]
    },
    "shoes": {
        "count": 2,
        "detail": [
            {
                "name": "Migliori",
                "shop": "shoes",
                "contact:phone": "+7 499 3503102",
                "contact:website": "http://lp1.migliori.ru"
            },
            {
                "contact:instagram": "https://www.instagram.com/migliori_shoes/",
                "contact:phone": "+7 499 3503102",
                "contact:website": "https://migliori.ru/",
                "name": "Migliori",
                "opening_hours": "Mo-Su 11:00-20:00",
                "shop": "shoes",
                "wheelchair": "no"
            }
        ]
    },
    "books": {
        "count": 1,
        "detail": [
            {
                "name": "Православное слово",
                "shop": "books",
                "contact:phone": "+7 495 2121262",
                "contact:website": "http://pravslovo.ru"
            }
        ]
    },
    "police": {
        "count": 1,
        "detail": [
            {
                "amenity": "police",
                "contact:phone": "+7 495 9533987",
                "name": "Отдел МВД России по району Замоскворечье г. Москвы"
            }
        ]
    },
    "courthouse": {
        "count": 1,
        "detail": [
            {
                "name": "Судебный участок мирового судьи №102",
                "amenity": "courthouse",
                "contact:phone": "+7 495 9533252",
                "opening_hours": "Mo-Th 09:00-13:00,13:45-18:00; Fr 09:00-13:00,13:45-16:45"
            }
        ]
    },
    "clinic": {
        "count": 1,
        "detail": [
            {
                "name": "CitiKlinik",
                "amenity": "clinic",
                "healthcare": "clinic",
                "contact:phone": "+7 495 9218382",
                "opening_hours": "Mo-Fr 08:00-22:00; Sa 09:00-20:00; Su 10:00-18:00",
                "contact:website": "http://www.citiklinik.ru",
                "health_facility:type": "clinic",
                "medical_system:western": "yes"
            }
        ]
    },
    "waste_basket": {
        "count": 1,
        "detail": [
            {
                "amenity": "waste_basket"
            }
        ]
    },
    "post_box": {
        "count": 1,
        "detail": [
            {
                "amenity": "post_box",
                "brand": "Почта России",
                "collection_times": "Mo-Fr 15:30; Sa 15:30; Su,PH 23:48",
                "design:year": "2010",
                "indoor": "yes",
                "note": "Сложно представить чьи письма вынимают из этого ящика по воскресеньям и выходным в 23:48, если ящик внутри отделения, а само отделение по воскресеньям закрыто. Тем не менее, именно такое расписание начертано на ящике.",
                "operator": "ФГУП «Почта России»",
                "post_box:design": "ЯПВ-Т-П",
                "post_box:type": "pillar",
                "ref": "095/Н1"
            }
        ]
    },
    "newsagent": {
        "count": 1,
        "detail": [
            {
                "building": "kiosk",
                "building:levels": "1",
                "inscription": "Пресса",
                "shop": "newsagent"
            }
        ]
    },
    "copyshop": {
        "count": 1,
        "detail": [
            {
                "addr:city": "Москва",
                "addr:floor": "-1",
                "addr:housenumber": "42",
                "addr:street": "Пятницкая улица",
                "email": "inbox@eshprint.com",
                "name": "Esh Print",
                "opening_hours": "Mo-Fr 12:00-20:00",
                "operator": "LLC Esh Gruppa",
                "phone": "+7 903 0160317",
                "shop": "copyshop"
            }
        ]
    },
    "bar": {
        "count": 2,
        "detail": [
            {
                "amenity": "bar",
                "contact:website": "https://52drob2.ru",
                "name": "52/2",
                "opening_hours": "We,Th 14:00-24:00; Fr 18:00-24:00; Sa 00:00-06:00,18:00-24:00; Su 00:00-06:00"
            },
            {
                "amenity": "bar",
                "contact:email": "info@singer.bar",
                "contact:facebook": "https://facebook.com/Singer-116682630250221",
                "contact:instagram": "https://instagram.com/singerbar.moscow",
                "contact:phone": "+7 495 1819522",
                "contact:vk": "https://vk.com/club200160063",
                "contact:website": "https://singer.bar/",
                "name": "Singer",
                "opening_hours": "Mo-Su 18:00-06:00",
                "operator": "SINGER"
            }
        ]
    },
    "music_school": {
        "count": 1,
        "detail": [
            {
                "addr:housenumber": "10 с1",
                "amenity": "music_school",
                "education": "facultative_school",
                "education_form:parttime": "yes",
                "education_level:primary": "yes",
                "education_profile:music": "yes",
                "name": "My Vocal Space",
                "opening_hours": "Mo-Su 10:00-22:00",
                "ownership": "private",
                "phone": "79017241449",
                "website": "http://www.myvocalspace.ru"
            }
        ]
    },
    "games": {
        "count": 1,
        "detail": [
            {
                "contact:facebook": "https://facebook.com/ejeminutka",
                "contact:instagram": "https://instagram.com/ejeminutka.ru",
                "contact:phone": "+7 926 1264121",
                "contact:vk": "https://vk.com/ejeminutka",
                "contact:website": "https://www.ejeminutka.ru/",
                "name": "Ежеминутка",
                "opening_hours": "Mo-Su 11:00-23:00",
                "operator": "Лобынцев М.А.",
                "shop": "games"
            }
        ]
    },
    "kindergarten": {
        "count": 5,
        "detail": [
            {
                "building": "kindergarten",
                "addr:street": "1-й Новокузнецкий переулок",
                "building:levels": "3",
                "addr:housenumber": "15 с1"
            },
            {
                "building": "kindergarten",
                "addr:street": "Пятницкая улица",
                "addr:housenumber": "54"
            },
            {
                "amenity": "kindergarten",
                "building": "kindergarten",
                "addr:city": "Москва",
                "addr:street": "Пятницкая улица",
                "addr:housenumber": "40-42 с1"
            },
            {
                "addr:housenumber": "1",
                "addr:street": "1-й Новокузнецкий переулок",
                "building": "kindergarten",
                "building:levels": "2",
                "start_date": "1939s"
            },
            {
                "amenity": "kindergarten",
                "building": "yes",
                "addr:street": "Пятницкая улица",
                "building:levels": "3",
                "addr:housenumber": "55/25 с4"
            }
        ]
    },
    "school": {
        "count": 2,
        "detail": [
            {
                "name": "Спецшкола № 532",
                "amenity": "school",
                "building": "school",
                "addr:street": "Пятницкая улица",
                "addr:housenumber": "46 с3"
            },
            {
                "building": "school",
                "addr:street": "1-й Новокузнецкий переулок",
                "building:levels": "4",
                "addr:housenumber": "12"
            }
        ]
    },
    "commercial": {
        "count": 28,
        "detail": [
            {
                "building": "commercial",
                "addr:street": "1-й Новокузнецкий переулок",
                "building:levels": "2",
                "addr:housenumber": "10А"
            },
            {
                "building": "commercial",
                "addr:street": "1-й Новокузнецкий переулок",
                "building:levels": "3",
                "addr:housenumber": "26/8 с5"
            },
            {
                "addr:housenumber": "27/6 с2",
                "addr:street": "Новокузнецкая улица",
                "building": "commercial",
                "building:levels": "4",
                "start_date": "1972"
            },
            {
                "addr:housenumber": "33 с1",
                "addr:street": "Большая Татарская улица",
                "amenity": "studio",
                "building": "commercial",
                "building:levels": "5",
                "contact:phone": "+7 495 9593900;+7 495 9593966",
                "email": "web@tvc.ru",
                "name": "ТВ Центр",
                "name:en": "TV Tsentr",
                "postal_code": "115184",
                "start_date": "1956",
                "studio": "television",
                "website": "http://www.tvc.ru/",
                "wikidata": "Q1726530",
                "wikipedia": "ru:ТВ Центр"
            },
            {
                "building": "commercial",
                "addr:street": "Новокузнецкая улица",
                "addr:housenumber": "20/21-19 с2"
            },
            {
                "building": "commercial",
                "addr:street": "Вишняковский переулок",
                "building:levels": "4",
                "addr:housenumber": "10 с1"
            },
            {
                "addr:city": "Москва",
                "addr:housenumber": "41 с2",
                "addr:street": "Пятницкая улица",
                "building": "commercial",
                "building:levels": "2",
                "mapillary": "UlThOQwJMK7xC_IZq4fVeQ",
                "survey:date": "2018-08-03"
            },
            {
                "addr:housenumber": "12-14 с5",
                "addr:street": "Новокузнецкая улица",
                "building": "commercial",
                "contact:phone": "+7 495 9519549-50",
                "contact:website": "http://www.kemlu.go.id/moscow",
                "country": "ID",
                "name": "Посольство Индонезии",
                "name:en": "Indonesian Embassy",
                "office": "diplomatic",
                "wikidata": "Q4374002",
                "wikipedia": "ru:Посольство Индонезии в России"
            },
            {
                "building": "commercial",
                "addr:street": "1-й Новокузнецкий переулок",
                "building:levels": "2",
                "addr:housenumber": "26/8 с3"
            },
            {
                "building": "commercial",
                "addr:street": "Новокузнецкая улица",
                "building:levels": "2",
                "addr:housenumber": "12-14 с8"
            },
            {
                "addr:city": "Москва",
                "addr:housenumber": "26/8 с1",
                "addr:street": "1-й Новокузнецкий переулок",
                "building": "commercial",
                "building:levels": "2",
                "start_date": "1872"
            },
            {
                "building": "commercial",
                "addr:street": "Новокузнецкая улица",
                "building:levels": "2",
                "addr:housenumber": "24 с2"
            },
            {
                "building": "commercial",
                "addr:street": "Новокузнецкая улица",
                "building:levels": "2",
                "addr:housenumber": "24 с2"
            },
            {
                "building": "commercial",
                "addr:city": "Москва",
                "addr:street": "Новокузнецкая улица",
                "building:levels": "2",
                "addr:housenumber": "26/8 с7"
            },
            {
                "building": "commercial",
                "addr:street": "Новокузнецкая улица",
                "building:levels": "2",
                "addr:housenumber": "24 с1"
            },
            {
                "addr:housenumber": "28 с1",
                "addr:street": "Новокузнецкая улица",
                "building": "commercial",
                "building:levels": "1",
                "roof:shape": "hipped",
                "start_date": "1850"
            },
            {
                "building": "commercial",
                "addr:street": "Новокузнецкая улица",
                "building:levels": "2",
                "addr:housenumber": "24 с4А"
            },
            {
                "building": "commercial",
                "addr:street": "Новокузнецкая улица",
                "building:levels": "2",
                "addr:housenumber": "22"
            },
            {
                "building": "commercial",
                "addr:region": "Москва",
                "addr:street": "Пятницкая улица",
                "building:levels": "1",
                "addr:housenumber": "47 с2"
            },
            {
                "addr:housenumber": "46",
                "addr:street": "Большая Татарская улица",
                "building": "commercial",
                "building:levels": "4",
                "start_date": "1972"
            },
            {
                "addr:housenumber": "9 с1",
                "addr:street": "улица Бахрушина",
                "building": "commercial",
                "building:levels": "5",
                "start_date": "1985"
            },
            {
                "addr:housenumber": "29 с1",
                "addr:street": "Новокузнецкая улица",
                "building": "commercial",
                "building:levels": "2",
                "roof:shape": "many",
                "start_date": "1880"
            },
            {
                "addr:housenumber": "31 с1",
                "addr:street": "Новокузнецкая улица",
                "building": "commercial",
                "building:levels": "2",
                "start_date": "1895"
            },
            {
                "building": "commercial",
                "addr:street": "улица Малая Ордынка",
                "building:levels": "3",
                "addr:housenumber": "15"
            },
            {
                "building": "commercial",
                "addr:city": "Москва",
                "addr:street": "Пятницкая улица",
                "building:levels": "2",
                "addr:housenumber": "41 с1"
            },
            {
                "addr:housenumber": "5",
                "addr:postcode": "115184",
                "addr:street": "Старый Толмачёвский переулок",
                "building": "commercial",
                "building:levels": "8",
                "start_date": "2009"
            },
            {
                "building": "commercial",
                "addr:street": "Пятницкая улица",
                "building:levels": "1",
                "addr:housenumber": "45"
            },
            {
                "addr:city": "Москва",
                "addr:housenumber": "37 с2",
                "addr:street": "Пятницкая улица",
                "building": "commercial",
                "building:levels": "2",
                "mapillary": "5GaXTShT2Z3kUJtu3MK4aQ",
                "survey:date": "2018-08-03"
            }
        ]
    },
    "place_of_worship": {
        "count": 2,
        "detail": [
            {
                "addr:housenumber": "15",
                "addr:street": "Вишняковский переулок",
                "amenity": "place_of_worship",
                "building": "church",
                "denomination": "russian_orthodox",
                "name": "Храм святителя Николая в Кузнецкой Слободе",
                "official_name": "Храм святителя Николая в Кузнецкой Слободе",
                "religion": "christian",
                "wikidata": "Q4500948",
                "wikipedia": "ru:Храм Святителя Николая в Кузнецах"
            },
            {
                "name": "Храм Спаса Преображения",
                "amenity": "place_of_worship",
                "building": "church",
                "religion": "christian",
                "wikidata": "Q4501032",
                "addr:city": "Москва",
                "addr:street": "2-й Новокузнецкий переулок",
                "addr:country": "RU",
                "denomination": "russian_orthodox",
                "official_name": "Храм Спаса Преображения на Болвановке",
                "contact:website": "http://bolvanovka.ru",
                "addr:housenumber": "10 с1"
            }
        ]
    },
    "service": {
        "count": 17,
        "detail": [
            {
                "power": "substation",
                "building": "service",
                "substation": "minor_distribution",
                "addr:street": "улица Бахрушина",
                "building:levels": "1",
                "addr:housenumber": "18 с4"
            },
            {
                "power": "substation",
                "building": "service",
                "substation": "minor_distribution",
                "addr:street": "Новокузнецкая улица",
                "building:levels": "1",
                "addr:housenumber": "29 с2"
            },
            {
                "building": "service",
                "location": "indoor",
                "man_made": "heat_exchange_station",
                "pipeline": "substation",
                "substance": "heat",
                "substation": "distribution",
                "addr:street": "Новокузнецкая улица",
                "building:levels": "1",
                "addr:housenumber": "24 с11"
            },
            {
                "power": "substation",
                "building": "service",
                "location": "indoor",
                "substation": "minor_distribution",
                "addr:street": "улица Бахрушина",
                "building:levels": "1",
                "addr:housenumber": "10 с4"
            },
            {
                "building": "service",
                "building:levels": "1"
            },
            {
                "power": "substation",
                "building": "service",
                "location": "indoor",
                "substation": "minor_distribution",
                "addr:street": "Новокузнецкая улица",
                "building:levels": "1",
                "addr:housenumber": "13 с1А"
            },
            {
                "building": "service",
                "addr:street": "Большая Татарская улица",
                "addr:housenumber": "36 с3"
            },
            {
                "building": "service"
            },
            {
                "power": "substation",
                "building": "service",
                "location": "indoor",
                "substation": "minor_distribution",
                "addr:street": "улица Бахрушина",
                "building:levels": "1",
                "addr:housenumber": "9 с2"
            },
            {
                "building": "service"
            },
            {
                "building": "service",
                "addr:street": "улица Бахрушина",
                "addr:housenumber": "1 с5"
            },
            {
                "building": "service",
                "building:levels": "1",
                "man_made": "street_cabinet",
                "power": "substation",
                "street_cabinet": "power",
                "substation": "minor_distribution"
            },
            {
                "addr:housenumber": "39 с2",
                "addr:street": "Пятницкая улица",
                "building": "service",
                "building:levels": "1",
                "mapillary": "q9w5_rjY4ZHey8BIfQYHdQ",
                "survey:date": "2018-08-03"
            },
            {
                "railway": "ventilation_shaft",
                "service": "ventilation",
                "building": "service",
                "building:levels": "1"
            },
            {
                "power": "substation",
                "building": "service",
                "location": "indoor",
                "substation": "minor_distribution",
                "addr:street": "Пятницкая улица",
                "building:levels": "1",
                "addr:housenumber": "53/18 с2"
            },
            {
                "building": "service",
                "building:levels": "1"
            },
            {
                "building": "service",
                "addr:street": "Новокузнецкая улица",
                "building:levels": "1",
                "addr:housenumber": "30 с4"
            }
        ]
    },
    "college": {
        "count": 1,
        "detail": [
            {
                "name": "Колледж связи № 54",
                "amenity": "college",
                "building": "yes",
                "education": "college",
                "addr:street": "улица Малая Ордынка",
                "contact:phone": "+7 495 1341234",
                "building:levels": "5",
                "contact:website": "https://www.ks54.ru/",
                "addr:housenumber": "29",
                "education_level:secondary": "yes",
                "education_system:ru_standard": "yes",
                "education_profile:professional": "yes"
            }
        ]
    }
}