{
    "residents": 9540,
    "public_building": {
        "count": 2,
        "detail": [
            {
                "name": "КЦСО",
                "amenity": "public_building"
            },
            {
                "name": "КЦСО",
                "amenity": "public_building"
            }
        ]
    },
    "police": {
        "count": 2,
        "detail": [
            {
                "name": "ОПОП",
                "amenity": "police"
            },
            {
                "name": "ОПОП №51",
                "amenity": "police"
            }
        ]
    },
    "clinic": {
        "count": 1,
        "detail": [
            {
                "amenity": "clinic",
                "full_name": "Городская поликлиника №78 филиал №1 ГП №66",
                "healthcare": "clinic",
                "health_facility:type": "clinic",
                "name": "Поликлиника №66",
                "name:en": "Polyclinic №66"
            }
        ]
    },
    "bus_stop": {
        "count": 7,
        "detail": [
            {
                "name": "Поликлиника №78",
                "highway": "bus_stop",
                "shelter": "yes",
                "public_transport": "platform"
            },
            {
                "name": "Улица Татьяны Макаровой",
                "highway": "bus_stop",
                "shelter": "yes",
                "public_transport": "platform"
            },
            {
                "name": "Святоозёрская улица, 16",
                "highway": "bus_stop",
                "shelter": "yes",
                "public_transport": "platform"
            },
            {
                "name": "Святоозёрская улица, 16",
                "highway": "bus_stop",
                "shelter": "yes",
                "public_transport": "platform"
            },
            {
                "highway": "bus_stop",
                "name": "МФЦ \"Косино-Ухтомский\"",
                "old_name": "Святоозёрская улица, 14",
                "public_transport": "platform"
            },
            {
                "name": "Поликлиника №78",
                "highway": "bus_stop",
                "shelter": "yes",
                "public_transport": "platform"
            },
            {
                "name": "Улица Руднёвка",
                "highway": "bus_stop",
                "shelter": "yes",
                "public_transport": "platform"
            }
        ]
    },
    "pharmacy": {
        "count": 10,
        "detail": [
            {
                "name": "Гексал",
                "amenity": "pharmacy"
            },
            {
                "name": "ГорЗдрав",
                "amenity": "pharmacy"
            },
            {
                "amenity": "pharmacy",
                "brand": "36,6",
                "brand:wikidata": "Q226889",
                "brand:wikipedia": "ru:36,6 (аптечная сеть)",
                "contact:facebook": "https://www.facebook.com/apteka366",
                "contact:instagram": "https://www.instagram.com/apteka366",
                "contact:ok": "https://ok.ru/group/57486618853421",
                "contact:vk": "https://vk.com/apteka36i6",
                "contact:website": "https://apteka366.ru",
                "healthcare": "pharmacy",
                "name": "36,6",
                "name:ru": "36,6"
            },
            {
                "name": "РосАптека",
                "amenity": "pharmacy"
            },
            {
                "name": "ГорЗдрав",
                "amenity": "pharmacy"
            },
            {
                "name": "Будь здоров!",
                "amenity": "pharmacy"
            },
            {
                "amenity": "pharmacy"
            },
            {
                "amenity": "pharmacy",
                "opening_hours": "24/7"
            },
            {
                "name": "Аптечный пункт",
                "amenity": "pharmacy"
            },
            {
                "name": "Советская аптека",
                "amenity": "pharmacy",
                "opening_hours": "Mo-Su 09:00-21:00"
            }
        ]
    },
    "bank": {
        "count": 2,
        "detail": [
            {
                "amenity": "bank",
                "name": "Московский индустриальный банк",
                "operator": "ОАО \"МИнБ\"",
                "website": "https://www.minbank.ru/"
            },
            {
                "amenity": "bank",
                "atm": "yes",
                "branch": "Московский банк",
                "contact:facebook": "https://www.facebook.com/sberbank",
                "contact:instagram": "https://www.instagram.com/sberbank/",
                "contact:ok": "https://ok.ru/sberbank",
                "contact:phone": "+7 800 5555550",
                "contact:twitter": "https://twitter.com/sberbank/",
                "contact:vk": "https://vk.com/sberbank",
                "contact:website": "https://www.sberbank.ru",
                "contact:youtube": "https://www.youtube.com/sberbank",
                "name": "Сбербанк",
                "name:en": "Sberbank",
                "name:ru": "Сбербанк",
                "opening_hours": "Mo-Fr 10:00-20:30; Sa 10:00-18:00",
                "operator": "ПАО Сбербанк",
                "operator:wikidata": "Q205012",
                "operator:wikipedia": "ru:Сбербанк России",
                "ref": "9038/01842",
                "wheelchair": "yes"
            }
        ]
    },
    "hairdresser": {
        "count": 10,
        "detail": [
            {
                "name": "Алжена",
                "shop": "hairdresser"
            },
            {
                "shop": "hairdresser"
            },
            {
                "name": "Джулия",
                "shop": "hairdresser"
            },
            {
                "shop": "hairdresser"
            },
            {
                "shop": "hairdresser"
            },
            {
                "name": "Чубчик",
                "shop": "hairdresser",
                "description": "Детская парикмахерская"
            },
            {
                "name": "Любимая парикмахерская",
                "shop": "hairdresser"
            },
            {
                "name": "Парикмахерская №1",
                "shop": "hairdresser"
            },
            {
                "name": "Парикмахер",
                "shop": "hairdresser"
            },
            {
                "name": "Семейная парикмахерская",
                "shop": "hairdresser"
            }
        ]
    },
    "travel_agency": {
        "count": 1,
        "detail": [
            {
                "name": "Coral Travel",
                "shop": "travel_agency"
            }
        ]
    },
    "fabric": {
        "count": 1,
        "detail": [
            {
                "name": "Золотая Нить",
                "shop": "fabric"
            }
        ]
    },
    "mobile_phone": {
        "count": 1,
        "detail": [
            {
                "name": "Связной",
                "shop": "mobile_phone"
            }
        ]
    },
    "playground": {
        "count": 7,
        "detail": [
            {
                "leisure": "playground"
            },
            {
                "leisure": "playground"
            },
            {
                "leisure": "playground"
            },
            {
                "leisure": "playground"
            },
            {
                "leisure": "playground"
            },
            {
                "leisure": "playground"
            },
            {
                "leisure": "playground"
            }
        ]
    },
    "bench": {
        "count": 4,
        "detail": [
            {
                "amenity": "bench",
                "backrest": "yes"
            },
            {
                "amenity": "bench",
                "backrest": "yes"
            },
            {
                "amenity": "bench",
                "backrest": "yes"
            },
            {
                "amenity": "bench",
                "backrest": "yes"
            }
        ]
    },
    "toys": {
        "count": 4,
        "detail": [
            {
                "name": "Кораблик",
                "shop": "toys",
                "level": "3"
            },
            {
                "name": "Арт-мама",
                "shop": "toys",
                "level": "2"
            },
            {
                "name": "Колобок",
                "shop": "toys"
            },
            {
                "shop": "toys"
            }
        ]
    },
    "florist": {
        "count": 6,
        "detail": [
            {
                "name": "Цветочная база",
                "shop": "florist",
                "opening_hours": "24/7"
            },
            {
                "shop": "florist",
                "opening_hours": "24/7"
            },
            {
                "name": "Первый цветочный",
                "shop": "florist"
            },
            {
                "name": "Азбука цветов",
                "shop": "florist"
            },
            {
                "shop": "florist"
            },
            {
                "shop": "florist"
            }
        ]
    },
    "convenience": {
        "count": 11,
        "detail": [
            {
                "shop": "convenience"
            },
            {
                "shop": "convenience"
            },
            {
                "shop": "convenience"
            },
            {
                "name": "Минимаркет",
                "shop": "convenience"
            },
            {
                "shop": "convenience"
            },
            {
                "shop": "convenience"
            },
            {
                "name": "Гастроном",
                "shop": "convenience"
            },
            {
                "shop": "convenience"
            },
            {
                "name": "Гастроном",
                "shop": "convenience"
            },
            {
                "shop": "convenience"
            },
            {
                "name": "Здоровеньково",
                "shop": "convenience"
            }
        ]
    },
    "parking": {
        "count": 4,
        "detail": [
            {
                "amenity": "parking"
            },
            {
                "amenity": "parking"
            },
            {
                "amenity": "parking",
                "parking": "underground",
                "building": "garages",
                "addr:street": "улица Руднёвка",
                "building:levels": "1",
                "addr:housenumber": "29"
            },
            {
                "amenity": "parking",
                "parking": "multi-storey",
                "building": "yes",
                "addr:street": "улица Руднёвка",
                "addr:housenumber": "43А"
            }
        ]
    },
    "alcohol": {
        "count": 6,
        "detail": [
            {
                "brand": "Красное&Белое",
                "brand:wikidata": "Q24933790",
                "brand:wikipedia": "ru:Красное & Белое",
                "contact:facebook": "https://www.facebook.com/krasnoe.beloe",
                "contact:instagram": "https://www.instagram.com/krasnoebeloe",
                "contact:ok": "https://ok.ru/krasnoebeloe",
                "contact:telegram": "+7 922 7033000",
                "contact:viber": "+7 922 7033000",
                "contact:vk": "https://vk.com/krasnoebeloe",
                "contact:website": "https://krasnoeibeloe.ru",
                "contact:whatsapp": "+7 922 7033000",
                "name": "Красное&Белое",
                "name:ru": "Красное&Белое",
                "shop": "alcohol"
            },
            {
                "name": "Душевные напитки",
                "shop": "alcohol"
            },
            {
                "name": "Пивмаг",
                "shop": "alcohol"
            },
            {
                "name": "Разливное пиво",
                "shop": "alcohol"
            },
            {
                "name": "Разливные напитки",
                "shop": "alcohol"
            },
            {
                "name": "Фреш Бир",
                "shop": "alcohol",
                "description": "Разливные напитки"
            }
        ]
    },
    "cafe": {
        "count": 2,
        "detail": [
            {
                "name": "Сушишоп",
                "amenity": "cafe",
                "name:en": "Sushishop",
                "name:ru": "Сушишоп"
            },
            {
                "name": "Ёжики",
                "amenity": "cafe"
            }
        ]
    },
    "theatre": {
        "count": 1,
        "detail": [
            {
                "name": "Рыжий театр",
                "amenity": "theatre"
            }
        ]
    },
    "photo": {
        "count": 3,
        "detail": [
            {
                "shop": "photo"
            },
            {
                "name": "Твоё фото",
                "shop": "photo"
            },
            {
                "shop": "photo"
            }
        ]
    },
    "optician": {
        "count": 1,
        "detail": [
            {
                "shop": "optician"
            }
        ]
    },
    "newsagent": {
        "count": 4,
        "detail": [
            {
                "name": "Пресса",
                "shop": "newsagent",
                "building": "kiosk"
            },
            {
                "shop": "newsagent",
                "building": "kiosk"
            },
            {
                "name": "Пресса",
                "shop": "newsagent",
                "building": "yes"
            },
            {
                "name": "Пресса",
                "shop": "newsagent",
                "building": "kiosk"
            }
        ]
    },
    "bicycle_parking": {
        "count": 2,
        "detail": [
            {
                "amenity": "bicycle_parking"
            },
            {
                "amenity": "bicycle_parking"
            }
        ]
    },
    "cosmetics": {
        "count": 1,
        "detail": [
            {
                "name": "Faberlic",
                "shop": "cosmetics"
            }
        ]
    },
    "beauty": {
        "count": 2,
        "detail": [
            {
                "name": "Sun Queen",
                "shop": "beauty",
                "description": "Студия загара"
            },
            {
                "name": "Spa",
                "shop": "beauty"
            }
        ]
    },
    "doctors": {
        "count": 1,
        "detail": [
            {
                "name": "Доктор с вами",
                "amenity": "doctors"
            }
        ]
    },
    "recycling": {
        "count": 1,
        "detail": [
            {
                "note": "Приём отработанных батареек и градусников в переработку",
                "amenity": "recycling"
            }
        ]
    },
    "tobacco": {
        "count": 2,
        "detail": [
            {
                "shop": "tobacco"
            },
            {
                "shop": "tobacco"
            }
        ]
    },
    "clothes": {
        "count": 3,
        "detail": [
            {
                "name": "Кракатук",
                "shop": "clothes",
                "description": "Детская одежда"
            },
            {
                "name": "Gusto",
                "shop": "clothes",
                "level": "2",
                "description": "Мужская одежда"
            },
            {
                "name": "Надёжная джинса",
                "shop": "clothes",
                "level": "1"
            }
        ]
    },
    "supermarket": {
        "count": 1,
        "detail": [
            {
                "name": "Алми",
                "shop": "supermarket",
                "level": "-1",
                "opening_hours": "24/7"
            }
        ]
    },
    "restaurant": {
        "count": 1,
        "detail": [
            {
                "name": "Паприка",
                "amenity": "restaurant"
            }
        ]
    },
    "nightclub": {
        "count": 1,
        "detail": [
            {
                "name": "Паприка",
                "amenity": "nightclub"
            }
        ]
    },
    "shoes": {
        "count": 1,
        "detail": [
            {
                "name": "Наббаро",
                "shop": "shoes"
            }
        ]
    },
    "stationery": {
        "count": 1,
        "detail": [
            {
                "shop": "stationery",
                "level": "1"
            }
        ]
    },
    "post_box": {
        "count": 2,
        "detail": [
            {
                "amenity": "post_box"
            },
            {
                "amenity": "post_box"
            }
        ]
    },
    "fast_food": {
        "count": 1,
        "detail": [
            {
                "name": "ПицциКатто",
                "amenity": "fast_food",
                "cuisine": "pizza"
            }
        ]
    },
    "butcher": {
        "count": 2,
        "detail": [
            {
                "name": "Мясное изобилие",
                "shop": "butcher"
            },
            {
                "shop": "butcher"
            }
        ]
    },
    "copyshop": {
        "count": 2,
        "detail": [
            {
                "shop": "copyshop"
            },
            {
                "shop": "copyshop"
            }
        ]
    },
    "second_hand": {
        "count": 1,
        "detail": [
            {
                "name": "Комиссионный",
                "shop": "second_hand"
            }
        ]
    },
    "pet": {
        "count": 1,
        "detail": [
            {
                "name": "Котопёс",
                "shop": "pet"
            }
        ]
    },
    "doityourself": {
        "count": 2,
        "detail": [
            {
                "name": "Домовёнок",
                "shop": "doityourself",
                "description": "Товары для дома"
            },
            {
                "name": "Хозтовары",
                "shop": "doityourself"
            }
        ]
    },
    "driving_school": {
        "count": 1,
        "detail": [
            {
                "amenity": "driving_school"
            }
        ]
    },
    "bookmaker": {
        "count": 1,
        "detail": [
            {
                "contact:email": "info@ligastavok.ru",
                "contact:phone": "+7 800 5554455",
                "contact:website": "https://www.ligastavok.ru/",
                "name": "Лига Ставок",
                "opening_hours": "24/7",
                "operator": "Первая международная букмекерская компания",
                "shop": "bookmaker"
            }
        ]
    },
    "erotic": {
        "count": 2,
        "detail": [
            {
                "addr:postcode": "111675",
                "email": "adult-life.ru@yandex.ru",
                "name": "Магазин товаров для взрослых и интимных консультаций",
                "name:en": "Adult-life.ru",
                "opening_hours": "Mo-Su 14:00-03:00",
                "phone": "+79771326014",
                "shop": "erotic",
                "website": "http://Adult-life.ru"
            },
            {
                "addr:postcode": "111675",
                "email": "adult-life.ru@yandex.ru",
                "name": "Взрослая жизнь",
                "name:en": "Adult-life.ru",
                "opening_hours": "Mo-Su 14:00-01:00",
                "phone": "+79771326014",
                "shop": "erotic",
                "website": "http://Adult-life.ru"
            }
        ]
    },
    "arts_centre": {
        "count": 1,
        "detail": [
            {
                "name": "Дворец творчества \"Восточный\"",
                "amenity": "arts_centre",
                "building": "yes",
                "wheelchair": "yes",
                "addr:street": "улица Руднёвка",
                "building:levels": "2",
                "addr:housenumber": "37"
            }
        ]
    },
    "mall": {
        "count": 1,
        "detail": [
            {
                "name": "Торговый центр \"Зебра\"",
                "shop": "mall",
                "building": "yes",
                "wheelchair": "yes",
                "addr:street": "улица Руднёвка",
                "building:levels": "3",
                "addr:housenumber": "19"
            }
        ]
    },
    "school": {
        "count": 1,
        "detail": [
            {
                "building": "school",
                "addr:city": "Москва",
                "addr:street": "Святоозёрская улица",
                "building:levels": "2",
                "addr:housenumber": "17 с1"
            }
        ]
    }
}