{
    "residents": 12186,
    "bus_stop": {
        "count": 15,
        "detail": [
            {
                "bench": "yes",
                "bin": "yes",
                "bus": "yes",
                "highway": "bus_stop",
                "name": "1-я Прядильная улица",
                "public_transport": "platform",
                "shelter": "yes"
            },
            {
                "highway": "bus_stop",
                "name": "Измайловская площадь",
                "public_transport": "platform",
                "shelter": "yes",
                "tactile_paving": "no"
            },
            {
                "bin": "yes",
                "name": "1-я Парковая улица",
                "bench": "yes",
                "highway": "bus_stop",
                "shelter": "yes",
                "tactile_paving": "no",
                "public_transport": "platform"
            },
            {
                "name": "3-я Парковая улица",
                "highway": "bus_stop",
                "shelter": "yes",
                "tactile_paving": "no",
                "public_transport": "platform"
            },
            {
                "bin": "yes",
                "name": "Измайловская площадь",
                "bench": "yes",
                "highway": "bus_stop",
                "shelter": "yes",
                "tactile_paving": "no",
                "public_transport": "platform"
            },
            {
                "bin": "yes",
                "name": "Измайловская площадь",
                "bench": "yes",
                "highway": "bus_stop",
                "shelter": "yes",
                "tactile_paving": "yes",
                "public_transport": "platform"
            },
            {
                "bin": "yes",
                "name": "3-я Парковая улица",
                "bench": "yes",
                "highway": "bus_stop",
                "shelter": "yes",
                "tactile_paving": "no",
                "public_transport": "platform"
            },
            {
                "name": "Измайловский рынок",
                "highway": "bus_stop",
                "public_transport": "platform"
            },
            {
                "bus": "yes",
                "name": "Первомайская улица",
                "public_transport": "stop_position"
            },
            {
                "bin": "yes",
                "name": "Первомайская улица",
                "bench": "yes",
                "highway": "bus_stop",
                "shelter": "yes",
                "tactile_paving": "yes",
                "public_transport": "platform"
            },
            {
                "bin": "yes",
                "bench": "yes",
                "highway": "bus_stop",
                "shelter": "yes",
                "tactile_paving": "no",
                "public_transport": "platform"
            },
            {
                "bus": "yes",
                "name": "1-я Парковая улица",
                "public_transport": "stop_position"
            },
            {
                "bus": "yes",
                "name": "Измайловская площадь",
                "public_transport": "stop_position"
            },
            {
                "bench": "yes",
                "bin": "yes",
                "bus": "yes",
                "highway": "bus_stop",
                "name": "Измайловская площадь",
                "public_transport": "platform",
                "shelter": "yes"
            },
            {
                "bus": "yes",
                "name": "Измайловская площадь",
                "public_transport": "stop_position"
            }
        ]
    },
    "books": {
        "count": 1,
        "detail": [
            {
                "name": "Дом книги",
                "opening_hours": "Mo-Fr 09:00-21:00; Sa-Su 10:00-20:00",
                "operator": "ГУП ОЦ \"Московский Дом книги\"",
                "shop": "books",
                "wheelchair": "no"
            }
        ]
    },
    "outdoor": {
        "count": 1,
        "detail": [
            {
                "name": "АльпИндустрия",
                "shop": "outdoor",
                "opening_hours": "Mo-Su 10:00-22:00"
            }
        ]
    },
    "supermarket": {
        "count": 3,
        "detail": [
            {
                "name": "Billa",
                "shop": "supermarket",
                "brand": "Billa",
                "name:en": "Billa",
                "name:ru": "Билла",
                "operator": "ООО \"Билла\"",
                "contact:ok": "https://ok.ru/group/53124549640396",
                "contact:vk": "https://vk.com/billarussia",
                "addr:street": "Измайловская площадь",
                "contact:fax": "+7 495 7857501",
                "payment:cash": "yes",
                "payment:visa": "yes",
                "contact:email": "mail@billa.ru",
                "brand:wikidata": "Q537781",
                "brand:wikipedia": "ru:Billa",
                "contact:website": "http://www.billa.ru",
                "contact:youtube": "https://www.youtube.com/channel/UCSx84zsrpnikJX2PDnOYbMA",
                "addr:housenumber": "8",
                "contact:facebook": "https://www.facebook.com/billa.ru",
                "contact:instagram": "https://www.instagram.com/billarussia",
                "operator:wikidata": "Q537781",
                "operator:wikipedia": "ru:Billa",
                "payment:mastercard": "yes"
            },
            {
                "name": "Универсам",
                "shop": "supermarket",
                "payment:visa": "yes",
                "opening_hours": "Mo-Su 09:00-24:00",
                "payment:maestro": "yes",
                "payment:mastercard": "yes",
                "under_reconstruction:shop": "supermarket"
            },
            {
                "alt_name": "Перекрёсток",
                "brand": "Перекресток",
                "brand:wikidata": "Q1684639",
                "brand:wikipedia": "ru:Перекрёсток (сеть магазинов)",
                "contact:facebook": "https://www.facebook.com/perekrestok",
                "contact:instagram": "http://instagram.com/perekrestok",
                "contact:ok": "https://ok.ru/perekrestok.shop",
                "contact:phone": "+7 495 6628888",
                "contact:twitter": "https://twitter.com/perekrestok",
                "contact:vk": "https://vk.com/perekrestok_shop",
                "contact:website": "https://www.perekrestok.ru",
                "contact:youtube": "https://www.youtube.com/channel/UCY9Nwfy_8drHqif0iryQ7Vw",
                "name": "Перекресток",
                "name:ru": "Перекресток",
                "opening_hours": "Mo-Su 08:00-23:00",
                "operator": "Торговый дом \"ПЕРЕКРЕСТОК\"",
                "shop": "supermarket"
            }
        ]
    },
    "convenience": {
        "count": 5,
        "detail": [
            {
                "shop": "convenience",
                "opening_hours": "24/7"
            },
            {
                "name": "Надежда",
                "shop": "convenience",
                "addr:street": "3-я Парковая улица"
            },
            {
                "name": "Универсам",
                "shop": "convenience",
                "name:ru": "Универсам",
                "opening_hours": "Mo-Su 09:00-23:00"
            },
            {
                "name": "ВкусВилл",
                "shop": "convenience",
                "brand": "ВкусВилл",
                "name:ru": "ВкусВилл",
                "contact:vk": "https://vk.com/izbenka",
                "contact:email": "info@izbenka.msk.ru",
                "contact:phone": "+7 495 6638602",
                "opening_hours": "Mo-Su 08:00-23:00",
                "contact:website": "http://vkusvill.ru",
                "contact:facebook": "https://www.facebook.com/izbenka",
                "contact:telegram": "https://telegram.me/vkusvillbot",
                "contact:instagram": "https://www.instagram.com/izbenka_vkusvill"
            },
            {
                "brand": "ВкусВилл",
                "contact:email": "info@izbenka.msk.ru",
                "contact:facebook": "https://www.facebook.com/izbenka",
                "contact:instagram": "https://www.instagram.com/izbenka_vkusvill",
                "contact:phone": "+7 495 6638602",
                "contact:telegram": "https://telegram.me/vkusvillbot",
                "contact:vk": "https://vk.com/izbenka",
                "contact:website": "https://vkusvill.ru",
                "name": "ВкусВилл",
                "name:ru": "ВкусВилл",
                "shop": "convenience"
            }
        ]
    },
    "driving_school": {
        "count": 1,
        "detail": [
            {
                "amenity": "driving_school",
                "contact:email": "info@ano-fortuna.ru",
                "contact:phone": "+7 499 1634884;+7 499 1634984",
                "contact:website": "http://ano-fortuna.ru",
                "name": "Фортуна",
                "opening_hours": "Mo-Fr 10:00-13:00,14:00-18:30; Sa 10:00-13:00"
            }
        ]
    },
    "furniture": {
        "count": 1,
        "detail": [
            {
                "name": "КиС",
                "shop": "furniture",
                "opening_hours": "Mo-Sa 10:00-20:00; Su 10:00-18:00"
            }
        ]
    },
    "pharmacy": {
        "count": 4,
        "detail": [
            {
                "amenity": "pharmacy",
                "opening_hours": "Mo-Su 08:00-22:00"
            },
            {
                "amenity": "pharmacy",
                "brand": "Горздрав",
                "contact:email": "info@gor-zdrav.ru",
                "contact:facebook": "https://www.facebook.com/AptekaGorzdrav",
                "contact:instagram": "https://www.instagram.com/gorzdrav",
                "contact:ok": "https://ok.ru/group/57486617870381",
                "contact:phone": "+7 499 6536277",
                "contact:vk": "https://vk.com/gorzdrav",
                "contact:website": "https://gorzdrav.org",
                "name": "Горздрав",
                "name:ru": "Горздрав",
                "opening_hours": "Mo-Su 09:00-21:00"
            },
            {
                "amenity": "pharmacy",
                "contact:phone": "+7 929 6575984",
                "name": "Век Живи",
                "opening_hours": "Mo-Su 09:00-21:00"
            },
            {
                "name": "Столички",
                "brand": "Столички",
                "amenity": "pharmacy",
                "name:en": "Stolichki",
                "name:ru": "Столички",
                "operator": "ООО «НЕО-ФАРМ»",
                "contact:vk": "https://vk.com/stolichki_official",
                "healthcare": "pharmacy",
                "opening_hours": "Mo-Fr 08:00-21:00; Sa-Su 09:00-21:00",
                "contact:website": "http://stolichki.ru",
                "contact:facebook": "https://www.facebook.com/stolichki/",
                "contact:instagram": "https://www.instagram.com/stolichki/"
            }
        ]
    },
    "florist": {
        "count": 3,
        "detail": [
            {
                "name": "Цветосклад",
                "opening_hours": "24/7",
                "shop": "florist"
            },
            {
                "opening_hours": "Mo-Fr 09:00-20:00; Sa 10:00-18:00; Su 10:00-17:00",
                "payment:cash": "yes",
                "payment:credit_cards": "no",
                "payment:debit_cards": "no",
                "shop": "florist",
                "wheelchair": "no"
            },
            {
                "name": "Город цветов",
                "shop": "florist",
                "name:ru": "Город цветов",
                "opening_hours": "Mo-Su 08:00-22:00"
            }
        ]
    },
    "atm": {
        "count": 2,
        "detail": [
            {
                "amenity": "atm",
                "cash_in": "yes",
                "operator": "Росбанк",
                "currency:EUR": "yes",
                "currency:RUB": "yes",
                "opening_hours": "24/7"
            },
            {
                "amenity": "atm",
                "contact:email": "sberbank@sberbank.ru",
                "contact:facebook": "https://www.facebook.com/bankdruzey",
                "contact:instagram": "https://instagram.com/sberbank",
                "contact:website": "https://www.sberbank.ru",
                "currency:RUB": "yes",
                "note": "Банкомат внутри магазина",
                "opening_hours": "Mo-Su 09:00-24:00",
                "operator": "Сбербанк",
                "operator:wikidata": "Q205012",
                "operator:wikipedia": "ru:Сбербанк России"
            }
        ]
    },
    "bank": {
        "count": 2,
        "detail": [
            {
                "atm": "yes",
                "bic": "RSBNRUMM",
                "name": "Росбанк",
                "amenity": "bank",
                "name:en": "Rosbank",
                "name:ru": "Росбанк",
                "addr:city": "Москва",
                "contact:vk": "https://vk.com/rosbank",
                "addr:street": "Измайловская площадь",
                "addr:postcode": "105037",
                "contact:phone": "+7 800 2005434",
                "opening_hours": "Mo-Fr 09:00-20:00; Sa 10:00-17:00",
                "contact:twitter": "https://twitter.com/Rosbank_Info",
                "contact:website": "https://www.rosbank.ru",
                "addr:housenumber": "1",
                "contact:facebook": "https://www.facebook.com/Rosbank-598134936938972/",
                "operator:wikidata": "Q1119857",
                "operator:wikipedia": "ru:Росбанк"
            },
            {
                "name": "ДО \"Измайловский\"",
                "amenity": "bank",
                "website": "www.krkbank.ru",
                "operator": "КРК Банк",
                "opening_hours": "Mo-Fr 09:00-20:00; Sa 10:00-19:00"
            }
        ]
    },
    "post_box": {
        "count": 3,
        "detail": [
            {
                "ref": "1152",
                "amenity": "post_box",
                "operator": "Почта России",
                "collection_times": "Mo-Fr 10:16,17:16; Sa-Su 16:24"
            },
            {
                "ref": "1140",
                "amenity": "post_box",
                "operator": "Почта России",
                "collection_times": "Mo-Fr 17:32,00:22; Sa-Su 15:33"
            },
            {
                "amenity": "post_box"
            }
        ]
    },
    "fast_food": {
        "count": 3,
        "detail": [
            {
                "amenity": "fast_food",
                "cuisine": "japanese",
                "name": "Суши Сити",
                "opening_hours": "Mo-Su 10:00-23:00",
                "website": "https://sushi-city.com/"
            },
            {
                "amenity": "fast_food",
                "brand": "Макдоналдс",
                "brand:wikidata": "Q38076",
                "brand:wikipedia": "en:McDonald’s",
                "contact:email": "info@ru.mcd.com",
                "contact:facebook": "https://www.facebook.com/mcdonaldsrussia",
                "contact:instagram": "https://www.instagram.com/mcdonalds_rus/",
                "contact:phone": "+7 495 9265492",
                "contact:vk": "https://vk.com/mcdonaldsrussia",
                "contact:website": "https://mcdonalds.ru",
                "contact:youtube": "https://www.youtube.com/user/McDonaldsRussia",
                "cuisine": "burger",
                "diet:vegetarian": "no",
                "name": "Макдоналдс",
                "name:en": "McDonald's",
                "name:ru": "Макдоналдс",
                "takeaway": "yes"
            },
            {
                "name": "Домино’c Пицца",
                "brand": "Домино’c Пицца",
                "amenity": "fast_food",
                "cuisine": "pizza",
                "name:en": "Domino’s Pizza",
                "name:ru": "Домино’c Пицца",
                "delivery": "yes",
                "contact:vk": "https://vk.com/dominospizza_ru",
                "brand:wikidata": "Q839466",
                "brand:wikipedia": "ru:Domino’s Pizza",
                "contact:website": "https://dominospizza.ru/",
                "diet:vegetarian": "no",
                "contact:facebook": "https://www.facebook.com/dominospizzarussia",
                "contact:instagram": "https://www.instagram.com/dominospizza_ru/"
            }
        ]
    },
    "hairdresser": {
        "count": 5,
        "detail": [
            {
                "shop": "hairdresser",
                "opening_hours": "Mo-Sa 11:00-20:00"
            },
            {
                "name": "Эконом-парикмахерская",
                "shop": "hairdresser",
                "cuisine": "ice_cream",
                "name:ru": "Эконом-парикмахерская",
                "smoking": "no",
                "wheelchair": "limited",
                "opening_hours": "Mo-Su 09:00-21:00"
            },
            {
                "name": "Наша парикмахерская",
                "shop": "hairdresser"
            },
            {
                "shop": "hairdresser"
            },
            {
                "shop": "hairdresser",
                "level": "-1",
                "operator": "И.П. Полунина В.Е.",
                "wheelchair": "no",
                "opening_hours": "Mo-Fr 10:00-20:00;Sa-Su 11:00-18:00"
            }
        ]
    },
    "toilets": {
        "count": 1,
        "detail": [
            {
                "fee": "no",
                "level": "-1",
                "access": "public",
                "amenity": "toilets",
                "wheelchair": "no",
                "drinking_water": "no",
                "toilets:disposal": "flush",
                "toilets:position": "seated;urinal"
            }
        ]
    },
    "telephone": {
        "count": 1,
        "detail": [
            {
                "amenity": "telephone"
            }
        ]
    },
    "restaurant": {
        "count": 3,
        "detail": [
            {
                "amenity": "restaurant",
                "name": "СольФаСоль",
                "opening_hours": "Mo-Su 11:00-23:00",
                "smoking": "no"
            },
            {
                "addr:street": "Первомайская улица",
                "amenity": "restaurant",
                "cuisine": "british",
                "name": "Temple Bar",
                "name:ru": "Темпл бар",
                "opening_hours": "Su-Th 12:00-24:00; Fr-Sa 12:00-02:00",
                "website": "http://www.templebar.ru/restoran-na-pervomajskoj"
            },
            {
                "amenity": "restaurant",
                "cuisine": "asian",
                "name": "Тай Сан",
                "name:ru": "Тай Сан",
                "opening_hours": "Mo-Su 12:00-00:00"
            }
        ]
    },
    "playground": {
        "count": 3,
        "detail": [
            {
                "leisure": "playground"
            },
            {
                "leisure": "playground",
                "opening_hours": "24/7"
            },
            {
                "leisure": "playground"
            }
        ]
    },
    "bicycle": {
        "count": 2,
        "detail": [
            {
                "name": "Ремонт велосипедов",
                "shop": "bicycle",
                "service:bicycle:repair": "yes"
            },
            {
                "addr:housenumber": "34/16",
                "addr:street": "Первомайская улица",
                "name": "Veloremont.ru",
                "name:en": "Veloremont.ru",
                "opening_hours": "11:00-21:00",
                "payment:cash": "yes",
                "payment:mastercard": "yes",
                "payment:visa": "yes",
                "phone": "+7 499 7058812",
                "service:bicycle:bicycle": "yes",
                "service:bicycle:ebike": "yes",
                "service:bicycle:mtb": "yes",
                "service:bicycle:parts": "yes",
                "service:bicycle:repair": "yes",
                "service:bicycle:service": "yes",
                "shop": "bicycle",
                "website": "https://veloremont.ru/"
            }
        ]
    },
    "outpost": {
        "count": 2,
        "detail": [
            {
                "brand": "Wildberries",
                "brand:wikidata": "Q24933714",
                "brand:wikipedia": "ru:Wildberries",
                "contact:email": "sales@wildberries.ru",
                "contact:facebook": "https://www.facebook.com/wbbot",
                "contact:instagram": "https://www.instagram.com/wildberriesru",
                "contact:ok": "https://ok.ru/wildberries",
                "contact:skype": "Wildberries_ru",
                "contact:telegram": "wbshop_bot",
                "contact:twitter": "https://twitter.com/wildberries_ru",
                "contact:viber": "wildberries",
                "contact:vk": "https://vk.com/wbbot",
                "contact:website": "https://www.wildberries.ru",
                "contact:whatsapp": "+7 926 5373137",
                "contact:youtube": "https://www.youtube.com/user/Wildberriesshop",
                "level": "-1",
                "name": "Wildberries",
                "name:en": "Wildberries",
                "shop": "outpost"
            },
            {
                "addr:postcode": "105043",
                "description": "Интернет-магазин самокатов Weelz, пункт выдачи заказов",
                "email": "weelzpay@gmail.com",
                "name": "Weelz.ru",
                "opening_hours": "Mo-Su 12:00-19:00",
                "phone": "+7 926 5972255",
                "shop": "outpost",
                "website": "https://weelz.ru/"
            }
        ]
    },
    "clinic": {
        "count": 5,
        "detail": [
            {
                "name": "Фертимед",
                "amenity": "clinic",
                "opening_hours": "Mo-Sa 09:00-20:00; Su 09:00-18:00"
            },
            {
                "amenity": "clinic",
                "healthcare": "clinic",
                "health_facility:type": "clinic",
                "name": "Ваш Доктор"
            },
            {
                "amenity": "clinic",
                "healthcare": "clinic",
                "health_facility:type": "clinic",
                "name": "Фертимед"
            },
            {
                "name": "Медицинский центр",
                "amenity": "clinic",
                "building": "yes",
                "addr:city": "Москва",
                "healthcare": "clinic",
                "roof:shape": "hipped",
                "addr:street": "1-я Прядильная улица",
                "addr:postcode": "105037",
                "roof:material": "metal",
                "building:levels": "2",
                "addr:housenumber": "5",
                "health_facility:type": "clinic"
            },
            {
                "name": "Детская поликлиника №20",
                "amenity": "clinic",
                "building": "yes",
                "healthcare": "clinic",
                "addr:street": "Первомайская улица",
                "building:levels": "3",
                "addr:housenumber": "10А",
                "provided_for:child": "yes",
                "provided_for:infant": "yes",
                "health_facility:type": "clinic",
                "provided_for:toddler": "yes",
                "provided_for:adolescent": "yes"
            }
        ]
    },
    "pet": {
        "count": 2,
        "detail": [
            {
                "name": "Petshop.ru",
                "shop": "pet",
                "addr:city": "Москва",
                "addr:street": "Измайловская площадь",
                "opening_hours": "Mo-Su 09:00-22:00",
                "addr:housenumber": "1"
            },
            {
                "name": "Кошкин дом",
                "shop": "pet",
                "name:ru": "Кошкин дом",
                "opening_hours": "Mo-Fr 10:00-21:00; Sa 10:00-20:00; Su 11:00-20:00"
            }
        ]
    },
    "beauty": {
        "count": 1,
        "detail": [
            {
                "name": "Шарм",
                "shop": "beauty",
                "name:ru": "Шарм",
                "opening_hours": "PH,Mo-Su 09:00-21:00"
            }
        ]
    },
    "butcher": {
        "count": 1,
        "detail": [
            {
                "name": "Индейкин дом",
                "shop": "butcher",
                "name:ru": "Индейкин дом",
                "opening_hours": "Mo-Sa 09:00-21:00; Su 09:00-20:00"
            }
        ]
    },
    "ice_cream": {
        "count": 1,
        "detail": [
            {
                "amenity": "ice_cream",
                "brand": "Айсберри",
                "building": "kiosk",
                "building:levels": "1"
            }
        ]
    },
    "hardware": {
        "count": 2,
        "detail": [
            {
                "name": "Крепмаркет",
                "shop": "hardware",
                "name:ru": "Крепмаркет",
                "opening_hours": "Mo-Sa 08:00-21:00; Su 09:00-20:00"
            },
            {
                "name": "Стройхозмаг",
                "shop": "hardware"
            }
        ]
    },
    "alcohol": {
        "count": 4,
        "detail": [
            {
                "name": "Бахус",
                "shop": "alcohol",
                "name:ru": "Бахус"
            },
            {
                "shop": "alcohol",
                "drink:beer": "yes",
                "inscription": "Пиво"
            },
            {
                "name": "Ароматный мир",
                "shop": "alcohol",
                "operator": "ООО \"Арома Маркет\"",
                "payment:mir": "yes",
                "payment:cash": "yes",
                "payment:visa": "yes",
                "opening_hours": "Mo-Sa 09:30-22:30; Su 11:00-22:00",
                "payment:maestro": "yes",
                "payment:mastercard": "yes",
                "payment:visa_electron": "yes",
                "payment:american_express": "yes"
            },
            {
                "name": "Винлаб",
                "shop": "alcohol",
                "wheelchair": "no",
                "payment:mir": "yes",
                "payment:cash": "yes",
                "payment:visa": "yes",
                "opening_hours": "Mo-Su 10:00-22:00",
                "payment:mastercard": "yes"
            }
        ]
    },
    "clothes": {
        "count": 3,
        "detail": [
            {
                "name": "Пассаж",
                "shop": "clothes",
                "name:ru": "Пассаж",
                "opening_hours": "Mo-Su 10:00-21:00"
            },
            {
                "addr:postcode": "105043",
                "clothes": "military",
                "contact:phone": "+7 800 1004128",
                "contact:website": "https://tilovik.ru",
                "email": "zakaz@tilovik.ru",
                "name": "Тыловик",
                "opening_hours": "Mo-Su 09:00-21:00",
                "shop": "clothes"
            },
            {
                "name": "Ивановский трикотаж текстиль",
                "shop": "clothes"
            }
        ]
    },
    "optician": {
        "count": 1,
        "detail": [
            {
                "name": "Пенсне",
                "shop": "optician",
                "name:ru": "Пенсне",
                "opening_hours": "Mo-Su 09:00-21:00"
            }
        ]
    },
    "bench": {
        "count": 5,
        "detail": [
            {
                "amenity": "bench"
            },
            {
                "amenity": "bench",
                "backrest": "yes"
            },
            {
                "colour": "brown",
                "amenity": "bench",
                "material": "wood"
            },
            {
                "colour": "brown",
                "amenity": "bench",
                "material": "wood"
            },
            {
                "colour": "brown",
                "amenity": "bench",
                "backrest": "no",
                "material": "wood"
            }
        ]
    },
    "waste_basket": {
        "count": 3,
        "detail": [
            {
                "amenity": "waste_basket"
            },
            {
                "waste": "trash",
                "amenity": "waste_basket"
            },
            {
                "waste": "trash",
                "amenity": "waste_basket"
            }
        ]
    },
    "doctors": {
        "count": 2,
        "detail": [
            {
                "alt_name": "Центр молекулярной диагностики",
                "amenity": "doctors",
                "brand": "CMD",
                "contact:email": "info@cmd-online.ru",
                "contact:facebook": "https://www.facebook.com/cmd.online.social",
                "contact:instagram": "https://www.instagram.com/cmd_insta",
                "contact:ok": "https://ok.ru/cmdonline",
                "contact:phone": "+7 495 7880001",
                "contact:twitter": "https://twitter.com/CMD_online",
                "contact:vk": "https://vk.com/cmd.online",
                "contact:website": "https://www.cmd-online.ru",
                "contact:youtube": "https://www.youtube.com/channel/UCJLzXIczpWCx7Gelbmc3sAw",
                "healthcare": "laboratory",
                "health_facility:type": "laboratory",
                "health_specialty:microbiology": "yes",
                "medical_system:western": "yes",
                "name": "CMD",
                "name:en": "CMD"
            },
            {
                "name": "Эфис",
                "amenity": "doctors"
            }
        ]
    },
    "wine": {
        "count": 1,
        "detail": [
            {
                "name": "Винлаб",
                "opening_hours": "Mo-Su 10:00-22:00",
                "shop": "wine"
            }
        ]
    },
    "waste_disposal": {
        "count": 6,
        "detail": [
            {
                "amenity": "waste_disposal"
            },
            {
                "amenity": "waste_disposal"
            },
            {
                "amenity": "waste_disposal"
            },
            {
                "amenity": "waste_disposal"
            },
            {
                "amenity": "waste_disposal"
            },
            {
                "amenity": "waste_disposal"
            }
        ]
    },
    "grit_bin": {
        "count": 1,
        "detail": [
            {
                "amenity": "grit_bin"
            }
        ]
    },
    "vending_machine": {
        "count": 1,
        "detail": [
            {
                "amenity": "vending_machine",
                "contact:phone": "+7 495 5395454",
                "contact:website": "http://parking.mos.ru/",
                "opening_hours": "24/7",
                "operator": "ГКУ «Администратор Московского парковочного пространства»",
                "payment:cash": "no",
                "payment:credit_cards": "yes",
                "payment:debit_cards": "yes",
                "ref": "4010",
                "ref:mos_parking": "859915233",
                "vending": "parking_tickets",
                "zone:parking": "4042"
            }
        ]
    },
    "toys": {
        "count": 1,
        "detail": [
            {
                "name": "AirSoft-Rus",
                "shop": "toys",
                "website": "https://airsoft-rus.ru"
            }
        ]
    },
    "fabric": {
        "count": 1,
        "detail": [
            {
                "inscription": "Ткани",
                "level": "-1",
                "noname": "yes",
                "opening_hours": "Mo-Fr 10:00-20:00;Sa 11:00-18:00;Su 11:00-17:00",
                "operator": "ИП Литовских ВВ",
                "shop": "fabric",
                "wheelchair": "no"
            }
        ]
    },
    "parking": {
        "count": 2,
        "detail": [
            {
                "fee": "no",
                "amenity": "parking"
            },
            {
                "fee": "no",
                "amenity": "parking"
            }
        ]
    },
    "marketplace": {
        "count": 1,
        "detail": [
            {
                "name": "Ярмарка выходного дня",
                "amenity": "marketplace"
            }
        ]
    },
    "sports_centre": {
        "count": 1,
        "detail": [
            {
                "name": "Ямуна",
                "sport": "yoga",
                "leisure": "sports_centre"
            }
        ]
    },
    "bicycle_parking": {
        "count": 4,
        "detail": [
            {
                "amenity": "bicycle_parking",
                "bicycle_parking": "wall_loops",
                "capacity": "4",
                "covered": "no"
            },
            {
                "amenity": "bicycle_parking",
                "bicycle_parking": "stands",
                "capacity": "6",
                "covered": "no"
            },
            {
                "amenity": "bicycle_parking",
                "capacity": "4"
            },
            {
                "amenity": "bicycle_parking"
            }
        ]
    },
    "shoes": {
        "count": 1,
        "detail": [
            {
                "name": "Юничел",
                "shop": "shoes"
            }
        ]
    },
    "tobacco": {
        "count": 1,
        "detail": [
            {
                "inscription": "Табак напитки",
                "shop": "tobacco"
            }
        ]
    },
    "cafe": {
        "count": 2,
        "detail": [
            {
                "addr:city": "Москва",
                "addr:housenumber": "33",
                "addr:postcode": "105037",
                "addr:street": "Первомайская улица",
                "amenity": "cafe",
                "cuisine": "coffee_shop",
                "internet_access": "no",
                "name": "Кофейня на Первомайской 33",
                "outdoor_seating": "yes"
            },
            {
                "addr:housenumber": "35/18",
                "addr:postcode": "105043",
                "addr:street": "Первомайская улица",
                "amenity": "cafe",
                "name": "ПаПан",
                "phone": "+7 968 8696900",
                "website": "http://papan-bakery.ru/"
            }
        ]
    },
    "bookmaker": {
        "count": 1,
        "detail": [
            {
                "contact:email": "info@ligastavok.ru",
                "contact:phone": "+7 800 5554455",
                "contact:website": "https://www.ligastavok.ru/",
                "name": "Лига Ставок",
                "opening_hours": "24/7",
                "operator": "Первая международная букмекерская компания",
                "shop": "bookmaker"
            }
        ]
    },
    "bakery": {
        "count": 1,
        "detail": [
            {
                "name": "Пекарня",
                "shop": "bakery"
            }
        ]
    },
    "pyrotechnics": {
        "count": 1,
        "detail": [
            {
                "contact:phone": "+7 495 2151288;+7 800 3335998",
                "contact:website": "https://www.rusalut.ru/",
                "name": "Rusalut",
                "opening_hours": "Mo-Su 10:00-21:00",
                "operator": "Бочаров Евгений Викторович",
                "shop": "pyrotechnics"
            }
        ]
    },
    "school": {
        "count": 2,
        "detail": [
            {
                "building": "school",
                "addr:street": "2-я Парковая улица",
                "building:levels": "5",
                "addr:housenumber": "11"
            },
            {
                "addr:housenumber": "27А",
                "addr:street": "Первомайская улица",
                "amenity": "school",
                "building": "yes",
                "email": "sch445ool@mail.ru",
                "name": "Школа №445",
                "official_name": "Средняя общеобразовательная школа №445",
                "website": "https://sch445.mskobr.ru/"
            }
        ]
    },
    "service": {
        "count": 1,
        "detail": [
            {
                "building": "service",
                "addr:street": "Первомайская улица",
                "building:levels": "1",
                "addr:housenumber": "10А с1"
            }
        ]
    },
    "community_centre": {
        "count": 1,
        "detail": [
            {
                "name": "Дом культуры Строителей",
                "amenity": "community_centre",
                "building": "yes",
                "addr:street": "Измайловская площадь",
                "building:levels": "2",
                "addr:housenumber": "1А"
            }
        ]
    },
    "kindergarten": {
        "count": 1,
        "detail": [
            {
                "addr:housenumber": "17А",
                "addr:street": "Первомайская улица",
                "building": "kindergarten",
                "building:levels": "3"
            }
        ]
    },
    "mall": {
        "count": 1,
        "detail": [
            {
                "addr:housenumber": "24",
                "addr:street": "3-я Парковая улица",
                "building": "retail",
                "building:levels": "4",
                "name": "Торговый центр \"Парагон\"",
                "shop": "mall"
            }
        ]
    }
}