{
    "bus_stop": {
        "count": 8,
        "detail": [
            {
                "name": "Косинская улица",
                "highway": "bus_stop",
                "shelter": "yes",
                "wheelchair": "yes",
                "public_transport": "platform"
            },
            {
                "name": "Косинская улица",
                "highway": "bus_stop",
                "shelter": "yes",
                "wheelchair": "yes",
                "public_transport": "platform"
            },
            {
                "name": "Кинотеатр «Энтузиаст» — Колледж",
                "highway": "bus_stop",
                "wheelchair": "yes",
                "public_transport": "platform"
            },
            {
                "name": "Кинотеатр «Энтузиаст» — Колледж",
                "highway": "bus_stop",
                "wheelchair": "yes",
                "public_transport": "platform"
            },
            {
                "highway": "bus_stop",
                "name": "Косинская улица, 4",
                "shelter": "yes"
            },
            {
                "highway": "bus_stop",
                "name": "Косинская улица, 4",
                "shelter": "yes"
            },
            {
                "highway": "bus_stop",
                "name": "Музыкальная школа",
                "shelter": "yes"
            },
            {
                "highway": "bus_stop",
                "name": "Музыкальная школа",
                "shelter": "yes"
            }
        ]
    },
    "residents": 4197,
    "waste_disposal": {
        "count": 3,
        "detail": [
            {
                "amenity": "waste_disposal"
            },
            {
                "amenity": "waste_disposal"
            },
            {
                "amenity": "waste_disposal"
            }
        ]
    },
    "parking": {
        "count": 5,
        "detail": [
            {
                "amenity": "parking"
            },
            {
                "amenity": "parking"
            },
            {
                "amenity": "parking"
            },
            {
                "amenity": "parking"
            },
            {
                "amenity": "parking"
            }
        ]
    },
    "convenience": {
        "count": 1,
        "detail": [
            {
                "shop": "convenience"
            }
        ]
    },
    "car_repair": {
        "count": 1,
        "detail": [
            {
                "shop": "car_repair",
                "service": "tyres",
                "description": "Шиномонтаж"
            }
        ]
    },
    "taxi": {
        "count": 1,
        "detail": [
            {
                "amenity": "taxi"
            }
        ]
    },
    "clinic": {
        "count": 1,
        "detail": [
            {
                "addr:city": "Москва",
                "addr:housenumber": "3",
                "addr:street": "Косинская улица",
                "amenity": "clinic",
                "building": "yes",
                "building:levels": "7",
                "contact:facebook": "https://www.facebook.com/mosdermsk",
                "contact:instagram": "https://www.instagram.com/mosdermsk/",
                "contact:vk": "https://vk.com/mosdermsk",
                "contact:youtube": "https://www.youtube.com/channel/UCDF7gw-rWMhFHVggROZohGw",
                "healthcare": "clinic",
                "health_facility:type": "clinic",
                "name": "ГБУЗ МНПЦДК ДЗМ филиал Клиника им. В.Г. Короленко",
                "old_name": "Кожно-венерологический диспансер № 15",
                "opening_hours": "Mo-Fr 08:00-20:00; Sa 09:00-16:00",
                "phone": "74957700950;74995585828;74957700994",
                "website": "https://www.mosderm.ru/"
            }
        ]
    },
    "school": {
        "count": 2,
        "detail": [
            {
                "addr:housenumber": "10А",
                "addr:street": "Косинская улица",
                "building": "school",
                "building:levels": "4",
                "name": "Школа №402 имени Алии Молдагуловой (школьный корпус \"Мой профиль\")",
                "website": "https://sch402.mskobr.ru"
            },
            {
                "addr:housenumber": "10Б",
                "addr:street": "Косинская улица",
                "amenity": "music_school",
                "building": "school",
                "name": "Детская музыкальная школа имени Ференца Листа",
                "website": "https://vk.com/lisztmusicschool"
            }
        ]
    },
    "kindergarten": {
        "count": 2,
        "detail": [
            {
                "addr:housenumber": "4А",
                "addr:postcode": "111538",
                "addr:street": "Косинская улица",
                "building": "kindergarten",
                "building:levels": "2"
            },
            {
                "addr:housenumber": "25А",
                "addr:postcode": "111538",
                "addr:street": "Вешняковская улица",
                "building": "kindergarten",
                "building:levels": "2"
            }
        ]
    },
    "social_facility": {
        "count": 1,
        "detail": [
            {
                "name": "Дом Ребенка №15",
                "note": "Большая часть amenity=baby_hatch в России ошибочны. baby_hatch - не детский дом и не интернат (см. wiki и википедию). Либо нужно заменить на amenity=social_facility, либо оставить note что это действительно бэби-бокс",
                "amenity": "social_facility",
                "alt_name": "ГУ Специализированный Дом Ребенка №15",
                "building": "yes",
                "addr:street": "Вешняковская улица",
                "addr:postcode": "111538",
                "building:levels": "3",
                "social_facility": "group_home",
                "addr:housenumber": "27А"
            }
        ]
    },
    "sports_centre": {
        "count": 1,
        "detail": [
            {
                "name": "Семейный спортивно-оздоровительный комплекс \"Новое поколение - Вешняки\"",
                "phone": "+7 499 7864560",
                "sport": "swimming",
                "leisure": "sports_centre",
                "website": "http://vaosport.ru/foki/novoe-pokolenie-veshnyaki/o-fok",
                "building": "yes",
                "short_name": "ССОК \"Новое поколение - Вешняки\"",
                "addr:street": "Косинская улица",
                "addr:housenumber": "12Б"
            }
        ]
    }
}