{
    "residents": 2508,
    "bus_stop": {
        "count": 11,
        "detail": [
            {
                "bus": "yes",
                "highway": "bus_stop",
                "name": "Колхозный рынок",
                "name:en": "Kolkhoz Market (Kolkhozniy rynok)",
                "name:tt": "Колхоз базары",
                "public_transport": "platform",
                "trolleybus": "yes"
            },
            {
                "bus": "yes",
                "highway": "bus_stop",
                "name": "Колхозный рынок",
                "name:en": "Kolkhoz market (Kolkhozniy rynok)",
                "name:tt": "Колхоз базары",
                "public_transport": "platform",
                "trolleybus": "yes"
            },
            {
                "highway": "bus_stop",
                "name": "Колхозный рынок",
                "name:tt": "Колхоз базары",
                "public_transport": "platform"
            },
            {
                "highway": "bus_stop",
                "name": "Колхозный рынок",
                "name:tt": "Колхоз базары",
                "public_transport": "platform"
            },
            {
                "name": "Колхозный рынок",
                "tram": "yes",
                "highway": "bus_stop",
                "name:tt": "Колхоз базары",
                "railway": "tram_stop",
                "public_transport": "platform"
            },
            {
                "bus": "yes",
                "name": "Колхозный рынок",
                "public_transport": "stop_position"
            },
            {
                "bus": "yes",
                "name": "Колхозный рынок",
                "name:tt": "Колхоз базары",
                "public_transport": "stop_position",
                "trolleybus": "yes"
            },
            {
                "bus": "yes",
                "name": "Колхозный рынок",
                "name:tt": "Колхоз базары",
                "public_transport": "stop_position",
                "trolleybus": "yes"
            },
            {
                "bus": "yes",
                "highway": "bus_stop",
                "name": "ул.Худякова",
                "public_transport": "platform"
            },
            {
                "bus": "yes",
                "highway": "bus_stop",
                "name": "ул.Худякова",
                "public_transport": "platform"
            },
            {
                "bus": "yes",
                "name": "Колхозный рынок",
                "public_transport": "stop_position"
            }
        ]
    },
    "fountain": {
        "count": 2,
        "detail": [
            {
                "name": "«Владыкой мира будет труд»",
                "amenity": "fountain",
                "tourism": "artwork",
                "artist_name": "Садри Ахунов",
                "description": "Выполнена известным скульптором Садри Ахуновым в 1935 году. В основе идеи создания скульптуры лежит прославление труда на всем земном шаре.",
                "artwork_type": "sculpture"
            },
            {
                "amenity": "fountain"
            }
        ]
    },
    "fuel": {
        "count": 1,
        "detail": [
            {
                "addr:postcode": "420021",
                "amenity": "fuel",
                "name": "Shell",
                "opening_hours": "24/7",
                "operator": "Shell",
                "phone": "+7 917 2301019",
                "website": "https://www.shell.com.ru/"
            }
        ]
    },
    "travel_agency": {
        "count": 2,
        "detail": [
            {
                "name": "Ариадна",
                "shop": "travel_agency",
                "phone": "+78432009912",
                "name:en": "Ariadna",
                "website": "http://всепутевки.рф"
            },
            {
                "shop": "travel_agency"
            }
        ]
    },
    "fast_food": {
        "count": 7,
        "detail": [
            {
                "addr:postcode": "420111",
                "amenity": "fast_food",
                "brand:wikidata": "Q177054",
                "brand:wikipedia": "ru:Burger King",
                "contact:email": "FeedBack@burgerking.ru",
                "contact:phone": "+7 800 5504545-4146;+7 800 7003232",
                "contact:website": "https://burgerking.ru/",
                "cuisine": "american;burger;sandwich",
                "internet_access": "wlan",
                "internet_access:fee": "no",
                "name": "Бургер Кинг",
                "name:en": "Burger King",
                "name:ru": "Бургер Кинг",
                "opening_hours": "Mo-Su 07:00 - 24:00",
                "operator": "БУРГЕР РУС",
                "operator:phone": "+7 495 5445000",
                "ref": "146",
                "takeaway": "yes"
            },
            {
                "amenity": "fast_food",
                "fast_food": "cafeteria"
            },
            {
                "name": "Покровские пекарни",
                "amenity": "fast_food",
                "name:en": "Pokrovskie pekarni"
            },
            {
                "amenity": "fast_food"
            },
            {
                "amenity": "fast_food",
                "contact:email": "info@pizzahut.ru",
                "contact:facebook": "https://www.facebook.com/PizzaHutRussia",
                "contact:instagram": "https://www.instagram.com/pizzahutrussia/",
                "contact:phone": "+7 800 1001958",
                "contact:vk": "https://vk.com/pizzahutrussia",
                "contact:website": "https://kazan.pizzahut.ru/",
                "cuisine": "pizza",
                "name": "Pizza Hut",
                "opening_hours": "Mo-Su 09:00-01:00",
                "operator": "Шелл Нефть"
            },
            {
                "amenity": "fast_food",
                "contact:email": "info@pizzahut.ru",
                "contact:facebook": "https://www.facebook.com/PizzaHutRussia",
                "contact:instagram": "https://www.instagram.com/pizzahutrussia/",
                "contact:phone": "+7 800 1001958",
                "contact:vk": "https://vk.com/pizzahutrussia",
                "contact:website": "https://kazan.pizzahut.ru/",
                "cuisine": "pizza",
                "name": "Pizza Hut",
                "opening_hours": "Mo-Su 09:00-01:00",
                "operator": "Шелл Нефть"
            },
            {
                "amenity": "fast_food",
                "name": "Шаурмания"
            }
        ]
    },
    "car_repair": {
        "count": 2,
        "detail": [
            {
                "name": "Фанат",
                "shop": "car_repair"
            },
            {
                "name": "АвтоПанорама",
                "shop": "car_repair"
            }
        ]
    },
    "toilets": {
        "count": 1,
        "detail": [
            {
                "amenity": "toilets"
            }
        ]
    },
    "car_wash": {
        "count": 2,
        "detail": [
            {
                "name": "AutoFresh",
                "amenity": "car_wash"
            },
            {
                "amenity": "car_wash",
                "contact:email": "fabrika_40@mail.ru",
                "contact:phone": "+7 843 5283120;+7 917 2376377",
                "name": "Фабрика автомобильных услуг",
                "opening_hours": "Mo-Su 07:00-22:00",
                "operator": "Фабрика автомобильных услуг"
            }
        ]
    },
    "supermarket": {
        "count": 3,
        "detail": [
            {
                "name": "Ашан",
                "shop": "supermarket",
                "name:en": "Auchan"
            },
            {
                "name": "ТК Восточный",
                "shop": "supermarket"
            },
            {
                "name": "Пятёрочка",
                "shop": "supermarket"
            }
        ]
    },
    "cafe": {
        "count": 10,
        "detail": [
            {
                "name": "Аш-су",
                "amenity": "cafe",
                "name:en": "Ash-su"
            },
            {
                "amenity": "cafe",
                "name": "Самса и лепешки",
                "opening_hours": "Mo-Su 09:00-18:00",
                "phone": "+7 917 2880044"
            },
            {
                "name": "Cream Coffee",
                "amenity": "cafe",
                "internet_access": "wlan"
            },
            {
                "amenity": "cafe",
                "name": "Анхор"
            },
            {
                "amenity": "cafe",
                "name": "Плов Хаус"
            },
            {
                "amenity": "cafe",
                "name": "У Габила"
            },
            {
                "amenity": "cafe",
                "name": "Сююмбике",
                "opening_hours": "24/7",
                "phone": "+7 843 2930909"
            },
            {
                "amenity": "cafe",
                "name": "Фитчи хана"
            },
            {
                "amenity": "cafe",
                "name": "Плов хаус"
            },
            {
                "amenity": "cafe",
                "name": "Claud Manet"
            }
        ]
    },
    "jewelry": {
        "count": 1,
        "detail": [
            {
                "name": "Золото 585",
                "shop": "jewelry"
            }
        ]
    },
    "clothes": {
        "count": 5,
        "detail": [
            {
                "name": "Арас",
                "shop": "clothes"
            },
            {
                "shop": "clothes",
                "name:en": "Familia",
                "opening_hours": "Mo-Su 08:00-19:00"
            },
            {
                "name": "Чебоксарский трикотаж",
                "shop": "clothes"
            },
            {
                "name": "Спецодежда",
                "shop": "clothes"
            },
            {
                "clothes": "underwear",
                "contact:email": "ibraeva.vera@bk.ru",
                "contact:instagram": "https://instagram.com/klaid_kazan",
                "contact:phone": "+7 967 3670510",
                "name": "Klaid",
                "opening_hours": "Mo-Su 09:00-20:00",
                "operator": "Klaid",
                "shop": "clothes"
            }
        ]
    },
    "bicycle_parking": {
        "count": 1,
        "detail": [
            {
                "amenity": "bicycle_parking"
            }
        ]
    },
    "bench": {
        "count": 1,
        "detail": [
            {
                "amenity": "bench",
                "backrest": "yes"
            }
        ]
    },
    "electronics": {
        "count": 1,
        "detail": [
            {
                "name": "Фотосклад",
                "shop": "electronics"
            }
        ]
    },
    "e-cigarette": {
        "count": 1,
        "detail": [
            {
                "addr:city": "Казань",
                "addr:housenumber": "53",
                "addr:postcode": "420021",
                "addr:street": "Московская улица",
                "description": "Магазин электронных сигарет, жидкостей и аксессуаров.",
                "email": "kzn@zenmod.ru",
                "level": "0",
                "name": "Zenmod Vape Shop",
                "opening_hours": "Mo-Su 11:00-20:00",
                "payment:cards": "yes",
                "payment:cash": "yes",
                "phone": "+7 800 2508305",
                "shop": "e-cigarette",
                "website": "https://kzn.zenmod.ru/"
            }
        ]
    },
    "music_school": {
        "count": 1,
        "detail": [
            {
                "amenity": "music_school",
                "education": "facultative_school",
                "education_form:parttime": "yes",
                "education_level:primary": "yes",
                "education_profile:music": "yes",
                "education_system:ru_standard": "yes",
                "name": "Детская музыкальная школа №3 им. Рустема Яхина"
            }
        ]
    },
    "bookmaker": {
        "count": 1,
        "detail": [
            {
                "name": "Фонбет",
                "shop": "bookmaker"
            }
        ]
    },
    "hairdresser": {
        "count": 5,
        "detail": [
            {
                "shop": "hairdresser"
            },
            {
                "contact:email": "assyaz@mail.ru",
                "contact:phone": "+7 800 2001327;+7 917 3925939",
                "name": "Чио Чио",
                "opening_hours": "Mo-Sa 09:00-20:00;Su 09:00-19:00",
                "operator": "Киччи",
                "shop": "hairdresser"
            },
            {
                "name": "Brutal barbershop",
                "shop": "hairdresser"
            },
            {
                "addr:city": "Казань",
                "addr:housenumber": "60",
                "addr:street": "Московская улица",
                "name": "Mad Man",
                "payment:cards": "yes",
                "payment:cash": "yes",
                "payment:coins": "yes",
                "shop": "hairdresser"
            },
            {
                "shop": "hairdresser"
            }
        ]
    },
    "newsagent": {
        "count": 1,
        "detail": [
            {
                "shop": "newsagent"
            }
        ]
    },
    "mobile_phone": {
        "count": 1,
        "detail": [
            {
                "contact:email": "info@idamaster.net",
                "contact:instagram": "https://instagram.com/idamaster_kazan",
                "contact:phone": "+7 843 2042908",
                "contact:vk": "https://vk.com/idakazan",
                "contact:website": "https://idamaster.net/",
                "name": "iDAMASTER",
                "opening_hours": "Mo-Su 09:00-21:00",
                "operator": "idamaster",
                "shop": "mobile_phone"
            }
        ]
    },
    "atm": {
        "count": 3,
        "detail": [
            {
                "amenity": "atm",
                "brand": "Ак Барс Банк",
                "contact:email": "kanc@akbars.ru",
                "contact:facebook": "https://www.facebook.com/akbarsbank",
                "contact:instagram": "https://www.instagram.com/akbars_bank/",
                "contact:ok": "https://ok.ru/akbarsbank",
                "contact:phone": "+7 800 2005303",
                "contact:twitter": "https://twitter.com/akbars_ru",
                "contact:vk": "https://vk.com/akbars_ru",
                "contact:website": "https://akbars.ru/",
                "opening_hours": "Mo 07:00-17:00;Tu-Su 07:00-19:00",
                "operator": "Ак Барс Банк",
                "telegram": "https://t.me/akbars_ru"
            },
            {
                "amenity": "atm",
                "contact:email": "kanc@akbars.ru",
                "contact:facebook": "https://www.facebook.com/akbarsbank",
                "contact:instagram": "https://www.instagram.com/akbars_bank/",
                "contact:ok": "https://ok.ru/akbarsbank",
                "contact:phone": "+7 800 2005303",
                "contact:twitter": "https://twitter.com/akbars_ru",
                "contact:vk": "https://vk.com/akbars_ru",
                "contact:website": "https://akbars.ru/",
                "opening_hours": "Fr 09:00-17:45;Mo-Th 09:00-18:00",
                "operator": "Ак Барс Банк",
                "telegram": "https://t.me/akbars_ru"
            },
            {
                "amenity": "atm",
                "contact:email": "kanc@akbars.ru",
                "contact:facebook": "https://www.facebook.com/akbarsbank",
                "contact:instagram": "https://www.instagram.com/akbars_bank/",
                "contact:ok": "https://ok.ru/akbarsbank",
                "contact:phone": "+7 800 2005303",
                "contact:twitter": "https://twitter.com/akbars_ru",
                "contact:vk": "https://vk.com/akbars_ru",
                "contact:website": "https://akbars.ru/",
                "opening_hours": "Fr 08:00-15:45;Mo-Th 08:00-17:00",
                "operator": "Ак Барс Банк",
                "telegram": "https://t.me/akbars_ru"
            }
        ]
    },
    "pharmacy": {
        "count": 1,
        "detail": [
            {
                "amenity": "pharmacy",
                "contact:facebook": "http://facebook.com/aptekivita",
                "contact:instagram": "https://www.instagram.com/vita_express/",
                "contact:phone": "+7 800 7550003",
                "contact:vk": "https://vk.com/aptekivita",
                "contact:website": "https://vitaexpress.ru/",
                "name": "Вита Экспресс",
                "opening_hours": "Mo-Su 08:00-20:00"
            }
        ]
    },
    "cosmetics": {
        "count": 1,
        "detail": [
            {
                "contact:email": "info@sabrstore.com",
                "contact:instagram": "https://instagram.com/sabr_store",
                "contact:phone": "+7 987 2320540",
                "contact:vk": "https://vk.com/sabr_store",
                "contact:website": "https://sabrstore.com/",
                "name": "Sabr",
                "opening_hours": "Mo-Fr 09:00-19:00;Sa-Su 10:00-19:00",
                "operator": "Sabr",
                "shop": "cosmetics"
            }
        ]
    },
    "second_hand": {
        "count": 1,
        "detail": [
            {
                "name": "Мегахенд",
                "shop": "second_hand"
            }
        ]
    },
    "bar": {
        "count": 1,
        "detail": [
            {
                "amenity": "bar",
                "name": "Бар XIX.XX"
            }
        ]
    },
    "convenience": {
        "count": 2,
        "detail": [
            {
                "name": "Пятёрочка",
                "shop": "convenience"
            },
            {
                "name": "Ной",
                "shop": "convenience"
            }
        ]
    },
    "pet": {
        "count": 1,
        "detail": [
            {
                "name": "Птичий рынок",
                "shop": "pet"
            }
        ]
    },
    "beauty": {
        "count": 1,
        "detail": [
            {
                "name": "Ell",
                "shop": "beauty"
            }
        ]
    },
    "outpost": {
        "count": 1,
        "detail": [
            {
                "name": "СДЭК",
                "shop": "outpost"
            }
        ]
    },
    "mall": {
        "count": 1,
        "detail": [
            {
                "addr:city": "Казань",
                "addr:country": "RU",
                "addr:housenumber": "2",
                "addr:street": "улица Габдуллы Тукая",
                "building": "yes",
                "height": "6",
                "name": "Муравейник",
                "shop": "mall"
            }
        ]
    },
    "marketplace": {
        "count": 1,
        "detail": [
            {
                "addr:city": "Казань",
                "addr:country": "RU",
                "addr:housenumber": "13",
                "addr:postcode": "420111",
                "addr:street": "улица Мартына Межлаука",
                "amenity": "marketplace",
                "building": "retail",
                "building:levels": "2",
                "height": "6",
                "name": "Центральный (Колхозный) рынок",
                "opening_hours": "Mo 07:00-17:00; Tu-Su 07:00-19:00",
                "website": "http://bazarkazan.ru",
                "wikidata": "Q4504368"
            }
        ]
    },
    "sports_centre": {
        "count": 1,
        "detail": [
            {
                "addr:city": "Казань",
                "addr:country": "RU",
                "addr:housenumber": "49",
                "addr:street": "Московская улица",
                "building": "yes",
                "height": "6",
                "leisure": "sports_centre",
                "name": "УСК «Москва»",
                "name:en": "Moscow Multifunctional Sports Complex",
                "name:ru": "УСК «Москва»",
                "operator": "Казанский федеральный университет",
                "source": "GPS"
            }
        ]
    },
    "nursing_home": {
        "count": 1,
        "detail": [
            {
                "addr:city": "Казань",
                "addr:country": "RU",
                "addr:housenumber": "19",
                "addr:street": "улица Тази Гиззата",
                "amenity": "nursing_home",
                "building": "yes",
                "contact:email": "pansionat_milena@mail.ru",
                "contact:phone": "+7 843 2532827",
                "contact:website": "https://milenapansionat.ru/",
                "name": "Милена",
                "name:en": "Milena",
                "opening_hours": "24/7",
                "operator": "Милена",
                "tourism": "hotel"
            }
        ]
    },
    "place_of_worship": {
        "count": 2,
        "detail": [
            {
                "addr2:housenumber": "15",
                "addr2:street": "улица Галиаскара Камала",
                "addr:city": "Казань",
                "addr:housenumber": "14",
                "addr:street": "улица Габдуллы Тукая",
                "amenity": "place_of_worship",
                "building": "mosque",
                "denomination": "sunni",
                "height": "6",
                "name": "Султановская мечеть",
                "name:de": "Sultanowskaja-Moschee",
                "name:en": "Soltan Mosque",
                "name:ru": "Султановская мечеть",
                "name:tt": "Солтан мәчете",
                "name:tt-lat": "Soltan mäçete",
                "phone": "+7 843 2927881",
                "religion": "muslim",
                "wikidata": "Q1634187",
                "wikipedia": "ru:Султановская мечеть"
            },
            {
                "addr:city": "Казань",
                "addr:country": "RU",
                "addr:housenumber": "4",
                "addr:street": "улица Михаила Худякова",
                "amenity": "place_of_worship",
                "building": "church",
                "denomination": "orthodox",
                "height": "6",
                "name": "Тихвинская церковь Божией Матери",
                "name:ru": "Храм Тихвинской иконы Божией Матери (Казань)",
                "name:tt": "Казан Тихвин чиркәве",
                "religion": "christian",
                "wikidata": "Q16706310",
                "wikipedia": "ru:Храм Тихвинской иконы Божией Матери (Казань)"
            }
        ]
    },
    "community_centre": {
        "count": 1,
        "detail": [
            {
                "name": "КЦ Кряшен",
                "amenity": "community_centre",
                "building": "yes",
                "addr:city": "Казань",
                "addr:street": "улица Михаила Худякова",
                "addr:country": "RU",
                "addr:housenumber": "11"
            }
        ]
    },
    "furniture": {
        "count": 1,
        "detail": [
            {
                "name": "Мебельный базар",
                "shop": "furniture",
                "building": "yes",
                "addr:city": "Казань",
                "addr:street": "улица Нариманова",
                "addr:postcode": "420021",
                "building:levels": "3",
                "addr:housenumber": "44"
            }
        ]
    },
    "service": {
        "count": 1,
        "detail": [
            {
                "building": "service"
            }
        ]
    }
}