{
    "residents": 10113,
    "bureau_de_change": {
        "count": 1,
        "detail": [
            {
                "amenity": "bureau_de_change"
            }
        ]
    },
    "bank": {
        "count": 9,
        "detail": [
            {
                "amenity": "bank",
                "atm": "yes",
                "bic": "VTBRRUMM",
                "brand": "ВТБ",
                "brand:en": "VTB Bank",
                "brand:wikidata": "Q767946",
                "brand:wikipedia": "ru:Банк Москвы",
                "contact:email": "info@vtb.ru",
                "contact:facebook": "https://www.facebook.com/vtbrussia",
                "contact:instagram": "https://www.instagram.com/bankvtb",
                "contact:ok": "https://ok.ru/vtb",
                "contact:phone": "+7 800 1002424",
                "contact:twitter": "https://twitter.com/VTB",
                "contact:vk": "https://vk.com/vtb",
                "contact:website": "https://www.vtb.ru",
                "contact:youtube": "https://www.youtube.com/user/vtbgroup",
                "name": "ВТБ",
                "name:en": "VTB",
                "name:ru": "ВТБ",
                "opening_hours": "Mo-Fr 08:00-20:00; Sa 10:00-17:00",
                "operator": "Банк ВТБ (публичное акционерное общество)",
                "operator:wikidata": "Q1549389",
                "operator:wikipedia": "ru:Банк ВТБ"
            },
            {
                "amenity": "bank",
                "atm": "yes",
                "contact:phone": "+7 495 4110000",
                "contact:website": "http://www.ipb.ru",
                "name": "ИнтерПрогрессБанк",
                "opening_hours": "Mo-Fr 08:45-20:15; Sa 09:45-18:15",
                "operator": "ИнтерПрогрессБанк",
                "ref": "Дополнительный офис \"Центральный\""
            },
            {
                "amenity": "bank",
                "atm": "yes",
                "contact:email": "unicredit@unicredit.ru",
                "contact:fax": "+7 495 2587272",
                "contact:phone": "+7 495 2587200;+7 800 7001020",
                "contact:twitter": "https://twitter.com/unicreditrussia",
                "contact:vk": "https://vk.com/unicreditbank",
                "contact:website": "http://www.unicreditbank.ru/",
                "contact:youtube": "https://www.youtube.com/user/unicreditbankrussia",
                "name": "Юникредит Банк",
                "opening_hours": "Mo-Fr 11:00-19:00",
                "operator": "ЮниКредит Банк",
                "ref": "Дополнительный офис \"Проспект Мира\""
            },
            {
                "amenity": "bank",
                "name": "Открытие"
            },
            {
                "name": "Авангард \"Экспресс\" Офис",
                "amenity": "bank",
                "operator": "ОАО АКБ \"Авангард\""
            },
            {
                "amenity": "bank",
                "name": "Ренессанс Кредит",
                "opening_hours": "Mo-Fr 10:00-20:00; Sa 10:00-17:00",
                "phone": "+7 495 6621770",
                "website": "https://rencredit.ru/"
            },
            {
                "amenity": "bank",
                "brand": "Россельхозбанк",
                "brand:en": "Rosselkhozbank",
                "brand:ru": "Россельхозбанк",
                "brand:wikidata": "Q3920226",
                "brand:wikipedia": "en:Russian Agricultural Bank",
                "name": "Россельхозбанк",
                "name:en": "Rosselkhozbank",
                "name:ru": "Россельхозбанк",
                "opening_hours": "Mo-Fr 09:30-20:00; Sa 09:00-15:00"
            },
            {
                "amenity": "bank",
                "atm": "yes",
                "bic": "ALFARUMM",
                "branch": "Олимпийский",
                "brand": "Альфа-Банк",
                "brand:en": "Alfa-Bank",
                "brand:ru": "Альфа-Банк",
                "brand:wikidata": "Q1377835",
                "brand:wikipedia": "ru:Альфа-банк",
                "contact:email": "mail@alfabank.ru",
                "contact:facebook": "https://www.facebook.com/alfabank",
                "contact:ok": "https://ok.ru/alfabank",
                "contact:phone": "+7 495 7888878",
                "contact:twitter": "https://twitter.com/alfabank",
                "contact:vk": "https://vk.com/alfabank",
                "contact:website": "https://alfabank.ru",
                "contact:youtube": "https://www.youtube.com/user/alfabankru",
                "name": "Альфа-Банк",
                "name:en": "Alfa-Bank",
                "name:ru": "Альфа-Банк",
                "opening_hours": "Mo-Fr 09:00-21:00; Sa 10:00-19:00; Su off",
                "operator": "АО \"Альфа-Банк\"",
                "operator:wikidata": "Q1377835",
                "operator:wikipedia": "ru:Альфа-банк",
                "ref": "0427"
            },
            {
                "amenity": "bank",
                "bic": "POSBRUMM",
                "brand": "Почта Банк",
                "brand:wikidata": "Q24930461",
                "brand:wikipedia": "ru:Почта Банк",
                "contact:email": "welcome@pochtabank.ru",
                "contact:facebook": "https://www.facebook.com/pochtabank",
                "contact:instagram": "https://www.instagram.com/pochtabank",
                "contact:ok": "https://ok.ru/pochtabank",
                "contact:phone": "+7 800 5500770",
                "contact:twitter": "https://twitter.com/pochtabank",
                "contact:vk": "https://vk.com/pochtabank",
                "contact:website": "https://www.pochtabank.ru",
                "contact:youtube": "https://www.youtube.com/channel/UCs2NW4p10fwTar-zqw7mUIw",
                "name": "Почта Банк",
                "name:en": "Post Bank",
                "name:ru": "Почта Банк"
            }
        ]
    },
    "bakery": {
        "count": 4,
        "detail": [
            {
                "alt_name": "Братья Караваевы",
                "amenity": "cafe",
                "contact:phone": "+7 499 2725237",
                "contact:website": "http://karavaevi.ru",
                "diet:vegetarian": "yes",
                "name": "Кулинарная лавка братьев Караваевых",
                "name:en": "Bratya Karavaevy",
                "name:ru": "Кулинарная лавка братьев Караваевых",
                "opening_hours": "Mo-Su 08:00-23:00",
                "shop": "bakery",
                "smoking": "no",
                "takeaway": "yes"
            },
            {
                "amenity": "cafe",
                "contact:facebook": "https://www.facebook.com/Wolkonsky.official",
                "contact:instagram": "https://www.instagram.com/wolkonsky_official/",
                "contact:website": "http://wolkonsky.com/",
                "cuisine": "cake",
                "name": "Волконский",
                "name:en": "Wolkonsky",
                "name:ru": "Волконский",
                "shop": "bakery"
            },
            {
                "alt_name": "Братья Караваевы",
                "amenity": "cafe",
                "contact:phone": "+7 499 2725237",
                "contact:website": "http://karavaevi.ru",
                "diet:vegetarian": "yes",
                "name": "Кулинарная лавка братьев Караваевых",
                "name:en": "Bratya Karavaevy",
                "name:ru": "Кулинарная лавка братьев Караваевых",
                "opening_hours": "Mo-Su 08:00-23:00",
                "shop": "bakery",
                "smoking": "no",
                "takeaway": "yes"
            },
            {
                "name": "French bakery",
                "shop": "bakery"
            }
        ]
    },
    "convenience": {
        "count": 5,
        "detail": [
            {
                "brand": "ВкусВилл",
                "brand:wikidata": "Q57271676",
                "brand:wikipedia": "ru:Вкусвилл",
                "contact:email": "info@izbenka.msk.ru",
                "contact:facebook": "https://www.facebook.com/izbenka",
                "contact:instagram": "https://www.instagram.com/izbenka_vkusvill",
                "contact:phone": "+7 495 6638602",
                "contact:telegram": "https://telegram.me/vkusvillbot",
                "contact:vk": "https://vk.com/izbenka",
                "contact:website": "http://vkusvill.ru",
                "name": "ВкусВилл",
                "name:ru": "ВкусВилл",
                "opening_hours": "Mo-Su 07:00-23:45",
                "recycling:batteries": "yes",
                "shop": "convenience"
            },
            {
                "name": "Минимаркет",
                "shop": "convenience"
            },
            {
                "shop": "convenience"
            },
            {
                "shop": "convenience"
            },
            {
                "brand": "У Палыча",
                "contact:email": "com@palich.ru",
                "contact:phone": "+7 800 3330163",
                "contact:website": "http://www.palich.ru",
                "name": "У Палыча",
                "name:ru": "У Палыча",
                "opening_hours": "Mo-Su 09:00-21:00",
                "shop": "convenience"
            }
        ]
    },
    "supermarket": {
        "count": 2,
        "detail": [
            {
                "alt_name": "Перекрёсток",
                "brand": "Перекрёсток",
                "brand:en": "Perekryostok",
                "brand:wikidata": "Q1684639",
                "brand:wikipedia": "en:Perekrestok (supermarket chain)",
                "contact:facebook": "https://www.facebook.com/perekrestok",
                "contact:instagram": "https://www.instagram.com/perekrestok",
                "contact:ok": "https://ok.ru/perekrestok.shop",
                "contact:phone": "+7 495 9168678;+7 499 2133057",
                "contact:twitter": "https://twitter.com/perekrestok",
                "contact:vk": "https://vk.com/perekrestok_shop",
                "contact:website": "https://www.perekrestok.ru",
                "contact:youtube": "https://www.youtube.com/channel/UCY9Nwfy_8drHqif0iryQ7Vw",
                "name": "Перекрёсток",
                "name:ru": "Перекресток",
                "opening_hours": "24/7",
                "operator": "Торговый дом \"ПЕРЕКРЕСТОК\"",
                "shop": "supermarket",
                "wheelchair": "yes"
            },
            {
                "alt_name": "Перекрёсток",
                "brand": "Перекрёсток",
                "brand:en": "Perekryostok",
                "brand:wikidata": "Q1684639",
                "brand:wikipedia": "en:Perekrestok (supermarket chain)",
                "contact:facebook": "https://www.facebook.com/perekrestok",
                "contact:instagram": "https://www.instagram.com/perekrestok",
                "contact:ok": "https://ok.ru/perekrestok.shop",
                "contact:phone": "+7 495 6628888;+7 800 2009555",
                "contact:twitter": "https://twitter.com/perekrestok",
                "contact:vk": "https://vk.com/perekrestok_shop",
                "contact:website": "https://www.perekrestok.ru/;https://www.perekrestok.ru/",
                "contact:youtube": "https://www.youtube.com/channel/UCY9Nwfy_8drHqif0iryQ7Vw",
                "name": "Перекрёсток",
                "name:ru": "Перекресток",
                "opening_hours": "08:00-23:00",
                "operator": "Торговый дом \"ПЕРЕКРЕСТОК\"",
                "shop": "supermarket"
            }
        ]
    },
    "cafe": {
        "count": 19,
        "detail": [
            {
                "name": "Криспи Крим",
                "amenity": "cafe",
                "name:en": "Krispy Kreme"
            },
            {
                "amenity": "cafe"
            },
            {
                "name": "Татарские пироги",
                "amenity": "cafe",
                "contact:phone": "+7 495 9848965",
                "contact:website": "http://www.tatarpirog.ru/"
            },
            {
                "amenity": "cafe",
                "contact:phone": "+7 495 6811933",
                "contact:website": "http://www.shepkina.com",
                "cuisine": "georgian",
                "name": "Хинкальная на Щепкина",
                "opening_hours": "Mo-Su 12:00-24:00"
            },
            {
                "addr:city": "Москва",
                "addr:housenumber": "27",
                "addr:postcode": "129090",
                "addr:street": "улица Щепкина",
                "amenity": "cafe",
                "cuisine": "oriental;georgian",
                "inscription": "Салам Алейкум Чайхана Халяль",
                "internet_access": "wlan",
                "name": "Салам Алейкум",
                "outdoor_seating": "no",
                "phone": "+7 495 6814897",
                "phone_1": "+7 929 9190814",
                "website": "https://www.salamaleikum.msk.ru/"
            },
            {
                "name": "Upside Down Cake Co.",
                "amenity": "cafe",
                "cuisine": "cake",
                "contact:phone": "+7 499 3903791",
                "opening_hours": "Mo-Fr 08:00-23:00; Sa,Su 10:00-23:00",
                "contact:website": "http://www.upsidedowncake.ru"
            },
            {
                "amenity": "cafe",
                "name": "Чайхона №1",
                "phone": "+7 495 7782222",
                "website": "https://chaihona1.ru/"
            },
            {
                "amenity": "cafe",
                "brand": "Шоколадница",
                "brand:en": "Chocolate",
                "brand:wikidata": "Q30891188",
                "brand:wikipedia": "ru:Шоколадница (сеть кофеен)",
                "contact:facebook": "https://www.facebook.com/shoko.ru",
                "contact:instagram": "https://www.instagram.com/shoko.ru",
                "contact:ok": "https://ok.ru/shokoru",
                "contact:twitter": "https://twitter.com/wwwShokoRu",
                "contact:vk": "https://vk.com/shokoru",
                "contact:website": "http://shoko.ru",
                "cuisine": "coffee_shop",
                "diet:vegetarian": "no",
                "name": "Шоколадница",
                "name:en": "Shokoladnitsa",
                "name:ru": "Шоколадница",
                "opening_hours": "Mo-Fr 07:00-23:00; Sa-Su 10:00-23:00",
                "phone": "+7 910 4854124",
                "takeaway": "yes"
            },
            {
                "name": "Райский пирожок",
                "amenity": "cafe",
                "opening_hours": "Mo-Su 08:00-21:00"
            },
            {
                "amenity": "cafe",
                "brand": "Даблби",
                "brand:en": "Double B",
                "brand:wikidata": "Q62501686",
                "contact:email": "info@double-b.ru",
                "contact:facebook": "https://www.facebook.com/DoubleBCoffeeTea",
                "contact:instagram": "https://www.instagram.com/doublebcoffeetea",
                "contact:telegram": "https://telegram.me/doublebdaily",
                "contact:website": "http://double-b.ru",
                "cuisine": "coffee_shop",
                "diet:vegetarian": "no",
                "drink:coffee": "yes",
                "name": "Даблби",
                "name:en": "Double B",
                "name:ru": "Даблби",
                "takeaway": "yes"
            },
            {
                "name": "Джаганнат",
                "amenity": "cafe",
                "cuisine": "indian",
                "name:ru": "Джаганнат",
                "diet:vegan": "yes",
                "contact:website": "http://jagannath.ru",
                "diet:vegetarian": "only"
            },
            {
                "amenity": "cafe",
                "contact:phone": "+7 495 6314214",
                "contact:website": "https://www.cafe-slava.ru/",
                "cuisine": "serbian",
                "inscription": "Сербская кухня",
                "name": "Слава",
                "opening_hours": "Mo-Su 10:00-23:00"
            },
            {
                "addr:city": "Москва",
                "addr:housenumber": "26 с1",
                "addr:postcode": "129090",
                "addr:street": "проспект Мира",
                "air_conditioning": "yes",
                "amenity": "cafe",
                "bar": "no",
                "brand": "Skuratov Coffee",
                "brand:en": "Skuratov Coffee",
                "brand:wikidata": "Q98642885",
                "contact:email": "hello@skuratovcoffee.ru",
                "contact:facebook": "https://www.facebook.com/skuratovcoffeeteam",
                "contact:instagram": "https://www.instagram.com/skuratovcoffee",
                "contact:phone": "+7 925 4597422",
                "contact:telegram": "https://telegram.me/skuratovcoffee",
                "contact:website": "https://skuratovcoffee.ru",
                "cuisine": "coffee_shop",
                "delivery": "no",
                "diet:vegetarian": "yes",
                "drink:coffee": "yes",
                "email": "hello@skuratovcoffee.ru",
                "internet_access": "wlan",
                "internet_access:fee": "no",
                "internet_access:ssid": "skuratov_coffee",
                "level": "0",
                "name": "Skuratov Coffee",
                "name:en": "Skuratov Coffee",
                "name:ru": "Skuratov Coffee",
                "opening_hours": "Mo-Su 06:55-23:05",
                "opening_hours:covid19": "open",
                "outdoor_seating": "Да",
                "smoking": "no",
                "start_date": "2016-08-05",
                "takeaway": "yes",
                "wikidata": "Q98642885"
            },
            {
                "name": "Panda Coffee",
                "amenity": "cafe",
                "cuisine": "coffee_shop",
                "opening_hours": "Mo-Fr 07:00-22:00; Sa,Su 09:00-22:00",
                "contact:website": "https://panda-coffee.ru/"
            },
            {
                "alt_name": "UDC",
                "amenity": "cafe",
                "contact:phone": "+7 499 3903791",
                "contact:website": "http://www.upsidedowncake.ru",
                "cuisine": "cake",
                "name": "Upside Down Cake Co.",
                "opening_hours": "Mo-Fr 08:00-23:00; Sa,Su 10:00-23:00"
            },
            {
                "amenity": "cafe",
                "brand": "Prime",
                "brand:wikidata": "Q62122839",
                "contact:email": "911@prime-star.ru",
                "cuisine": "coffee_shop",
                "name": "Prime",
                "opening_hours": "Mo-Fr 07:00-20:00",
                "phone": "+7 495 6642363",
                "takeaway": "yes",
                "website": "https://www.prime-star.ru/"
            },
            {
                "amenity": "cafe",
                "brand": "Старбакс",
                "brand:en": "Starbucks",
                "brand:wikidata": "Q37158",
                "brand:wikipedia": "en:Starbucks",
                "cuisine": "coffee_shop",
                "name": "Старбакс",
                "name:en": "Starbucks",
                "takeaway": "yes",
                "website": "http://www.starbucks.ru"
            },
            {
                "amenity": "cafe",
                "brand": "Старбакс",
                "brand:en": "Starbucks",
                "brand:wikidata": "Q37158",
                "brand:wikipedia": "en:Starbucks",
                "contact:email": "csd@starbuckscoffee.ru",
                "contact:facebook": "https://www.facebook.com/StarbucksRussia",
                "contact:instagram": "https://www.instagram.com/starbucksrussia",
                "contact:twitter": "https://twitter.com/StarbucksRussia",
                "contact:website": "http://www.starbucks.ru",
                "cuisine": "coffee_shop",
                "diet:vegetarian": "no",
                "name": "Старбакс",
                "name:en": "Starbucks",
                "name:ru": "Старбакс",
                "takeaway": "yes"
            },
            {
                "amenity": "cafe",
                "contact:phone": "+7 800 5008393",
                "contact:website": "https://myasoroob.ru/",
                "name": "МясоRoob",
                "opening_hours": "Mo-Su 11:00-23:00",
                "operator": "ООО \"Мясоруб МСК\""
            }
        ]
    },
    "library": {
        "count": 1,
        "detail": [
            {
                "name": "Российская государственная библиотека для слепых",
                "amenity": "library"
            }
        ]
    },
    "restaurant": {
        "count": 13,
        "detail": [
            {
                "name": "Райский пирожок",
                "amenity": "restaurant"
            },
            {
                "amenity": "restaurant",
                "contact:instagram": "https://www.instagram.com/madam_galife/",
                "contact:phone": "+7 495 7752601",
                "contact:website": "http://madamgalife.ru/",
                "name": "Мадам Галифе"
            },
            {
                "name": "Home Cocon",
                "amenity": "restaurant"
            },
            {
                "name": "Ваби Саби",
                "amenity": "restaurant",
                "cuisine": "japanese",
                "name:en": "Vabi Sabi",
                "contact:phone": "+7 495 6801503",
                "opening_hours": "Mo-Su 08:00-23:00",
                "contact:website": "http://vabisabi.ru"
            },
            {
                "name": "Кавказская пленница",
                "amenity": "restaurant",
                "cuisine": "georgian",
                "name:en": "Kavkazskaya Plennitsa",
                "operator": "Novikov Group",
                "contact:phone": "+7 495 6805111",
                "opening_hours": "Mo-Su 12:00-24:00",
                "contact:website": "https://www.facebook.com/KavkazskayaPlennicaRest"
            },
            {
                "amenity": "restaurant",
                "contact:phone": "+7 495 2560403",
                "name": "Food Embassy"
            },
            {
                "name": "Рибамбель",
                "amenity": "restaurant",
                "name:en": "Ribambelle",
                "contact:phone": "+7 495 2300074",
                "opening_hours": "Mo-Su 11:00-22:00",
                "contact:website": "http://ribambelle.ru"
            },
            {
                "name": "Хачапури",
                "amenity": "restaurant",
                "contact:phone": "+7 985 7640075",
                "opening_hours": "Mo-Th 10:00-23:00; Fr 10:00-24:00; Sa 00:00-01:00,11:00-24:00; Su 00:00-01:00,11:00-23:00",
                "contact:website": "https://www.hacha.ru"
            },
            {
                "amenity": "restaurant",
                "brand": "IL Патио",
                "brand:wikidata": "Q4397763",
                "brand:wikipedia": "en:Росинтер",
                "contact:email": "info@ilpatio.ru",
                "contact:facebook": "https://www.facebook.com/ilpatio.ru",
                "contact:instagram": "https://www.instagram.com/ilpatio",
                "contact:phone": "+7 495 7975815",
                "contact:vk": "https://vk.com/ilpatio_ru",
                "contact:website": "http://ilpatio.ru",
                "cuisine": "italian",
                "diet:vegetarian": "yes",
                "name": "IL Патио",
                "name:ru": "IL Патио",
                "opening_hours": "Mo-Fr 08:00-24:00; Sa,Su 10:00-24:00"
            },
            {
                "name": "Лепим и варим",
                "amenity": "restaurant",
                "cuisine": "russian;regional;local",
                "name:en": "Lepim i Varim",
                "website": "http://lepimivarim.ru/",
                "addr:city": "Москва",
                "addr:street": "проспект Мира",
                "addr:postcode": "129090",
                "opening_hours": "Mo-Su 11:00-23:00",
                "addr:housenumber": "26 с1"
            },
            {
                "amenity": "restaurant",
                "contact:facebook": "https://www.facebook.com/larirestaurant",
                "contact:phone": "+7 495 6621562",
                "cuisine": "georgian",
                "name": "Lari",
                "opening_hours": "Mo-Fr 11:00-24:00; Sa,Su 00:00-03:00,11:00-24:00"
            },
            {
                "amenity": "restaurant",
                "contact:instagram": "https://www.instagram.com/allsaints_cafe",
                "contact:phone": "+7 985 9990812",
                "contact:website": "http://cafesanta.ru",
                "cuisine": "italian",
                "name": "Санта Базилия"
            },
            {
                "amenity": "restaurant",
                "contact:facebook": "https://www.facebook.com/CafeOdessaMama",
                "contact:instagram": "https://www.instagram.com/cafeodessamama/",
                "contact:phone": "+7 968 7646565",
                "contact:website": "http://www.cafeodessa.ru",
                "internet_access": "wlan",
                "internet_access:fee": "no",
                "name": "Одесса-мама",
                "name:en": "Odessa-Mama",
                "reservation": "recommended"
            }
        ]
    },
    "books": {
        "count": 3,
        "detail": [
            {
                "shop": "books"
            },
            {
                "contact:email": "store@respublica.ru",
                "contact:facebook": "https://www.facebook.com/Respublica.ru",
                "contact:instagram": "https://www.instagram.com/respublica_ru/",
                "contact:phone": "+7 495 2877735",
                "contact:vk": "https://vk.com/respublica",
                "contact:website": "https://www.respublica.ru/",
                "name": "Республика",
                "opening_hours": "24/7",
                "operator": "РЕСПУБЛИКА",
                "shop": "books"
            },
            {
                "name": "Республика",
                "shop": "books",
                "level": "3",
                "opening_hours": "24/7",
                "contact:website": "http://www.respublica.ru"
            }
        ]
    },
    "pharmacy": {
        "count": 5,
        "detail": [
            {
                "amenity": "pharmacy",
                "brand": "А5",
                "brand:wikidata": "Q62663476",
                "contact:facebook": "https://www.facebook.com/apteka5",
                "contact:vk": "https://vk.com/apteka_a5",
                "contact:website": "http://apteka5.ru",
                "healthcare": "pharmacy",
                "name": "А5",
                "name:ru": "А5"
            },
            {
                "amenity": "pharmacy",
                "contact:website": "http://vitafarm.ru",
                "healthcare": "pharmacy",
                "name": "Витафарм",
                "opening_hours": "24/7"
            },
            {
                "amenity": "pharmacy",
                "brand": "Горздрав",
                "contact:email": "info@gor-zdrav.ru",
                "contact:facebook": "https://www.facebook.com/AptekaGorzdrav",
                "contact:instagram": "https://www.instagram.com/gorzdrav",
                "contact:ok": "https://ok.ru/group/57486617870381",
                "contact:phone": "+7 499 6536277",
                "contact:vk": "https://vk.com/gorzdrav",
                "contact:website": "https://gorzdrav.org",
                "healthcare": "pharmacy",
                "name": "Горздрав",
                "name:ru": "Горздрав",
                "opening_hours": "Mo-Su 09:00-22:00"
            },
            {
                "amenity": "pharmacy",
                "brand": "36,6",
                "brand:wikidata": "Q226889",
                "brand:wikipedia": "ru:36,6 (аптечная сеть)",
                "contact:facebook": "https://www.facebook.com/apteka366",
                "contact:instagram": "https://www.instagram.com/apteka366",
                "contact:ok": "https://ok.ru/group/57486618853421",
                "contact:phone": "+7 495 7978686",
                "contact:vk": "https://vk.com/apteka36i6",
                "contact:website": "https://apteka366.ru",
                "healthcare": "pharmacy",
                "name": "36,6",
                "name:ru": "36,6",
                "opening_hours": "Mo-Fr 08:00-21:00; Sa-Su 09:00-21:00"
            },
            {
                "amenity": "pharmacy",
                "brand": "Горздрав",
                "contact:email": "info@gor-zdrav.ru",
                "contact:facebook": "https://www.facebook.com/AptekaGorzdrav",
                "contact:instagram": "https://www.instagram.com/gorzdrav",
                "contact:ok": "https://ok.ru/group/57486617870381",
                "contact:phone": "+7 499 6536277",
                "contact:vk": "https://vk.com/gorzdrav",
                "contact:website": "https://gorzdrav.org",
                "healthcare": "pharmacy",
                "name": "Горздрав",
                "name:ru": "Горздрав",
                "opening_hours": "Mo-Su 09:00-21:00"
            }
        ]
    },
    "atm": {
        "count": 6,
        "detail": [
            {
                "amenity": "atm",
                "operator": "ПАО \"Сбербанк\""
            },
            {
                "amenity": "atm",
                "contact:phone": "+7 800 2005520",
                "contact:website": "http://www.bankuralsib.ru",
                "opening_hours": "24/7",
                "operator": "Банк \"Уралсиб\""
            },
            {
                "amenity": "atm",
                "contact:phone": "+7 800 2005520",
                "contact:website": "http://www.bankuralsib.ru",
                "opening_hours": "Mo-Sa 10:00-21:00; Su 10:00-20:00",
                "operator": "Банк \"Уралсиб\""
            },
            {
                "amenity": "atm",
                "contact:email": "sberbank@sberbank.ru",
                "contact:facebook": "https://www.facebook.com/bankdruzey",
                "contact:instagram": "https://instagram.com/sberbank",
                "contact:website": "https://www.sberbank.ru",
                "currency:RUB": "yes",
                "note": "Банкомат находится в холле метро",
                "operator": "Сбербанк",
                "operator:wikidata": "Q205012",
                "operator:wikipedia": "ru:Сбербанк России"
            },
            {
                "amenity": "atm",
                "operator": "Tinkoff Bank",
                "opening_hours": "Mo-Su 09:00-23:00"
            },
            {
                "amenity": "atm",
                "operator": "ВТБ"
            }
        ]
    },
    "pub": {
        "count": 1,
        "detail": [
            {
                "addr:city": "Москва",
                "addr:housenumber": "26/5",
                "addr:street": "проспект Мира",
                "amenity": "pub",
                "name": "Katie O'Shea's",
                "name:ru": "Кэйти О'Шеа'с",
                "official_name": "Katie O'Shea's Irish Bar & Restaurant",
                "opening_hours": "Mo-We 09:00-24:00; Fr-Su 10:00-03:00",
                "phone": "+7 495 7925188",
                "smoking": "outside"
            }
        ]
    },
    "fast_food": {
        "count": 9,
        "detail": [
            {
                "amenity": "fast_food",
                "brand": "Макдоналдс",
                "brand:en": "McDonald's",
                "brand:ru": "Макдоналдс",
                "brand:wikidata": "Q38076",
                "brand:wikipedia": "en:McDonald’s",
                "contact:email": "info@ru.mcd.com",
                "contact:facebook": "https://www.facebook.com/mcdonaldsrussia",
                "contact:instagram": "https://www.instagram.com/mcdonalds_rus",
                "contact:phone": "+7 495 7556091",
                "contact:vk": "https://vk.com/mcdonaldsrussia",
                "contact:website": "https://mcdonalds.ru",
                "contact:youtube": "https://www.youtube.com/user/McDonaldsRussia",
                "cuisine": "burger",
                "diet:vegetarian": "no",
                "internet_access": "wlan",
                "int_name": "McDonald's",
                "name": "Макдоналдс",
                "name:de": "McDonald's",
                "name:en": "McDonald's",
                "name:ru": "Макдоналдс",
                "opening_hours": "Mo-Su 06:30-24:00",
                "operator": "Макдоналдс",
                "smoking": "no",
                "takeaway": "yes"
            },
            {
                "amenity": "fast_food",
                "brand": "Крошка Картошка",
                "brand:en": "Kroshka Kartoshka",
                "brand:ru": "Крошка Картошка",
                "brand:wikidata": "Q4241838",
                "brand:wikipedia": "ru:Крошка Картошка",
                "contact:email": "kroshka@kartoshka.com",
                "contact:facebook": "https://www.facebook.com/groups/kartoshka",
                "contact:instagram": "https://www.instagram.com/kroshka_kartoshka_rus",
                "contact:ok": "https://ok.ru/group/52818779832389",
                "contact:phone": "+7 926 5824898",
                "contact:vk": "https://vk.com/kartoshka_moscow",
                "contact:website": "https://www.kartoshka.com",
                "cuisine": "potato",
                "diet:vegetarian": "yes",
                "internet_access": "wlan",
                "name": "Крошка Картошка",
                "name:en": "Kroshka Kartoshka",
                "name:ru": "Крошка Картошка",
                "opening_hours": "Mo-Su 07:00-24:00",
                "takeaway": "yes"
            },
            {
                "amenity": "fast_food",
                "brand": "Макдоналдс",
                "brand:en": "McDonald's",
                "brand:ru": "Макдоналдс",
                "brand:wikidata": "Q38076",
                "brand:wikipedia": "en:McDonald’s",
                "contact:email": "info@ru.mcd.com",
                "contact:facebook": "https://www.facebook.com/mcdonaldsrussia",
                "contact:instagram": "https://www.instagram.com/mcdonalds_rus",
                "contact:phone": "+7 495 7754408",
                "contact:vk": "https://vk.com/mcdonaldsrussia",
                "contact:website": "https://mcdonalds.ru",
                "contact:youtube": "https://www.youtube.com/user/McDonaldsRussia",
                "cuisine": "burger",
                "delivery": "no",
                "diet:vegetarian": "no",
                "drive_through": "no",
                "internet_access": "wlan",
                "internet_access:fee": "no",
                "level": "2",
                "name": "Макдоналдс",
                "name:en": "McDonald's",
                "name:ru": "Макдоналдс",
                "opening_hours": "Mo-Su 07:00-24:00",
                "takeaway": "yes"
            },
            {
                "amenity": "fast_food",
                "brand": "Папа Джонс",
                "brand:en": "Papa John's",
                "brand:ru": "Папа Джонс",
                "brand:wikidata": "Q2759586",
                "brand:wikipedia": "ru:Papa John’s",
                "contact:facebook": "https://www.facebook.com/papajohnsru",
                "contact:instagram": "https://www.instagram.com/papajohnsru",
                "contact:vk": "https://vk.com/papajohnsru",
                "contact:website": "https://www.papajohns.ru",
                "cuisine": "pizza",
                "delivery": "yes",
                "diet:vegetarian": "no",
                "name": "Папа Джонс",
                "name:en": "Papa John's",
                "name:ru": "Папа Джонс",
                "phone": "+7 495 6639817",
                "takeaway": "yes"
            },
            {
                "amenity": "fast_food",
                "brand": "Бургер Кинг",
                "brand:en": "Burger King",
                "brand:ru": "Бургер Кинг",
                "brand:wikidata": "Q177054",
                "brand:wikipedia": "en:Burger King",
                "contact:email": "bk-540@burgerking.ru",
                "contact:phone": "+7 495 5445000-4540",
                "contact:website": "https://burgerking.ru/",
                "cuisine": "burger",
                "drive_through": "no",
                "internet_access": "wlan",
                "internet_access:fee": "no",
                "name": "Бургер Кинг",
                "name:en": "Burger King",
                "name:ru": "Бургер Кинг",
                "opening_hours": "Mo-Su 07:00-23:00",
                "outdoor_seating": "no",
                "ref": "540",
                "smoking": "no",
                "takeaway": "yes"
            },
            {
                "name": "Правда Кофе",
                "brand": "Правdа кофе",
                "fixme": "уточнить местоположение в здании",
                "amenity": "fast_food",
                "cuisine": "coffee_shop",
                "name:ru": "Правда Кофе",
                "takeaway": "yes",
                "drink:tea": "yes",
                "contact:vk": "https://vk.com/pravda_coffee",
                "drink:water": "yes",
                "drink:coffee": "yes",
                "contact:phone": "+7 800 5557862",
                "contact:website": "http://pravda-coffee.ru",
                "contact:facebook": "https://www.facebook.com/pravdacoffee",
                "contact:instagram": "https://www.instagram.com/pravda_coffee",
                "drink:hot_chocolate": "yes"
            },
            {
                "amenity": "fast_food",
                "contact:facebook": "https://www.facebook.com/RamenHouseMoscow",
                "cuisine": "ramen",
                "name": "Ramen House",
                "opening_hours": "Mo-Su 10:00-23:00"
            },
            {
                "amenity": "fast_food",
                "contact:facebook": "https://www.facebook.com/laoleecafe",
                "contact:phone": "+7 965 1627877",
                "contact:website": "https://laolee.ru/",
                "cuisine": "vietnamese",
                "level": "3",
                "name": "Lao Lee",
                "opening_hours": "Mo-Su 10:00-22:00"
            },
            {
                "amenity": "fast_food",
                "contact:website": "http://www.gurman-shaurman.ru/",
                "cuisine": "kebab",
                "name": "Гурман Шаурман",
                "opening_hours": "Mo-Su 10:00-23:00"
            }
        ]
    },
    "bicycle_rental": {
        "count": 2,
        "detail": [
            {
                "amenity": "bicycle_rental",
                "capacity": "12",
                "capacity:electric": "0",
                "contact:email": "info@velobike.ru",
                "contact:phone": "+7 495 9664669",
                "contact:website": "https://velobike.ru/",
                "fee": "yes",
                "network": "Велобайк",
                "opening_hours": "24/7",
                "operator": "АО «СитиБайк»",
                "payment:cash": "no",
                "payment:mastercard": "yes",
                "payment:troika": "no",
                "payment:visa": "yes",
                "ref": "440",
                "seasonal": "yes"
            },
            {
                "amenity": "bicycle_rental",
                "capacity": "12",
                "capacity:electric": "0",
                "contact:email": "info@velobike.ru",
                "contact:phone": "+7 495 9664669",
                "contact:website": "https://velobike.ru/",
                "fee": "yes",
                "network": "Велобайк",
                "opening_hours": "24/7",
                "operator": "АО «СитиБайк»",
                "payment:cash": "no",
                "payment:mastercard": "yes",
                "payment:troika": "no",
                "payment:visa": "yes",
                "ref": "441",
                "seasonal": "yes"
            }
        ]
    },
    "theatre": {
        "count": 1,
        "detail": [
            {
                "name": "С.А.Д.",
                "amenity": "theatre",
                "website": "http://www.teatr-sad.ru/"
            }
        ]
    },
    "police": {
        "count": 1,
        "detail": [
            {
                "name": "Главное управление на транспорте МВД России",
                "amenity": "police"
            }
        ]
    },
    "clothes": {
        "count": 1,
        "detail": [
            {
                "name": "Glance",
                "shop": "clothes"
            }
        ]
    },
    "doctors": {
        "count": 1,
        "detail": [
            {
                "amenity": "doctors",
                "healthcare": "doctor",
                "healthcare:speciality": "trauma",
                "health_facility:type": "first_aid",
                "health_specialty:traumatology": "yes",
                "medical_system:western": "yes",
                "name": "Травматологический пункт",
                "opening_hours": "Mo-Su 08:00-20:00",
                "short_name": "Травмпункт"
            }
        ]
    },
    "florist": {
        "count": 4,
        "detail": [
            {
                "shop": "florist",
                "opening_hours": "24/7"
            },
            {
                "shop": "florist"
            },
            {
                "shop": "florist"
            },
            {
                "name": "Много цветов",
                "shop": "florist"
            }
        ]
    },
    "beauty": {
        "count": 2,
        "detail": [
            {
                "name": "Nika fashion",
                "opening_hours": "24/7",
                "phone": "+7 985 9674222",
                "shop": "beauty",
                "website": "www.salon-slavaz.ru"
            },
            {
                "contact:email": "jacarandastudia31@gmail.com",
                "contact:instagram": "https://instagram.com/jacaranda_studio_",
                "contact:phone": "+7 917 5830305",
                "name": "Jacaranda",
                "opening_hours": "Mo-Su 09:00-21:00",
                "operator": "Кондратьева Ксения Алексеевна",
                "shop": "beauty"
            }
        ]
    },
    "copyshop": {
        "count": 1,
        "detail": [
            {
                "name": "Копирка",
                "shop": "copyshop"
            }
        ]
    },
    "jewelry": {
        "count": 2,
        "detail": [
            {
                "brand": "Адамас",
                "brand:en": "Adamas",
                "brand:ru": "Адамас",
                "brand:wikidata": "Q62393709",
                "contact:email": "office@adamas.ru",
                "contact:facebook": "https://www.facebook.com/adamas.club",
                "contact:instagram": "https://www.instagram.com/adamas_ru",
                "contact:ok": "https://ok.ru/#/group/51689238692070",
                "contact:vk": "https://vk.com/club22491170",
                "contact:website": "https://www.adamas.ru",
                "contact:youtube": "https://www.youtube.com/channel/UCnOC4pLMguhoKxOonAQRdHQ",
                "name": "Адамас",
                "name:en": "Adamas",
                "name:ru": "Адамас",
                "opening_hours": "Mo-Sa 10:00-21:00; Su 10:00-20:00",
                "operator:wikidata": "Q15924718",
                "operator:wikipedia": "ru:Адамас (компания)",
                "shop": "jewelry"
            },
            {
                "name": "WorldGold",
                "shop": "jewelry",
                "contact:phone": "+7 495 7826688",
                "contact:website": "http://www.worldgold.ru"
            }
        ]
    },
    "clinic": {
        "count": 5,
        "detail": [
            {
                "amenity": "clinic",
                "email": "medsi@medsi.ru",
                "internet_access": "wlan",
                "name": "Медси",
                "opening_hours": "24/7",
                "phone": "+7 495 7800500",
                "website": "https://medsi.ru/"
            },
            {
                "amenity": "clinic",
                "name": "А Мед",
                "name:en": "A Med",
                "opening_hours": "Mo-Su 08:00-20:00",
                "phone": "+7 495 6814626",
                "website": "http://www.amed.clinic"
            },
            {
                "amenity": "clinic",
                "contact:phone": "+7 925 8713717",
                "contact:website": "http://www.dlaser.ru/",
                "healthcare": "clinic",
                "health_facility:type": "clinic",
                "medical_system:western": "yes",
                "name": "Доктор Лазер"
            },
            {
                "amenity": "clinic",
                "contact:phone": "+7 495 2553737",
                "contact:website": "https://openclinics.ru",
                "healthcare": "clinic",
                "health_facility:type": "clinic",
                "medical_system:western": "yes",
                "name": "Открытая клиника",
                "opening_hours": "Mo-Fr 08:00-21:00; Sa 09:00-21:00"
            },
            {
                "addr:housenumber": "19 с15",
                "addr:street": "Протопоповский переулок",
                "amenity": "clinic",
                "building": "clinic",
                "building:levels": "4",
                "contact:phone": "+7 495 6803077",
                "healthcare": "clinic",
                "health_facility:type": "clinic",
                "name": "Городская поликлиника №5 Филиал №4"
            }
        ]
    },
    "bar": {
        "count": 2,
        "detail": [
            {
                "name": "36",
                "amenity": "bar"
            },
            {
                "name": "Золотая Вобла",
                "amenity": "bar"
            }
        ]
    },
    "mobile_phone": {
        "count": 4,
        "detail": [
            {
                "brand": "Билайн",
                "brand:en": "Beeline",
                "brand:wikidata": "Q402880",
                "brand:wikipedia": "en:Beeline (brand)",
                "contact:facebook": "https://www.facebook.com/Beelinerus",
                "contact:instagram": "https://www.instagram.com/beelinerus",
                "contact:ok": "https://ok.ru/beeline",
                "contact:phone": "+7 800 7000611",
                "contact:twitter": "https://twitter.com/Beeline_RUS",
                "contact:vk": "https://vk.com/beeline",
                "contact:website": "https://beeline.ru",
                "contact:youtube": "https://www.youtube.com/user/beelineru",
                "name": "Билайн",
                "name:en": "Beeline",
                "name:ru": "Билайн",
                "opening_hours": "Mo-Su 09:00-21:00",
                "shop": "mobile_phone"
            },
            {
                "brand": "МТС",
                "brand:en": "MTS",
                "brand:wikidata": "Q1368919",
                "brand:wikipedia": "en:MTS (network provider)",
                "contact:facebook": "https://www.facebook.com/mts",
                "contact:ok": "https://ok.ru/mts",
                "contact:phone": "+7 800 2500890",
                "contact:twitter": "https://twitter.com/ru_mts",
                "contact:vk": "https://vk.com/mts",
                "contact:website": "https://shop.mts.ru",
                "name": "МТС",
                "name:en": "MTS",
                "name:ru": "МТС",
                "opening_hours": "Mo-Su 09:00-21:00",
                "operator:wikidata": "Q1368919",
                "operator:wikipedia": "ru:МТС (компания)",
                "shop": "mobile_phone"
            },
            {
                "brand": "Мегафон",
                "brand:en": "MegaFon",
                "brand:wikidata": "Q1720713",
                "brand:wikipedia": "en:MegaFon",
                "contact:facebook": "https://www.facebook.com/MegaFon.ru",
                "contact:habrahabr": "https://habrahabr.ru/company/megafon",
                "contact:ok": "https://ok.ru/megafon",
                "contact:phone": "+7 800 5500500",
                "contact:twitter": "https://twitter.com/megafonru",
                "contact:vk": "https://vk.com/megafon",
                "contact:website": "https://megafon.ru",
                "contact:youtube": "https://www.youtube.com/user/MegaFonTV",
                "name": "Мегафон",
                "name:en": "MegaFon",
                "name:ru": "МегаФон",
                "operator:wikidata": "Q1720713",
                "operator:wikipedia": "ru:Мегафон (компания)",
                "shop": "mobile_phone"
            },
            {
                "brand": "МТС",
                "brand:wikidata": "Q1368919",
                "brand:wikipedia": "ru:МТС (компания)",
                "contact:facebook": "https://www.facebook.com/mts",
                "contact:ok": "https://ok.ru/mts",
                "contact:phone": "+7 800 2500890",
                "contact:twitter": "https://twitter.com/ru_mts",
                "contact:vk": "https://vk.com/mts",
                "contact:website": "https://shop.mts.ru",
                "name": "МТС",
                "name:en": "MTS",
                "name:ru": "МТС",
                "office": "telecommunication",
                "shop": "mobile_phone"
            }
        ]
    },
    "university": {
        "count": 1,
        "detail": [
            {
                "alt_name": "B&D",
                "amenity": "university",
                "contact:website": "http://obe.ru",
                "name": "Институт бизнеса и дизайна",
                "phone": "+7 495 6801769",
                "website": "www.obe.ru"
            }
        ]
    },
    "bus_stop": {
        "count": 10,
        "detail": [
            {
                "bus": "yes",
                "name": "Аптекарский огород",
                "alt_name": "Грохольский переулок",
                "public_transport": "stop_position"
            },
            {
                "alt_name": "Грохольский переулок",
                "bench": "yes",
                "bin": "yes",
                "bus": "yes",
                "highway": "bus_stop",
                "name": "Аптекарский огород",
                "operator": "Мосгортранс",
                "public_transport": "platform",
                "shelter": "yes"
            },
            {
                "bus": "yes",
                "name": "Метро «Проспект Мира»",
                "alt_name": "Станция метро «Проспект Мира»",
                "public_transport": "stop_position"
            },
            {
                "alt_name": "Станция метро «Проспект Мира»",
                "bench": "yes",
                "bin": "yes",
                "bus": "yes",
                "highway": "bus_stop",
                "name": "Метро «Проспект Мира»",
                "operator": "Мосгортранс",
                "public_transport": "platform",
                "shelter": "yes"
            },
            {
                "alt_name": "Станция метро «Проспект Мира»",
                "bench": "yes",
                "bin": "yes",
                "bus": "yes",
                "highway": "bus_stop",
                "name": "Метро «Проспект Мира»",
                "operator": "Мосгортранс",
                "public_transport": "platform",
                "shelter": "yes"
            },
            {
                "bus": "yes",
                "name": "Метро «Проспект Мира» (радиальная)",
                "alt_name": "Станция метро «Проспект Мира» (радиальная)",
                "public_transport": "stop_position"
            },
            {
                "alt_name": "Станция метро «Проспект Мира» (радиальная)",
                "bench": "yes",
                "bin": "yes",
                "bus": "yes",
                "highway": "bus_stop",
                "name": "Метро «Проспект Мира» (радиальная)",
                "operator": "Мосгортранс",
                "public_transport": "platform",
                "shelter": "yes"
            },
            {
                "alt_name": "Станция метро «Проспект Мира» (радиальная)",
                "bus": "yes",
                "name": "Метро «Проспект Мира» (радиальная)",
                "public_transport": "stop_position"
            },
            {
                "alt_name": "Станция метро «Проспект Мира» (радиальная)",
                "bench": "yes",
                "bin": "yes",
                "bus": "yes",
                "highway": "bus_stop",
                "name": "Метро «Проспект Мира» (радиальная)",
                "operator": "Мосгортранс",
                "public_transport": "platform",
                "shelter": "yes"
            },
            {
                "bus": "yes",
                "name": "Метро «Проспект Мира»",
                "alt_name": "Станция метро «Проспект Мира»",
                "public_transport": "stop_position"
            }
        ]
    },
    "playground": {
        "count": 1,
        "detail": [
            {
                "leisure": "playground"
            }
        ]
    },
    "confectionery": {
        "count": 3,
        "detail": [
            {
                "name": "French Kiss",
                "shop": "confectionery",
                "contact:phone": "+7 925 0974562",
                "opening_hours": "Mo-Su 10:00-22:00",
                "contact:website": "http://www.frenchkiss.ru"
            },
            {
                "name": "Конфаэль",
                "shop": "confectionery"
            },
            {
                "name": "Юмбакер",
                "shop": "confectionery",
                "name:en": "Yumbaker"
            }
        ]
    },
    "optician": {
        "count": 1,
        "detail": [
            {
                "name": "Оптик Сити",
                "shop": "optician",
                "contact:phone": "+7 495 7975832",
                "opening_hours": "Mo-Su 09:00-21:00",
                "contact:website": "http://www.optic-city.ru"
            }
        ]
    },
    "medical_supply": {
        "count": 2,
        "detail": [
            {
                "brand": "Ортека",
                "brand:wikidata": "Q62393660",
                "contact:email": "info@orteka.ru",
                "contact:facebook": "https://www.facebook.com/orteka.rus",
                "contact:instagram": "https://www.instagram.com/orteka_rus/",
                "contact:phone": "+7 495 7755000",
                "contact:vk": "https://vk.com/orteka_ru",
                "contact:website": "https://www.orteka.ru",
                "medical_supply": "orthopedic",
                "name": "Ортека",
                "name:en": "Orteka",
                "name:ru": "Ортека",
                "opening_hours": "Mo-Su 09:00-21:00",
                "operator": "ООО «НИКАМЕД»",
                "shop": "medical_supply"
            },
            {
                "contact:email": "info@orteka.ru",
                "contact:phone": "+7 800 3333112",
                "contact:website": "https://orteka.ru/",
                "name": "Ортека",
                "opening_hours": "Mo-Su 09:00-21:00",
                "operator": "НИКАМЕД",
                "shop": "medical_supply"
            }
        ]
    },
    "shoes": {
        "count": 1,
        "detail": [
            {
                "shop": "shoes"
            }
        ]
    },
    "clock": {
        "count": 1,
        "detail": [
            {
                "amenity": "clock",
                "display": "analog",
                "support": "wall_mounted"
            }
        ]
    },
    "toilets": {
        "count": 2,
        "detail": [
            {
                "fee": "yes",
                "name": "Городской туалет",
                "amenity": "toilets",
                "name:en": "City toilet",
                "name:ru": "Городской туалет",
                "building": "yes",
                "operator": "ООО «Комхоз-Сервис»",
                "payment:cash": "yes",
                "opening_hours": "24/7",
                "building:levels": "1",
                "toilets:disposal": "flush",
                "toilets:position": "seated",
                "payment:debit_cards": "yes",
                "payment:credit_cards": "yes"
            },
            {
                "fee": "yes",
                "name": "Городской туалет",
                "amenity": "toilets",
                "name:ru": "Городской туалет",
                "building": "yes",
                "operator": "ООО «Комхоз-Сервис»",
                "payment:cash": "yes",
                "opening_hours": "24/7",
                "building:levels": "1",
                "toilets:disposal": "flush",
                "toilets:position": "seated"
            }
        ]
    },
    "sports_centre": {
        "count": 1,
        "detail": [
            {
                "addr:city": "Москва",
                "addr:housenumber": "40",
                "addr:postcode": "129090",
                "addr:street": "проспект Мира",
                "description": "профессиональная школа снукера, зал для игры в снукер",
                "leisure": "sports_centre",
                "level": "9",
                "name": "Московская академия снукера",
                "opening_hours": "Mo-Th 13:00-23:00; Fr-Su 10:00-01:00",
                "phone": "+7 926 1470033",
                "sport": "snooker",
                "website": "https://www.moscowsnooker.com/"
            }
        ]
    },
    "vending_machine": {
        "count": 3,
        "detail": [
            {
                "amenity": "vending_machine",
                "contact:phone": "+7 495 5395454",
                "contact:website": "http://parking.mos.ru/",
                "opening_hours": "24/7",
                "operator": "ГКУ «Администратор Московского парковочного пространства»",
                "payment:cash": "no",
                "payment:credit_cards": "yes",
                "payment:debit_cards": "yes",
                "ref": "3323",
                "ref:mos_parking": "282084792",
                "source": "dit.mos.ru",
                "vending": "parking_tickets",
                "zone:parking": "3205"
            },
            {
                "amenity": "vending_machine",
                "contact:phone": "+7 495 5395454",
                "contact:website": "http://parking.mos.ru/",
                "opening_hours": "24/7",
                "operator": "ГКУ «Администратор Московского парковочного пространства»",
                "payment:cash": "no",
                "payment:credit_cards": "yes",
                "payment:debit_cards": "yes",
                "ref": "3216",
                "ref:mos_parking": "282084735",
                "source": "dit.mos.ru",
                "vending": "parking_tickets",
                "zone:parking": "3205"
            },
            {
                "amenity": "vending_machine",
                "contact:phone": "+7 495 5395454",
                "contact:website": "http://parking.mos.ru/",
                "opening_hours": "24/7",
                "operator": "ГКУ «Администратор Московского парковочного пространства»",
                "payment:cash": "no",
                "payment:credit_cards": "yes",
                "payment:debit_cards": "yes",
                "ref": "3187",
                "ref:mos_parking": "282084709",
                "source": "dit.mos.ru",
                "vending": "parking_tickets",
                "zone:parking": "3205"
            }
        ]
    },
    "ticket": {
        "count": 2,
        "detail": [
            {
                "name": "Проездные билеты",
                "shop": "ticket",
                "name:en": "Public transport tickets",
                "name:ru": "Проездные билеты",
                "building": "kiosk",
                "operator": "ГУП «Мосгортранс»",
                "building:levels": "1",
                "contact:website": "http://www.mosgortrans.ru",
                "tickets:public_transport": "yes"
            },
            {
                "name": "Кассы спорт-комплекса \"Олимпийский\"",
                "shop": "ticket",
                "building": "yes",
                "addr:street": "улица Щепкина",
                "addr:postcode": "129110",
                "building:levels": "6",
                "addr:housenumber": "47 с1"
            }
        ]
    },
    "dry_cleaning": {
        "count": 1,
        "detail": [
            {
                "shop": "dry_cleaning"
            }
        ]
    },
    "bicycle_parking": {
        "count": 3,
        "detail": [
            {
                "fee": "no",
                "amenity": "bicycle_parking",
                "covered": "no",
                "capacity": "4",
                "supervised": "no",
                "opening_hours": "24/7",
                "bicycle_parking": "stands"
            },
            {
                "amenity": "bicycle_parking",
                "bicycle_parking": "stands",
                "capacity": "11"
            },
            {
                "amenity": "bicycle_parking",
                "bicycle_parking": "stands",
                "capacity": "10"
            }
        ]
    },
    "food_court": {
        "count": 1,
        "detail": [
            {
                "amenity": "food_court",
                "contact:facebook": "https://www.facebook.com/gardenbuffetmsk/",
                "contact:phone": "+7 965 3066303",
                "level": "-1",
                "name": "Садовый буфет",
                "opening_hours": "Mo-Su 10:00-23:00"
            }
        ]
    },
    "deli": {
        "count": 1,
        "detail": [
            {
                "description": "Икра",
                "shop": "deli"
            }
        ]
    },
    "spices": {
        "count": 1,
        "detail": [
            {
                "addr:housenumber": "40",
                "addr:street": "проспект Мира",
                "description": "Восточные косметика, продукты и специи.",
                "email": "info@ashaindia.ru",
                "name": "Ashanti",
                "shop": "spices",
                "website": "https://ashaindia.ru"
            }
        ]
    },
    "cosmetics": {
        "count": 1,
        "detail": [
            {
                "beauty": "cosmetics",
                "brand": "Yves Rocher",
                "brand:wikidata": "Q28496595",
                "brand:wikipedia": "en:Yves Rocher (company)",
                "contact:email": "contact@yves-rocher.ru",
                "contact:facebook": "https://www.facebook.com/YvesRocherRussia",
                "contact:instagram": "https://www.instagram.com/yvesrocher_russia/",
                "contact:ok": "https://ok.ru/yves.rocher.russia",
                "contact:phone": "+7 495 7975850",
                "contact:vk": "https://vk.com/yves.rocher.russia",
                "contact:website": "https://www.yves-rocher.ru/",
                "name": "Ив Роше",
                "opening_hours": "Mo-Sa 10:00-21:00;Su 10:00-20:00",
                "operator": "ИВ РОШЕ ВОСТОК",
                "shop": "cosmetics"
            }
        ]
    },
    "payment_terminal": {
        "count": 1,
        "detail": [
            {
                "amenity": "payment_terminal",
                "brand": "Мосинфо",
                "contact:phone": "+7 495 7774888",
                "information": "terminal",
                "opening_hours": "24/7",
                "operator": "ОАО «Городская информационно-справочная служба»",
                "payment:notes": "yes",
                "tourism": "information"
            }
        ]
    },
    "bench": {
        "count": 2,
        "detail": [
            {
                "amenity": "bench"
            },
            {
                "amenity": "bench"
            }
        ]
    },
    "newsagent": {
        "count": 1,
        "detail": [
            {
                "building": "kiosk",
                "building:levels": "1",
                "inscription": "Печать",
                "shop": "newsagent"
            }
        ]
    },
    "alcohol": {
        "count": 1,
        "detail": [
            {
                "brand": "Красное&Белое",
                "brand:wikidata": "Q24933790",
                "brand:wikipedia": "ru:Красное & Белое",
                "contact:facebook": "https://www.facebook.com/krasnoe.beloe",
                "contact:instagram": "https://www.instagram.com/krasnoebeloe",
                "contact:ok": "https://ok.ru/krasnoebeloe",
                "contact:telegram": "+7 922 7033000",
                "contact:viber": "+7 922 7033000",
                "contact:vk": "https://vk.com/krasnoebeloe",
                "contact:website": "https://krasnoeibeloe.ru",
                "contact:whatsapp": "+7 922 7033000",
                "level": "1",
                "name": "Красное&Белое",
                "name:ru": "Красное&Белое",
                "opening_hours": "Mo-Su 09:00-22:05",
                "shop": "alcohol"
            }
        ]
    },
    "musical_instrument": {
        "count": 1,
        "detail": [
            {
                "contact:email": "marketing@grandpiano.ru",
                "contact:phone": "+7-495-8189627",
                "contact:website": "https://www.grandpiano.ru/",
                "name": "Forte & piano",
                "opening_hours": "Mo-Sa 11:00-20:00; Su 11:00-17:00",
                "shop": "musical_instrument"
            }
        ]
    },
    "telephone": {
        "count": 1,
        "detail": [
            {
                "amenity": "telephone"
            }
        ]
    },
    "childcare": {
        "count": 1,
        "detail": [
            {
                "amenity": "childcare",
                "contact:email": "msk.pr_mira@baby-club.ru",
                "contact:facebook": "https://www.facebook.com/babyclubru",
                "contact:instagram": "https://www.instagram.com/babyclubru/",
                "contact:phone": "+7 800 1002024;+7 985 6125151",
                "contact:vk": "https://vk.com/babyclubru",
                "contact:website": "https://baby-club.ru/",
                "name": "Бэби-клуб",
                "opening_hours": "Mo-Su 10:00-20:00",
                "operator": "Бэби-клуб"
            }
        ]
    },
    "commercial": {
        "count": 6,
        "detail": [
            {
                "addr:housenumber": "40",
                "addr:street": "проспект Мира",
                "building": "commercial",
                "building:levels": "7",
                "name": "Многофункциональный комплекс \"Gardenmir\""
            },
            {
                "name": "Торгово-офисный центр Olympic Plaza",
                "building": "commercial",
                "addr:street": "проспект Мира",
                "addr:postcode": "129110",
                "building:levels": "6",
                "contact:website": "http://www.olimpik-plaza.ru",
                "addr:housenumber": "33 к1"
            },
            {
                "addr:housenumber": "37 с1",
                "addr:postcode": "129110",
                "addr:street": "улица Гиляровского",
                "building": "commercial",
                "building:levels": "8",
                "name": "ГУП \"Московский метрополитен\"",
                "office": "company"
            },
            {
                "name": "Деловой центр «Etmia (Этмиа)»",
                "building": "commercial",
                "addr:street": "улица Щепкина",
                "addr:postcode": "129090",
                "building:levels": "8",
                "addr:housenumber": "33"
            },
            {
                "name": "Торговый центр \"Олимпик плаза\"",
                "building": "commercial",
                "addr:street": "проспект Мира",
                "addr:postcode": "129110",
                "building:levels": "6",
                "addr:housenumber": "39 с2"
            },
            {
                "building": "commercial",
                "addr:street": "улица Щепкина",
                "addr:postcode": "129110",
                "addr:housenumber": "40 с1"
            }
        ]
    },
    "school": {
        "count": 1,
        "detail": [
            {
                "building": "school",
                "addr:street": "Протопоповский переулок",
                "building:levels": "4",
                "addr:housenumber": "5"
            }
        ]
    },
    "public_building": {
        "count": 1,
        "detail": [
            {
                "addr:housenumber": "9",
                "addr:street": "Протопоповский переулок",
                "amenity": "public_building",
                "building": "civic",
                "building:levels": "6",
                "name": "Дом просвещения ВОС",
                "name:ru": "Дом просвещения ВОС"
            }
        ]
    },
    "embassy": {
        "count": 1,
        "detail": [
            {
                "addr:housenumber": "3 с1",
                "addr:street": "Грохольский переулок",
                "amenity": "embassy",
                "building": "civic",
                "building:levels": "2",
                "contact:phone": "+7 495 9813414",
                "country": "PT",
                "diplomatic": "embassy",
                "name": "посольство Португалии",
                "name:en": "Embassy of Portugal",
                "name:fr": "Ambassade du Portugal",
                "name:pt": "Embaixada de Portugal",
                "name:ru": "посольство Португалии",
                "office": "diplomatic",
                "opening_hours": "Mo-Fr 10:15-13:00",
                "wikidata": "Q4374036"
            }
        ]
    },
    "service": {
        "count": 4,
        "detail": [
            {
                "addr:housenumber": "19 с7А",
                "addr:street": "Протопоповский переулок",
                "building": "service",
                "building:levels": "1",
                "building:material": "brick",
                "location": "indoor",
                "power": "substation",
                "substation": "minor_distribution"
            },
            {
                "power": "substation",
                "building": "service",
                "substation": "minor_distribution",
                "addr:street": "проспект Мира",
                "addr:postcode": "129090",
                "building:levels": "1",
                "addr:housenumber": "19 с2"
            },
            {
                "ref": "17859",
                "power": "substation",
                "height": "3",
                "building": "service",
                "substation": "minor_distribution",
                "addr:street": "проспект Мира",
                "building:levels": "1",
                "addr:housenumber": "36 с2"
            },
            {
                "addr:housenumber": "4 с5",
                "addr:street": "Протопоповский переулок",
                "building": "service",
                "building:levels": "1",
                "location": "indoor",
                "power": "substation",
                "substation": "minor_distribution"
            }
        ]
    },
    "kindergarten": {
        "count": 1,
        "detail": [
            {
                "building": "kindergarten",
                "addr:street": "улица Гиляровского",
                "addr:postcode": "129090",
                "building:levels": "4",
                "addr:housenumber": "21"
            }
        ]
    },
    "shelter": {
        "count": 1,
        "detail": [
            {
                "amenity": "shelter",
                "bin": "yes",
                "building": "yes",
                "shelter_type": "picnic_shelter"
            }
        ]
    }
}