{
    "residents": 5967,
    "ice_cream": {
        "count": 1,
        "detail": [
            {
                "name": "Айсбери",
                "shop": "ice_cream",
                "name:ru": "Айсбери"
            }
        ]
    },
    "bus_stop": {
        "count": 7,
        "detail": [
            {
                "highway": "bus_stop",
                "name": "Матвеевская улица",
                "public_transport": "platform",
                "shelter": "yes"
            },
            {
                "name": "Нежинская улица, 25",
                "highway": "bus_stop",
                "public_transport": "platform"
            },
            {
                "name": "Нежинская улица, 25",
                "highway": "bus_stop",
                "public_transport": "platform"
            },
            {
                "name": "Матвеевская улица",
                "highway": "bus_stop"
            },
            {
                "name": "Матвеевская улица, 36",
                "highway": "bus_stop",
                "public_transport": "platform"
            },
            {
                "highway": "bus_stop",
                "name": "Матвеевская улица",
                "name:ru": "Матвеевская улица",
                "shelter": "yes"
            },
            {
                "name": "Матвеевская улица 42",
                "highway": "bus_stop",
                "public_transport": "platform"
            }
        ]
    },
    "convenience": {
        "count": 3,
        "detail": [
            {
                "shop": "convenience",
                "inscription": "Продукты"
            },
            {
                "shop": "convenience",
                "inscription": "Продукты",
                "opening_hours": "Mo-Su 10:00-22:00"
            },
            {
                "name": "магнит",
                "shop": "convenience"
            }
        ]
    },
    "bank": {
        "count": 1,
        "detail": [
            {
                "amenity": "bank",
                "branch": "Московский банк",
                "contact:facebook": "https://www.facebook.com/sberbank",
                "contact:instagram": "https://www.instagram.com/sberbank/",
                "contact:ok": "https://ok.ru/sberbank",
                "contact:phone": "+7 800 5555550",
                "contact:twitter": "https://twitter.com/sberbank/",
                "contact:vk": "https://vk.com/sberbank",
                "contact:website": "https://www.sberbank.ru",
                "contact:youtube": "https://www.youtube.com/sberbank",
                "name": "Сбербанк",
                "name:en": "Sberbank",
                "name:ru": "Сбербанк",
                "opening_hours": "Mo-Fr 09:30-18:30",
                "operator": "ПАО Сбербанк",
                "operator:wikidata": "Q205012",
                "operator:wikipedia": "ru:Сбербанк России",
                "ref": "9038/01196",
                "wheelchair": "no"
            }
        ]
    },
    "pharmacy": {
        "count": 1,
        "detail": [
            {
                "amenity": "pharmacy",
                "opening_hours": "24/7"
            }
        ]
    },
    "waste_disposal": {
        "count": 9,
        "detail": [
            {
                "amenity": "waste_disposal"
            },
            {
                "amenity": "waste_disposal"
            },
            {
                "amenity": "waste_disposal"
            },
            {
                "amenity": "waste_disposal"
            },
            {
                "amenity": "waste_disposal"
            },
            {
                "amenity": "waste_disposal"
            },
            {
                "amenity": "waste_disposal"
            },
            {
                "amenity": "waste_disposal"
            },
            {
                "amenity": "waste_disposal"
            }
        ]
    },
    "alcohol": {
        "count": 1,
        "detail": [
            {
                "shop": "alcohol",
                "opening_hours": "Mo-Su 10:00-23:00"
            }
        ]
    },
    "hairdresser": {
        "count": 1,
        "detail": [
            {
                "shop": "hairdresser"
            }
        ]
    },
    "bench": {
        "count": 8,
        "detail": [
            {
                "amenity": "bench"
            },
            {
                "amenity": "bench"
            },
            {
                "amenity": "bench"
            },
            {
                "amenity": "bench"
            },
            {
                "amenity": "bench"
            },
            {
                "amenity": "bench"
            },
            {
                "amenity": "bench"
            },
            {
                "amenity": "bench"
            }
        ]
    },
    "outdoor_seating": {
        "count": 1,
        "detail": [
            {
                "leisure": "outdoor_seating"
            }
        ]
    },
    "playground": {
        "count": 1,
        "detail": [
            {
                "leisure": "playground"
            }
        ]
    },
    "post_office": {
        "count": 1,
        "detail": [
            {
                "amenity": "post_office",
                "brand": "Почта России",
                "brand:wikidata": "Q1502763",
                "brand:wikipedia": "ru:Почта России",
                "contact:website": "https://www.pochta.ru",
                "name": "Москва 119517",
                "opening_hours": "Mo-Fr 08:00-20:00; Sa-Su 09:00-18:00",
                "operator": "АО «Почта России»",
                "ref": "119517"
            }
        ]
    },
    "fast_food": {
        "count": 1,
        "detail": [
            {
                "amenity": "fast_food",
                "brand": "Макдоналдс",
                "brand:wikidata": "Q38076",
                "brand:wikipedia": "ru:McDonald’s",
                "contact:email": "info@ru.mcd.com",
                "contact:facebook": "https://www.facebook.com/mcdonaldsrussia",
                "contact:instagram": "https://www.instagram.com/mcdonalds_rus",
                "contact:phone": "+7 800 7074499",
                "contact:vk": "https://vk.com/mcdonaldsrussia",
                "contact:website": "https://mcdonalds.ru",
                "contact:youtube": "https://www.youtube.com/user/McDonaldsRussia",
                "cuisine": "burger",
                "diet:vegetarian": "no",
                "name": "Макдоналдс",
                "name:en": "McDonald's",
                "name:ru": "Макдоналдс",
                "takeaway": "yes"
            }
        ]
    },
    "supermarket": {
        "count": 1,
        "detail": [
            {
                "alt_name": "Перекрёсток",
                "brand": "Перекресток",
                "brand:wikidata": "Q1684639",
                "brand:wikipedia": "ru:Перекрёсток (сеть магазинов)",
                "contact:facebook": "https://www.facebook.com/perekrestok",
                "contact:instagram": "https://www.instagram.com/perekrestok",
                "contact:ok": "https://ok.ru/perekrestok.shop",
                "contact:phone": "+7 800 2009555",
                "contact:twitter": "https://twitter.com/perekrestok",
                "contact:vk": "https://vk.com/perekrestok_shop",
                "contact:website": "https://www.perekrestok.ru",
                "contact:youtube": "https://www.youtube.com/channel/UCY9Nwfy_8drHqif0iryQ7Vw",
                "name": "Перекресток",
                "name:ru": "Перекресток",
                "shop": "supermarket"
            }
        ]
    },
    "restaurant": {
        "count": 1,
        "detail": [
            {
                "amenity": "restaurant",
                "contact:website": "http://www.saperavicafe.com",
                "cuisine": "georgian",
                "name": "Saperavi",
                "opening_hours": "Mo-Su 10:00-22:00"
            }
        ]
    },
    "cafe": {
        "count": 1,
        "detail": [
            {
                "amenity": "cafe",
                "contact:facebook": "https://www.facebook.com/cinnabon.russia",
                "contact:instagram": "https://instagram.com/cinnabon_russia",
                "contact:phone": "+7 926 4861242",
                "contact:vk": "https://vk.com/cinnabon_rus",
                "contact:website": "https://cinnabonrussia.com/",
                "name": "Cinnabon",
                "opening_hours": "Mo-Su 10:00-22:00",
                "operator": "Обрядина Альбина Муратовна"
            }
        ]
    },
    "electronics": {
        "count": 1,
        "detail": [
            {
                "contact:email": "customer@eldorado.ru",
                "contact:facebook": "https://www.facebook.com/Eldorado.Stores",
                "contact:instagram": "https://instagram.com/eldorado_stores",
                "contact:ok": "https://ok.ru/eldorado.stores",
                "contact:phone": "+7 800 2502525",
                "contact:vk": "https://vk.com/eldorado_stores",
                "contact:website": "https://www.eldorado.ru/",
                "contact:youtube": "https://www.youtube.com/user/eldoradovideo",
                "name": "Эльдорадо",
                "opening_hours": "Mo-Su 10:00-22:00",
                "operator": "Эльдорадо — ООО \"МВМ\"",
                "shop": "electronics"
            }
        ]
    },
    "furniture": {
        "count": 1,
        "detail": [
            {
                "contact:phone": "+7 903 7764985;+7 903 7765974",
                "contact:website": "https://lazurit.com/",
                "name": "Lazurit",
                "opening_hours": "Mo-Su 10:00-22:00",
                "shop": "furniture"
            }
        ]
    },
    "school": {
        "count": 1,
        "detail": [
            {
                "addr:housenumber": "34 к2",
                "addr:street": "Матвеевская улица",
                "building": "school",
                "building:colour": "lightblue",
                "building:levels": "4",
                "roof:colour": "darkgrey"
            }
        ]
    }
}