{
    "residents": 4170,
    "bus_stop": {
        "count": 3,
        "detail": [
            {
                "name": "Проспект Ленина",
                "highway": "bus_stop",
                "name:en": "Prospekt Lenina",
                "old_name": "Магазин \"Рубин\"",
                "operator": "Пассажир"
            },
            {
                "name": "Проспект Ленина",
                "highway": "bus_stop",
                "name:en": "Prospekt Lenina",
                "old_name": "Магазин \"Рубин\"",
                "operator": "Пассажир"
            },
            {
                "name": "Рынок",
                "bench": "yes",
                "highway": "bus_stop",
                "shelter": "yes"
            }
        ]
    },
    "waste_disposal": {
        "count": 1,
        "detail": [
            {
                "amenity": "waste_disposal"
            }
        ]
    },
    "pharmacy": {
        "count": 2,
        "detail": [
            {
                "amenity": "pharmacy",
                "dispensing": "yes",
                "healthcare": "pharmacy",
                "name": "Аптечный склад"
            },
            {
                "name": "ГорЗдрав",
                "amenity": "pharmacy"
            }
        ]
    },
    "car_repair": {
        "count": 1,
        "detail": [
            {
                "shop": "car_repair"
            }
        ]
    },
    "clothes": {
        "count": 5,
        "detail": [
            {
                "shop": "clothes"
            },
            {
                "shop": "clothes"
            },
            {
                "shop": "clothes"
            },
            {
                "name": "\"Джинсы\"",
                "shop": "clothes"
            },
            {
                "shop": "clothes"
            }
        ]
    },
    "supermarket": {
        "count": 3,
        "detail": [
            {
                "brand": "Дикси",
                "brand:en": "Dixy",
                "brand:wikidata": "Q4161561",
                "brand:wikipedia": "ru:Дикси (сеть магазинов)",
                "name": "Дикси",
                "opening_hours": "08:00-22:00",
                "shop": "supermarket"
            },
            {
                "alt_name": "Пятерочка",
                "brand": "Пятёрочка",
                "brand:en": "Pyaterochka",
                "brand:wikidata": "Q1768969",
                "brand:wikipedia": "ru:Пятёрочка",
                "contact:facebook": "https://www.facebook.com/pyaterochka",
                "contact:phone": "+7 800 5555505",
                "contact:website": "https://5ka.ru",
                "name": "Пятёрочка",
                "name:en": "Pyaterochka",
                "name:ru": "Пятёрочка",
                "shop": "supermarket"
            },
            {
                "addr:city": "Электросталь",
                "addr:housenumber": "26",
                "addr:street": "проспект Ленина",
                "name": "Высшая лига",
                "opening_hours": "Mo-Su 09:00-21:00",
                "phone": "+7 800 4501001",
                "shop": "supermarket"
            }
        ]
    },
    "toys": {
        "count": 1,
        "detail": [
            {
                "name": "Буратино",
                "shop": "toys"
            }
        ]
    },
    "hairdresser": {
        "count": 1,
        "detail": [
            {
                "shop": "hairdresser"
            }
        ]
    },
    "bench": {
        "count": 1,
        "detail": [
            {
                "amenity": "bench"
            }
        ]
    },
    "convenience": {
        "count": 4,
        "detail": [
            {
                "shop": "convenience"
            },
            {
                "shop": "convenience"
            },
            {
                "shop": "convenience"
            },
            {
                "name": "24 часа",
                "shop": "convenience",
                "opening_hours": "24/7"
            }
        ]
    },
    "newsagent": {
        "count": 1,
        "detail": [
            {
                "shop": "newsagent"
            }
        ]
    },
    "doityourself": {
        "count": 1,
        "detail": [
            {
                "name": "1000 мелочей",
                "shop": "doityourself"
            }
        ]
    },
    "alcohol": {
        "count": 3,
        "detail": [
            {
                "name": "Alco siop",
                "shop": "alcohol"
            },
            {
                "brand": "Красное & Белое",
                "brand:en": "Red&White",
                "brand:wikidata": "Q24933790",
                "brand:wikipedia": "en:Krasnoe & Beloe",
                "contact:facebook": "https://www.facebook.com/krasnoe.beloe",
                "contact:phone": "+7 922 7033000",
                "contact:website": "http://www.krasnoeibeloe.ru",
                "name": "Красное & Белое",
                "name:en": "Red&White",
                "name:ru": "Красное&Белое",
                "opening_hours": "09:00-22:05",
                "shop": "alcohol"
            },
            {
                "name": "Красное&Белое",
                "shop": "alcohol",
                "brand": "Красное&Белое",
                "name:ru": "Красное&Белое",
                "contact:phone": "+7 922 7033000",
                "contact:website": "http://www.krasnoeibeloe.ru",
                "contact:facebook": "https://www.facebook.com/krasnoe.beloe"
            }
        ]
    },
    "optician": {
        "count": 2,
        "detail": [
            {
                "shop": "optician"
            },
            {
                "shop": "optician"
            }
        ]
    },
    "bicycle": {
        "count": 1,
        "detail": [
            {
                "shop": "bicycle"
            }
        ]
    },
    "jewelry": {
        "count": 1,
        "detail": [
            {
                "shop": "jewelry"
            }
        ]
    },
    "copyshop": {
        "count": 1,
        "detail": [
            {
                "addr:housenumber": "25",
                "addr:street": "проспект Ленина",
                "name": "Типография Эль-принт",
                "opening_hours": "Mo-Su 09:00-18:00",
                "phone": "+7 496 5778025",
                "shop": "copyshop",
                "website": "http://эльпринт.рф"
            }
        ]
    },
    "hardware": {
        "count": 1,
        "detail": [
            {
                "name": "Папа Карло",
                "shop": "hardware",
                "name:ru": "Папа Карло"
            }
        ]
    },
    "playground": {
        "count": 1,
        "detail": [
            {
                "leisure": "playground"
            }
        ]
    },
    "bowling": {
        "count": 1,
        "detail": [
            {
                "leisure": "bowling",
                "building": "yes"
            }
        ]
    },
    "university": {
        "count": 1,
        "detail": [
            {
                "name": "МАМИ (филиал)",
                "amenity": "university",
                "building": "yes",
                "addr:street": "Первомайская улица",
                "description": "ЭЛЕКТРОСТАЛЬСКИЙ ИНСТИТУТ (ФИЛИАЛ) МОСКОВСКОГО ПОЛИТЕХНИЧЕСКОГО УНИВЕРСИТЕТА",
                "addr:housenumber": "7"
            }
        ]
    }
}