{
    "residents": 16530,
    "supermarket": {
        "count": 2,
        "detail": [
            {
                "name": "Глобус Гурмэ",
                "shop": "supermarket",
                "level": "-1"
            },
            {
                "brand": "Азбука Вкуса",
                "brand:wikidata": "Q4058209",
                "brand:wikipedia": "ru:Азбука вкуса",
                "contact:email": "welcome@azbukavkusa.ru",
                "contact:facebook": "https://www.facebook.com/AzbukaVkusa",
                "contact:instagram": "https://www.instagram.com/azbukavkusa",
                "contact:phone": "+7 800 7003487",
                "contact:twitter": "https://twitter.com/azbukavkusa",
                "contact:vk": "https://vk.com/azbukavkusa",
                "contact:website": "https://av.ru/shops/arbat-d-542-str-4",
                "contact:youtube": "https://www.youtube.com/user/azbukav",
                "name": "Азбука Вкуса",
                "name:ru": "Азбука Вкуса",
                "opening_hours": "24/7",
                "operator": "ООО «Городской супермаркет»",
                "ref:av": "359282",
                "shop": "supermarket"
            }
        ]
    },
    "pharmacy": {
        "count": 8,
        "detail": [
            {
                "amenity": "pharmacy",
                "brand": "36,6",
                "brand:wikidata": "Q226889",
                "brand:wikipedia": "ru:36,6 (аптечная сеть)",
                "contact:facebook": "https://www.facebook.com/apteka366",
                "contact:instagram": "https://www.instagram.com/apteka366",
                "contact:ok": "https://ok.ru/group/57486618853421",
                "contact:phone": "+7 495 7978686",
                "contact:vk": "https://vk.com/apteka36i6",
                "contact:website": "https://apteka366.ru",
                "healthcare": "pharmacy",
                "name": "36,6",
                "name:ru": "36,6",
                "opening_hours": "Mo-Fr 08:00-23:00; Sa,Su 09:00-22:00",
                "operator": "ООО \"АПТЕКА-А.в.е\"",
                "ref": "891"
            },
            {
                "amenity": "pharmacy"
            },
            {
                "amenity": "pharmacy",
                "dispensing": "no"
            },
            {
                "amenity": "pharmacy",
                "brand": "36,6",
                "brand:wikidata": "Q226889",
                "brand:wikipedia": "ru:36,6 (аптечная сеть)",
                "contact:facebook": "https://www.facebook.com/apteka366",
                "contact:instagram": "https://www.instagram.com/apteka366",
                "contact:ok": "https://ok.ru/group/57486618853421",
                "contact:phone": "+7 495 7950984",
                "contact:vk": "https://vk.com/apteka36i6",
                "contact:website": "https://apteka366.ru",
                "healthcare": "pharmacy",
                "name": "36,6",
                "name:ru": "36,6",
                "opening_hours": "Mo-Fr 08:00-23:00; Sa,Su 10:00-22:00"
            },
            {
                "name": "Радуга",
                "amenity": "pharmacy",
                "contact:phone": "+7 499 6386601",
                "opening_hours": "Mo-Fr 08:00-22:00; Sa,Su 10:00-21:00",
                "contact:website": "http://apteka-raduga.ru"
            },
            {
                "amenity": "pharmacy",
                "name": "Неофарм"
            },
            {
                "amenity": "pharmacy",
                "brand": "Самсон Фарма",
                "contact:website": "http://www.samson-f.ru",
                "healthcare": "pharmacy",
                "name": "Самсон Фарма",
                "name:en": "Samson Pharma",
                "name:ru": "Самсон Фарма",
                "opening_hours": "24/7"
            },
            {
                "name": "Дежурные аптеки",
                "amenity": "pharmacy",
                "opening_hours": "24/7"
            }
        ]
    },
    "bank": {
        "count": 9,
        "detail": [
            {
                "amenity": "bank",
                "atm": "yes",
                "bic": "VTBRRUMM",
                "brand": "ВТБ",
                "brand:en": "VTB Bank",
                "brand:wikidata": "Q767946",
                "brand:wikipedia": "ru:Банк Москвы",
                "contact:email": "info@vtb.ru",
                "contact:facebook": "https://www.facebook.com/vtbrussia",
                "contact:instagram": "https://www.instagram.com/bankvtb",
                "contact:ok": "https://ok.ru/vtb",
                "contact:phone": "+7 800 1002424",
                "contact:twitter": "https://twitter.com/VTB",
                "contact:vk": "https://vk.com/vtb",
                "contact:website": "https://www.vtb.ru",
                "contact:youtube": "https://www.youtube.com/user/vtbgroup",
                "name": "ВТБ",
                "name:en": "VTB",
                "name:ru": "ВТБ",
                "operator": "Банк ВТБ (публичное акционерное общество)",
                "operator:wikidata": "Q1549389",
                "operator:wikipedia": "ru:Банк ВТБ"
            },
            {
                "amenity": "bank",
                "atm": "yes",
                "bic": "RSBNRUMM",
                "brand": "Росбанк",
                "brand:wikidata": "Q1119857",
                "brand:wikipedia": "ru:Росбанк",
                "contact:facebook": "https://www.facebook.com/Rosbank-598134936938972",
                "contact:phone": "+7 800 2005434",
                "contact:twitter": "https://twitter.com/Rosbank_Info",
                "contact:vk": "https://vk.com/rosbank",
                "contact:website": "https://www.rosbank.ru",
                "name": "Росбанк",
                "name:en": "Rosbank",
                "name:ru": "Росбанк",
                "opening_hours": "Mo-Fr 10:00-19:00",
                "operator": "Росбанк",
                "operator:wikidata": "Q1119857",
                "operator:wikipedia": "ru:Росбанк",
                "ref": "КАРМАНИЦКИЙ",
                "wheelchair": "yes"
            },
            {
                "bic": "VTBRRUMM",
                "name": "ВТБ",
                "brand": "ВТБ",
                "amenity": "bank",
                "name:en": "VTB",
                "name:ru": "ВТБ",
                "operator": "Банк ВТБ (публичное акционерное общество)",
                "contact:ok": "https://ok.ru/vtb",
                "contact:vk": "https://vk.com/vtb",
                "contact:email": "info@vtb.ru",
                "contact:phone": "+7 800 1002424",
                "opening_hours": "Mo-Fr 09:00-20:00; Sa 10:00-17:00",
                "contact:twitter": "https://twitter.com/VTB",
                "contact:website": "https://www.vtb.ru",
                "contact:youtube": "https://www.youtube.com/user/vtbgroup",
                "contact:facebook": "https://www.facebook.com/vtbrussia",
                "contact:instagram": "https://www.instagram.com/bankvtb",
                "operator:wikidata": "Q1549389",
                "operator:wikipedia": "ru:Банк ВТБ"
            },
            {
                "atm": "yes",
                "name": "ББР Банк",
                "amenity": "bank",
                "operator": "ББР Банк"
            },
            {
                "name": "Связь Банк",
                "amenity": "bank",
                "contact:phone": "+7 800 5000080",
                "opening_hours": "Mo-Fr 09:00-20:00; Sa 10:00-18:00",
                "contact:website": "http://www.sviaz-bank.ru"
            },
            {
                "amenity": "bank",
                "branch": "Московский банк",
                "contact:facebook": "https://www.facebook.com/sberbank",
                "contact:instagram": "https://www.instagram.com/sberbank/",
                "contact:ok": "https://ok.ru/sberbank",
                "contact:phone": "+7 800 5555777",
                "contact:twitter": "https://twitter.com/sberbank/",
                "contact:vk": "https://vk.com/sberbank",
                "contact:website": "https://www.sberbank.ru",
                "contact:youtube": "https://www.youtube.com/sberbank",
                "name": "Сбербанк",
                "name:en": "Sberbank",
                "name:ru": "Сбербанк",
                "opening_hours": "Mo-Fr 09:00-18:00",
                "operator": "ПАО Сбербанк",
                "operator:wikidata": "Q205012",
                "operator:wikipedia": "ru:Сбербанк России",
                "ref": "9038/28899",
                "wheelchair": "no"
            },
            {
                "amenity": "bank",
                "branch": "Московский банк",
                "contact:facebook": "https://www.facebook.com/sberbank",
                "contact:instagram": "https://www.instagram.com/sberbank/",
                "contact:ok": "https://ok.ru/sberbank",
                "contact:phone": "+7 800 5555550",
                "contact:twitter": "https://twitter.com/sberbank/",
                "contact:vk": "https://vk.com/sberbank",
                "contact:website": "https://www.sberbank.ru",
                "contact:youtube": "https://www.youtube.com/sberbank",
                "name": "Сбербанк",
                "name:en": "Sberbank",
                "name:ru": "Сбербанк",
                "opening_hours": "Mo-Fr 09:00-19:00",
                "operator": "ПАО Сбербанк",
                "operator:wikidata": "Q205012",
                "operator:wikipedia": "ru:Сбербанк России",
                "ref": "9038/0759",
                "wheelchair": "yes"
            },
            {
                "amenity": "bank",
                "contact:website": "http://www.sbnk.ru/",
                "name": "Соколовский",
                "opening_hours": "Mo-Th 09:30-17:45; Fr 09:30-17:00"
            },
            {
                "amenity": "bank",
                "contact:website": "https://www.mtsbank.ru",
                "name": "МТС Банк",
                "opening_hours": "Mo-Fr 09:00-20:00; Sa 10:00-18:00"
            }
        ]
    },
    "fast_food": {
        "count": 9,
        "detail": [
            {
                "addr:country": "RU",
                "addr:postcode": "119002",
                "amenity": "fast_food",
                "brand": "Макдоналдс",
                "brand:en": "McDonald's",
                "brand:ru": "Макдоналдс",
                "brand:wikidata": "Q38076",
                "brand:wikipedia": "en:McDonald’s",
                "contact:email": "info@ru.mcd.com",
                "contact:facebook": "https://www.facebook.com/mcdonaldsrussia",
                "contact:instagram": "https://www.instagram.com/mcdonalds_rus/",
                "contact:phone": "+7 499 2413681",
                "contact:vk": "https://vk.com/mcdonaldsrussia",
                "contact:website": "https://mcdonalds.ru",
                "contact:youtube": "https://www.youtube.com/user/McDonaldsRussia",
                "cuisine": "burger",
                "diet:vegetarian": "no",
                "int_name": "McDonald's",
                "name": "Макдоналдс",
                "name:de": "McDonald's",
                "name:en": "McDonald's",
                "name:ru": "Макдоналдс",
                "opening_hours": "Su-Th 06:30-23:30; Fr-Sa 06:30-24:00",
                "operator": "Макдоналдс",
                "smoking": "no",
                "takeaway": "yes"
            },
            {
                "amenity": "fast_food",
                "brand": "Теремок",
                "contact:facebook": "https://www.facebook.com/teremok",
                "contact:phone": "+7 495 9562730",
                "contact:website": "http://www.teremok.ru",
                "cuisine": "crepe",
                "diet:vegetarian": "yes",
                "name": "Теремок",
                "name:en": "Teremok",
                "name:ru": "Теремок",
                "opening_hours": "Mo-Su 10:00-23:00",
                "operator:wikidata": "Q4455593",
                "operator:wikipedia": "ru:Теремок (сеть быстрого питания)",
                "website": "http://www.teremok.ru/"
            },
            {
                "amenity": "fast_food",
                "cuisine": "chinese",
                "name": "Golden Panda"
            },
            {
                "amenity": "fast_food",
                "cuisine": "coffee_shop",
                "takeaway": "yes"
            },
            {
                "amenity": "fast_food",
                "cuisine": "kebab",
                "delivery": "only",
                "name": "Идола"
            },
            {
                "amenity": "fast_food",
                "brand": "Cofix",
                "brand:wikidata": "Q16132717",
                "brand:wikipedia": "en:Cofix",
                "contact:email": "info@cofix.ru",
                "contact:facebook": "https://www.facebook.com/cofixrussia",
                "contact:instagram": "https://www.instagram.com/cofixrussia",
                "contact:vk": "https://vk.com/cofixrussia",
                "contact:website": "http://www.cofix.ru",
                "cuisine": "coffee_shop",
                "delivery": "no",
                "name": "Cofix",
                "name:en": "Cofix",
                "takeaway": "yes"
            },
            {
                "amenity": "fast_food",
                "cuisine": "coffee_shop",
                "takeaway": "only"
            },
            {
                "amenity": "fast_food",
                "cuisine": "kebab",
                "name": "Идола"
            },
            {
                "amenity": "fast_food",
                "cuisine": "kebab",
                "opening_hours": "24/7",
                "takeaway": "yes"
            }
        ]
    },
    "police": {
        "count": 2,
        "detail": [
            {
                "name": "Отдел МВД России по району Арбат",
                "amenity": "police",
                "short_name": "ОВД \"Арбат\"",
                "contact:phone": "+7 499 2410945"
            },
            {
                "amenity": "police",
                "phone": "+7 499 2412814"
            }
        ]
    },
    "atm": {
        "count": 4,
        "detail": [
            {
                "amenity": "atm",
                "website": "http://www.bm.ru/",
                "operator": "Банк Москвы"
            },
            {
                "amenity": "atm",
                "website": "http://www.bankuralsib.ru",
                "operator": "ПАО «Банк Уралсиб»",
                "contact:phone": "+7 800 2005520",
                "opening_hours": "24/7"
            },
            {
                "amenity": "atm",
                "operator": "Связь Банк",
                "opening_hours": "24/7"
            },
            {
                "amenity": "atm",
                "contact:email": "info@psbank.ru",
                "contact:phone": "+7 495 7873333;+7 800 3330303",
                "contact:website": "https://psbank.ru/",
                "opening_hours": "Mo-Fr 09:00-20:00",
                "operator": "Промсвязьбанк"
            }
        ]
    },
    "pub": {
        "count": 3,
        "detail": [
            {
                "amenity": "pub",
                "contact:facebook": "https://www.facebook.com/UlyssesMoscow",
                "contact:phone": "+7 499 2418799",
                "contact:website": "http://www.ulysses.pub",
                "name": "Ulysses",
                "opening_hours": "Mo-Su 12:00-23:45"
            },
            {
                "name": "Джон Булл",
                "amenity": "pub",
                "name:en": "John Bull Pub",
                "operator": "Ромашка Менеджмент",
                "contact:phone": "+7 499 2410644",
                "contact:website": "http://rmcom.ru/page-john-bull"
            },
            {
                "amenity": "pub",
                "name": "Слепой Пью",
                "opening_hours": "Mo-Su 10:00-23:00"
            }
        ]
    },
    "alcohol": {
        "count": 4,
        "detail": [
            {
                "name": "Бристоль",
                "shop": "alcohol",
                "contact:vk": "https://vk.com/bristol_retail",
                "contact:email": "mir@bristol.ru",
                "contact:phone": "+7 800 7071555",
                "contact:viber": "+7 910 8951221",
                "contact:twitter": "https://twitter.com/MagazinyBristol",
                "contact:website": "https://bristol.ru",
                "contact:facebook": "https://www.facebook.com/bristolretail",
                "contact:telegram": "+7 910 8951221",
                "contact:whatsapp": "+7 910 8951221",
                "contact:instagram": "https://www.instagram.com/bristol_retail"
            },
            {
                "name": "Ароматный мир",
                "shop": "alcohol",
                "brand": "Ароматный мир",
                "name:en": "Aromatny Mir",
                "name:ru": "Ароматный мир",
                "contact:website": "http://amwine.ru",
                "contact:facebook": "https://www.facebook.com/aromatny.mir"
            },
            {
                "name": "Иван Елкин",
                "shop": "alcohol",
                "contact:phone": "+7 495 6642038",
                "opening_hours": "Mo-Fr 10:00-19:00",
                "contact:website": "http://ivan-elkin.ru"
            },
            {
                "name": "Ароматный мир",
                "shop": "alcohol",
                "brand": "Ароматный мир",
                "name:ru": "Ароматный мир",
                "contact:vk": "https://vk.com/amwineru",
                "drink:beer": "bottled",
                "drink:wine": "bottled",
                "drink:cider": "bottled",
                "drink:vodka": "bottled",
                "drink:cognac": "bottled",
                "drink:whisky": "bottled",
                "contact:phone": "+7 495 7775190",
                "opening_hours": "Mo-Sa 09:30-22:30; Su 11:00-22:00",
                "contact:twitter": "https://twitter.com/amwineru",
                "contact:website": "https://amwine.ru",
                "contact:facebook": "https://www.facebook.com/amwine.ru",
                "drink:soft_drink": "bottled",
                "contact:instagram": "https://www.instagram.com/amwine.ru",
                "drink:sparkling_wine": "bottled"
            }
        ]
    },
    "books": {
        "count": 3,
        "detail": [
            {
                "name": "Букинист",
                "shop": "books",
                "name:en": "Bookinist",
                "second_hand": "only",
                "contact:phone": "+7 499 2413387",
                "opening_hours": "Mo-Sa 11:00-19:00"
            },
            {
                "name": "Математическая книга",
                "shop": "books"
            },
            {
                "books": "comics",
                "contact:phone": "+7 977 6357792",
                "contact:website": "https://timetobeahero.ru/",
                "name": "Time to be a Hero",
                "opening_hours": "Mo-Su 12:00-20:00",
                "shop": "books"
            }
        ]
    },
    "bar": {
        "count": 2,
        "detail": [
            {
                "amenity": "bar",
                "contact:facebook": "https://www.facebook.com/eric.the.red.pub",
                "contact:phone": "+7 499 5051833",
                "contact:website": "http://ericthered.ru",
                "craft_beer": "yes",
                "name": "Эрик Рыжий",
                "opening_hours": "Mo-Fr 08:00-24:00; Sa,Su 00:00-02:00,08:00-24:00"
            },
            {
                "amenity": "bar",
                "contact:facebook": "https://www.facebook.com/protochniy",
                "contact:phone": "+7 499 2412649",
                "craft_beer": "yes",
                "name": "Проточный",
                "opening_hours": "Tu-Su 11:00-23:00"
            }
        ]
    },
    "gift": {
        "count": 7,
        "detail": [
            {
                "name": "Русские сувениры",
                "shop": "gift"
            },
            {
                "name": "Сувенирград",
                "shop": "gift",
                "name:en": "Souvenirgrad",
                "contact:phone": "+7 499 2412921",
                "contact:website": "http://www.tdsuvenirov.ru"
            },
            {
                "contact:phone": "+7 499 2412118",
                "contact:website": "http://www.iskazka.com",
                "name": "Сказка",
                "name:en": "Skazka",
                "shop": "gift"
            },
            {
                "name": "Мир сувениров",
                "opening_hours": "Mo-Su 10:00-20:00",
                "shop": "gift"
            },
            {
                "opening_hours": "Mo-Su 09:30-20:30",
                "shop": "gift"
            },
            {
                "name": "Ростовская финифть",
                "opening_hours": "Mo-Su 11:00-20:00",
                "shop": "gift"
            },
            {
                "name": "Matreshka",
                "opening_hours": "Mo-Su 10:00-20:00",
                "shop": "gift"
            }
        ]
    },
    "restaurant": {
        "count": 20,
        "detail": [
            {
                "name": "Шашлык-машлык",
                "amenity": "restaurant",
                "cuisine": "georgian",
                "name:en": "Shashlyk-Mashlyk",
                "contact:phone": "+7 499 2412107",
                "contact:website": "http://www.arbat38.ru"
            },
            {
                "name": "White Rabbit",
                "amenity": "restaurant",
                "contact:phone": "+7 495 6633999",
                "opening_hours": "Mo-Su 12:00-06:00",
                "contact:website": "http://www.whiterabbitmoscow.com"
            },
            {
                "name": "Megumi",
                "amenity": "restaurant",
                "cuisine": "japanese",
                "contact:phone": "+7 495 7451000",
                "opening_hours": "Mo-Fr 12:00-22:30; Sa,Su 14:00-22:30"
            },
            {
                "amenity": "restaurant",
                "contact:phone": "+7 499 7951160;+7 495 7419192",
                "contact:website": "http://gayanes.ru",
                "cuisine": "armenian",
                "name": "Gayane's"
            },
            {
                "name": "Luciano",
                "amenity": "restaurant",
                "cuisine": "italian;italian_pizza",
                "karaoke": "yes",
                "name:ja": "ルチアーノ",
                "contact:phone": "+7 499 3916411",
                "opening_hours": "Mo-Su 09:00-03:00",
                "contact:website": "http://www.lucianomoscow.ru"
            },
            {
                "name": "Босфор",
                "amenity": "restaurant",
                "cuisine": "turkish",
                "name:en": "Bosfor",
                "contact:fax": "+7 499 2419320",
                "contact:phone": "+7 499 2419320",
                "opening_hours": "Mo-Fr 09:00-24:00; Sa,Su 09:00-03:00",
                "contact:website": "http://www.bosforrestoran.ru"
            },
            {
                "name": "Zodiac",
                "amenity": "restaurant",
                "cuisine": "asian",
                "contact:phone": "+7 495 2300230",
                "opening_hours": "Mo-Su 12:00-24:00",
                "contact:website": "http://www.zodiacmoscow.ru"
            },
            {
                "name": "ТоДаСё",
                "amenity": "restaurant",
                "cuisine": "american;international;japanese",
                "name:en": "ToDaSyo",
                "alt_name": "ТоДаСе",
                "wheelchair": "limited",
                "contact:phone": "+7 499 2412000",
                "opening_hours": "24/7",
                "contact:website": "http://todase-cafe.ru",
                "internet_access": "wlan",
                "internet_access:fee": "no"
            },
            {
                "amenity": "restaurant",
                "cuisine": "turkish",
                "name": "Kemer",
                "opening_hours": "Mo-Su 09:00-24:00"
            },
            {
                "amenity": "restaurant",
                "contact:phone": "+7 499 2413803",
                "contact:website": "http://vkvartal-arbat.ru",
                "cuisine": "uzbek",
                "internet_access": "wlan",
                "internet_access:fee": "no",
                "name": "Восточный квартал",
                "name:en": "Vostochnyi Kvartal",
                "website": "http://vkvartal-arbat.ru/"
            },
            {
                "name": "Почтмейстер",
                "amenity": "restaurant",
                "name:en": "Pochtmeister",
                "contact:phone": "+7 499 2411774",
                "contact:website": "http://www.arbat47.ru"
            },
            {
                "amenity": "restaurant",
                "contact:phone": "+7 499 2418694",
                "contact:website": "http://kafekhinkalnaya.ru",
                "cuisine": "georgian",
                "name": "Хинкальная",
                "name:en": "Khinkalnaya",
                "name:ru": "Хинкальная",
                "opening_hours": "Mo-Su 11:00-23:00"
            },
            {
                "name": "Hard Rock Cafe",
                "amenity": "restaurant",
                "contact:phone": "+7 499 2414342",
                "opening_hours": "Mo-Fr 09:00-24:00; Sa,Su 00:00-24:00",
                "contact:website": "http://www.hardrockcafe.ru"
            },
            {
                "name": "Венеция",
                "level": "2",
                "amenity": "restaurant",
                "cuisine": "italian",
                "name:en": "Venetsiya",
                "contact:phone": "+7 499 2410047",
                "contact:website": "http://www.arbat38.ru"
            },
            {
                "name": "Ovo by Carlo Cracco",
                "amenity": "restaurant",
                "contact:phone": "+7 495 7451000",
                "opening_hours": "Mo-Fr 12:00-22:30; Sa 18:00-22:30",
                "contact:facebook": "https://www.facebook.com/ovobycarlocracco"
            },
            {
                "name": "Белый",
                "amenity": "restaurant",
                "opening_hours": "Mo-Fr 12:00-00:00; Sa, Su 11:00-00:00"
            },
            {
                "addr:city": "Москва",
                "addr:housenumber": "6",
                "addr:street": "Смоленская улица",
                "amenity": "restaurant",
                "contact:facebook": "https://www.facebook.com/SCMorbidella",
                "contact:phone": "+7 925 7430861",
                "contact:website": "http://scrocchiarella.ru",
                "cuisine": "pizza",
                "name": "Scrocchiarella e Morbidella",
                "opening_hours": "Mo-Fr 09:00-23:00; Sa,Su 10:00-23:00",
                "website": "http://scrocchiarella.ru"
            },
            {
                "amenity": "restaurant",
                "contact:phone": "+7 495 2224496",
                "contact:website": "https://restoranararat.ru/",
                "cuisine": "armenian",
                "name": "АрАрАт",
                "opening_hours": "Mo-Su 11:00-23:00"
            },
            {
                "amenity": "restaurant",
                "contact:phone": "+7 499 2527950",
                "contact:website": "http://www.arbatskiybazar.ru/",
                "karaoke": "yes",
                "name": "Арбатский Базар",
                "opening_hours": "Mo-Su 10:00-24:00"
            },
            {
                "amenity": "restaurant",
                "contact:instagram": "https://www.instagram.com/lotos_smolenskaya/",
                "contact:phone": "+7 926 0920418",
                "cuisine": "vietnamese",
                "name": "Лотос",
                "opening_hours": "Mo-Su 00:00-02:00,12:00-24:00"
            }
        ]
    },
    "antiques": {
        "count": 8,
        "detail": [
            {
                "opening_hours": "Mo-Fr 10:00-20:00; Sa,Su 11:00-20:00",
                "shop": "antiques"
            },
            {
                "contact:phone": "+7 499 2411018",
                "contact:website": "https://www.antikarbat.com/",
                "name": "Арбат 36",
                "opening_hours": "Mo-Su 11:00-19:00",
                "shop": "antiques"
            },
            {
                "contact:instagram": "https://www.instagram.com/galery.grange/",
                "contact:phone": "+7 925 4541594",
                "inscription": "Антиквариат, нумизматика",
                "level": "-1",
                "name": "Гранж",
                "opening_hours": "Mo-Su 10:00-20:00",
                "shop": "antiques"
            },
            {
                "contact:phone": "+7 499 2414985",
                "contact:website": "http://ant-skazka.ru/",
                "name": "Сказка",
                "shop": "antiques"
            },
            {
                "name": "Антикваръ",
                "shop": "antiques"
            },
            {
                "name": "Срочный выкуп на Арбате",
                "shop": "antiques"
            },
            {
                "contact:phone": "+7 495 9884483",
                "contact:website": "http://www.ababica.ru/",
                "name": "Аукцион \"Гермес\"",
                "shop": "antiques"
            },
            {
                "shop": "antiques"
            }
        ]
    },
    "watches": {
        "count": 3,
        "detail": [
            {
                "name": "Консул",
                "shop": "watches",
                "name:en": "Konsul",
                "contact:phone": "+7 495 7293746",
                "opening_hours": "Mo-Su 10:00-21:00",
                "contact:website": "http://www.consul.ru"
            },
            {
                "contact:phone": "+7 495 6488585",
                "contact:website": "http://moswatchcenter.ru/",
                "name": "Московский часовой центр",
                "opening_hours": "Mo-Fr 10:00-20:00; Sa 11:00-15:30",
                "shop": "watches"
            },
            {
                "name": "Часы России",
                "shop": "watches"
            }
        ]
    },
    "theatre": {
        "count": 2,
        "detail": [
            {
                "name": "Концертный зал Центра Павла Слободкина",
                "amenity": "theatre",
                "name:en": "Pavel Slobodkin Center Concert Hall",
                "website": "http://www.center-slobodkina.ru",
                "contact:phone": "+7 499 2416226",
                "contact:website": "http://www.center-slobodkina.ru"
            },
            {
                "name": "Артэ",
                "shop": "theatre",
                "contact:phone": "+7 499 6788033-460",
                "opening_hours": "Mo-Su 10:00-20:00",
                "contact:website": "http://www.arte-grim.ru/"
            }
        ]
    },
    "post_office": {
        "count": 4,
        "detail": [
            {
                "amenity": "post_office",
                "brand": "Почта России",
                "brand:wikidata": "Q1502763",
                "brand:wikipedia": "ru:Почта России",
                "contact:twitter": "https://twitter.com/ruspostofficial",
                "contact:vk": "https://vk.com/russianpost",
                "contact:website": "https://www.pochta.ru",
                "name": "Москва 119002",
                "opening_hours": "Mo-Fr 08:00-20:00; Sa 09:00-18:00; Su 09:00-14:00",
                "operator": "АО «Почта России»",
                "operator:wikidata": "Q1502763",
                "operator:wikipedia": "ru:Почта России",
                "ref": "119002"
            },
            {
                "amenity": "post_office",
                "brand": "Почта России",
                "brand:wikidata": "Q1502763",
                "brand:wikipedia": "ru:Почта России",
                "contact:phone": "+7 800 2005888",
                "contact:twitter": "https://twitter.com/ruspostofficial",
                "contact:vk": "https://vk.com/russianpost",
                "contact:website": "https://www.pochta.ru",
                "name": "Москва 121099",
                "opening_hours": "24/7",
                "operator": "АО «Почта России»",
                "operator:wikidata": "Q1502763",
                "operator:wikipedia": "ru:Почта России",
                "ref": "121099"
            },
            {
                "ref": "121099",
                "name": "Посылочный отдел Почты России",
                "amenity": "post_office",
                "operator": "Почта России",
                "opening_hours": "Mo-Fr 08:00-20:00"
            },
            {
                "amenity": "post_office",
                "contact:website": "https://boxberry.ru",
                "level": "-1",
                "name": "Boxberry",
                "opening_hours": "Mo-Su 09:00-20:00"
            }
        ]
    },
    "convenience": {
        "count": 9,
        "detail": [
            {
                "name": "Салют",
                "shop": "convenience"
            },
            {
                "name": "Белорусский Базар",
                "origin": "belarussian",
                "shop": "convenience"
            },
            {
                "name": "Скалка",
                "official_name": "Кулинария и пироги Скалка",
                "opening_hours": "Mo-Fr 09:00-21:00; Sa 11:00-21:00; Su 11:00-20:00",
                "phone": "+7 499 2527766",
                "shop": "convenience",
                "website": "https://pirogi-skalka.ru"
            },
            {
                "name": "Продукты",
                "opening_hours": "24/7",
                "shop": "convenience"
            },
            {
                "name": "У Палыча",
                "shop": "convenience",
                "brand": "У Палыча",
                "name:ru": "У Палыча",
                "contact:email": "com@palich.ru",
                "contact:phone": "+7 800 3330163",
                "contact:website": "http://www.palich.ru"
            },
            {
                "name": "Шаурма и Продукты",
                "shop": "convenience"
            },
            {
                "inscription": "Продукты",
                "opening_hours": "24/7",
                "shop": "convenience"
            },
            {
                "brand": "ВкусВилл",
                "contact:email": "info@izbenka.msk.ru",
                "contact:facebook": "https://www.facebook.com/vkusvill.ru",
                "contact:instagram": "https://www.instagram.com/izbenka_vkusvill",
                "contact:phone": "+7 495 6638602",
                "contact:telegram": "https://telegram.me/vkusvillbot",
                "contact:vk": "https://vk.com/vkusvill_ru",
                "contact:website": "https://vkusvill.ru",
                "name": "ВкусВилл",
                "name:ru": "ВкусВилл",
                "opening_hours": "Mo-Fr 08:00-23:00; Sa,Su 09:00-22:00",
                "shop": "convenience"
            },
            {
                "brand": "ВкусВилл",
                "contact:email": "info@izbenka.msk.ru",
                "contact:facebook": "https://www.facebook.com/vkusvill.ru",
                "contact:instagram": "https://www.instagram.com/vkusvill_ru",
                "contact:phone": "+7 495 6638602",
                "contact:telegram": "https://telegram.me/vkusvillbot",
                "contact:twitter": "https://twitter.com/we_are_vkusvill",
                "contact:vk": "https://vk.com/vkusvill_ru",
                "contact:website": "https://vkusvill.ru",
                "name": "ВкусВилл",
                "name:ru": "ВкусВилл",
                "shop": "convenience"
            }
        ]
    },
    "post_box": {
        "count": 2,
        "detail": [
            {
                "addr:country": "RU",
                "amenity": "post_box",
                "operator": "Почта России",
                "website": "https://russianpost.ru/"
            },
            {
                "amenity": "post_box"
            }
        ]
    },
    "library": {
        "count": 1,
        "detail": [
            {
                "amenity": "library",
                "contact:website": "https://cbscao.ru/",
                "name": "Библиотека № 3 им. Н. А. Добролюбова",
                "opening_hours": "Tu-Sa 10:00-22:00, Su 10:00-20:00"
            }
        ]
    },
    "parking": {
        "count": 1,
        "detail": [
            {
                "fee": "yes",
                "amenity": "parking",
                "parking": "underground"
            }
        ]
    },
    "cafe": {
        "count": 12,
        "detail": [
            {
                "name": "Му-Му",
                "source": "survey",
                "amenity": "cafe",
                "cuisine": "russian",
                "alt_name": "Му-му",
                "opening_hours": "Mo-Fr 09:00-23:00; Sa, Su 10:00-23:00",
                "contact:website": "http://www.cafemumu.ru"
            },
            {
                "amenity": "cafe",
                "contact:phone": "+7 495 7831638",
                "contact:website": "https://www.facebook.com/PAUL1889.ru",
                "cuisine": "french;coffee_shop;cake",
                "internet_access": "wlan",
                "name": "Paul",
                "opening_hours": "Mo-Fr 07:30-23:00; Sa,Su 09:00-23:00",
                "operator": "Ginza Project"
            },
            {
                "name": "Останкино",
                "amenity": "cafe"
            },
            {
                "name": "Шоколадница",
                "brand": "Шоколадница",
                "amenity": "cafe",
                "cuisine": "coffee_shop",
                "name:en": "Shokoladnitsa",
                "name:ru": "Шоколадница",
                "contact:ok": "https://ok.ru/shokoru",
                "contact:vk": "https://vk.com/shokoru",
                "contact:phone": "+7 495 9872189",
                "opening_hours": "Mo-Fr 08:00-24:00; Sa,Su 00:00-24:00",
                "contact:twitter": "https://twitter.com/wwwShokoRu",
                "contact:website": "http://shoko.ru",
                "diet:vegetarian": "no",
                "internet_access": "wlan",
                "contact:facebook": "https://www.facebook.com/shoko.ru",
                "contact:instagram": "https://www.instagram.com/shoko.ru"
            },
            {
                "amenity": "cafe",
                "contact:facebook": "https://www.facebook.com/abugosh.moscow",
                "contact:phone": "+7 495 2269202",
                "contact:website": "http://abugosh.ru",
                "cuisine": "jewish",
                "name": "Абу Гош",
                "opening_hours": "Mo-Su 09:00-23:00",
                "wheelchair": "limited"
            },
            {
                "addr:postcode": "121099",
                "amenity": "cafe",
                "cuisine": "coffee_shop",
                "email": "Chashkaacoffee@gmail.com",
                "internet_access": "wlan",
                "name": "Чибис Кофе",
                "name:en": "Chibis Coffee",
                "opening_hours": "Mo-Fr 08:30-20:30; Sa-Su 09:30-19:30",
                "website": "https://www.instagram.com/chibis.coffee/"
            },
            {
                "amenity": "cafe",
                "contact:phone": "+7 499 6782678",
                "contact:website": "http://grabli.ru",
                "name": "Грабли",
                "name:en": "Grabli",
                "opening_hours": "Mo-Su 08:00-23:00"
            },
            {
                "amenity": "cafe",
                "contact:facebook": "https://www.facebook.com/sokolcoffee.arbat",
                "contact:phone": "+7 958 8343548",
                "contact:website": "https://sokolcoffee.com/",
                "cuisine": "coffee_shop",
                "name": "Sokol Coffee",
                "opening_hours": "Mo-Fr 08:30-22:00; Sa,Su 09:30-22:00"
            },
            {
                "amenity": "cafe",
                "name": "АВ Бистро",
                "opening_hours": "Mo-Su 08:00-23:00"
            },
            {
                "amenity": "cafe",
                "contact:website": "https://el-cafe.ru/",
                "cuisine": "coffee_shop",
                "name": "Эль Кафе",
                "opening_hours": "Mo-Fr 08:00-22:00; Sa,Su 09:00-22:00"
            },
            {
                "amenity": "cafe",
                "cuisine": "georgian",
                "name": "Georgia",
                "name:en": "Georgia",
                "opening_hours": "Mo-Su 11:00-24:00",
                "phone": "+7 967 0834343"
            },
            {
                "addr:city": "Москва",
                "addr:housenumber": "7-9",
                "addr:street": "Смоленская площадь",
                "amenity": "cafe",
                "brand": "Даблби",
                "brand:en": "Double B",
                "brand:wikidata": "Q62501686",
                "cuisine": "coffee_shop",
                "name": "Даблби",
                "name:en": "Double B",
                "outdoor_seating": "no",
                "phone": "+78003502464",
                "takeaway": "yes",
                "website": "https://double-b.ru/"
            }
        ]
    },
    "bus_stop": {
        "count": 6,
        "detail": [
            {
                "alt_name": "Станция метро «Смоленская»",
                "bench": "yes",
                "bin": "yes",
                "highway": "bus_stop",
                "name": "Метро «Смоленская»",
                "operator": "Мосгортранс",
                "public_transport": "platform",
                "shelter": "yes"
            },
            {
                "bench": "yes",
                "bin": "yes",
                "highway": "bus_stop",
                "name": "Смоленская площадь",
                "operator": "Мосгортранс",
                "public_transport": "platform",
                "shelter": "yes"
            },
            {
                "alt_name": "Станция метро «Смоленская»",
                "bench": "yes",
                "bin": "yes",
                "departures_board": "realtime",
                "highway": "bus_stop",
                "name": "Метро «Смоленская»",
                "operator": "Мосгортранс",
                "public_transport": "platform",
                "shelter": "yes"
            },
            {
                "alt_name": "Станция метро «Смоленская»",
                "bus": "yes",
                "name": "Метро «Смоленская»",
                "public_transport": "stop_position"
            },
            {
                "alt_name": "Станция метро «Смоленская»",
                "bus": "yes",
                "name": "Метро «Смоленская»",
                "public_transport": "stop_position"
            },
            {
                "bus": "yes",
                "name": "Смоленская площадь",
                "public_transport": "stop_position"
            }
        ]
    },
    "sports": {
        "count": 1,
        "detail": [
            {
                "contact:phone": "+7 495 7777771;+7 499 2411388;+7 499 2413148;+7 906 0443359",
                "contact:website": "https://www.sportmaster.ru/store/114/",
                "email": "e-commerce@sportmaster.ru",
                "name": "Спортмастер",
                "name:en": "Sportmaster",
                "name:ru": "Спортмастер",
                "opening_hours": "24/7",
                "operator": "ООО «Спортмастер»",
                "shop": "sports"
            }
        ]
    },
    "shoes": {
        "count": 1,
        "detail": [
            {
                "name": "Rendez-Vous",
                "shop": "shoes",
                "contact:phone": "+7 495 2216767-3080",
                "opening_hours": "Mo-Su 10:00-23:00",
                "contact:website": "https://www.rendez-vous.ru"
            }
        ]
    },
    "butcher": {
        "count": 1,
        "detail": [
            {
                "name": "Останкино",
                "shop": "butcher",
                "opening_hours": "Mo-Sa 08:00-21:00; Su 08:00-20:00",
                "contact:website": "http://ompk.ru/trade"
            }
        ]
    },
    "furniture": {
        "count": 2,
        "detail": [
            {
                "name": "Объект",
                "phone": "+7 495 2414846",
                "shop": "furniture"
            },
            {
                "contact:email": "smolenka@inlavka.ru",
                "contact:facebook": "https://facebook.com/inlavka",
                "contact:instagram": "https://instagram.com/inlavka",
                "contact:phone": "+7 495 0236965;+7 495 9262986",
                "contact:vk": "https://vk.com/inlavka",
                "contact:website": "https://www.inlavka.ru/",
                "contact:youtube": "https://youtube.com/user/inlavka",
                "name": "Инлавка",
                "opening_hours": "Mo-Su 10:00-22:00",
                "operator": "Инлавка",
                "shop": "furniture"
            }
        ]
    },
    "clinic": {
        "count": 10,
        "detail": [
            {
                "amenity": "clinic",
                "healthcare": "clinic",
                "health_facility:type": "clinic",
                "name": "Психоневрологический диспансер №2",
                "opening_hours": "Mo-Fr 08:00-20:00; Sa 09:00-16:00",
                "phone": "+7 499 2487935",
                "website": "https://www.mosgorzdrav.ru/pnd2"
            },
            {
                "name": "Арбат эстетик",
                "amenity": "clinic",
                "healthcare": "clinic",
                "contact:phone": "+7 495 2780903",
                "opening_hours": "Mo-Su 10:00-21:00",
                "contact:website": "http://arbat-esthetic.ru/",
                "health_facility:type": "clinic",
                "medical_system:western": "yes"
            },
            {
                "name": "Спик",
                "clinic": "beauty",
                "amenity": "clinic",
                "contact:phone": "+7 495 6426423",
                "contact:website": "http://www.spik.ru"
            },
            {
                "amenity": "clinic",
                "contact:email": "doctor@medisans.ru",
                "contact:facebook": "https://facebook.com/medisans.moscow",
                "contact:instagram": "https://instagram.com/medisans.moscow",
                "contact:phone": "+7 499 2410640",
                "contact:website": "https://www.medisans.ru/",
                "name": "Медисанс",
                "opening_hours": "Mo-Sa 09:00-21:00;Su off",
                "operator": "Медисанс"
            },
            {
                "amenity": "clinic",
                "contact:phone": "+7 495 1500017",
                "contact:website": "https://www.dsclinic.ru/",
                "healthcare": "clinic",
                "health_facility:type": "clinic",
                "name": "dsclinic",
                "opening_hours": "Mo-Su 09:00-21:00"
            },
            {
                "amenity": "clinic",
                "contact:facebook": "https://www.facebook.com/jutshi.ru",
                "contact:website": "https://jutshi.ru",
                "healthcare": "clinic",
                "health_facility:type": "clinic",
                "name": "Чжуд-ши",
                "opening_hours": "Mo-Su 09:00-21:00"
            },
            {
                "amenity": "clinic",
                "contact:phone": "+7 495 7992630",
                "contact:website": "http://www.drchoi.ru/",
                "healthcare": "clinic",
                "health_facility:type": "clinic",
                "level": "1",
                "medical_system:chinese": "yes",
                "name": "Доктор Чой",
                "opening_hours": "Mo-Su 09:00-21:00"
            },
            {
                "amenity": "clinic",
                "contact:phone": "+7 495 7815577",
                "contact:website": "https://www.gmsclinic.ru",
                "healthcare": "clinic",
                "health_facility:type": "clinic",
                "medical_system:western": "yes",
                "name": "GMS Clinic"
            },
            {
                "addr:housenumber": "3-5 с1",
                "addr:postcode": "121099",
                "addr:street": "Проточный переулок",
                "amenity": "clinic",
                "building": "yes",
                "building:levels": "3",
                "healthcare": "clinic",
                "health_facility:type": "clinic",
                "name": "Поликлиника №38 Филиал 2",
                "opening_hours": "Mo-Th 06:30-19:00; Fr 08:30-18:00; Sa 09:00-15:00; Su 09:00-14:00"
            },
            {
                "name": "Поликлиника №1 Управления делами Президента РФ",
                "amenity": "clinic",
                "building": "yes",
                "emergency": "yes",
                "healthcare": "clinic",
                "addr:street": "переулок Сивцев Вражек",
                "addr:postcode": "119002",
                "building:levels": "5",
                "addr:housenumber": "26/28",
                "health_facility:type": "clinic"
            }
        ]
    },
    "bureau_de_change": {
        "count": 1,
        "detail": [
            {
                "amenity": "bureau_de_change"
            }
        ]
    },
    "ice_cream": {
        "count": 3,
        "detail": [
            {
                "amenity": "ice_cream",
                "building": "kiosk",
                "building:levels": "1",
                "inscription": "Мороженое"
            },
            {
                "amenity": "ice_cream",
                "building": "kiosk",
                "building:levels": "1",
                "name": "Мороженое"
            },
            {
                "amenity": "ice_cream",
                "building": "kiosk",
                "building:levels": "1",
                "inscription": "Мороженое",
                "tickets:theatre": "yes"
            }
        ]
    },
    "cosmetics": {
        "count": 2,
        "detail": [
            {
                "name": "Новая Заря",
                "shop": "cosmetics",
                "name:en": "Novaya Zarya",
                "contact:website": "http://novzar.ru"
            },
            {
                "name": "Иль де Ботэ",
                "shop": "cosmetics",
                "brand": "Иль де Ботэ",
                "name:en": "Ile de Beaute",
                "name:ru": "Иль де Ботэ",
                "contact:phone": "+7 499 2527138",
                "opening_hours": "Mo-Su 10:00-22:00",
                "contact:website": "http://iledebeaute.ru"
            }
        ]
    },
    "jewelry": {
        "count": 3,
        "detail": [
            {
                "description": "Ювелирный, подарки",
                "shop": "jewelry"
            },
            {
                "name": "С-Полярис",
                "opening_hours": "Mo-Sa 11:00-20:00; Su off",
                "phone": "+7 495 9689889",
                "shop": "jewelry",
                "website": "www.arbat-uvelir.ru"
            },
            {
                "contact:phone": "+7 499 2900078",
                "name": "Янтарь",
                "opening_hours": "Mo-Su 10:00-20:00",
                "shop": "jewelry"
            }
        ]
    },
    "mobile_phone": {
        "count": 5,
        "detail": [
            {
                "brand": "МегаФон",
                "brand:wikidata": "Q1720713",
                "brand:wikipedia": "ru:Мегафон (компания)",
                "contact:facebook": "https://www.facebook.com/MegaFon.ru",
                "contact:habrahabr": "https://habrahabr.ru/company/megafon",
                "contact:ok": "https://ok.ru/megafon",
                "contact:phone": "+7 800 5500500",
                "contact:twitter": "https://twitter.com/megafonru",
                "contact:vk": "https://vk.com/megafon",
                "contact:website": "https://megafon.ru",
                "contact:youtube": "https://www.youtube.com/user/MegaFonTV",
                "name": "МегаФон",
                "name:en": "MegaFon",
                "name:ru": "МегаФон",
                "office": "telecommunication",
                "opening_hours": "Mo-Su 10:00-21:00",
                "operator:wikidata": "Q1720713",
                "operator:wikipedia": "ru:Мегафон (компания)",
                "shop": "mobile_phone"
            },
            {
                "brand": "МТС",
                "brand:wikidata": "Q1368919",
                "brand:wikipedia": "ru:МТС (компания)",
                "contact:facebook": "https://www.facebook.com/mts",
                "contact:ok": "https://ok.ru/mts",
                "contact:phone": "+7 800 2500890",
                "contact:twitter": "https://twitter.com/ru_mts",
                "contact:vk": "https://vk.com/mts",
                "contact:website": "https://shop.mts.ru",
                "name": "МТС",
                "name:en": "MTS",
                "name:ru": "МТС",
                "office": "telecommunication",
                "operator:wikidata": "Q1368919",
                "operator:wikipedia": "ru:МТС (компания)",
                "shop": "mobile_phone"
            },
            {
                "brand": "МТС",
                "brand:wikidata": "Q1368919",
                "brand:wikipedia": "ru:МТС (компания)",
                "contact:facebook": "https://www.facebook.com/mts",
                "contact:ok": "https://ok.ru/mts",
                "contact:phone": "+7 800 2500890",
                "contact:twitter": "https://twitter.com/ru_mts",
                "contact:vk": "https://vk.com/mts",
                "contact:website": "https://shop.mts.ru",
                "name": "МТС",
                "name:en": "MTS",
                "name:ru": "МТС",
                "office": "telecommunication",
                "opening_hours": "Mo-Su 09:00-21:00",
                "operator:wikidata": "Q1368919",
                "operator:wikipedia": "ru:МТС (компания)",
                "shop": "mobile_phone"
            },
            {
                "brand": "МегаФон",
                "brand:wikidata": "Q1720713",
                "brand:wikipedia": "ru:Мегафон (компания)",
                "contact:facebook": "https://www.facebook.com/MegaFon.ru",
                "contact:habrahabr": "https://habrahabr.ru/company/megafon",
                "contact:ok": "https://ok.ru/megafon",
                "contact:phone": "+7 800 5500500",
                "contact:twitter": "https://twitter.com/megafonru",
                "contact:vk": "https://vk.com/megafon",
                "contact:website": "https://megafon.ru",
                "contact:youtube": "https://www.youtube.com/user/MegaFonTV",
                "name": "МегаФон",
                "name:en": "MegaFon",
                "name:ru": "МегаФон",
                "office": "telecommunication",
                "shop": "mobile_phone"
            },
            {
                "brand": "Билайн",
                "brand:wikidata": "Q402880",
                "brand:wikipedia": "ru:Билайн",
                "contact:facebook": "https://www.facebook.com/Beelinerus",
                "contact:instagram": "https://www.instagram.com/beelinerus",
                "contact:ok": "https://ok.ru/beeline",
                "contact:phone": "+7 800 7000611",
                "contact:twitter": "https://twitter.com/Beeline_RUS",
                "contact:vk": "https://vk.com/beeline",
                "contact:website": "https://beeline.ru",
                "contact:youtube": "https://www.youtube.com/user/beelineru",
                "name": "Билайн",
                "name:en": "Beeline",
                "name:ru": "Билайн",
                "office": "telecommunication",
                "shop": "mobile_phone"
            }
        ]
    },
    "tobacco": {
        "count": 2,
        "detail": [
            {
                "contact:phone": "+7 926 5378911",
                "name": "Табакерия",
                "opening_hours": "Mo-Fr 11:00-20:30; Sa,Su 12:00-20:30",
                "shop": "tobacco"
            },
            {
                "shop": "tobacco"
            }
        ]
    },
    "pawnbroker": {
        "count": 3,
        "detail": [
            {
                "name": "Ломбард 38",
                "shop": "pawnbroker",
                "name:en": "Lombard 38",
                "contact:phone": "+7 495 7408088",
                "opening_hours": "Mo-Su 10:00-22:00",
                "contact:website": "http://www.lombard38.ru"
            },
            {
                "contact:email": "lombard@lombard32.ru",
                "contact:phone": "+7 499 8771490",
                "contact:vk": "https://vk.com/lombard_32",
                "contact:website": "https://lombard32.ru/",
                "name": "32",
                "opening_hours": "Mo-Fr 10:00-20:00;Sa 11:00-18:00",
                "operator": "ООО Денежный Ломбард",
                "shop": "pawnbroker"
            },
            {
                "shop": "pawnbroker"
            }
        ]
    },
    "travel_agency": {
        "count": 4,
        "detail": [
            {
                "name": "Coral Travel",
                "shop": "travel_agency",
                "office": "travel_agent",
                "contact:phone": "+7 495 2321011",
                "contact:website": "http://www.coral.ru"
            },
            {
                "name": "ADM Solar",
                "shop": "travel_agency",
                "contact:phone": "+7 495 5451031",
                "opening_hours": "Mo-Fr 10:00-19:00",
                "contact:website": "http://admsolar.ru/"
            },
            {
                "contact:website": "https://www.tez-tour.com/",
                "name": "TEZ Tour",
                "shop": "travel_agency"
            },
            {
                "contact:phone": "+7 499 2413116",
                "contact:website": "https://mosgortur.ru/",
                "name": "Мосгортур",
                "shop": "travel_agency"
            }
        ]
    },
    "hairdresser": {
        "count": 1,
        "detail": [
            {
                "name": "Даймекс",
                "shop": "hairdresser",
                "name:en": "Dimex",
                "contact:phone": "+7 499 2528808",
                "opening_hours": "Mo-Su 10:00-21:00",
                "contact:website": "http://studiodaimex.com"
            }
        ]
    },
    "recycling": {
        "count": 1,
        "detail": [
            {
                "note": "здесь действительно! контейнеры для раздельного сбора",
                "amenity": "recycling",
                "recycling_type": "container"
            }
        ]
    },
    "beauty": {
        "count": 17,
        "detail": [
            {
                "name": "Шабалин",
                "shop": "beauty",
                "name:en": "Shabalin",
                "contact:phone": "+7 499 3902818",
                "opening_hours": "Mo-Su 10:00-20:00"
            },
            {
                "name": "Bronze Glow",
                "shop": "beauty",
                "contact:phone": "+7 968 0898888",
                "opening_hours": "Mo-Su 10:00-22:00",
                "contact:website": "https://bronzeglow.moscow/"
            },
            {
                "name": "Нео",
                "shop": "beauty",
                "contact:phone": "+7 499 2415505",
                "opening_hours": "Mo-Sa 09:00-21:00",
                "contact:website": "http://www.studio-neo.ru/"
            },
            {
                "name": "Эпатаж",
                "shop": "beauty",
                "opening_hours": "Mo-Sa 10:00-22:00; Su 10:00-18:00",
                "contact:website": "http://epatage-salon.ru/"
            },
            {
                "contact:website": "http://www.palchiki.com/",
                "name": "Пальчики",
                "opening_hours": "Mo-Su 10:00-22:00",
                "shop": "beauty"
            },
            {
                "name": "Sanskrit",
                "shop": "beauty",
                "contact:phone": "+7 916 7014777",
                "contact:instagram": "https://www.instagram.com/_sanskrit_/"
            },
            {
                "email": "info@floasis.ru",
                "healthcare:speciality": "dermatology;naturopathy",
                "level": "0",
                "name": "Floasis",
                "phone": "+7 499 3904547",
                "shop": "beauty",
                "website": "https://floasis.ru/"
            },
            {
                "beauty": "tanning",
                "contact:instagram": "https://www.instagram.com/chernika_msk/",
                "contact:phone": "+7 499 2412520",
                "name": "Черника",
                "opening_hours": "Mo-Su 10:00-22:00",
                "shop": "beauty"
            },
            {
                "name": "Milky Club",
                "shop": "beauty",
                "beauty": "nails",
                "opening_hours": "Mo-Su 09:00-22:00",
                "contact:website": "https://milky-club.ru/"
            },
            {
                "contact:phone": "+7 919 7777279",
                "contact:website": "http://nailsunny.com/",
                "name": "Nail Sunny",
                "opening_hours": "Mo-Su 10:00-22:00",
                "shop": "beauty"
            },
            {
                "name": "О`блик",
                "opening_hours": "Mo-Sa 10:00-21:00",
                "shop": "beauty"
            },
            {
                "contact:phone": "+7 495 6900465",
                "name": "Guinot",
                "opening_hours": "Mo-Sa 10:00-21:00; Su 11:00-20:00",
                "shop": "beauty"
            },
            {
                "contact:phone": "+7 495 1320003",
                "contact:website": "https://amalfibeauty.ru/",
                "name": "Амальфи",
                "opening_hours": "Mo-Su 10:00-22:00",
                "shop": "beauty"
            },
            {
                "contact:phone": "+7 977 1629209",
                "contact:website": "http://sandrastudia.ru/",
                "level": "2",
                "name": "Sandra",
                "opening_hours": "Mo-Su 10:00-21:15",
                "shop": "beauty",
                "wheelchair": "no"
            },
            {
                "beauty": "nails",
                "contact:website": "https://onegin-smolenka.ru/",
                "male": "yes",
                "name": "Онегин",
                "opening_hours": "Mo-Su 10:00-22:00",
                "shop": "beauty"
            },
            {
                "contact:instagram": "https://www.instagram.com/p/B-KI33PqRK0/",
                "name": "Мечта",
                "opening_hours": "Mo-Su 10:00-21:00",
                "shop": "beauty"
            },
            {
                "contact:instagram": "https://www.instagram.com/kulttela_msk/",
                "contact:phone": "+7 499 3228854",
                "contact:website": "https://www.kulttela.pro/",
                "name": "Культ тела",
                "opening_hours": "Mo-Su 10:00-22:00",
                "shop": "beauty"
            }
        ]
    },
    "florist": {
        "count": 3,
        "detail": [
            {
                "shop": "florist"
            },
            {
                "opening_hours": "24/7",
                "shop": "florist"
            },
            {
                "email": "info@panflowers2.ru",
                "internet_access": "wlan",
                "name": "Panflowers2",
                "opening_hours": "Mo-Su 09:00-22:00",
                "phone": "+7 495 1473077",
                "shop": "florist"
            }
        ]
    },
    "bench": {
        "count": 13,
        "detail": [
            {
                "amenity": "bench"
            },
            {
                "amenity": "bench"
            },
            {
                "amenity": "bench",
                "backrest": "yes"
            },
            {
                "amenity": "bench",
                "backrest": "yes"
            },
            {
                "amenity": "bench",
                "backrest": "yes"
            },
            {
                "amenity": "bench",
                "backrest": "yes"
            },
            {
                "amenity": "bench",
                "backrest": "yes"
            },
            {
                "amenity": "bench",
                "backrest": "yes"
            },
            {
                "amenity": "bench",
                "backrest": "no"
            },
            {
                "amenity": "bench",
                "backrest": "no"
            },
            {
                "amenity": "bench",
                "backrest": "no"
            },
            {
                "amenity": "bench",
                "backrest": "no"
            },
            {
                "amenity": "bench",
                "backrest": "yes",
                "colour": "brown",
                "material": "wood"
            }
        ]
    },
    "pet": {
        "count": 1,
        "detail": [
            {
                "contact:website": "http://www.arbatzoo.ru/",
                "name": "Зоомагазин на Арбате",
                "opening_hours": "Mo-Sa 10:00-21:00; Su 11:00-20:00",
                "shop": "pet"
            }
        ]
    },
    "optician": {
        "count": 2,
        "detail": [
            {
                "opening_hours": "Mo-Fr 11:00-20:00; Sa 12:00-18:00; Su off",
                "shop": "optician"
            },
            {
                "name": "Фаворит",
                "shop": "optician",
                "contact:phone": "+7 495 6986008",
                "opening_hours": "Mo-Sa 10:00-20:00; Su 11:00-19:00",
                "contact:website": "http://www.optika-favorit.ru"
            }
        ]
    },
    "veterinary": {
        "count": 1,
        "detail": [
            {
                "name": "ВиВ",
                "amenity": "veterinary",
                "opening_hours": "10:00-22:00"
            }
        ]
    },
    "vending_machine": {
        "count": 13,
        "detail": [
            {
                "amenity": "vending_machine",
                "contact:phone": "+7 495 5395454",
                "contact:website": "http://parking.mos.ru/",
                "currency:RUB": "yes",
                "opening_hours": "24/7",
                "operator": "ГКУ «Администратор Московского парковочного пространства»",
                "payment:cash": "no",
                "payment:credit_cards": "yes",
                "payment:debit_cards": "yes",
                "ref": "2188",
                "ref:mos_parking": "282084376",
                "source": "dit.mos.ru",
                "vending": "parking_tickets",
                "zone:parking": "2102"
            },
            {
                "amenity": "vending_machine",
                "contact:phone": "+7 495 5395454",
                "contact:website": "http://parking.mos.ru/",
                "opening_hours": "24/7",
                "operator": "ГКУ «Администратор Московского парковочного пространства»",
                "payment:cash": "no",
                "payment:credit_cards": "yes",
                "payment:debit_cards": "yes",
                "ref": "2113",
                "ref:mos_parking": "282084315",
                "source": "dit.mos.ru",
                "vending": "parking_tickets",
                "zone:parking": "0302"
            },
            {
                "amenity": "vending_machine",
                "contact:phone": "+7 495 5395454",
                "contact:website": "http://parking.mos.ru/",
                "opening_hours": "24/7",
                "operator": "ГКУ «Администратор Московского парковочного пространства»",
                "payment:cash": "no",
                "payment:credit_cards": "yes",
                "payment:debit_cards": "yes",
                "ref": "2135",
                "ref:mos_parking": "282084330",
                "source": "dit.mos.ru",
                "vending": "parking_tickets",
                "zone:parking": "2102"
            },
            {
                "amenity": "vending_machine",
                "contact:phone": "+7 495 5395454",
                "contact:website": "http://parking.mos.ru/",
                "opening_hours": "24/7",
                "operator": "ГКУ «Администратор Московского парковочного пространства»",
                "payment:cash": "no",
                "payment:credit_cards": "yes",
                "payment:debit_cards": "yes",
                "ref": "2361",
                "ref:mos_parking": "282084564",
                "source": "dit.mos.ru",
                "vending": "parking_tickets",
                "zone:parking": "0302"
            },
            {
                "amenity": "vending_machine",
                "contact:phone": "+7 495 5395454",
                "contact:website": "http://parking.mos.ru/",
                "opening_hours": "24/7",
                "operator": "ГКУ «Администратор Московского парковочного пространства»",
                "payment:cash": "no",
                "payment:credit_cards": "yes",
                "payment:debit_cards": "yes",
                "ref": "2177",
                "ref:mos_parking": "282084368",
                "source": "dit.mos.ru",
                "vending": "parking_tickets",
                "zone:parking": "2102"
            },
            {
                "amenity": "vending_machine",
                "contact:phone": "+7 495 5395454",
                "contact:website": "http://parking.mos.ru/",
                "opening_hours": "24/7",
                "operator": "ГКУ «Администратор Московского парковочного пространства»",
                "payment:cash": "no",
                "payment:credit_cards": "yes",
                "payment:debit_cards": "yes",
                "ref": "2174",
                "ref:mos_parking": "282084366",
                "source": "dit.mos.ru",
                "vending": "parking_tickets",
                "zone:parking": "2101"
            },
            {
                "amenity": "vending_machine",
                "contact:phone": "+7 495 5395454",
                "contact:website": "http://parking.mos.ru/",
                "opening_hours": "24/7",
                "operator": "ГКУ «Администратор Московского парковочного пространства»",
                "payment:cash": "no",
                "payment:credit_cards": "yes",
                "payment:debit_cards": "yes",
                "ref": "2159",
                "ref:mos_parking": "282084353",
                "source": "dit.mos.ru",
                "vending": "parking_tickets",
                "zone:parking": "2101"
            },
            {
                "amenity": "vending_machine",
                "contact:phone": "+7 495 5395454",
                "contact:website": "http://parking.mos.ru/",
                "opening_hours": "24/7",
                "operator": "ГКУ «Администратор Московского парковочного пространства»",
                "payment:cash": "no",
                "payment:credit_cards": "yes",
                "payment:debit_cards": "yes",
                "ref": "2136",
                "ref:mos_parking": "282084331",
                "source": "dit.mos.ru",
                "vending": "parking_tickets",
                "zone:parking": "2102"
            },
            {
                "amenity": "vending_machine",
                "vending": "public_transport_tickets"
            },
            {
                "amenity": "vending_machine",
                "vending": "public_transport_tickets"
            },
            {
                "amenity": "vending_machine",
                "vending": "public_transport_tickets"
            },
            {
                "amenity": "vending_machine",
                "vending": "public_transport_tickets"
            },
            {
                "amenity": "vending_machine",
                "vending": "public_transport_tickets"
            }
        ]
    },
    "bowling_alley": {
        "count": 1,
        "detail": [
            {
                "name": "Би Ба Бо",
                "sport": "10pin",
                "leisure": "bowling_alley"
            }
        ]
    },
    "copyshop": {
        "count": 2,
        "detail": [
            {
                "contact:instagram": "https://www.instagram.com/kopirka_msk/",
                "contact:phone": "+7 495 6603600-133",
                "contact:website": "http://www.copy24.ru",
                "name": "Копирка",
                "opening_hours": "Mo-Fr 10:00-20:00; Sa,Su 10:00-19:00",
                "shop": "copyshop"
            },
            {
                "contact:instagram": "https://www.instagram.com/kopirka_msk/",
                "contact:phone": "+7 495 6603600-207",
                "contact:website": "http://www.copy24.ru",
                "name": "Копирка",
                "opening_hours": "Mo-Fr 09:00-21:00; Sa,Su 10:00-19:00",
                "shop": "copyshop"
            }
        ]
    },
    "doctors": {
        "count": 2,
        "detail": [
            {
                "amenity": "doctors",
                "brand": "Инвитро",
                "brand:wikidata": "Q4200546",
                "brand:wikipedia": "ru:Медицинская компания Инвитро",
                "contact:email": "info@invitro.ru",
                "contact:facebook": "https://www.facebook.com/invitro.ru",
                "contact:instagram": "https://www.instagram.com/invitro.ru",
                "contact:phone": "+7 495 3630363",
                "contact:vk": "https://vk.com/invitro",
                "contact:website": "https://www.invitro.ru",
                "healthcare": "laboratory",
                "health_facility:type": "laboratory",
                "health_specialty:microbiology": "yes",
                "medical_system:western": "yes",
                "name": "Инвитро",
                "name:en": "Invitro",
                "name:ru": "Инвитро",
                "opening_hours": "Mo-Fr 07:30-20:00; Sa 07:30-15:00; Su 09:00-16:00",
                "operator:wikidata": "Q4200546",
                "operator:wikipedia": "ru:Медицинская компания Инвитро"
            },
            {
                "alt_name": "Центр молекулярной диагностики",
                "amenity": "doctors",
                "brand": "CMD",
                "contact:email": "info@cmd-online.ru",
                "contact:facebook": "https://www.facebook.com/cmd.online.social",
                "contact:instagram": "https://www.instagram.com/cmd_insta",
                "contact:ok": "https://ok.ru/cmdonline",
                "contact:phone": "+7 495 7880001",
                "contact:twitter": "https://twitter.com/CMD_online",
                "contact:vk": "https://vk.com/cmd.online",
                "contact:website": "https://www.cmd-online.ru",
                "contact:youtube": "https://www.youtube.com/channel/UCJLzXIczpWCx7Gelbmc3sAw",
                "healthcare": "laboratory",
                "health_facility:type": "laboratory",
                "health_specialty:microbiology": "yes",
                "medical_system:western": "yes",
                "name": "CMD",
                "name:en": "CMD",
                "opening_hours": "Mo-Fr 07:30-20:00; Sa 07:30-19:00; Su 07:30-17:00"
            }
        ]
    },
    "clothes": {
        "count": 4,
        "detail": [
            {
                "name": "Энергоконтракт",
                "shop": "clothes",
                "opening_hours": "Mo-Fr 10:00-18:00; Sa-Su off"
            },
            {
                "name": "Дом моды",
                "shop": "clothes"
            },
            {
                "shop": "clothes"
            },
            {
                "clothes": "wedding",
                "contact:phone": "+7 917 5695673",
                "contact:website": "https://sacuradress.ru/",
                "name": "Sacura",
                "opening_hours": "Mo-Su 10:00-20:00",
                "shop": "clothes"
            }
        ]
    },
    "electronics": {
        "count": 1,
        "detail": [
            {
                "name": "Bork",
                "shop": "electronics",
                "contact:phone": "+7 495 7803075",
                "opening_hours": "Mo-Su 10:00-23:00",
                "contact:website": "http://www.bork.ru"
            }
        ]
    },
    "toilets": {
        "count": 3,
        "detail": [
            {
                "fee": "yes",
                "name": "Городской туалет",
                "amenity": "toilets",
                "name:en": "City toilet",
                "operator": "ООО «Комхоз-Сервис»",
                "payment:cash": "yes",
                "opening_hours": "24/7",
                "toilets:disposal": "flush",
                "toilets:position": "seated",
                "payment:debit_cards": "yes",
                "payment:credit_cards": "yes"
            },
            {
                "fee": "yes",
                "name": "Городской туалет",
                "amenity": "toilets",
                "name:en": "City toilet",
                "operator": "ООО «Комхоз-Сервис»",
                "payment:cash": "yes",
                "opening_hours": "24/7",
                "toilets:disposal": "flush",
                "toilets:position": "seated",
                "payment:debit_cards": "yes",
                "payment:credit_cards": "yes"
            },
            {
                "fee": "yes",
                "name": "Городской туалет",
                "amenity": "toilets",
                "name:en": "City toilet",
                "operator": "ООО «Комхоз-Сервис»",
                "payment:cash": "yes",
                "opening_hours": "24/7",
                "toilets:disposal": "flush",
                "toilets:position": "seated",
                "payment:debit_cards": "yes",
                "payment:credit_cards": "yes"
            }
        ]
    },
    "newsagent": {
        "count": 1,
        "detail": [
            {
                "building": "kiosk",
                "building:levels": "1",
                "inscription": "Печать",
                "opening_hours": "Mo-Sa 06:30-20:00",
                "shop": "newsagent"
            }
        ]
    },
    "massage": {
        "count": 2,
        "detail": [
            {
                "name": "Nuad Thai",
                "shop": "massage",
                "massage": "thai",
                "contact:phone": "+7 495 4110001",
                "opening_hours": "Mo-Su 11:00-22:00",
                "contact:website": "http://www.nuadthai.ru"
            },
            {
                "contact:phone": "+7 495 2254242",
                "contact:website": "https://tairai.ru/",
                "name": "Тайрай",
                "opening_hours": "Mo-Su 10:00-22:00",
                "shop": "massage"
            }
        ]
    },
    "medical_supply": {
        "count": 1,
        "detail": [
            {
                "brand": "Ортека",
                "contact:email": "info@orteka.ru",
                "contact:facebook": "https://www.facebook.com/orteka.rus",
                "contact:instagram": "https://www.instagram.com/orteka_rus/",
                "contact:phone": "+7 495 7755000;+7 800 3333112",
                "contact:vk": "https://vk.com/orteka_ru",
                "contact:website": "https://orteka.ru/salon/salon-na-arbate.php",
                "medical_supply": "orthopedic",
                "name": "Ортека",
                "name:en": "Orteka",
                "name:ru": "Ортека",
                "opening_hours": "Mo-Su 09:00-22:00",
                "operator": "НИКАМЕД",
                "shop": "medical_supply"
            }
        ]
    },
    "courthouse": {
        "count": 1,
        "detail": [
            {
                "name": "Московский окружной военный суд",
                "amenity": "courthouse",
                "website": "http://movs.msk.sudrf.ru/",
                "contact:phone": "+7 499 2410721",
                "opening_hours": "Mo-Th 09:00-12:00,13:00-18:00; Fr 09:00-12:00,13:00-16:45",
                "contact:website": "http://movs.msk.sudrf.ru"
            }
        ]
    },
    "farm": {
        "count": 1,
        "detail": [
            {
                "name": "LavkaLavka",
                "shop": "farm",
                "name:ru": "ЛавкаЛавка",
                "int_name": "LavkaLavka",
                "contact:phone": "+7 968 7611728",
                "opening_hours": "Mo-Su 10:00-22:00",
                "contact:website": "http://restoran.lavkalavka.com/"
            }
        ]
    },
    "sports_centre": {
        "count": 1,
        "detail": [
            {
                "email": "skarbat@mail.ru",
                "leisure": "sports_centre",
                "name": "Спортивный комплекс \"Арбат\"",
                "opening_hours": "Mo-Fr 07:00-14:15,15:00-22:15; Sa-Su 08:45-14:15,15:00-19:00",
                "phone": "5149992",
                "sport": "swimming",
                "website": "http://sportcentrmsk.ru/sportsoorujenia/sk_arbat/"
            }
        ]
    },
    "bicycle_parking": {
        "count": 7,
        "detail": [
            {
                "amenity": "bicycle_parking",
                "bicycle_parking": "stands",
                "capacity": "8",
                "covered": "no",
                "fee": "no",
                "opening_hours": "24/7",
                "supervised": "no"
            },
            {
                "fee": "no",
                "amenity": "bicycle_parking",
                "covered": "no",
                "capacity": "2",
                "supervised": "no",
                "opening_hours": "24/7",
                "bicycle_parking": "stands"
            },
            {
                "fee": "no",
                "amenity": "bicycle_parking",
                "covered": "no",
                "capacity": "6",
                "supervised": "no",
                "opening_hours": "24/7",
                "bicycle_parking": "stands"
            },
            {
                "amenity": "bicycle_parking",
                "bicycle_parking": "stands",
                "capacity": "2",
                "covered": "no",
                "fee": "no",
                "opening_hours": "24/7",
                "supervised": "no"
            },
            {
                "amenity": "bicycle_parking",
                "bicycle_parking": "stands",
                "capacity": "4",
                "covered": "no",
                "fee": "no",
                "opening_hours": "24/7",
                "supervised": "no"
            },
            {
                "access": "yes",
                "amenity": "bicycle_parking",
                "bicycle_parking": "wall_loops",
                "capacity": "10",
                "covered": "no",
                "fee": "no",
                "opening_hours": "24/7",
                "supervised": "no"
            },
            {
                "access": "yes",
                "amenity": "bicycle_parking",
                "bicycle_parking": "stands",
                "capacity": "4",
                "covered": "no",
                "fee": "no",
                "opening_hours": "24/7",
                "supervised": "no"
            }
        ]
    },
    "bicycle_rental": {
        "count": 1,
        "detail": [
            {
                "amenity": "bicycle_rental",
                "capacity": "12",
                "capacity:electric": "0",
                "contact:email": "info@velobike.ru",
                "contact:phone": "+7 495 9664669",
                "contact:website": "https://velobike.ru/",
                "fee": "yes",
                "network": "Велобайк",
                "opening_hours": "24/7",
                "operator": "АО «СитиБайк»",
                "payment:cash": "no",
                "payment:mastercard": "yes",
                "payment:troika": "no",
                "payment:visa": "yes",
                "ref": "106",
                "seasonal": "yes"
            }
        ]
    },
    "bakery": {
        "count": 2,
        "detail": [
            {
                "addr:housenumber": "4/1",
                "addr:postcode": "121099",
                "addr:street": "2-й Смоленский переулок",
                "amenity": "cafe",
                "contact:email": "service@hlebnasushny.ru",
                "contact:facebook": "https://www.facebook.com/hlebnasushny.ru",
                "contact:instagram": "https://www.instagram.com/hlebnasushny.ru",
                "contact:phone": "+7 495 9661417",
                "contact:website": "https://hlebnasushny.ru/",
                "name": "Хлеб Насущный",
                "name:ru": "Хлеб Насущный",
                "opening_hours": "Mo-Fr 07:00-23:00;Sa-Su 08:00-22:00",
                "operator": "Вермонт",
                "payment:maestro": "yes",
                "payment:mastercard": "yes",
                "payment:visa": "yes",
                "payment:visa_electron": "yes",
                "shop": "bakery"
            },
            {
                "addr:housenumber": "30",
                "addr:street": "улица Арбат",
                "amenity": "cafe",
                "contact:email": "service@hlebnasushny.ru",
                "contact:facebook": "https://www.facebook.com/hlebnasushny.ru/",
                "contact:instagram": "https://www.instagram.com/hlebnasushny.ru/",
                "contact:phone": "+7 495 4190638",
                "contact:website": "https://hlebnasushny.ru/",
                "name": "Хлеб Насущный",
                "name:ru": "Хлеб Насущный",
                "opening_hours": "Mo-Fr 07:00-23:00;Sa-Su 08:00-23:00",
                "operator": "ООО \"Роял Бейкери\"",
                "shop": "bakery"
            }
        ]
    },
    "interior_decoration": {
        "count": 1,
        "detail": [
            {
                "name": "Lege Alto",
                "shop": "interior_decoration",
                "contact:phone": "+7 495 6413436",
                "opening_hours": "Mo-Fr 10:00-19:00",
                "contact:website": "http://www.legealto.ru/"
            }
        ]
    },
    "dentist": {
        "count": 2,
        "detail": [
            {
                "amenity": "dentist",
                "contact:email": "info@implanttime.ru",
                "contact:facebook": "https://facebook.com/implanttimemsk",
                "contact:instagram": "https://instagram.com/implanttime_clinic",
                "contact:phone": "+7 495 8774022",
                "contact:website": "https://implanttime.ru/",
                "contact:youtube": "https://youtube.com/channel/UCwgYb327N-Ir57TR7JoHr1A",
                "health_facility:type": "clinic",
                "health_specialty:dentistry": "yes",
                "healthcare": "dentist",
                "medical_system:western": "yes",
                "name": "ЛанаДент",
                "opening_hours": "Mo-Su 10:00-21:00",
                "operator": "ИмплантТайм"
            },
            {
                "amenity": "dentist",
                "healthcare": "dentist",
                "health_facility:type": "clinic",
                "health_specialty:dentistry": "yes",
                "medical_system:western": "yes",
                "name": "Центр Клинической и эстетической стоматологии"
            }
        ]
    },
    "parking_entrance": {
        "count": 10,
        "detail": [
            {
                "access": "private",
                "amenity": "parking_entrance",
                "barrier": "gate"
            },
            {
                "access": "private",
                "amenity": "parking_entrance",
                "barrier": "gate"
            },
            {
                "access": "private",
                "amenity": "parking_entrance",
                "barrier": "gate"
            },
            {
                "access": "private",
                "amenity": "parking_entrance",
                "barrier": "gate"
            },
            {
                "access": "private",
                "amenity": "parking_entrance",
                "barrier": "gate"
            },
            {
                "access": "private",
                "amenity": "parking_entrance",
                "parking": "underground"
            },
            {
                "access": "private",
                "amenity": "parking_entrance",
                "parking": "underground"
            },
            {
                "access": "private",
                "amenity": "parking_entrance"
            },
            {
                "access": "private",
                "amenity": "parking_entrance",
                "parking": "underground"
            },
            {
                "access": "private",
                "amenity": "parking_entrance",
                "parking": "underground"
            }
        ]
    },
    "waste_disposal": {
        "count": 5,
        "detail": [
            {
                "amenity": "waste_disposal"
            },
            {
                "amenity": "waste_disposal"
            },
            {
                "amenity": "waste_disposal"
            },
            {
                "amenity": "waste_disposal"
            },
            {
                "amenity": "waste_disposal"
            }
        ]
    },
    "fitness_centre": {
        "count": 5,
        "detail": [
            {
                "name": "Express-Fit",
                "leisure": "fitness_centre",
                "contact:phone": "+7 495 7755579",
                "opening_hours": "Mo-Su 08:00-22:00",
                "contact:website": "http://express-fit.ru"
            },
            {
                "name": "Спортклуб \"На Арбате\"",
                "leisure": "fitness_centre",
                "contact:phone": "+7 499 2417489",
                "opening_hours": "Mo-Su 10:00-22:00",
                "contact:website": "https://arbatsport.ru"
            },
            {
                "contact:website": "https://fit.fit-n-go.ru/",
                "leisure": "fitness_centre",
                "name": "Fit-n-Go"
            },
            {
                "contact:email": "ya@worldclass.ru",
                "contact:phone": "+7 495 7880000",
                "leisure": "fitness_centre",
                "name": "World Class",
                "opening_hours": "Mo-Fr 7:00-24:00;Sa-Su 9:00-24:00",
                "operator": "«Спорт Форум»"
            },
            {
                "contact:instagram": "https://www.instagram.com/the_sport_fitness/",
                "contact:website": "https://www.thesport-fitness.ru/",
                "leisure": "fitness_centre",
                "name": "The sport"
            }
        ]
    },
    "embassy": {
        "count": 4,
        "detail": [
            {
                "amenity": "embassy",
                "country": "MN",
                "diplomatic": "embassy",
                "name": "Посольство Монголии",
                "name:en": "Embassy of Mongolia",
                "name:mn": "Монгол Улсаас Суугаа Элчин Сайдын Яам",
                "office": "diplomatic",
                "official_name:mn": "Монгол Улсаас Оросын Холбооны Улсад Суугаа Элчин Сайдын Яам"
            },
            {
                "addr:housenumber": "5",
                "addr:postcode": "121099",
                "addr:street": "переулок Каменная Слобода",
                "amenity": "embassy",
                "building": "yes",
                "building:levels": "4",
                "country": "SG",
                "diplomatic": "embassy",
                "name": "Посольство Сингапура",
                "name:de": "Botschaft von Singapur",
                "name:en": "Embassy of Singapore",
                "name:ms": "Singapura Kedutaan",
                "name:ru": "посольство Сингапура",
                "name:ta": "சிங்கப்பூர் தூதரகம்",
                "name:zh": "新加坡大使馆",
                "office": "diplomatic",
                "official_name": "посольство‎ Республики Сингапур",
                "target": "RU"
            },
            {
                "addr:housenumber": "8 с1",
                "addr:postcode": "121099",
                "addr:street": "Карманицкий переулок",
                "amenity": "embassy",
                "building": "yes",
                "building:levels": "3",
                "country": "PH",
                "diplomatic": "embassy",
                "name": "Посольство Филиппин",
                "name:de": "Philippinische Botschaft",
                "name:en": "Embassy of the Philippines",
                "name:ru": "Посольство Филиппин",
                "name:tl": "Pasuguan ng Pilipinas",
                "office": "diplomatic",
                "official_name": "Посольство Республики Филиппины",
                "official_name:en": "Embassy of the Republic of the Philippines",
                "official_name:tl": "Pasuguan ng Republika ng Pilipinas",
                "target": "RU",
                "website": "http://www.moscowpe.dfa.gov.ph/"
            },
            {
                "name": "Резиденция посла Испании",
                "office": "diplomatic",
                "amenity": "embassy",
                "country": "Spain",
                "building": "yes",
                "diplomatic": "ambassadors_residence",
                "addr:street": "Спасопесковский переулок",
                "addr:postcode": "119002",
                "building:levels": "2",
                "addr:housenumber": "8 с1"
            }
        ]
    },
    "waste_basket": {
        "count": 4,
        "detail": [
            {
                "amenity": "waste_basket"
            },
            {
                "amenity": "waste_basket"
            },
            {
                "amenity": "waste_basket"
            },
            {
                "amenity": "waste_basket"
            }
        ]
    },
    "hookah_lounge": {
        "count": 2,
        "detail": [
            {
                "amenity": "hookah_lounge",
                "contact:phone": "+7 495 1522037",
                "contact:website": "http://библиотека-лаундж.рф/",
                "name": "Библиотека",
                "opening_hours": "Mo-Fr 13:00-24:00; Sa,Su 00:00-04:00,13:00-24:00"
            },
            {
                "amenity": "hookah_lounge",
                "contact:website": "https://mamoonia.ru",
                "level": "2",
                "name": "Мамуния",
                "opening_hours": "Mo-Fr 00:00-02:00,14:00-24:00; Sa,Su 00:00-04:00,14:00-24:00",
                "wheelchair": "no"
            }
        ]
    },
    "seafood": {
        "count": 1,
        "detail": [
            {
                "name": "Красная Икра",
                "shop": "seafood",
                "brand": "Красная Икра",
                "name:ru": "Красная Икра",
                "operator": "Сахалин Рыба (ИП Борисик)",
                "contact:email": "a_borisik@mail.ru",
                "contact:phone": "+7 495 4379029",
                "opening_hours": "Mo-Su 09:00-22:00",
                "contact:website": "http://www.borisik.ru"
            }
        ]
    },
    "arts_centre": {
        "count": 1,
        "detail": [
            {
                "name": "Культурный Центр \"Дом Булата\" на Арбате",
                "amenity": "arts_centre",
                "contact:phone": "+7 499 2415534",
                "contact:facebook": "https://www.facebook.com/DomBulata"
            }
        ]
    },
    "security_booth": {
        "count": 4,
        "detail": [
            {
                "amenity": "security_booth",
                "building": "yes",
                "building:levels": "1"
            },
            {
                "amenity": "security_booth",
                "building": "yes",
                "building:levels": "1"
            },
            {
                "amenity": "security_booth",
                "building": "yes"
            },
            {
                "amenity": "security_booth",
                "building": "yes"
            }
        ]
    },
    "payment_terminal": {
        "count": 1,
        "detail": [
            {
                "amenity": "payment_terminal",
                "brand": "QIWI",
                "brand:wikidata": "Q4047736",
                "brand:wikipedia": "ru:Qiwi",
                "contact:facebook": "https://www.facebook.com/QiwiRussia",
                "contact:instagram": "https://www.instagram.com/qiwi_russia",
                "contact:ok": "https://ok.ru/qiwirussia",
                "contact:phone": "+7 800 7077759",
                "contact:twitter": "https://twitter.com/qiwirussia",
                "contact:vk": "https://vk.com/qiwirussia",
                "contact:website": "https://qiwi.com",
                "contact:youtube": "https://www.youtube.com/user/QiwiRussia",
                "operator": "КИВИ Банк (АО)",
                "payment:credit_cards": "yes",
                "payment:debit_cards": "yes",
                "payment:notes": "yes"
            }
        ]
    },
    "telephone": {
        "count": 1,
        "detail": [
            {
                "amenity": "telephone",
                "covered": "yes"
            }
        ]
    },
    "kick-scooter_rental": {
        "count": 2,
        "detail": [
            {
                "amenity": "kick-scooter_rental",
                "contact:phone": "+7 800 3010184",
                "contact:website": "https://samocat.net",
                "fee": "yes",
                "network": "Samocat",
                "opening_hours": "24/7",
                "seasonal": "spring;summer;autumn"
            },
            {
                "amenity": "kick-scooter_rental",
                "contact:phone": "+7 800 3010184",
                "contact:website": "https://samocat.net",
                "fee": "yes",
                "network": "Samokat",
                "opening_hours": "24/7",
                "seasonal": "spring;summer;autumn"
            }
        ]
    },
    "photo_studio": {
        "count": 1,
        "detail": [
            {
                "level": "-1",
                "shop": "photo_studio"
            }
        ]
    },
    "stationery": {
        "count": 1,
        "detail": [
            {
                "contact:website": "http://blok-not.tilda.ws/",
                "level": "-1",
                "name": "Блокнот",
                "shop": "stationery"
            }
        ]
    },
    "taxi": {
        "count": 1,
        "detail": [
            {
                "amenity": "taxi"
            }
        ]
    },
    "second_hand": {
        "count": 1,
        "detail": [
            {
                "contact:website": "https://победа-63.рф/",
                "name": "Победа",
                "opening_hours": "24/7",
                "shop": "second_hand"
            }
        ]
    },
    "community_centre": {
        "count": 1,
        "detail": [
            {
                "amenity": "community_centre",
                "contact:website": "https://gbucao.ru",
                "level": "-1",
                "name": "Центр по работе с населением Центрального административного округа г. Москвы. Филиал \"Наш Арбат\""
            }
        ]
    },
    "bag": {
        "count": 1,
        "detail": [
            {
                "addr:city": "Москва",
                "addr:housenumber": "3",
                "addr:street": "Смоленская площадь",
                "name": "Robinzon Premier",
                "opening_hours": "Mo-Su 10:00-22:00",
                "phone": "+7 495 2151658",
                "shop": "bag",
                "website": "https://robinzon.ru/"
            }
        ]
    },
    "music_school": {
        "count": 1,
        "detail": [
            {
                "amenity": "music_school",
                "contact:website": "https://mosmusic-club.ru",
                "education": "facultative_school",
                "education_form:parttime": "yes",
                "education_level:primary": "yes",
                "education_profile:music": "yes",
                "education_system:ru_standard": "yes",
                "name": "MusicClub"
            }
        ]
    },
    "mall": {
        "count": 2,
        "detail": [
            {
                "addr:housenumber": "8",
                "addr:street": "Новинский бульвар",
                "building": "retail",
                "building:levels": "21",
                "name": "Lotte Plaza",
                "name:en": "Lotte Plaza shopping center",
                "phone": "+7 495 6412500",
                "shop": "mall",
                "website": "http://www.lotteplaza.ru/"
            },
            {
                "name": "Смоленский пассаж",
                "shop": "mall",
                "website": "http://www.smolenskiy.ru/",
                "building": "retail",
                "addr:city": "Москва",
                "addr:street": "Смоленская площадь",
                "addr:country": "RU",
                "building:levels": "12",
                "addr:housenumber": "3"
            }
        ]
    },
    "commercial": {
        "count": 3,
        "detail": [
            {
                "building": "commercial",
                "addr:street": "переулок Каменная Слобода",
                "addr:postcode": "121099",
                "building:levels": "5",
                "addr:housenumber": "3"
            },
            {
                "name": "Департамент торговли и услуг г. Москвы",
                "office": "government",
                "building": "commercial",
                "addr:street": "Большой Николопесковский переулок",
                "building:levels": "3",
                "contact:website": "https://www.mos.ru/dtu/",
                "addr:housenumber": "15 с2"
            },
            {
                "building": "commercial",
                "addr:street": "Карманицкий переулок",
                "building:levels": "3",
                "addr:housenumber": "4 с2"
            }
        ]
    },
    "school": {
        "count": 1,
        "detail": [
            {
                "addr:city": "Москва",
                "addr:housenumber": "3 с2",
                "addr:postcode": "121099",
                "addr:street": "Новинский бульвар",
                "building": "school",
                "building:levels": "4"
            }
        ]
    },
    "service": {
        "count": 7,
        "detail": [
            {
                "railway": "ventilation_shaft",
                "service": "ventilation",
                "building": "service",
                "building:levels": "1"
            },
            {
                "power": "substation",
                "building": "service",
                "location": "indoor",
                "substation": "minor_distribution",
                "addr:street": "улица Арбат",
                "building:levels": "1",
                "addr:housenumber": "46 с7"
            },
            {
                "power": "substation",
                "building": "service",
                "location": "indoor",
                "substation": "minor_distribution",
                "addr:street": "Плотников переулок",
                "building:levels": "1",
                "addr:housenumber": "21 с2"
            },
            {
                "power": "substation",
                "building": "service",
                "location": "indoor",
                "substation": "minor_distribution",
                "addr:street": "Карманицкий переулок",
                "building:levels": "1",
                "addr:housenumber": "2/5 с2"
            },
            {
                "power": "substation",
                "building": "service",
                "location": "indoor",
                "substation": "minor_distribution",
                "addr:street": "улица Арбат",
                "building:levels": "1",
                "addr:housenumber": "51 с8"
            },
            {
                "addr:housenumber": "42 с2",
                "addr:street": "переулок Сивцев Вражек",
                "building": "service",
                "building:levels": "1"
            },
            {
                "addr:housenumber": "42 с3",
                "addr:street": "переулок Сивцев Вражек",
                "building": "service",
                "building:levels": "1"
            }
        ]
    },
    "ticket": {
        "count": 1,
        "detail": [
            {
                "shop": "ticket",
                "building": "kiosk",
                "tickets:theatre": "yes"
            }
        ]
    }
}