{
    "kindergarten": {
        "count": 3,
        "detail": [
            {
                "amenity": "kindergarten",
                "name": "Школа №439 \"Интеллект\" (дошкольное отделение №3)",
                "old_name": "Детский сад №134",
                "website": "https://sch439uv.mskobr.ru/#/"
            },
            {
                "amenity": "kindergarten",
                "name": "Школа №439 \"Интеллект\" (дошкольное отделение №1)",
                "old_name": "Детский сад №986",
                "website": "https://sch439uv.mskobr.ru/#/"
            },
            {
                "building": "kindergarten",
                "addr:street": "Перовское шоссе",
                "addr:country": "RU",
                "building:levels": "3",
                "addr:housenumber": "8А"
            }
        ]
    },
    "residents": 6372,
    "convenience": {
        "count": 1,
        "detail": [
            {
                "name": "Продукты",
                "shop": "convenience"
            }
        ]
    },
    "pharmacy": {
        "count": 1,
        "detail": [
            {
                "amenity": "pharmacy",
                "name": "Лекрус"
            }
        ]
    },
    "bus_stop": {
        "count": 4,
        "detail": [
            {
                "name": "3-я Карачаровская улица",
                "highway": "bus_stop",
                "shelter": "no"
            },
            {
                "name": "3-я Карачаровская улица",
                "highway": "bus_stop",
                "shelter": "no"
            },
            {
                "name": "Завод \"Станкоагрегат\"",
                "highway": "bus_stop",
                "shelter": "yes"
            },
            {
                "name": "Завод \"Станкоагрегат\"",
                "highway": "bus_stop",
                "shelter": "yes"
            }
        ]
    },
    "recycling": {
        "count": 1,
        "detail": [
            {
                "amenity": "recycling",
                "location": "overground",
                "recycling_type": "container"
            }
        ]
    },
    "police": {
        "count": 1,
        "detail": [
            {
                "addr:postcode": "109202",
                "amenity": "police",
                "name": "опорный пункт"
            }
        ]
    },
    "supermarket": {
        "count": 1,
        "detail": [
            {
                "name": "Магнит у дома",
                "opening_hours": "Mo-Su 08:00-23:00",
                "shop": "supermarket",
                "wheelchair": "yes"
            }
        ]
    },
    "post_box": {
        "count": 1,
        "detail": [
            {
                "amenity": "post_box"
            }
        ]
    },
    "hardware": {
        "count": 1,
        "detail": [
            {
                "shop": "hardware",
                "description": "Различные ПВХ сумки, пакеты."
            }
        ]
    },
    "cafe": {
        "count": 1,
        "detail": [
            {
                "name": "Оладушки",
                "amenity": "cafe"
            }
        ]
    },
    "parking": {
        "count": 9,
        "detail": [
            {
                "amenity": "parking"
            },
            {
                "amenity": "parking"
            },
            {
                "amenity": "parking"
            },
            {
                "amenity": "parking"
            },
            {
                "amenity": "parking"
            },
            {
                "amenity": "parking"
            },
            {
                "amenity": "parking"
            },
            {
                "amenity": "parking"
            },
            {
                "amenity": "parking"
            }
        ]
    },
    "playground": {
        "count": 2,
        "detail": [
            {
                "leisure": "playground"
            },
            {
                "leisure": "playground"
            }
        ]
    },
    "school": {
        "count": 3,
        "detail": [
            {
                "amenity": "school",
                "building": "yes",
                "addr:street": "Рязанский проспект",
                "addr:housenumber": "13"
            },
            {
                "name": "Центр образования № 1699",
                "amenity": "school",
                "building": "yes",
                "old_name": "Школа № 453",
                "addr:street": "Перовское шоссе",
                "building:levels": "4",
                "addr:housenumber": "8"
            },
            {
                "addr:housenumber": "10",
                "addr:street": "3-я Карачаровская улица",
                "amenity": "school",
                "building": "yes",
                "description": "Частная школа и детский сад",
                "name": "Татьянинская школа",
                "website": "http://www.tatianinskaya-shkola.ru"
            }
        ]
    },
    "university": {
        "count": 1,
        "detail": [
            {
                "addr:housenumber": "9",
                "addr:street": "Рязанский проспект",
                "amenity": "university",
                "building": "university",
                "name": "Московский государственный гуманитарный университет имени М. А. Шолохова",
                "short_name": "МГГУ им. М. А. Шолохова",
                "website": "https://mggu-sh.ru/"
            }
        ]
    },
    "service": {
        "count": 1,
        "detail": [
            {
                "building": "service",
                "addr:street": "Перовское шоссе",
                "addr:housenumber": "10 к2 с4"
            }
        ]
    }
}