{
    "residents": 13206,
    "bus_stop": {
        "count": 7,
        "detail": [
            {
                "bench": "yes",
                "bin": "yes",
                "bus": "yes",
                "highway": "bus_stop",
                "name": "Улица Юннатов",
                "name:ru": "Улица Юннатов",
                "public_transport": "platform",
                "shelter": "yes"
            },
            {
                "bench": "yes",
                "bin": "yes",
                "bus": "yes",
                "highway": "bus_stop",
                "name": "Писцовая улица",
                "public_transport": "platform",
                "shelter": "yes"
            },
            {
                "bench": "yes",
                "bin": "yes",
                "bus": "yes",
                "highway": "bus_stop",
                "name": "Писцовая улица",
                "public_transport": "platform",
                "shelter": "yes"
            },
            {
                "bus": "yes",
                "highway": "bus_stop",
                "name": "Петровско-Разумовский проезд",
                "public_transport": "platform"
            },
            {
                "bench": "yes",
                "bus": "yes",
                "highway": "bus_stop",
                "name": "Писцовая улица",
                "public_transport": "platform",
                "shelter": "yes"
            },
            {
                "bench": "yes",
                "bin": "yes",
                "bus": "yes",
                "highway": "bus_stop",
                "name": "Перинатальный центр",
                "old_name": "8-я Городская Больница‎",
                "public_transport": "platform",
                "route_ref": "595",
                "shelter": "yes"
            },
            {
                "bench": "yes",
                "bin": "yes",
                "highway": "bus_stop",
                "public_transport": "platform",
                "shelter": "yes"
            }
        ]
    },
    "car_parts": {
        "count": 1,
        "detail": [
            {
                "name": "Меркурий",
                "name:ru": "Меркурий",
                "opening_hours": "Mo-Fr 09:00-20:00; Sa,Su 09:00-19:15",
                "shop": "car_parts"
            }
        ]
    },
    "pub": {
        "count": 1,
        "detail": [
            {
                "amenity": "pub",
                "contact:instagram": "https://www.instagram.com/xmel_solod_official/",
                "name": "Хмель & Солод",
                "outdoor_seating": "yes",
                "takeaway": "yes",
                "wheelchair": "yes"
            }
        ]
    },
    "playground": {
        "count": 13,
        "detail": [
            {
                "leisure": "playground"
            },
            {
                "leisure": "playground"
            },
            {
                "leisure": "playground"
            },
            {
                "leisure": "playground"
            },
            {
                "leisure": "playground"
            },
            {
                "leisure": "playground"
            },
            {
                "leisure": "playground"
            },
            {
                "leisure": "playground"
            },
            {
                "leisure": "playground"
            },
            {
                "leisure": "playground"
            },
            {
                "leisure": "playground"
            },
            {
                "access": "private",
                "leisure": "playground"
            },
            {
                "leisure": "playground"
            }
        ]
    },
    "supermarket": {
        "count": 1,
        "detail": [
            {
                "name": "Магнолия",
                "shop": "supermarket",
                "brand": "Магнолия",
                "name:en": "Magnoliya",
                "name:ru": "Магнолия",
                "operator": "Магнолия",
                "contact:phone": "+7 495 6851621",
                "opening_hours": "24/7",
                "contact:website": "http://www.mgnl.ru"
            }
        ]
    },
    "greengrocer": {
        "count": 1,
        "detail": [
            {
                "shop": "greengrocer"
            }
        ]
    },
    "hairdresser": {
        "count": 1,
        "detail": [
            {
                "shop": "hairdresser",
                "operator": "ООО Молодость"
            }
        ]
    },
    "parking": {
        "count": 2,
        "detail": [
            {
                "access": "yes",
                "amenity": "parking",
                "parking": "surface"
            },
            {
                "fee": "no",
                "amenity": "parking",
                "parking": "surface"
            }
        ]
    },
    "dentist": {
        "count": 1,
        "detail": [
            {
                "amenity": "dentist",
                "contact:phone": "+7 495 6121011",
                "contact:website": "http://energiaclassik.ru/",
                "healthcare": "dentist",
                "name": "Энергия Классик"
            }
        ]
    },
    "police": {
        "count": 1,
        "detail": [
            {
                "amenity": "police"
            }
        ]
    },
    "car_wash": {
        "count": 2,
        "detail": [
            {
                "amenity": "car_wash"
            },
            {
                "amenity": "car_wash",
                "service": "tyres"
            }
        ]
    },
    "florist": {
        "count": 3,
        "detail": [
            {
                "inscription": "Цветы",
                "shop": "florist"
            },
            {
                "amenity": "cafe",
                "contact:instagram": "https://www.instagram.com/kofeinikrepeinik/",
                "cuisine": "coffee_shop",
                "name": "Кофейник Репейник",
                "shop": "florist"
            },
            {
                "inscription": "База цветов 24",
                "opening_hours": "24/7",
                "shop": "florist"
            }
        ]
    },
    "clinic": {
        "count": 1,
        "detail": [
            {
                "name": "Поликлиника «Здоровье»",
                "amenity": "clinic",
                "healthcare": "clinic",
                "health_facility:type": "clinic"
            }
        ]
    },
    "restaurant": {
        "count": 1,
        "detail": [
            {
                "amenity": "restaurant",
                "contact:website": "http://mskr.ru/",
                "name": "ГончаровЪ",
                "opening_hours": "24/7"
            }
        ]
    },
    "fast_food": {
        "count": 2,
        "detail": [
            {
                "addr:city": "Москва",
                "addr:housenumber": "16",
                "addr:street": "Петровско-Разумовский проезд",
                "amenity": "fast_food",
                "brand": "Pizza Hut",
                "brand:wikidata": "Q191615",
                "brand:wikipedia": "ru:Пицца Хат",
                "contact:email": "info@pizzahut.ru",
                "contact:facebook": "https://www.facebook.com/PizzaHutRussia",
                "contact:instagram": "https://www.instagram.com/pizzahutrussia",
                "contact:phone": "+7 800 1001958;+7 800 1001958",
                "contact:vk": "https://vk.com/pizzahutrussia",
                "contact:website": "https://pizzahut.ru/",
                "cuisine": "pizza",
                "delivery": "yes",
                "diet:vegetarian": "no",
                "internet_access": "wlan",
                "name": "Pizza Hut",
                "name:en": "Pizza Hut",
                "opening_hours": "Mo-Su 10:00-23:00",
                "operator": "РН-1",
                "takeaway": "yes"
            },
            {
                "amenity": "fast_food",
                "cuisine": "kebab"
            }
        ]
    },
    "pharmacy": {
        "count": 1,
        "detail": [
            {
                "amenity": "pharmacy",
                "brand": "Горздрав",
                "contact:email": "info@gor-zdrav.ru",
                "contact:facebook": "https://www.facebook.com/AptekaGorzdrav",
                "contact:instagram": "https://www.instagram.com/gorzdrav",
                "contact:ok": "https://ok.ru/group/57486617870381",
                "contact:phone": "+7 499 6536277",
                "contact:vk": "https://vk.com/gorzdrav",
                "contact:website": "https://gorzdrav.org",
                "healthcare": "pharmacy",
                "name": "Горздрав",
                "name:en": "Gorzdrav",
                "name:ru": "Горздрав",
                "opening_hours": "Mo-Su 09:00-21:00"
            }
        ]
    },
    "waste_disposal": {
        "count": 9,
        "detail": [
            {
                "amenity": "waste_disposal"
            },
            {
                "amenity": "waste_disposal"
            },
            {
                "amenity": "waste_disposal"
            },
            {
                "amenity": "waste_disposal"
            },
            {
                "amenity": "waste_disposal"
            },
            {
                "amenity": "waste_disposal",
                "covered": "yes"
            },
            {
                "amenity": "waste_disposal"
            },
            {
                "amenity": "waste_disposal"
            },
            {
                "amenity": "waste_disposal"
            }
        ]
    },
    "waste_basket": {
        "count": 1,
        "detail": [
            {
                "amenity": "waste_basket"
            }
        ]
    },
    "convenience": {
        "count": 3,
        "detail": [
            {
                "name": "Здоровое питание",
                "name:ru": "Здоровое питание",
                "shop": "convenience"
            },
            {
                "shop": "convenience"
            },
            {
                "brand": "ВкусВилл",
                "brand:wikidata": "Q57271676",
                "brand:wikipedia": "ru:Вкусвилл",
                "contact:email": "info@izbenka.msk.ru",
                "contact:facebook": "https://www.facebook.com/vkusvill.ru",
                "contact:instagram": "https://www.instagram.com/izbenka_vkusvill",
                "contact:phone": "+7 495 6638602",
                "contact:telegram": "https://telegram.me/vkusvillbot",
                "contact:vk": "https://vk.com/vkusvill_ru",
                "contact:website": "https://vkusvill.ru",
                "name": "ВкусВилл",
                "name:ru": "ВкусВилл",
                "opening_hours": "Mo-Su 07:00-23:45",
                "shop": "convenience"
            }
        ]
    },
    "car_repair": {
        "count": 1,
        "detail": [
            {
                "shop": "car_repair",
                "service": "tyres",
                "description": "Шиномонтаж"
            }
        ]
    },
    "clothes": {
        "count": 2,
        "detail": [
            {
                "name": "Pereodenem",
                "shop": "clothes"
            },
            {
                "clothes": "children",
                "name": "Школьная форма",
                "shop": "clothes"
            }
        ]
    },
    "copyshop": {
        "count": 1,
        "detail": [
            {
                "name": "ADL Copy",
                "shop": "copyshop",
                "website": "http://adlcopy.ru",
                "opening_hours": "Mo-Fr 10:00-18:00"
            }
        ]
    },
    "tobacco": {
        "count": 1,
        "detail": [
            {
                "shop": "tobacco"
            }
        ]
    },
    "bakery": {
        "count": 1,
        "detail": [
            {
                "name": "Скалка",
                "shop": "bakery"
            }
        ]
    },
    "butcher": {
        "count": 1,
        "detail": [
            {
                "brand": "Мясницкий ряд",
                "contact:email": "info2@kolbasa.ru",
                "contact:facebook": "https://www.facebook.com/kolbasaMR",
                "contact:phone": "+7 495 9811719",
                "contact:vk": "https://vk.com/kolbasamr",
                "contact:website": "http://kolbasa.ru",
                "name": "Мясницкий ряд",
                "name:ru": "Мясницкий ряд",
                "shop": "butcher"
            }
        ]
    },
    "kindergarten": {
        "count": 2,
        "detail": [
            {
                "amenity": "kindergarten",
                "contact:email": "mosbambini@gmail.com",
                "contact:instagram": "https://instagram.com/bambini_club_moscow",
                "contact:phone": "+7 985 0812399",
                "contact:vk": "https://vk.com/bambiniclub_msk",
                "contact:website": "https://bambinisad.ru/",
                "education": "kindergarten",
                "education_level:preschool": "yes",
                "education_profile:general": "yes",
                "name": "Bambini-Club",
                "opening_hours": "Mo-Fr 07:30-20:00",
                "operator": "Bambini-Club",
                "ownership": "private"
            },
            {
                "building": "kindergarten",
                "addr:city": "Москва",
                "addr:street": "Мирской переулок",
                "addr:country": "RU",
                "building:levels": "2",
                "addr:housenumber": "9"
            }
        ]
    },
    "kick-scooter_rental": {
        "count": 1,
        "detail": [
            {
                "amenity": "kick-scooter_rental",
                "contact:phone": "+7 800 3010184",
                "contact:website": "https://samocat.net",
                "fee": "yes",
                "network": "Samokat",
                "opening_hours": "24/7",
                "seasonal": "spring;summer;autumn"
            }
        ]
    },
    "bicycle": {
        "count": 1,
        "detail": [
            {
                "name": "Веломастерская 03",
                "opening_hours": "Mo-Su 11:00-19:00",
                "payment:cash": "yes",
                "phone": "+7 915 4554456",
                "service:bicycle:repair": "yes",
                "shop": "bicycle",
                "website": "https://velo03.ru/"
            }
        ]
    },
    "telephone": {
        "count": 1,
        "detail": [
            {
                "amenity": "telephone"
            }
        ]
    },
    "parking_entrance": {
        "count": 1,
        "detail": [
            {
                "amenity": "parking_entrance"
            }
        ]
    },
    "fitness_station": {
        "count": 1,
        "detail": [
            {
                "leisure": "fitness_station"
            }
        ]
    },
    "beauty": {
        "count": 1,
        "detail": [
            {
                "shop": "beauty"
            }
        ]
    },
    "veterinary": {
        "count": 1,
        "detail": [
            {
                "amenity": "veterinary",
                "name": "Прайд"
            }
        ]
    },
    "storage_rental": {
        "count": 1,
        "detail": [
            {
                "addr:flats": "+7-495-1429564",
                "contact:website": "https://robosklad.rent/",
                "name": "Робосклад",
                "shop": "storage_rental"
            }
        ]
    },
    "community_centre": {
        "count": 1,
        "detail": [
            {
                "amenity": "community_centre",
                "community_centre": "youth_centre",
                "contact:phone": "+7-495-6115690",
                "contact:website": "http://garmoniya-centre.ru/",
                "name": "Физкультурно-досуговый центр \"Гармония\""
            }
        ]
    },
    "pitch": {
        "count": 1,
        "detail": [
            {
                "leisure": "pitch",
                "man_made": "tower",
                "note": "Тренировочная башня пожарной части",
                "sport": "climbing"
            }
        ]
    },
    "commercial": {
        "count": 1,
        "detail": [
            {
                "building": "commercial",
                "addr:city": "Москва",
                "addr:street": "Старый Петровско-Разумовский проезд",
                "addr:country": "RU",
                "addr:postcode": "127287",
                "building:levels": "6",
                "addr:housenumber": "1/23 с1"
            }
        ]
    },
    "school": {
        "count": 7,
        "detail": [
            {
                "building": "school",
                "addr:city": "Москва",
                "addr:street": "Писцовая улица",
                "addr:country": "RU",
                "building:levels": "4",
                "addr:housenumber": "7А"
            },
            {
                "building": "school",
                "building:levels": "2"
            },
            {
                "building": "school",
                "addr:street": "Писцовая улица",
                "addr:housenumber": "7А"
            },
            {
                "building": "school",
                "addr:city": "Москва",
                "roof:shape": "hipped",
                "addr:street": "Писцовая улица",
                "addr:country": "RU",
                "building:levels": "4",
                "addr:housenumber": "14А"
            },
            {
                "building": "school",
                "building:levels": "3"
            },
            {
                "building": "school",
                "roof:shape": "hipped",
                "building:levels": "2"
            },
            {
                "building": "school",
                "building:levels": "1"
            }
        ]
    },
    "shelter": {
        "count": 5,
        "detail": [
            {
                "access": "customers",
                "amenity": "shelter",
                "building": "roof",
                "building:levels": "1",
                "roof:colour": "blue"
            },
            {
                "access": "customers",
                "amenity": "shelter",
                "building": "roof",
                "building:levels": "1",
                "roof:colour": "blue"
            },
            {
                "access": "customers",
                "amenity": "shelter",
                "building": "roof",
                "building:levels": "1",
                "roof:colour": "blue"
            },
            {
                "access": "customers",
                "amenity": "shelter",
                "building": "roof",
                "building:levels": "1",
                "roof:colour": "blue"
            },
            {
                "access": "customers",
                "amenity": "shelter",
                "building": "roof",
                "building:levels": "1",
                "roof:colour": "blue"
            }
        ]
    },
    "service": {
        "count": 11,
        "detail": [
            {
                "addr:city": "Москва",
                "addr:country": "RU",
                "addr:housenumber": "32 с2",
                "addr:street": "Мишина улица",
                "building": "service",
                "building:levels": "1",
                "location": "indoor",
                "power": "substation",
                "ref": "10898",
                "substation": "minor_distribution"
            },
            {
                "addr:housenumber": "23 с2",
                "addr:street": "4-й Вятский переулок",
                "building": "service",
                "building:levels": "1",
                "description": "Газораспределительная станция (ГРС)",
                "pipeline": "substation",
                "substance": "gas",
                "substation": "distribution"
            },
            {
                "addr:city": "Москва",
                "addr:country": "RU",
                "addr:housenumber": "16 с2",
                "addr:street": "Петровско-Разумовский проезд",
                "building": "service",
                "building:levels": "1",
                "location": "indoor",
                "power": "substation",
                "substation": "minor_distribution"
            },
            {
                "addr:city": "Москва",
                "addr:country": "RU",
                "addr:housenumber": "26 с1",
                "addr:street": "Мишина улица",
                "building": "service",
                "building:levels": "1",
                "location": "indoor",
                "man_made": "heat_exchange_station",
                "pipeline": "substation",
                "substance": "heat",
                "substation": "distribution"
            },
            {
                "building": "service",
                "building:levels": "1",
                "location": "indoor",
                "man_made": "heat_exchange_station",
                "pipeline": "substation",
                "substance": "heat",
                "substation": "distribution"
            },
            {
                "addr:housenumber": "45 с1",
                "addr:street": "Полтавская улица",
                "building": "service",
                "building:levels": "1",
                "location": "indoor",
                "power": "substation",
                "substation": "minor_distribution"
            },
            {
                "addr:housenumber": "20 с1",
                "addr:street": "Петровско-Разумовский проезд",
                "building": "service",
                "building:levels": "1",
                "location": "indoor",
                "power": "substation",
                "substation": "minor_distribution"
            },
            {
                "addr:housenumber": "41 с2",
                "addr:street": "4-й Вятский переулок",
                "building": "service",
                "building:levels": "1",
                "location": "indoor",
                "power": "substation",
                "substation": "minor_distribution"
            },
            {
                "building": "service",
                "power": "substation",
                "substation": "minor_distribution"
            },
            {
                "building": "service",
                "power": "substation",
                "ref": "ТП 22939 А",
                "substation": "minor_distribution"
            },
            {
                "building": "service",
                "building:levels": "1",
                "location": "indoor",
                "man_made": "heat_exchange_station",
                "pipeline": "substation",
                "substance": "heat",
                "substation": "distribution"
            }
        ]
    }
}