{
    "residents": 9154,
    "supermarket": {
        "count": 1,
        "detail": [
            {
                "addr:postcode": "107113",
                "addr:street": "улица Шумкина",
                "brand": "Магнит",
                "brand:en": "Magnit",
                "brand:wikidata": "Q940518",
                "brand:wikipedia": "ru:Магнит (сеть магазинов)",
                "contact:website": "http://magnit-info.ru",
                "name": "Магнит",
                "name:en": "Magnit",
                "name:ru": "Магнит",
                "operator": "АО \"Тандер\"",
                "shop": "supermarket"
            }
        ]
    },
    "post_office": {
        "count": 1,
        "detail": [
            {
                "ref": "107113",
                "name": "Отделение связи №107113",
                "amenity": "post_office",
                "operator": "ФГУП «Почта России»",
                "contact:phone": "+7 499 2645660",
                "official_name": "Городское отделение почтовой связи Москва 113",
                "opening_hours": "Mo-Fr 08:00-13:00,14:00-20:00; Sa 09:00-13:00,14:00-18:00; Su off",
                "contact:website": "http://www.russianpost.ru",
                "operator:wikidata": "Q1502763",
                "operator:wikipedia": "ru:Почта России"
            }
        ]
    },
    "bus_stop": {
        "count": 13,
        "detail": [
            {
                "bus": "yes",
                "description": "covered bus stop",
                "highway": "bus_stop",
                "name": "Улица Шумкина",
                "public_transport": "platform"
            },
            {
                "bus": "yes",
                "highway": "bus_stop",
                "name": "Улица Лобачика",
                "public_transport": "platform"
            },
            {
                "bench": "yes",
                "bus": "yes",
                "highway": "bus_stop",
                "name": "Улица Лобачика",
                "name:ru": "Улица Лобачика",
                "public_transport": "platform"
            },
            {
                "bus": "yes",
                "highway": "bus_stop",
                "name": "Старослободская улица",
                "public_transport": "platform"
            },
            {
                "bus": "yes",
                "name": "Старослободская улица",
                "public_transport": "stop_position"
            },
            {
                "bus": "yes",
                "name": "Улица Шумкина",
                "public_transport": "stop_position"
            },
            {
                "bus": "yes",
                "name": "Старослободская улица",
                "public_transport": "stop_position"
            },
            {
                "bus": "yes",
                "highway": "bus_stop",
                "name": "Старослободская улица",
                "public_transport": "platform"
            },
            {
                "bus": "yes",
                "name": "Улица Шумкина",
                "public_transport": "stop_position"
            },
            {
                "bus": "yes",
                "highway": "bus_stop",
                "name": "Улица Шумкина",
                "public_transport": "platform"
            },
            {
                "bus": "yes",
                "highway": "bus_stop",
                "name": "Москва-2 товарная",
                "public_transport": "platform",
                "route_ref": "40;122"
            },
            {
                "bus": "yes",
                "highway": "bus_stop",
                "name": "Улица Лобачика",
                "public_transport": "platform"
            },
            {
                "bus": "yes",
                "highway": "bus_stop",
                "name": "Дворец спорта «Сокольники»",
                "public_transport": "platform"
            }
        ]
    },
    "pharmacy": {
        "count": 2,
        "detail": [
            {
                "amenity": "pharmacy",
                "healthcare": "pharmacy",
                "name": "Oleos"
            },
            {
                "amenity": "pharmacy",
                "contact:website": "https://www.budzdorov.ru/",
                "healthcare": "pharmacy",
                "name": "Будь здоров",
                "opening_hours": "9-21",
                "phone": "8-800-7777003",
                "ref": "1356",
                "wheelchair": "no"
            }
        ]
    },
    "convenience": {
        "count": 2,
        "detail": [
            {
                "brand": "Магнит",
                "brand:en": "Magnit",
                "brand:wikidata": "Q940518",
                "brand:wikipedia": "ru:Магнит (сеть магазинов)",
                "name": "Магнит",
                "name:en": "Magnit",
                "name:ru": "Магнит у дома",
                "opening_hours": "Mo-Su 08:00-22:00",
                "shop": "convenience"
            },
            {
                "shop": "convenience"
            }
        ]
    },
    "dentist": {
        "count": 2,
        "detail": [
            {
                "amenity": "dentist",
                "healthcare": "dentist"
            },
            {
                "amenity": "dentist",
                "contact:email": "stomatologya-sokolniki@yandex.ru",
                "contact:facebook": "https://facebook.com/1650973405132315",
                "contact:instagram": "https://instagram.com/sunisland_dent",
                "contact:ok": "https://ok.ru/sun.island",
                "contact:phone": "+7 495 6033000;+7 499 7852920;+7 910 4701099",
                "contact:vk": "https://vk.com/club91008442",
                "contact:website": "https://stomatologya-sokolniki.ru/",
                "contact:youtube": "https://youtube.com/channel/UCnbVx7iHGhq5R2JSIcXWySQ",
                "name": "Солнечный остров",
                "opening_hours": "Mo-Su 09:00-21:00",
                "operator": "ООО СОЛНЕЧНЫЙ ОСТРОВ"
            }
        ]
    },
    "beauty": {
        "count": 2,
        "detail": [
            {
                "name": "Калейдоскоп",
                "shop": "beauty"
            },
            {
                "contact:phone": "+7 495 2254242",
                "contact:website": "https://tairai.ru",
                "name": "Тайрай",
                "opening_hours": "Mo-Su 10:00-22:00",
                "shop": "beauty"
            }
        ]
    },
    "car_wash": {
        "count": 1,
        "detail": [
            {
                "amenity": "car_wash"
            }
        ]
    },
    "car_repair": {
        "count": 1,
        "detail": [
            {
                "shop": "car_repair",
                "service": "tyres"
            }
        ]
    },
    "waste_disposal": {
        "count": 9,
        "detail": [
            {
                "amenity": "waste_disposal"
            },
            {
                "amenity": "waste_disposal"
            },
            {
                "amenity": "waste_disposal"
            },
            {
                "amenity": "waste_disposal"
            },
            {
                "amenity": "waste_disposal"
            },
            {
                "amenity": "waste_disposal"
            },
            {
                "amenity": "waste_disposal"
            },
            {
                "amenity": "waste_disposal"
            },
            {
                "amenity": "waste_disposal"
            }
        ]
    },
    "post_box": {
        "count": 1,
        "detail": [
            {
                "addr:country": "RU",
                "amenity": "post_box",
                "operator": "Почта России",
                "website": "https://russianpost.ru/"
            }
        ]
    },
    "playground": {
        "count": 6,
        "detail": [
            {
                "leisure": "playground"
            },
            {
                "leisure": "playground"
            },
            {
                "leisure": "playground"
            },
            {
                "leisure": "playground"
            },
            {
                "leisure": "playground"
            },
            {
                "leisure": "playground"
            }
        ]
    },
    "tea": {
        "count": 1,
        "detail": [
            {
                "name": "ЧайКофе",
                "shop": "tea"
            }
        ]
    },
    "dry_cleaning;shoe_repair;clothes_repair;laundry": {
        "count": 1,
        "detail": [
            {
                "contact:phone": "+7 499 2690016",
                "name": "Новая жизнь",
                "opening_hours": "09:00-20:00",
                "shop": "dry_cleaning;shoe_repair;clothes_repair;laundry"
            }
        ]
    },
    "ticket": {
        "count": 1,
        "detail": [
            {
                "description": "Кассы",
                "shop": "ticket"
            }
        ]
    },
    "travel_agency": {
        "count": 1,
        "detail": [
            {
                "contact:phone": "+7 495 7421212",
                "contact:website": "https://inna.ru",
                "name": "Инна Тур",
                "shop": "travel_agency"
            }
        ]
    },
    "clinic": {
        "count": 1,
        "detail": [
            {
                "amenity": "clinic",
                "healthcare": "clinic",
                "name": "Арура"
            }
        ]
    },
    "bicycle_rental": {
        "count": 3,
        "detail": [
            {
                "amenity": "bicycle_rental",
                "description": "Bicycles, skates"
            },
            {
                "amenity": "bicycle_rental",
                "capacity": "12",
                "capacity:electric": "0",
                "contact:email": "info@velobike.ru",
                "contact:phone": "+7 495 9664669",
                "contact:website": "https://velobike.ru/",
                "fee": "yes",
                "network": "Велобайк",
                "opening_hours": "24/7",
                "operator": "АО «СитиБайк»",
                "payment:cash": "no",
                "payment:mastercard": "yes",
                "payment:troika": "no",
                "payment:visa": "yes",
                "ref": "479",
                "seasonal": "yes"
            },
            {
                "amenity": "bicycle_rental",
                "capacity": "9",
                "capacity:electric": "0",
                "contact:email": "info@velobike.ru",
                "contact:phone": "+7 495 9664669",
                "contact:website": "https://velobike.ru/",
                "fee": "yes",
                "network": "Велобайк",
                "opening_hours": "24/7",
                "operator": "АО «СитиБайк»",
                "payment:cash": "no",
                "payment:mastercard": "no",
                "payment:troika": "no",
                "payment:visa": "no",
                "ref": "477",
                "seasonal": "yes"
            }
        ]
    },
    "newsagent": {
        "count": 1,
        "detail": [
            {
                "shop": "newsagent",
                "building": "kiosk"
            }
        ]
    },
    "bank": {
        "count": 1,
        "detail": [
            {
                "amenity": "bank",
                "brand": "Почта Банк",
                "brand:en": "Post Bank",
                "brand:wikidata": "Q24930461",
                "brand:wikipedia": "en:Post Bank (Russia)",
                "name": "Почта Банк",
                "name:en": "Post Bank"
            }
        ]
    },
    "fast_food": {
        "count": 1,
        "detail": [
            {
                "amenity": "fast_food",
                "name": "Буфет \"Мосгортранс\""
            }
        ]
    },
    "fitness_station": {
        "count": 1,
        "detail": [
            {
                "leisure": "fitness_station",
                "sport": "fitness"
            }
        ]
    },
    "parking_entrance": {
        "count": 5,
        "detail": [
            {
                "access": "private",
                "amenity": "parking_entrance",
                "parking": "underground"
            },
            {
                "access": "private",
                "amenity": "parking_entrance",
                "parking": "underground"
            },
            {
                "access": "private",
                "amenity": "parking_entrance",
                "parking": "underground"
            },
            {
                "access": "private",
                "amenity": "parking_entrance",
                "parking": "underground"
            },
            {
                "access": "private",
                "amenity": "parking_entrance",
                "parking": "underground"
            }
        ]
    },
    "waste_basket": {
        "count": 1,
        "detail": [
            {
                "amenity": "waste_basket"
            }
        ]
    },
    "bench": {
        "count": 5,
        "detail": [
            {
                "amenity": "bench"
            },
            {
                "amenity": "bench"
            },
            {
                "amenity": "bench"
            },
            {
                "amenity": "bench"
            },
            {
                "amenity": "bench"
            }
        ]
    },
    "laundry": {
        "count": 1,
        "detail": [
            {
                "opening_hours": "Mo-Fr 10:00-20:00; Sa,Su 10:00-18:00",
                "shop": "laundry"
            }
        ]
    },
    "shoe_repair": {
        "count": 1,
        "detail": [
            {
                "opening_hours": "Mo-Fr 10:00-20:00; Sa,Su 10:00-18:00",
                "shop": "shoe_repair"
            }
        ]
    },
    "tailor": {
        "count": 1,
        "detail": [
            {
                "opening_hours": "Mo-Fr 10:00-20:00; Sa,Su 10:00-18:00",
                "shop": "tailor"
            }
        ]
    },
    "sports": {
        "count": 1,
        "detail": [
            {
                "contact:email": "leon-shop@leonsport.ru",
                "contact:phone": "+7-495-7263707",
                "contact:website": "http://leon-shop.ru/",
                "shop": "sports",
                "sport": "ice_hockey"
            }
        ]
    },
    "sports_centre": {
        "count": 1,
        "detail": [
            {
                "addr:city": "Москва",
                "addr:housenumber": "1Б",
                "addr:street": "улица Сокольнический Вал",
                "building": "sports_centre",
                "building:levels": "5",
                "leisure": "sports_centre",
                "name": "Дворец спорта \"Сокольники\"",
                "wikidata": "Q1437562",
                "wikipedia": "ru:Сокольники (дворец спорта)"
            }
        ]
    },
    "school": {
        "count": 3,
        "detail": [
            {
                "addr:housenumber": "8",
                "addr:street": "Старослободская улица",
                "building": "school"
            },
            {
                "addr:housenumber": "28 с1",
                "addr:street": "улица Сокольнический Вал",
                "building": "school"
            },
            {
                "addr:housenumber": "28",
                "addr:street": "улица Сокольнический Вал",
                "building": "school",
                "building:levels": "4"
            }
        ]
    },
    "service": {
        "count": 14,
        "detail": [
            {
                "addr:housenumber": "22 с9",
                "addr:street": "улица Лобачика",
                "building": "service",
                "building:levels": "1",
                "location": "indoor",
                "power": "substation",
                "substation": "minor_distribution"
            },
            {
                "addr:country": "RU",
                "addr:housenumber": "16 с1",
                "addr:postcode": "107113",
                "addr:region": "Москва",
                "addr:street": "Маленковская улица",
                "building": "service",
                "building:levels": "1",
                "location": "indoor",
                "man_made": "heat_exchange_station",
                "operator": "МОЭК",
                "pipeline": "substation",
                "substance": "heat",
                "substation": "distribution"
            },
            {
                "building": "service",
                "building:levels": "1",
                "height": "6",
                "man_made": "pipeline",
                "name": "1903",
                "official_name": "Центральный тепловой пункт",
                "operator": "филиал 3 предприятие 2",
                "pipeline": "substation",
                "substance": "hot_water"
            },
            {
                "addr:housenumber": "10 с1",
                "addr:street": "Маленковская улица",
                "building": "service"
            },
            {
                "power": "substation",
                "building": "service",
                "substation": "minor_distribution",
                "addr:street": "Маленковская улица",
                "building:levels": "1",
                "addr:housenumber": "12 с3"
            },
            {
                "addr:housenumber": "3 с1",
                "addr:street": "Маленковская улица",
                "building": "service"
            },
            {
                "building": "service",
                "building:levels": "1",
                "official_name": "МОЭК филиал №4 предприятие №2 Центральный тепловой пункт",
                "operator": "МОЭК",
                "power": "substation",
                "substation": "heat-exchanger"
            },
            {
                "addr:housenumber": "16 с2",
                "addr:street": "Маленковская улица",
                "building": "service",
                "building:levels": "1",
                "location": "indoor",
                "power": "substation",
                "substation": "minor_distribution"
            },
            {
                "building": "service"
            },
            {
                "building": "service"
            },
            {
                "building": "service"
            },
            {
                "building": "service",
                "building:levels": "1",
                "location": "indoor",
                "power": "substation",
                "ref": "ТП17864",
                "substation": "minor_distribution"
            },
            {
                "building": "service",
                "building:levels": "1",
                "power": "substation"
            },
            {
                "building": "service",
                "building:levels": "1",
                "location": "indoor",
                "power": "substation",
                "substation": "minor_distribution"
            }
        ]
    },
    "kindergarten": {
        "count": 1,
        "detail": [
            {
                "addr:city": "Москва",
                "addr:country": "RU",
                "addr:housenumber": "24А",
                "addr:postcode": "107113",
                "addr:street": "улица Сокольнический Вал",
                "building": "kindergarten",
                "building:levels": "2"
            }
        ]
    },
    "coworking_place": {
        "count": 1,
        "detail": [
            {
                "amenity": "coworking_place",
                "building": "retail",
                "building:levels": "1",
                "contact:instagram": "https://www.instagram.com/loftoz/",
                "name": "Loft Oz"
            }
        ]
    },
    "cafe": {
        "count": 1,
        "detail": [
            {
                "amenity": "cafe",
                "building": "yes",
                "building:levels": "1"
            }
        ]
    },
    "security_booth": {
        "count": 1,
        "detail": [
            {
                "amenity": "security_booth",
                "building": "yes",
                "building:levels": "2"
            }
        ]
    },
    "toilets": {
        "count": 1,
        "detail": [
            {
                "amenity": "toilets",
                "building": "toilets",
                "building:levels": "1"
            }
        ]
    }
}