{
    "residents": 864,
    "bank": {
        "count": 1,
        "detail": [
            {
                "amenity": "bank",
                "branch": "Среднерусский банк",
                "contact:phone": "+7 49651 93567",
                "contact:website": "https://www.sberbank.ru",
                "name": "Сбербанк",
                "opening_hours": "Tu,Th 09:00-13:00,14:00-17:00; Sa 09:00-12:00",
                "operator": "ОАО \"Сбербанк России\"",
                "ref": "9040/01511"
            }
        ]
    },
    "post_office": {
        "count": 1,
        "detail": [
            {
                "alt_name": "Ногинск 8",
                "amenity": "post_office",
                "brand": "Почта России",
                "brand:wikidata": "Q1502763",
                "brand:wikipedia": "ru:Почта России",
                "contact:phone": "+7 926 7793820",
                "contact:website": "https://www.pochta.ru",
                "name": "Ногинск 142408",
                "opening_hours": "Tu-Fr 09:00-13:00,14:00-18:00; Sa 09:00-13:00,14:00-17:00",
                "operator": "АО «Почта России»",
                "ref": "142408"
            }
        ]
    },
    "bus_stop": {
        "count": 4,
        "detail": [
            {
                "name": "АТК",
                "bench": "yes",
                "highway": "bus_stop",
                "shelter": "yes"
            },
            {
                "name": "Магазин",
                "bench": "yes",
                "highway": "bus_stop",
                "shelter": "yes"
            },
            {
                "bus": "yes",
                "highway": "bus_stop",
                "public_transport": "platform"
            },
            {
                "bus": "yes",
                "highway": "bus_stop",
                "name": "АТК",
                "public_transport": "platform",
                "shelter": "yes"
            }
        ]
    },
    "convenience": {
        "count": 4,
        "detail": [
            {
                "shop": "convenience"
            },
            {
                "shop": "convenience"
            },
            {
                "name": "Дикси",
                "shop": "convenience"
            },
            {
                "name": "Продукты",
                "shop": "convenience"
            }
        ]
    },
    "laundry": {
        "count": 1,
        "detail": [
            {
                "shop": "laundry"
            }
        ]
    },
    "doityourself": {
        "count": 1,
        "detail": [
            {
                "shop": "doityourself"
            }
        ]
    },
    "arts_centre": {
        "count": 2,
        "detail": [
            {
                "name": "ДК \"Красный электрик\"",
                "amenity": "arts_centre"
            },
            {
                "addr:housenumber": "8",
                "addr:street": "Центральная улица",
                "amenity": "arts_centre",
                "building": "yes",
                "name": "ДК \"Красный Электрик\""
            }
        ]
    },
    "kindergarten": {
        "count": 1,
        "detail": [
            {
                "name": "Детский сад №32",
                "amenity": "kindergarten"
            }
        ]
    },
    "library": {
        "count": 1,
        "detail": [
            {
                "amenity": "library"
            }
        ]
    },
    "place_of_worship": {
        "count": 1,
        "detail": [
            {
                "amenity": "place_of_worship"
            }
        ]
    },
    "school": {
        "count": 1,
        "detail": [
            {
                "addr:housenumber": "8",
                "addr:street": "Школьная улица",
                "building": "school",
                "building:levels": "1",
                "name": "Школа 15"
            }
        ]
    }
}