{
    "residents": 8151,
    "bus_stop": {
        "count": 6,
        "detail": [
            {
                "name": "Музыкальная школа",
                "bench": "yes",
                "highway": "bus_stop",
                "shelter": "yes",
                "public_transport": "platform"
            },
            {
                "name": "Музыкальная школа",
                "bench": "yes",
                "highway": "bus_stop",
                "shelter": "yes",
                "public_transport": "platform"
            },
            {
                "name": "Институт микрохирургии глаза",
                "bench": "yes",
                "covered": "yes",
                "highway": "bus_stop",
                "shelter": "yes",
                "public_transport": "platform"
            },
            {
                "name": "Институт микрохирургии глаза",
                "highway": "bus_stop",
                "public_transport": "platform"
            },
            {
                "name": "Улица Софьи Ковалевской",
                "highway": "bus_stop",
                "public_transport": "platform"
            },
            {
                "name": "Музыкальная школа",
                "bench": "yes",
                "highway": "bus_stop",
                "shelter": "yes",
                "public_transport": "platform"
            }
        ]
    },
    "newsagent": {
        "count": 2,
        "detail": [
            {
                "shop": "newsagent",
                "operator": "АиФ"
            },
            {
                "shop": "newsagent",
                "building": "kiosk",
                "inscription": "Пресса",
                "building:levels": "1"
            }
        ]
    },
    "convenience": {
        "count": 5,
        "detail": [
            {
                "shop": "convenience"
            },
            {
                "shop": "convenience"
            },
            {
                "name": "Фасоль",
                "shop": "convenience"
            },
            {
                "name": "Фасоль",
                "shop": "convenience"
            },
            {
                "shop": "convenience"
            }
        ]
    },
    "telephone": {
        "count": 1,
        "detail": [
            {
                "amenity": "telephone"
            }
        ]
    },
    "restaurant": {
        "count": 1,
        "detail": [
            {
                "name": "Вояж",
                "amenity": "restaurant",
                "operator": "ООО \"ШАНС\"",
                "wheelchair": "no",
                "contact:email": "info@voyage.msk.ru",
                "contact:phone": "+7 925 5067113",
                "opening_hours": "Mo-Su 12:00-30:00",
                "contact:website": "http://voyazh-kafe.obiz.ru",
                "internet_access": "wlan",
                "outdoor_seating": "yes",
                "internet_access:fee": "no"
            }
        ]
    },
    "confectionery": {
        "count": 1,
        "detail": [
            {
                "name": "Добрынинский",
                "shop": "confectionery"
            }
        ]
    },
    "butcher": {
        "count": 1,
        "detail": [
            {
                "name": "Рублевский",
                "shop": "butcher"
            }
        ]
    },
    "waste_disposal": {
        "count": 3,
        "detail": [
            {
                "amenity": "waste_disposal"
            },
            {
                "amenity": "waste_disposal"
            },
            {
                "amenity": "waste_disposal"
            }
        ]
    },
    "pharmacy": {
        "count": 1,
        "detail": [
            {
                "amenity": "pharmacy"
            }
        ]
    },
    "hardware": {
        "count": 1,
        "detail": [
            {
                "shop": "hardware"
            }
        ]
    },
    "bench": {
        "count": 14,
        "detail": [
            {
                "colour": "brown",
                "amenity": "bench",
                "backrest": "yes",
                "material": "wood"
            },
            {
                "colour": "brown",
                "amenity": "bench",
                "backrest": "yes",
                "material": "wood"
            },
            {
                "colour": "brown",
                "amenity": "bench",
                "backrest": "yes",
                "material": "wood"
            },
            {
                "amenity": "bench"
            },
            {
                "amenity": "bench"
            },
            {
                "seats": "4",
                "amenity": "bench",
                "backrest": "yes",
                "material": "wood"
            },
            {
                "amenity": "bench"
            },
            {
                "amenity": "bench"
            },
            {
                "seats": "4",
                "colour": "brown",
                "amenity": "bench",
                "backrest": "yes",
                "material": "wood"
            },
            {
                "seats": "3",
                "amenity": "bench",
                "backrest": "yes",
                "material": "wood"
            },
            {
                "seats": "3",
                "amenity": "bench",
                "backrest": "yes",
                "material": "wood"
            },
            {
                "seats": "3",
                "amenity": "bench",
                "backrest": "yes",
                "material": "wood"
            },
            {
                "seats": "3",
                "amenity": "bench",
                "backrest": "yes",
                "material": "wood"
            },
            {
                "seats": "3",
                "amenity": "bench",
                "backrest": "yes",
                "material": "wood"
            }
        ]
    },
    "waste_basket": {
        "count": 10,
        "detail": [
            {
                "amenity": "waste_basket"
            },
            {
                "amenity": "waste_basket"
            },
            {
                "amenity": "waste_basket"
            },
            {
                "amenity": "waste_basket"
            },
            {
                "amenity": "waste_basket"
            },
            {
                "amenity": "waste_basket"
            },
            {
                "amenity": "waste_basket"
            },
            {
                "amenity": "waste_basket"
            },
            {
                "amenity": "waste_basket"
            },
            {
                "amenity": "waste_basket"
            }
        ]
    },
    "clinic": {
        "count": 2,
        "detail": [
            {
                "name": "РС-клиника",
                "amenity": "clinic",
                "healthcare": "clinic",
                "contact:phone": "+7 495 6494943",
                "opening_hours": "Mo-Su 09:00-20:00",
                "contact:website": "http://rsklinika.ru/",
                "health_facility:type": "clinic",
                "medical_system:western": "yes"
            },
            {
                "name": "Поликлиника",
                "amenity": "clinic",
                "building": "hospital",
                "healthcare": "clinic",
                "addr:street": "Бескудниковский бульвар",
                "addr:housenumber": "59А с4",
                "health_facility:type": "clinic"
            }
        ]
    },
    "beauty": {
        "count": 1,
        "detail": [
            {
                "shop": "beauty"
            }
        ]
    },
    "cafe": {
        "count": 1,
        "detail": [
            {
                "amenity": "cafe"
            }
        ]
    },
    "bank": {
        "count": 1,
        "detail": [
            {
                "bic": "POSBRUMM",
                "name": "Почта Банк",
                "brand": "Почта Банк",
                "amenity": "bank",
                "name:en": "Post Bank",
                "name:ru": "Почта Банк",
                "contact:ok": "https://ok.ru/pochtabank",
                "contact:vk": "https://vk.com/pochtabank",
                "contact:email": "welcome@pochtabank.ru",
                "contact:phone": "+7 800 5500770",
                "brand:wikidata": "Q24930461",
                "brand:wikipedia": "ru:Почта Банк",
                "contact:twitter": "https://twitter.com/pochtabank",
                "contact:website": "https://www.pochtabank.ru",
                "contact:youtube": "https://www.youtube.com/channel/UCs2NW4p10fwTar-zqw7mUIw",
                "contact:facebook": "https://www.facebook.com/pochtabank",
                "contact:instagram": "https://www.instagram.com/pochtabank"
            }
        ]
    },
    "florist": {
        "count": 1,
        "detail": [
            {
                "shop": "florist"
            }
        ]
    },
    "ice_cream": {
        "count": 4,
        "detail": [
            {
                "amenity": "ice_cream",
                "building": "kiosk",
                "building:levels": "1",
                "inscription": "Мороженое"
            },
            {
                "amenity": "ice_cream",
                "building": "kiosk",
                "building:levels": "1",
                "inscription": "Мороженое"
            },
            {
                "amenity": "ice_cream",
                "building": "kiosk",
                "building:levels": "1",
                "inscription": "Мороженое"
            },
            {
                "amenity": "ice_cream",
                "building": "kiosk",
                "building:levels": "1"
            }
        ]
    },
    "bicycle_rental": {
        "count": 1,
        "detail": [
            {
                "amenity": "bicycle_rental",
                "capacity": "9",
                "contact:email": "info@velobike.ru",
                "contact:phone": "+7 495 9664669",
                "contact:website": "https://velobike.ru/",
                "fee": "yes",
                "network": "Велобайк",
                "opening_hours": "24/7",
                "operator": "АО «СитиБайк»",
                "payment:cash": "no",
                "payment:mastercard": "yes",
                "payment:troika": "no",
                "payment:visa": "yes",
                "ref": "695",
                "seasonal": "yes"
            }
        ]
    },
    "marketplace": {
        "count": 1,
        "detail": [
            {
                "amenity": "marketplace",
                "building": "retail",
                "name": "Ярмарка"
            }
        ]
    },
    "pet": {
        "count": 1,
        "detail": [
            {
                "shop": "pet"
            }
        ]
    },
    "school": {
        "count": 3,
        "detail": [
            {
                "building": "school",
                "addr:city": "Москва",
                "addr:street": "Бескудниковский бульвар",
                "addr:country": "RU",
                "addr:postcode": "125599",
                "building:levels": "4",
                "addr:housenumber": "50Б"
            },
            {
                "building": "school",
                "addr:city": "Москва",
                "addr:street": "Бескудниковский бульвар",
                "addr:country": "RU",
                "addr:housenumber": "50А"
            },
            {
                "building": "school",
                "addr:street": "Бескудниковский бульвар",
                "addr:housenumber": "53"
            }
        ]
    },
    "kindergarten": {
        "count": 2,
        "detail": [
            {
                "building": "kindergarten",
                "addr:city": "Москва",
                "addr:street": "Дмитровское шоссе",
                "addr:country": "RU",
                "addr:postcode": "125599",
                "addr:housenumber": "101А"
            },
            {
                "building": "kindergarten",
                "addr:city": "Москва",
                "addr:street": "Бескудниковский бульвар",
                "description": "с ясельными группами",
                "addr:country": "RU",
                "addr:postcode": "115191",
                "building:levels": "3",
                "addr:housenumber": "48А"
            }
        ]
    },
    "commercial": {
        "count": 1,
        "detail": [
            {
                "addr:housenumber": "10 с2",
                "addr:street": "Коровинское шоссе",
                "building": "commercial",
                "building:levels": "8",
                "name": "БЦ Ирис"
            }
        ]
    },
    "service": {
        "count": 2,
        "detail": [
            {
                "power": "substation",
                "building": "service",
                "substation": "minor_distribution",
                "addr:street": "Бескудниковский бульвар",
                "building:levels": "1",
                "addr:housenumber": "51 с1"
            },
            {
                "building": "service",
                "addr:street": "Бескудниковский бульвар",
                "addr:housenumber": "58 с2"
            }
        ]
    }
}