{
    "residents": 7908,
    "fuel": {
        "count": 1,
        "detail": [
            {
                "ref": "502",
                "name": "Лукойл",
                "brand": "Лукойл",
                "amenity": "fuel",
                "fuel:lpg": "no",
                "operator": "ООО \"ЛУКОЙЛ-Центрнефтепродукт\"",
                "fuel:diesel": "yes",
                "opening_hours": "24/7",
                "payment:cards": "yes",
                "fuel:octane_92": "yes",
                "fuel:octane_95": "yes",
                "fuel:octane_98": "no",
                "contact:website": "http://www.lukoil.ru"
            }
        ]
    },
    "bus_stop": {
        "count": 6,
        "detail": [
            {
                "bus": "yes",
                "name": "Яхромская улица",
                "public_transport": "stop_position"
            },
            {
                "bin": "yes",
                "name": "Икшинская улица",
                "bench": "yes",
                "highway": "bus_stop",
                "shelter": "yes",
                "public_transport": "platform"
            },
            {
                "bin": "yes",
                "name": "Икшинская улица",
                "bench": "yes",
                "highway": "bus_stop",
                "shelter": "yes",
                "public_transport": "platform"
            },
            {
                "bin": "yes",
                "name": "Яхромская улица",
                "bench": "yes",
                "highway": "bus_stop",
                "shelter": "yes",
                "public_transport": "platform"
            },
            {
                "bus": "yes",
                "name": "Икшинская улица",
                "public_transport": "stop_position"
            },
            {
                "bus": "yes",
                "name": "Икшинская улица",
                "public_transport": "stop_position"
            }
        ]
    },
    "supermarket": {
        "count": 3,
        "detail": [
            {
                "brand": "Азбука Вкуса",
                "brand:wikidata": "Q4058209",
                "brand:wikipedia": "ru:Азбука вкуса",
                "contact:email": "welcome@azbukavkusa.ru",
                "contact:facebook": "https://www.facebook.com/AzbukaVkusa",
                "contact:instagram": "https://www.instagram.com/azbukavkusa",
                "contact:phone": "+7 495 5043478;+7 800 7003487",
                "contact:twitter": "https://twitter.com/azbukavkusa",
                "contact:vk": "https://vk.com/azbukavkusa",
                "contact:website": "https://av.ru/shops/dmitrovskoe_shosse_108",
                "contact:youtube": "https://www.youtube.com/user/azbukav",
                "name": "Азбука Вкуса",
                "name:ru": "Азбука Вкуса",
                "opening_hours": "24/7",
                "operator": "ООО «Городской супермаркет»",
                "ref:av": "198453",
                "shop": "supermarket"
            },
            {
                "brand": "Billa",
                "brand:wikidata": "Q537781",
                "brand:wikipedia": "ru:Billa",
                "contact:email": "mail@billa.ru",
                "contact:facebook": "https://www.facebook.com/billa.ru",
                "contact:fax": "+7 495 7857501",
                "contact:instagram": "https://www.instagram.com/billarussia",
                "contact:ok": "https://ok.ru/group/53124549640396",
                "contact:vk": "https://vk.com/billarussia",
                "contact:website": "http://www.billa.ru",
                "contact:youtube": "https://www.youtube.com/channel/UCSx84zsrpnikJX2PDnOYbMA",
                "name": "Billa",
                "name:en": "Billa",
                "name:ru": "Билла",
                "opening_hours": "Mo-Su 07:00-23:00",
                "operator": "ООО \"Билла\"",
                "shop": "supermarket"
            },
            {
                "addr:city": "Москва",
                "addr:housenumber": "3",
                "addr:postcode": "127411",
                "addr:street": "Яхромская улица",
                "alt_name": "Пятерочка",
                "brand": "Пятёрочка",
                "brand:wikidata": "Q1768969",
                "brand:wikipedia": "ru:Пятёрочка",
                "contact:email": "vopros@5ka.ru",
                "contact:facebook": "https://www.facebook.com/pyaterochka",
                "contact:instagram": "https://www.instagram.com/pyaterochka_official",
                "contact:ok": "https://ok.ru/pyaterochka",
                "contact:phone": "+7 800 5555505",
                "contact:vk": "https://vk.com/club19098821",
                "contact:website": "https://5ka.ru",
                "name": "Пятёрочка",
                "name:ru": "Пятёрочка",
                "shop": "supermarket"
            }
        ]
    },
    "pharmacy": {
        "count": 3,
        "detail": [
            {
                "name": "Аптеки столицы",
                "amenity": "pharmacy"
            },
            {
                "name": "Доктор Столетов",
                "amenity": "pharmacy",
                "contact:phone": "+7 495 9883338-1621",
                "opening_hours": "24/7",
                "contact:website": "http://www.stoletov.ru"
            },
            {
                "amenity": "pharmacy",
                "brand": "Столички",
                "contact:facebook": "https://www.facebook.com/stolichki",
                "contact:instagram": "https://www.instagram.com/stolichki",
                "contact:phone": "+7 800 5551115",
                "contact:vk": "https://vk.com/stolichki_official",
                "contact:website": "https://stolichki.ru",
                "healthcare": "pharmacy",
                "name": "Столички",
                "name:ru": "Столички",
                "operator": "ООО «НЕО-ФАРМ»",
                "wheelchair": "yes"
            }
        ]
    },
    "restaurant": {
        "count": 2,
        "detail": [
            {
                "amenity": "restaurant",
                "contact:email": "dmitrovka2@tanuki.ru",
                "contact:facebook": "https://www.facebook.com/tanuki.official/",
                "contact:phone": "+7 499 6492223",
                "contact:vk": "https://vk.com/tanuki.official",
                "contact:website": "https://tanuki.ru/",
                "cuisine": "japanese",
                "name": "Тануки",
                "opening_hours": "Mo-Fr 11:30-24:00;Sa,Su 00:00-02:00,11:30-24:00",
                "operator": "ВЕРТА"
            },
            {
                "amenity": "restaurant"
            }
        ]
    },
    "hardware": {
        "count": 2,
        "detail": [
            {
                "name": "Tesser",
                "shop": "hardware",
                "contact:phone": "+7 495 4119977",
                "opening_hours": "Mo-Sa 09:00-21:00; Su 09:00-19:00",
                "contact:website": "https://tesser.ru"
            },
            {
                "shop": "hardware",
                "inscription": "Хозтовары"
            }
        ]
    },
    "bench": {
        "count": 4,
        "detail": [
            {
                "amenity": "bench"
            },
            {
                "amenity": "bench"
            },
            {
                "amenity": "bench",
                "backrest": "yes"
            },
            {
                "amenity": "bench",
                "backrest": "yes"
            }
        ]
    },
    "waste_basket": {
        "count": 2,
        "detail": [
            {
                "amenity": "waste_basket"
            },
            {
                "amenity": "waste_basket"
            }
        ]
    },
    "convenience": {
        "count": 2,
        "detail": [
            {
                "shop": "convenience"
            },
            {
                "shop": "convenience",
                "inscription": "Продукты"
            }
        ]
    },
    "florist": {
        "count": 3,
        "detail": [
            {
                "shop": "florist"
            },
            {
                "shop": "florist"
            },
            {
                "name": "Вальс цветов",
                "shop": "florist",
                "opening_hours": "Mo-Su 08:00-21:00"
            }
        ]
    },
    "cafe": {
        "count": 1,
        "detail": [
            {
                "name": "Рожица",
                "amenity": "cafe",
                "contact:phone": "+7 916 7347310",
                "opening_hours": "Mo-Su 10:00-21:00",
                "contact:facebook": "https://www.facebook.com/rozhitsa.pekarnya"
            }
        ]
    },
    "police": {
        "count": 1,
        "detail": [
            {
                "name": "ОМВД по Дмитровскому району",
                "amenity": "police"
            }
        ]
    },
    "alcohol": {
        "count": 2,
        "detail": [
            {
                "brand": "Красное&Белое",
                "brand:wikidata": "Q24933790",
                "brand:wikipedia": "ru:Красное & Белое",
                "contact:facebook": "https://www.facebook.com/krasnoe.beloe",
                "contact:instagram": "https://www.instagram.com/krasnoebeloe",
                "contact:ok": "https://ok.ru/krasnoebeloe",
                "contact:telegram": "+7 922 7033000",
                "contact:viber": "+7 922 7033000",
                "contact:vk": "https://vk.com/krasnoebeloe",
                "contact:website": "https://krasnoeibeloe.ru",
                "contact:whatsapp": "+7 922 7033000",
                "name": "Красное&Белое",
                "name:ru": "Красное&Белое",
                "opening_hours": "Mo-Su 09:00-22:05",
                "shop": "alcohol"
            },
            {
                "name": "Бристоль",
                "shop": "alcohol",
                "wheelchair": "yes"
            }
        ]
    },
    "veterinary": {
        "count": 1,
        "detail": [
            {
                "amenity": "veterinary",
                "contact:email": "kotidog.vet@gmail.com",
                "contact:instagram": "https://instagram.com/kot_i_dog_vet",
                "contact:phone": "+7 934 9990555",
                "contact:vk": "https://vk.com/id511999760",
                "contact:website": "https://kot-i-dog.ru/",
                "name": "Кот и доГ",
                "opening_hours": "Mo-Su 10:00-22:00",
                "operator": "Кот и доГ"
            }
        ]
    },
    "kindergarten": {
        "count": 1,
        "detail": [
            {
                "building": "kindergarten",
                "addr:city": "Москва",
                "roof:shape": "hipped",
                "addr:street": "Учинская улица",
                "addr:country": "RU",
                "roof:material": "metal",
                "building:levels": "2",
                "addr:housenumber": "4"
            }
        ]
    },
    "school": {
        "count": 2,
        "detail": [
            {
                "building": "school",
                "addr:city": "Москва",
                "addr:street": "Икшинская улица",
                "addr:country": "RU",
                "building:levels": "5",
                "addr:housenumber": "12"
            },
            {
                "building": "school",
                "addr:city": "Москва",
                "addr:street": "Учинская улица",
                "addr:country": "RU",
                "addr:postcode": "127411",
                "building:levels": "2",
                "addr:housenumber": "10"
            }
        ]
    },
    "service": {
        "count": 5,
        "detail": [
            {
                "building": "service",
                "pipeline": "substation",
                "substance": "gas",
                "substation": "distribution",
                "addr:street": "Икшинская улица",
                "building:levels": "1",
                "addr:housenumber": "8 с1"
            },
            {
                "power": "substation",
                "height": "5",
                "building": "service",
                "substation": "minor_distribution",
                "addr:street": "Дмитровское шоссе",
                "building:levels": "1",
                "addr:housenumber": "111А с1"
            },
            {
                "building": "service"
            },
            {
                "building": "service",
                "addr:street": "Яхромская улица",
                "addr:housenumber": "3 к2 с2"
            },
            {
                "building": "service",
                "addr:street": "Яхромская улица",
                "addr:housenumber": "3 с1"
            }
        ]
    },
    "commercial": {
        "count": 1,
        "detail": [
            {
                "addr:housenumber": "100 с2",
                "addr:street": "Дмитровское шоссе",
                "building": "commercial",
                "building:levels": "3",
                "name": "Норд Хаус"
            }
        ]
    }
}