{
    "residents": 7662,
    "bus_stop": {
        "count": 5,
        "detail": [
            {
                "bus": "yes",
                "name": "Кулаков переулок",
                "highway": "bus_stop",
                "shelter": "no",
                "public_transport": "platform"
            },
            {
                "bin": "yes",
                "bus": "yes",
                "name": "Новоалексеевская улица",
                "bench": "yes",
                "highway": "bus_stop",
                "shelter": "yes",
                "operator": "Мосгортранс",
                "trolleybus": "yes",
                "public_transport": "platform"
            },
            {
                "bench": "yes",
                "bus": "yes",
                "check_date:shelter": "2021-03-11",
                "highway": "bus_stop",
                "name": "Графский переулок",
                "operator": "Мосгортранс",
                "public_transport": "platform",
                "shelter": "yes",
                "tactile_paving": "no"
            },
            {
                "bus": "yes",
                "name": "Графский переулок",
                "public_transport": "stop_position"
            },
            {
                "bus": "yes",
                "name": "Кулаков переулок",
                "public_transport": "stop_position"
            }
        ]
    },
    "clinic": {
        "count": 1,
        "detail": [
            {
                "name": "Семейный медицинский центр",
                "amenity": "clinic",
                "opening_hours": "Mo-Sa 09:00-21:00; Su 09:00-18:00",
                "contact:website": "imma.ru"
            }
        ]
    },
    "parking": {
        "count": 4,
        "detail": [
            {
                "amenity": "parking",
                "parking": "surface"
            },
            {
                "amenity": "parking"
            },
            {
                "amenity": "parking",
                "parking": "surface"
            },
            {
                "amenity": "parking",
                "layer": "-1",
                "parking": "underground"
            }
        ]
    },
    "cafe": {
        "count": 4,
        "detail": [
            {
                "name": "Кофейня",
                "amenity": "cafe"
            },
            {
                "amenity": "cafe",
                "description": "Столовая колледжа",
                "opening_hours": "Mo-Fr 12:00-15:00"
            },
            {
                "name": "Маренго",
                "amenity": "cafe"
            },
            {
                "amenity": "cafe",
                "name": "Столовая №1",
                "opening_hours": "Mo-Fr 8:30-19:00, Sa 10:00-16:00"
            }
        ]
    },
    "convenience": {
        "count": 4,
        "detail": [
            {
                "shop": "convenience"
            },
            {
                "shop": "convenience"
            },
            {
                "shop": "convenience"
            },
            {
                "inscription": "Продукты",
                "opening_hours": "Mo-Fr 07:00-22:00; Sa-Su 09:00-22:00",
                "operator": "ООО \"Карамель\"",
                "shop": "convenience"
            }
        ]
    },
    "bank": {
        "count": 1,
        "detail": [
            {
                "name": "Газпромбанк",
                "amenity": "bank"
            }
        ]
    },
    "hairdresser": {
        "count": 1,
        "detail": [
            {
                "shop": "hairdresser"
            }
        ]
    },
    "fast_food": {
        "count": 1,
        "detail": [
            {
                "amenity": "fast_food",
                "cuisine": "russian",
                "description": "Столовая",
                "fast_food": "cafeteria",
                "name": "100ловая"
            }
        ]
    },
    "car_wash": {
        "count": 1,
        "detail": [
            {
                "amenity": "car_wash"
            }
        ]
    },
    "car_repair": {
        "count": 1,
        "detail": [
            {
                "shop": "car_repair"
            }
        ]
    },
    "pub": {
        "count": 1,
        "detail": [
            {
                "name": "Beerлога",
                "amenity": "pub"
            }
        ]
    },
    "yes": {
        "count": 1,
        "detail": [
            {
                "name": "TCC",
                "shop": "yes"
            }
        ]
    },
    "pharmacy": {
        "count": 1,
        "detail": [
            {
                "name": "Неофарм",
                "amenity": "pharmacy"
            }
        ]
    },
    "kitchen": {
        "count": 1,
        "detail": [
            {
                "name": "Сити",
                "shop": "kitchen"
            }
        ]
    },
    "vending_machine": {
        "count": 3,
        "detail": [
            {
                "amenity": "vending_machine",
                "contact:phone": "+7 495 5395454",
                "contact:website": "http://parking.mos.ru/",
                "opening_hours": "24/7",
                "operator": "ГКУ «Администратор Московского парковочного пространства»",
                "payment:cash": "no",
                "payment:credit_cards": "yes",
                "payment:debit_cards": "yes",
                "ref": "3236",
                "ref:mos_parking": "5005021",
                "source": "dit.mos.ru",
                "vending": "parking_tickets",
                "zone:parking": "4023"
            },
            {
                "amenity": "vending_machine",
                "contact:phone": "+7 495 5395454",
                "contact:website": "http://parking.mos.ru/",
                "opening_hours": "24/7",
                "operator": "ГКУ «Администратор Московского парковочного пространства»",
                "payment:cash": "no",
                "payment:credit_cards": "yes",
                "payment:debit_cards": "yes",
                "ref": "3234",
                "ref:mos_parking": "5005019",
                "source": "dit.mos.ru",
                "vending": "parking_tickets",
                "zone:parking": "4023"
            },
            {
                "amenity": "vending_machine",
                "contact:phone": "+7 495 5395454",
                "contact:website": "http://parking.mos.ru/",
                "opening_hours": "24/7",
                "operator": "ГКУ «Администратор Московского парковочного пространства»",
                "payment:cash": "no",
                "payment:credit_cards": "yes",
                "payment:debit_cards": "yes",
                "ref": "3199",
                "ref:mos_parking": "5004972",
                "source": "dit.mos.ru",
                "vending": "parking_tickets",
                "zone:parking": "4023"
            }
        ]
    },
    "bicycle_rental": {
        "count": 1,
        "detail": [
            {
                "amenity": "bicycle_rental",
                "capacity": "15",
                "capacity:electric": "0",
                "contact:email": "info@velobike.ru",
                "contact:phone": "+7 495 9664669",
                "contact:website": "https://velobike.ru/",
                "fee": "yes",
                "network": "Велобайк",
                "opening_hours": "24/7",
                "operator": "АО «СитиБайк»",
                "payment:cash": "no",
                "payment:mastercard": "yes",
                "payment:troika": "no",
                "payment:visa": "yes",
                "ref": "437",
                "seasonal": "yes"
            }
        ]
    },
    "clothes": {
        "count": 1,
        "detail": [
            {
                "description": "Бутик женской одежды",
                "email": "info@victoriakuksina.ru",
                "name": "Victoria Kuksina",
                "phone": "+7 925 4460925",
                "shop": "clothes",
                "website": "https://www.victoriakuksina.ru/"
            }
        ]
    },
    "stationery": {
        "count": 1,
        "detail": [
            {
                "contact:website": "https://bumbutik.ru/",
                "name": "Бум бутик",
                "opening_hours": "Mo-Fr 10:00-18:00",
                "shop": "stationery"
            }
        ]
    },
    "clock": {
        "count": 1,
        "detail": [
            {
                "amenity": "clock"
            }
        ]
    },
    "playground": {
        "count": 1,
        "detail": [
            {
                "leisure": "playground"
            }
        ]
    },
    "doctors": {
        "count": 1,
        "detail": [
            {
                "amenity": "doctors",
                "contact:phone": "+7 495 7804147",
                "healthcare": "doctor",
                "name": "Протезно-ортопедическое предприятие \"Прометр\""
            }
        ]
    },
    "shelter": {
        "count": 1,
        "detail": [
            {
                "amenity": "shelter",
                "shelter_type": "picnic_shelter"
            }
        ]
    },
    "dentist": {
        "count": 1,
        "detail": [
            {
                "amenity": "dentist",
                "contact:email": "hello@astra-stoma.ru",
                "contact:facebook": "https://facebook.com/astra.stoma",
                "contact:instagram": "https://instagram.com/astra_stomatology",
                "contact:phone": "+7 499 6771478;+7 916 2462504",
                "contact:website": "https://astra-stoma.ru/",
                "name": "Астра",
                "opening_hours": "Mo-Fr 10:00-20:00;Sa 10:00-15:00",
                "operator": "Астра"
            }
        ]
    },
    "school": {
        "count": 3,
        "detail": [
            {
                "name": "Детская школа искусств",
                "amenity": "training",
                "building": "school",
                "training": "art",
                "addr:city": "Москва",
                "education": "facultative_school",
                "addr:street": "Кулаков переулок",
                "addr:postcode": "129626",
                "building:levels": "2",
                "addr:housenumber": "7",
                "education_form:parttime": "yes",
                "education_level:primary": "yes",
                "education_profile:visual_art": "yes",
                "education_system:ru_standard": "yes"
            },
            {
                "building": "school",
                "addr:city": "Москва",
                "addr:street": "Кулаков переулок",
                "addr:postcode": "129626",
                "building:levels": "3",
                "addr:housenumber": "7 к1"
            },
            {
                "building": "school",
                "roof:shape": "hipped",
                "addr:street": "3-я Мытищинская улица",
                "roof:levels": "0",
                "building:levels": "5",
                "addr:housenumber": "12"
            }
        ]
    },
    "commercial": {
        "count": 4,
        "detail": [
            {
                "addr:housenumber": "21",
                "addr:street": "1-я Мытищинская улица",
                "building": "commercial",
                "building:levels": "2"
            },
            {
                "building": "commercial",
                "addr:region": "Москва",
                "addr:street": "3-я Мытищинская улица",
                "building:levels": "4",
                "addr:housenumber": "16 с3"
            },
            {
                "addr:housenumber": "25",
                "addr:street": "1-я Мытищинская улица",
                "building": "commercial",
                "building:levels": "4",
                "design:ref": "Мг-1"
            },
            {
                "addr:housenumber": "9 с10",
                "addr:street": "Графский переулок",
                "amenity": "cafe",
                "building": "commercial",
                "building:levels": "2",
                "name": "Графский дворик",
                "opening_hours": "Mo-Fr 10:00-17:00",
                "wheelchair": "no"
            }
        ]
    },
    "service": {
        "count": 2,
        "detail": [
            {
                "building": "service",
                "power": "substation"
            },
            {
                "building": "service",
                "pumping_station": "sewage"
            }
        ]
    }
}