{
    "supermarket": {
        "count": 2,
        "detail": [
            {
                "brand": "Магнит",
                "brand:wikidata": "Q940518",
                "brand:wikipedia": "ru:Магнит (сеть магазинов)",
                "contact:email": "info@magnit.ru",
                "contact:facebook": "https://www.facebook.com/magnitretail",
                "contact:ok": "https://ok.ru/magnitinfo",
                "contact:phone": "+7 800 2009002",
                "contact:twitter": "https://twitter.com/magnitretail",
                "contact:vk": "https://vk.com/magnitretail",
                "contact:website": "https://magnit.ru",
                "contact:youtube": "https://www.youtube.com/channel/UCoWX1GhHlSJGwKpCEJitsoA",
                "name": "Магнит",
                "name:en": "Magnit",
                "name:ru": "Магнит",
                "operator": "АО \"Тандер\"",
                "shop": "supermarket"
            },
            {
                "brand": "Дикси",
                "brand:wikidata": "Q4161561",
                "brand:wikipedia": "ru:Дикси (сеть магазинов)",
                "contact:phone": "+7 800 3330201",
                "contact:vk": "https://vk.com/dixyclub",
                "contact:website": "https://dixy.ru",
                "contact:youtube": "https://www.youtube.com/user/DixyChannel",
                "name": "Дикси",
                "name:ru": "Дикси",
                "shop": "supermarket"
            }
        ]
    },
    "bus_stop": {
        "count": 1,
        "detail": [
            {
                "bus": "yes",
                "bench": "yes",
                "highway": "platform",
                "shelter": "yes",
                "public_transport": "platform"
            }
        ]
    },
    "residents": 1536,
    "pharmacy": {
        "count": 1,
        "detail": [
            {
                "amenity": "pharmacy"
            }
        ]
    },
    "clothes": {
        "count": 1,
        "detail": [
            {
                "name": "Одежда и обувь",
                "shop": "clothes"
            }
        ]
    },
    "school": {
        "count": 1,
        "detail": [
            {
                "name": "Школа №24",
                "amenity": "school",
                "building": "yes",
                "addr:street": "улица Лобашова",
                "building:levels": "3",
                "addr:housenumber": "137"
            }
        ]
    },
    "kindergarten": {
        "count": 2,
        "detail": [
            {
                "ref": "9",
                "name": "Жемчужинка",
                "amenity": "kindergarten",
                "building": "yes",
                "addr:city": "Касли",
                "addr:street": "улица Лобашова",
                "addr:postcode": "456835",
                "addr:housenumber": "151"
            },
            {
                "ref": "11",
                "name": "Родничок",
                "amenity": "kindergarten",
                "building": "yes",
                "addr:city": "Касли",
                "addr:street": "улица Лобашова",
                "addr:postcode": "456835",
                "building:levels": "2",
                "addr:housenumber": "135"
            }
        ]
    }
}