{
    "residents": 1843,
    "bus_stop": {
        "count": 3,
        "detail": [
            {
                "name": "МОГЭС",
                "highway": "bus_stop",
                "shelter": "yes",
                "public_transport": "platform"
            },
            {
                "name": "МОГЭС",
                "highway": "bus_stop",
                "shelter": "yes",
                "public_transport": "platform"
            },
            {
                "name": "МОГЭС",
                "highway": "bus_stop",
                "shelter": "yes",
                "public_transport": "platform"
            }
        ]
    },
    "hospital": {
        "count": 2,
        "detail": [
            {
                "amenity": "hospital"
            },
            {
                "amenity": "hospital"
            }
        ]
    },
    "library": {
        "count": 1,
        "detail": [
            {
                "name": "Центральная городская библиотека",
                "amenity": "library"
            }
        ]
    },
    "convenience": {
        "count": 1,
        "detail": [
            {
                "shop": "convenience"
            }
        ]
    },
    "waste_disposal": {
        "count": 2,
        "detail": [
            {
                "amenity": "waste_disposal"
            },
            {
                "amenity": "waste_disposal"
            }
        ]
    },
    "kindergarten": {
        "count": 3,
        "detail": [
            {
                "amenity": "kindergarten"
            },
            {
                "name": "Детский сад № 20",
                "building": "kindergarten",
                "building:levels": "1",
                "addr:housenumber": "13"
            },
            {
                "name": "Детский сад № 19",
                "building": "kindergarten"
            }
        ]
    },
    "arts_centre": {
        "count": 1,
        "detail": [
            {
                "name": "Клуб \"МОГЭС\"",
                "amenity": "arts_centre",
                "building": "yes",
                "building:levels": "2",
                "addr:housenumber": "24"
            }
        ]
    },
    "sports_centre": {
        "count": 1,
        "detail": [
            {
                "name": "Школа дзюдо",
                "leisure": "sports_centre",
                "building": "yes",
                "building:levels": "2",
                "addr:housenumber": "149"
            }
        ]
    },
    "service": {
        "count": 1,
        "detail": [
            {
                "power": "substation",
                "building": "service",
                "building:levels": "1"
            }
        ]
    },
    "commercial": {
        "count": 2,
        "detail": [
            {
                "building": "commercial",
                "addr:city": "Ногинск",
                "addr:street": "улица Радченко",
                "addr:postcode": "142407",
                "building:levels": "2",
                "addr:housenumber": "13"
            },
            {
                "smoking": "isolated",
                "building": "commercial",
                "addr:city": "Ногинск",
                "addr:street": "улица Радченко",
                "addr:postcode": "142407",
                "building:levels": "7",
                "addr:housenumber": "13"
            }
        ]
    }
}