{
    "residents": 4980,
    "convenience": {
        "count": 2,
        "detail": [
            {
                "brand": "Магнолия",
                "contact:website": "http://www.mgnl.ru",
                "name": "Магнолия",
                "name:en": "Magnoliya",
                "name:ru": "Магнолия",
                "opening_hours": "24/7",
                "shop": "convenience"
            },
            {
                "name": "Исток-М",
                "shop": "convenience"
            }
        ]
    },
    "supermarket": {
        "count": 3,
        "detail": [
            {
                "name": "Билла",
                "shop": "supermarket",
                "int_name": "Billa",
                "operator": "ООО \"Билла Россия\"",
                "opening_hours": "Mo-Su 08:00-23:00"
            },
            {
                "name": "Пятёрочка",
                "shop": "supermarket",
                "brand": "Пятёрочка",
                "name:en": "Pyatyorochka",
                "name:ru": "Пятёрочка",
                "alt_name": "Пятерочка",
                "wheelchair": "yes",
                "brand:wikidata": "Q1768969",
                "brand:wikipedia": "ru:Пятёрочка",
                "contact:website": "https://5ka.ru",
                "contact:facebook": "https://www.facebook.com/pyaterochka"
            },
            {
                "name": "Дикси",
                "shop": "supermarket",
                "brand": "Дикси",
                "name:en": "Dixy",
                "name:ru": "Дикси",
                "contact:phone": "+7 800 3330201",
                "brand:wikidata": "Q4161561",
                "brand:wikipedia": "ru:Дикси (сеть магазинов)",
                "contact:website": "http://dixy.ru"
            }
        ]
    },
    "pharmacy": {
        "count": 2,
        "detail": [
            {
                "amenity": "pharmacy",
                "name": "Trika",
                "name:ru": "Трика",
                "opening_hours": "24/7",
                "website": "https://www.aptekatrika.ru/"
            },
            {
                "amenity": "pharmacy",
                "brand": "Горздрав",
                "contact:email": "info@gor-zdrav.ru",
                "contact:facebook": "https://www.facebook.com/AptekaGorzdrav",
                "contact:instagram": "https://www.instagram.com/gorzdrav",
                "contact:ok": "https://ok.ru/group/57486617870381",
                "contact:vk": "https://vk.com/gorzdrav",
                "contact:website": "https://gorzdrav.org",
                "name": "Горздрав",
                "name:ru": "Горздрав",
                "wheelchair": "yes"
            }
        ]
    },
    "bakery": {
        "count": 1,
        "detail": [
            {
                "name": "Dobryninskiy I Partnery",
                "name:ru": "Добрынинский и Партнеры",
                "opening_hours": "24/7",
                "shop": "bakery"
            }
        ]
    },
    "bus_stop": {
        "count": 7,
        "detail": [
            {
                "bin": "yes",
                "bus": "yes",
                "name": "Гимназия",
                "bench": "yes",
                "highway": "bus_stop",
                "shelter": "yes",
                "operator": "Мосгортранс",
                "share_taxi": "yes",
                "public_transport": "platform"
            },
            {
                "bin": "yes",
                "bus": "yes",
                "name": "Гимназия",
                "bench": "no",
                "highway": "bus_stop",
                "shelter": "no",
                "share_taxi": "yes",
                "public_transport": "platform"
            },
            {
                "bus": "yes",
                "highway": "bus_stop",
                "name": "Улица Павла Корчагина, 5",
                "public_transport": "platform"
            },
            {
                "bus": "yes",
                "name": "Гимназия",
                "share_taxi": "yes",
                "public_transport": "stop_position"
            },
            {
                "bus": "yes",
                "name": "Гимназия",
                "share_taxi": "yes",
                "public_transport": "stop_position"
            },
            {
                "bus": "yes",
                "name": "Улица Павла Корчагина, 5",
                "share_taxi": "yes",
                "public_transport": "stop_position"
            },
            {
                "bin": "yes",
                "bus": "yes",
                "name": "Улица Павла Корчагина, 8 — Платформа Маленковская",
                "bench": "no",
                "highway": "bus_stop",
                "shelter": "no",
                "public_transport": "platform"
            }
        ]
    },
    "chemist": {
        "count": 1,
        "detail": [
            {
                "name": "Ситимаркет",
                "shop": "chemist"
            }
        ]
    },
    "vending_machine": {
        "count": 5,
        "detail": [
            {
                "amenity": "vending_machine",
                "vending": "public_transport_tickets",
                "operator": "Центральная пригородная пассажирская компания",
                "payment:coins": "yes",
                "payment:notes": "yes"
            },
            {
                "amenity": "vending_machine",
                "vending": "public_transport_tickets",
                "operator": "Центральная пригородная пассажирская компания",
                "payment:coins": "yes",
                "payment:notes": "yes"
            },
            {
                "amenity": "vending_machine",
                "vending": "public_transport_tickets",
                "operator": "Центральная пригородная пассажирская компания",
                "payment:coins": "yes",
                "payment:notes": "yes"
            },
            {
                "amenity": "vending_machine",
                "vending": "public_transport_tickets",
                "operator": "Центральная пригородная пассажирская компания",
                "description": "билеты на выход от Ярославского вокзала",
                "payment:coins": "yes",
                "payment:notes": "yes"
            },
            {
                "amenity": "vending_machine",
                "vending": "public_transport_tickets",
                "operator": "Центральная пригородная пассажирская компания",
                "payment:coins": "yes",
                "payment:notes": "yes"
            }
        ]
    },
    "playground": {
        "count": 2,
        "detail": [
            {
                "leisure": "playground"
            },
            {
                "leisure": "playground"
            }
        ]
    },
    "ticket": {
        "count": 1,
        "detail": [
            {
                "shop": "ticket",
                "operator": "Центральная пригородная пассажирская компания",
                "tickets:suburban_train": "yes"
            }
        ]
    },
    "bank": {
        "count": 1,
        "detail": [
            {
                "amenity": "bank",
                "branch": "Московский банк",
                "contact:facebook": "https://www.facebook.com/sberbank",
                "contact:instagram": "https://www.instagram.com/sberbank/",
                "contact:ok": "https://ok.ru/sberbank",
                "contact:phone": "+7 800 5555550",
                "contact:twitter": "https://twitter.com/sberbank/",
                "contact:vk": "https://vk.com/sberbank",
                "contact:website": "https://www.sberbank.ru",
                "contact:youtube": "https://www.youtube.com/sberbank",
                "name": "Сбербанк",
                "name:en": "Sberbank",
                "name:ru": "Сбербанк",
                "opening_hours": "Mo-Fr 08:30-19:30; Sa 09:00-17:00",
                "operator": "ПАО Сбербанк",
                "operator:wikidata": "Q205012",
                "operator:wikipedia": "ru:Сбербанк России",
                "ref": "9038/0420",
                "wheelchair": "yes"
            }
        ]
    },
    "dry_cleaning": {
        "count": 1,
        "detail": [
            {
                "name": "Диана",
                "shop": "dry_cleaning",
                "name:en": "Diana"
            }
        ]
    },
    "bicycle_parking": {
        "count": 1,
        "detail": [
            {
                "amenity": "bicycle_parking",
                "bicycle_parking": "stands"
            }
        ]
    },
    "community_centre": {
        "count": 1,
        "detail": [
            {
                "name": "Дворец культуры \"Содружество\"",
                "amenity": "community_centre"
            }
        ]
    },
    "parking": {
        "count": 1,
        "detail": [
            {
                "amenity": "parking",
                "capacity": "5",
                "parking": "surface"
            }
        ]
    },
    "beer": {
        "count": 1,
        "detail": [
            {
                "name": "Лит.Ра",
                "shop": "beer"
            }
        ]
    },
    "waste_disposal": {
        "count": 1,
        "detail": [
            {
                "amenity": "waste_disposal"
            }
        ]
    },
    "shelter": {
        "count": 3,
        "detail": [
            {
                "layer": "1",
                "amenity": "shelter",
                "building": "roof",
                "shelter_type": "public_transport"
            },
            {
                "layer": "1",
                "amenity": "shelter",
                "building": "roof",
                "shelter_type": "public_transport"
            },
            {
                "layer": "1",
                "amenity": "shelter",
                "building": "roof",
                "shelter_type": "public_transport"
            }
        ]
    }
}