{
    "residents": 3867,
    "bus_stop": {
        "count": 2,
        "detail": [
            {
                "bin": "yes",
                "name": "Почта",
                "bench": "yes",
                "highway": "bus_stop",
                "shelter": "yes",
                "operator": "ГУП \"Мосгортранс\"",
                "route_ref": "259;290;606",
                "public_transport": "platform"
            },
            {
                "bin": "yes",
                "name": "Почта",
                "bench": "yes",
                "highway": "bus_stop",
                "shelter": "yes",
                "operator": "ГУП \"Мосгортранс\"",
                "route_ref": "259;290;606",
                "public_transport": "platform"
            }
        ]
    },
    "post_office": {
        "count": 1,
        "detail": [
            {
                "ref": "127543",
                "name": "Москва 127543",
                "brand": "Почта России",
                "amenity": "post_office",
                "operator": "ФГУП «Почта России»",
                "contact:vk": "https://vk.com/russianpost",
                "addr:country": "RU",
                "contact:phone": "+7 800 2005888",
                "opening_hours": "Mo-Fr 08:00-13:00,14:00-20:00; Sa 09:00-13:00,14:00-18:00; Su off",
                "contact:twitter": "https://twitter.com/ruspostofficial",
                "contact:website": "https://www.pochta.ru",
                "contact:facebook": "https://www.facebook.com/ruspost",
                "operator:wikidata": "Q1502763",
                "operator:wikipedia": "ru:Почта России"
            }
        ]
    },
    "bank": {
        "count": 1,
        "detail": [
            {
                "amenity": "bank",
                "bic": "SABRRUMM",
                "branch": "Московский банк",
                "contact:facebook": "https://www.facebook.com/sberbank",
                "contact:instagram": "https://www.instagram.com/sberbank/",
                "contact:ok": "https://ok.ru/sberbank",
                "contact:phone": "+7 800 5555550",
                "contact:twitter": "https://twitter.com/sberbank/",
                "contact:vk": "https://vk.com/sberbank",
                "contact:website": "https://www.sberbank.ru",
                "contact:youtube": "https://www.youtube.com/sberbank",
                "name": "Сбербанк",
                "name:en": "Sberbank",
                "name:ru": "Сбербанк",
                "opening_hours": "Mo-Fr 08:30-19:30; Sa 09:30-16:00",
                "operator": "ПАО Сбербанк",
                "operator:wikidata": "Q205012",
                "operator:wikipedia": "ru:Сбербанк России",
                "ref": "9038/01325",
                "wheelchair": "yes"
            }
        ]
    },
    "waste_disposal": {
        "count": 6,
        "detail": [
            {
                "amenity": "waste_disposal"
            },
            {
                "amenity": "waste_disposal"
            },
            {
                "amenity": "waste_disposal"
            },
            {
                "amenity": "waste_disposal"
            },
            {
                "amenity": "waste_disposal"
            },
            {
                "amenity": "waste_disposal"
            }
        ]
    },
    "fuel": {
        "count": 1,
        "detail": [
            {
                "amenity": "fuel",
                "brand": "BP",
                "brand:wikidata": "Q152057",
                "brand:wikipedia": "en:BP",
                "name": "BP",
                "opening_hours": "24/7",
                "operator": "BP"
            }
        ]
    },
    "convenience": {
        "count": 4,
        "detail": [
            {
                "shop": "convenience"
            },
            {
                "alt_name": "Пятерочка",
                "brand": "Пятёрочка",
                "brand:wikidata": "Q1768969",
                "brand:wikipedia": "ru:Пятёрочка",
                "contact:email": "vopros@5ka.ru",
                "contact:facebook": "https://www.facebook.com/pyaterochka",
                "contact:instagram": "https://www.instagram.com/pyaterochka_official",
                "contact:ok": "https://ok.ru/pyaterochka",
                "contact:phone": "+7 800 5555505",
                "contact:vk": "https://vk.com/club19098821",
                "contact:website": "https://5ka.ru",
                "name": "Пятёрочка",
                "name:ru": "Пятёрочка",
                "shop": "convenience"
            },
            {
                "shop": "convenience"
            },
            {
                "shop": "convenience",
                "building": "yes",
                "addr:street": "улица Корнейчука",
                "addr:housenumber": "37Б"
            }
        ]
    },
    "hairdresser": {
        "count": 1,
        "detail": [
            {
                "shop": "hairdresser"
            }
        ]
    },
    "parking": {
        "count": 2,
        "detail": [
            {
                "amenity": "parking",
                "parking": "surface"
            },
            {
                "name": "Народный гараж",
                "amenity": "parking",
                "parking": "multi-storey",
                "building": "yes",
                "addr:street": "улица Корнейчука",
                "addr:housenumber": "31"
            }
        ]
    },
    "pharmacy": {
        "count": 1,
        "detail": [
            {
                "amenity": "pharmacy"
            }
        ]
    },
    "playground": {
        "count": 4,
        "detail": [
            {
                "leisure": "playground"
            },
            {
                "leisure": "playground"
            },
            {
                "leisure": "playground"
            },
            {
                "leisure": "playground"
            }
        ]
    },
    "kindergarten": {
        "count": 1,
        "detail": [
            {
                "addr:city": "Москва",
                "addr:housenumber": "42А",
                "addr:postcode": "127543",
                "addr:street": "улица Корнейчука",
                "building": "kindergarten",
                "building:levels": "2"
            }
        ]
    },
    "mall": {
        "count": 1,
        "detail": [
            {
                "addr:city": "Москва",
                "addr:housenumber": "8",
                "addr:postcode": "127543",
                "addr:street": "МКАД, 87-й километр",
                "building": "yes",
                "building:levels": "5",
                "name": "Час Пик",
                "shop": "mall"
            }
        ]
    },
    "car_repair": {
        "count": 1,
        "detail": [
            {
                "shop": "car_repair",
                "service": "tyres",
                "building": "yes"
            }
        ]
    },
    "service": {
        "count": 2,
        "detail": [
            {
                "power": "substation",
                "building": "service",
                "location": "indoor",
                "substation": "minor_distribution",
                "addr:street": "улица Корнейчука",
                "building:levels": "1",
                "addr:housenumber": "41 с1"
            },
            {
                "power": "substation",
                "building": "service",
                "location": "indoor",
                "substation": "minor_distribution",
                "addr:street": "улица Корнейчука",
                "building:levels": "1",
                "addr:housenumber": "33 с2"
            }
        ]
    }
}