{
    "convenience": {
        "count": 3,
        "detail": [
            {
                "addr:city": "Москва",
                "addr:housenumber": "28 с1",
                "addr:postcode": "125413",
                "addr:street": "Фестивальная улица",
                "brand": "ВкусВилл",
                "contact:email": "info@izbenka.msk.ru",
                "contact:facebook": "https://www.facebook.com/izbenka",
                "contact:instagram": "https://www.instagram.com/izbenka_vkusvill",
                "contact:phone": "+7 495 6638602",
                "contact:telegram": "https://telegram.me/vkusvillbot",
                "contact:vk": "https://vk.com/izbenka",
                "contact:website": "http://vkusvill.ru",
                "description": "Магазины \"Избёнка\" и \"ВкусВилл\" - это крупная торговая сеть по продаже натуральных продуктов для здорового питания. Наши магазины работают для тех, кто знает толк в качественных продуктах и верит, что в России можно вести честный бизнес.",
                "email": "info@izbenka.msk.ru",
                "name": "ВкусВилл",
                "name:ru": "ВкусВилл",
                "opening_hours": "Mo-Su 09:00-22:00",
                "operator": "ВкусВилл",
                "payment:cash": "yes",
                "payment:credit_cards": "yes",
                "payment:maestro": "yes",
                "payment:mastercard": "yes",
                "payment:visa": "yes",
                "payment:visa_electron": "yes",
                "phone": "+7 800 5508602",
                "shop": "convenience"
            },
            {
                "name": "Монетка",
                "shop": "convenience",
                "opening_hours": "09:00-23:00"
            },
            {
                "shop": "convenience"
            }
        ]
    },
    "bus_stop": {
        "count": 6,
        "detail": [
            {
                "name": "Фестивальная улица, 65",
                "highway": "bus_stop",
                "public_transport": "platform"
            },
            {
                "name": "Фестивальная улица",
                "highway": "bus_stop",
                "public_transport": "platform"
            },
            {
                "bus": "yes",
                "highway": "bus_stop",
                "name": "Флотская ул.",
                "public_transport": "platform",
                "shelter": "yes"
            },
            {
                "bus": "yes",
                "highway": "bus_stop",
                "name": "Флотская ул.",
                "public_transport": "platform",
                "shelter": "yes"
            },
            {
                "name": "Флотская ул.",
                "highway": "bus_stop"
            },
            {
                "name": "Флотская ул.",
                "highway": "bus_stop"
            }
        ]
    },
    "waste_disposal": {
        "count": 1,
        "detail": [
            {
                "amenity": "waste_disposal"
            }
        ]
    },
    "residents": 13959,
    "sports_centre": {
        "count": 2,
        "detail": [
            {
                "leisure": "sports_centre",
                "name": "KENGA fitness@spa",
                "opening_hours": "Mo-Fr 06:30-24:00; Sa,Su 08:00-22:00",
                "phone": "+7 495 4547100",
                "sport": "swimming",
                "website": "http://kenga-sport.ru"
            },
            {
                "leisure": "sports_centre",
                "name": "Laguna",
                "opening_hours": "7:00-23:00",
                "phone": "+7 495 2344747",
                "sport": "fitness"
            }
        ]
    },
    "fast_food": {
        "count": 1,
        "detail": [
            {
                "name": "Стардогс",
                "amenity": "fast_food"
            }
        ]
    },
    "pharmacy": {
        "count": 3,
        "detail": [
            {
                "name": "Фармлайн",
                "amenity": "pharmacy"
            },
            {
                "name": "Доктор Рядом",
                "amenity": "pharmacy"
            },
            {
                "name": "Столички",
                "brand": "Столички",
                "amenity": "pharmacy",
                "name:ru": "Столички",
                "operator": "ООО «НЕО-ФАРМ»",
                "contact:vk": "https://vk.com/stolichki_official",
                "healthcare": "pharmacy",
                "contact:website": "http://stolichki.ru",
                "contact:facebook": "https://www.facebook.com/stolichki/",
                "contact:instagram": "https://www.instagram.com/stolichki/"
            }
        ]
    },
    "bathroom_furnishing": {
        "count": 1,
        "detail": [
            {
                "name": "СанТехТорг",
                "shop": "bathroom_furnishing"
            }
        ]
    },
    "doityourself": {
        "count": 1,
        "detail": [
            {
                "shop": "doityourself"
            }
        ]
    },
    "playground": {
        "count": 2,
        "detail": [
            {
                "leisure": "playground"
            },
            {
                "leisure": "playground"
            }
        ]
    },
    "car_wash": {
        "count": 1,
        "detail": [
            {
                "amenity": "car_wash"
            }
        ]
    },
    "greengrocer": {
        "count": 3,
        "detail": [
            {
                "shop": "greengrocer"
            },
            {
                "shop": "greengrocer"
            },
            {
                "shop": "greengrocer"
            }
        ]
    },
    "dentist": {
        "count": 1,
        "detail": [
            {
                "amenity": "dentist"
            }
        ]
    },
    "pitch": {
        "count": 1,
        "detail": [
            {
                "name": "теннисный клуб «Эйс»",
                "sport": "tennis",
                "leisure": "pitch"
            }
        ]
    },
    "beauty": {
        "count": 2,
        "detail": [
            {
                "name": "Гранат",
                "shop": "beauty"
            },
            {
                "shop": "beauty"
            }
        ]
    },
    "pet": {
        "count": 1,
        "detail": [
            {
                "shop": "pet"
            }
        ]
    },
    "hairdresser": {
        "count": 2,
        "detail": [
            {
                "name": "Вита",
                "shop": "hairdresser",
                "opening_hours": "Mo-Su 10:00-20:00"
            },
            {
                "level": "1",
                "shop": "hairdresser",
                "unisex": "yes",
                "website": "https://instagram.com/kristina_hair.moskow"
            }
        ]
    },
    "childcare": {
        "count": 1,
        "detail": [
            {
                "amenity": "childcare"
            }
        ]
    },
    "newsagent": {
        "count": 1,
        "detail": [
            {
                "shop": "newsagent",
                "building": "kiosk",
                "inscription": "Пресса",
                "building:levels": "1"
            }
        ]
    },
    "social_facility": {
        "count": 1,
        "detail": [
            {
                "name": "Территориальный центр социального обслуживания \"Ховрино\"",
                "amenity": "social_facility",
                "addr:postcode": "125413",
                "opening_hours": "Mo-Th 09:00-13:45, 14:30-20:00; Fr 09:00-13:45, 14:30-18:45; Sa 09:00-13:45, 14:30-17:00",
                "social_facility": "outreach",
                "social_facility:for": "disabled;senior"
            }
        ]
    },
    "cafe": {
        "count": 1,
        "detail": [
            {
                "amenity": "cafe",
                "name": "Black sugar",
                "takeaway": "yes"
            }
        ]
    },
    "dry_cleaning": {
        "count": 1,
        "detail": [
            {
                "name": "Снежинка",
                "shop": "dry_cleaning"
            }
        ]
    },
    "tobacco": {
        "count": 1,
        "detail": [
            {
                "shop": "tobacco"
            }
        ]
    },
    "lamps": {
        "count": 1,
        "detail": [
            {
                "name": "Холдхаус",
                "shop": "lamps"
            }
        ]
    },
    "clothes": {
        "count": 1,
        "detail": [
            {
                "name": "Яниниа",
                "shop": "clothes"
            }
        ]
    },
    "taxi": {
        "count": 1,
        "detail": [
            {
                "amenity": "taxi"
            }
        ]
    },
    "kindergarten": {
        "count": 5,
        "detail": [
            {
                "name": "Детский сад №174",
                "building": "kindergarten",
                "addr:city": "Москва",
                "addr:street": "улица Ляпидевского",
                "description": "для детей с нарушением речи",
                "addr:country": "RU",
                "building:levels": "2",
                "addr:housenumber": "10А"
            },
            {
                "building": "kindergarten",
                "addr:city": "Москва",
                "addr:street": "Фестивальная улица",
                "addr:country": "RU",
                "addr:housenumber": "26Б"
            },
            {
                "addr:city": "Москва",
                "addr:country": "RU",
                "addr:housenumber": "26А",
                "addr:street": "Фестивальная улица",
                "building": "kindergarten",
                "building:levels": "2"
            },
            {
                "building": "kindergarten",
                "addr:street": "Фестивальная улица",
                "building:levels": "3",
                "addr:housenumber": "32А"
            },
            {
                "building": "kindergarten",
                "addr:city": "Москва",
                "addr:street": "Онежская улица",
                "building:levels": "3",
                "addr:housenumber": "53А"
            }
        ]
    },
    "service": {
        "count": 11,
        "detail": [
            {
                "power": "substation",
                "building": "service",
                "addr:city": "Москва",
                "addr:street": "Фестивальная улица",
                "addr:country": "RU",
                "addr:housenumber": "24А с2"
            },
            {
                "power": "substation",
                "building": "service",
                "addr:city": "Москва",
                "addr:street": "Фестивальная улица",
                "addr:country": "RU",
                "building:levels": "1",
                "addr:housenumber": "28А с2"
            },
            {
                "power": "substation",
                "building": "service",
                "addr:city": "Москва",
                "addr:street": "Фестивальная улица",
                "addr:country": "RU",
                "addr:housenumber": "24А с1"
            },
            {
                "power": "substation",
                "building": "service",
                "addr:city": "Москва",
                "addr:street": "улица Ляпидевского",
                "addr:country": "RU",
                "building:levels": "1",
                "addr:housenumber": "6 к3 с1"
            },
            {
                "power": "substation",
                "building": "service",
                "substation": "minor_distribution",
                "addr:street": "Флотская улица",
                "addr:country": "RU",
                "building:levels": "1",
                "addr:housenumber": "15 с2"
            },
            {
                "power": "substation",
                "building": "service",
                "substation": "minor_distribution",
                "addr:street": "Флотская улица",
                "addr:country": "RU",
                "building:levels": "1",
                "addr:housenumber": "15 с1"
            },
            {
                "power": "substation",
                "source": "Адресный реестр Москвы, data.mos.ru",
                "building": "service",
                "addr:street": "Фестивальная улица",
                "addr:housenumber": "22 к7 с1"
            },
            {
                "power": "substation",
                "building": "service"
            },
            {
                "building": "service"
            },
            {
                "building": "service"
            },
            {
                "power": "substation",
                "building": "service"
            }
        ]
    }
}