{
    "residents": 8502,
    "supermarket": {
        "count": 4,
        "detail": [
            {
                "alt_name": "Перекрёсток",
                "brand": "Перекресток",
                "contact:facebook": "https://www.facebook.com/perekrestok",
                "contact:instagram": "http://instagram.com/perekrestok",
                "contact:ok": "https://ok.ru/perekrestok.shop",
                "contact:phone": "+7 495 6628888",
                "contact:twitter": "https://twitter.com/perekrestok",
                "contact:vk": "https://vk.com/perekrestok_shop",
                "contact:website": "https://www.perekrestok.ru",
                "name": "Перекресток",
                "name:en": "Perekryostok",
                "name:ru": "Перекресток",
                "opening_hours": "Mo-Su 08:00-23:59",
                "operator": "Торговый дом \"ПЕРЕКРЕСТОК\"",
                "shop": "supermarket",
                "wheelchair": "yes"
            },
            {
                "name": "Billa",
                "shop": "supermarket",
                "brand": "Billa",
                "name:en": "Billa",
                "name:ru": "Билла",
                "website": "http://www.billa.ru",
                "int_name": "Billa",
                "operator": "ООО «BILLA»",
                "contact:ok": "https://ok.ru/group/53124549640396",
                "contact:vk": "https://vk.com/billarussia",
                "contact:fax": "+7 495 785 7501",
                "contact:email": "mail@billa.ru",
                "contact:website": "http://www.billa.ru",
                "contact:youtube": "https://www.youtube.com/channel/UCSx84zsrpnikJX2PDnOYbMA",
                "contact:facebook": "https://www.facebook.com/billa.ru",
                "contact:instagram": "https://www.instagram.com/billarussia",
                "operator:wikidata": "Q537781",
                "operator:wikipedia": "ru:Billa"
            },
            {
                "name": "Дикси",
                "shop": "supermarket",
                "brand": "Дикси",
                "name:en": "Dixy",
                "name:ru": "Дикси",
                "wheelchair": "yes",
                "contact:phone": "+7 800 3330201",
                "opening_hours": "Mo-Su 10:00-22:00",
                "brand:wikidata": "Q4161561",
                "brand:wikipedia": "ru:Дикси (сеть магазинов)",
                "contact:website": "http://dixy.ru"
            },
            {
                "alt_name": "Пятерочка",
                "brand": "Пятёрочка",
                "brand:wikidata": "Q1768969",
                "brand:wikipedia": "ru:Пятёрочка",
                "contact:email": "vopros@5ka.ru",
                "contact:facebook": "https://www.facebook.com/pyaterochka",
                "contact:instagram": "https://www.instagram.com/pyaterochka_official",
                "contact:ok": "https://ok.ru/pyaterochka",
                "contact:phone": "+7 800 5555505",
                "contact:vk": "https://vk.com/pyaterochka_shop",
                "contact:website": "https://5ka.ru",
                "name": "Пятёрочка",
                "name:ru": "Пятёрочка",
                "opening_hours": "Mo-Su 09:00-22:00",
                "shop": "supermarket",
                "wheelchair": "yes"
            }
        ]
    },
    "bus_stop": {
        "count": 12,
        "detail": [
            {
                "bus": "yes",
                "name": "Улица Генерала Белобородова, д. 16",
                "highway": "bus_stop",
                "shelter": "yes",
                "public_transport": "platform"
            },
            {
                "bus": "yes",
                "highway": "bus_stop",
                "name": "Школа",
                "public_transport": "platform"
            },
            {
                "bus": "yes",
                "highway": "bus_stop",
                "name": "Бассейн",
                "public_transport": "platform",
                "route_ref": "32;372;852;?"
            },
            {
                "bus": "yes",
                "name": "Школа",
                "highway": "bus_stop",
                "public_transport": "platform"
            },
            {
                "bus": "yes",
                "name": "Улица Генерала Белобородова, д. 16",
                "highway": "bus_stop",
                "shelter": "yes",
                "public_transport": "platform"
            },
            {
                "bus": "yes",
                "name": "Бассейн",
                "public_transport": "stop_position"
            },
            {
                "bus": "yes",
                "name": "Улица Генерала Белобородова, д. 16",
                "public_transport": "stop_position"
            },
            {
                "bus": "yes",
                "name": "Улица Генерала Белобородова, д. 16",
                "public_transport": "stop_position"
            },
            {
                "bus": "yes",
                "name": "Школа",
                "public_transport": "stop_position"
            },
            {
                "bus": "yes",
                "name": "Школа",
                "public_transport": "stop_position"
            },
            {
                "bench": "yes",
                "bus": "yes",
                "highway": "bus_stop",
                "name": "Поликлиника №180",
                "public_transport": "platform",
                "shelter": "yes",
                "surface": "asphalt"
            },
            {
                "bus": "yes",
                "name": "Поликлиника №180",
                "public_transport": "stop_position"
            }
        ]
    },
    "school": {
        "count": 4,
        "detail": [
            {
                "name": "Школа №1544",
                "amenity": "school",
                "wikidata": "Q4138534",
                "wikipedia:ru": "Школа № 1544"
            },
            {
                "name": "Прогимназия №1938",
                "amenity": "school"
            },
            {
                "addr:city": "Москва",
                "addr:country": "RU",
                "addr:housenumber": "14",
                "addr:street": "Пенягинская улица",
                "building": "school",
                "building:levels": "4"
            },
            {
                "building": "school",
                "addr:city": "Москва",
                "addr:street": "улица Генерала Белобородова",
                "addr:country": "RU",
                "building:levels": "4",
                "addr:housenumber": "22"
            }
        ]
    },
    "beauty": {
        "count": 4,
        "detail": [
            {
                "name": "Приятное свидание",
                "shop": "beauty",
                "name:en": "Priyatnoe Svidaniye",
                "contact:phone": "+7 495 7942388"
            },
            {
                "name": "Марсель",
                "shop": "beauty",
                "contact:phone": "+7 915 2071001",
                "contact:website": "https://vk.com/mitino_marsel"
            },
            {
                "name": "Ваш Стиль",
                "shop": "beauty"
            },
            {
                "contact:phone": "+7 495 7592200",
                "name": "Мираж",
                "opening_hours": "Mo-Su 10:00-21:00",
                "shop": "beauty"
            }
        ]
    },
    "convenience": {
        "count": 3,
        "detail": [
            {
                "name": "Продукты",
                "opening_hours": "24/7",
                "shop": "convenience"
            },
            {
                "brand": "ВкусВилл",
                "contact:phone": "+7 495 6638602",
                "contact:website": "http://vkusvill.ru",
                "name": "ВкусВилл",
                "name:ru": "ВкусВилл",
                "opening_hours": "Mo-Su 09:00-22:00",
                "shop": "convenience",
                "wheelchair": "yes"
            },
            {
                "name": "Добрынинский",
                "opening_hours": "Mo-Su 09:00-21:00",
                "shop": "convenience",
                "wheelchair": "yes"
            }
        ]
    },
    "bank": {
        "count": 1,
        "detail": [
            {
                "amenity": "bank",
                "branch": "Московский банк",
                "contact:facebook": "https://www.facebook.com/sberbank",
                "contact:instagram": "https://www.instagram.com/sberbank/",
                "contact:ok": "https://ok.ru/sberbank",
                "contact:phone": "+7 800 5555550",
                "contact:twitter": "https://twitter.com/sberbank/",
                "contact:vk": "https://vk.com/sberbank",
                "contact:website": "https://www.sberbank.ru",
                "contact:youtube": "https://www.youtube.com/sberbank",
                "name": "Сбербанк",
                "name:en": "Sberbank",
                "name:ru": "Сбербанк",
                "note": "на сайте Сбербанка указан адрес ул. Генерала Белобородова, 11",
                "opening_hours": "Mo-Fr 08:30-20:30; Sa 09:00-17:00",
                "operator": "ПАО Сбербанк",
                "operator:wikidata": "Q205012",
                "operator:wikipedia": "ru:Сбербанк России",
                "ref": "9038/01734",
                "wheelchair": "yes"
            }
        ]
    },
    "hairdresser": {
        "count": 2,
        "detail": [
            {
                "name": "Натали",
                "shop": "hairdresser",
                "contact:phone": "+7 495 7593511",
                "opening_hours": "Mo-Su 09:00-21:00"
            },
            {
                "contact:phone": "+7 495 7598334",
                "contact:website": "http://лучия.рф",
                "name": "Лучия",
                "opening_hours": "Mo-Su 09:00-21:00",
                "shop": "hairdresser"
            }
        ]
    },
    "waste_disposal": {
        "count": 12,
        "detail": [
            {
                "amenity": "waste_disposal"
            },
            {
                "amenity": "waste_disposal",
                "covered": "yes"
            },
            {
                "amenity": "waste_disposal"
            },
            {
                "amenity": "waste_disposal",
                "covered": "yes"
            },
            {
                "amenity": "waste_disposal",
                "covered": "yes"
            },
            {
                "amenity": "waste_disposal",
                "covered": "yes"
            },
            {
                "amenity": "waste_disposal"
            },
            {
                "amenity": "waste_disposal",
                "covered": "yes"
            },
            {
                "amenity": "waste_disposal",
                "covered": "yes"
            },
            {
                "amenity": "waste_disposal",
                "covered": "yes"
            },
            {
                "amenity": "waste_disposal",
                "covered": "yes"
            },
            {
                "amenity": "waste_disposal",
                "covered": "yes"
            }
        ]
    },
    "pharmacy": {
        "count": 6,
        "detail": [
            {
                "amenity": "pharmacy",
                "brand": "Горздрав",
                "contact:email": "info@gor-zdrav.ru",
                "contact:facebook": "https://www.facebook.com/AptekaGorzdrav",
                "contact:instagram": "https://www.instagram.com/gorzdrav",
                "contact:ok": "https://ok.ru/group/57486617870381",
                "contact:phone": "+7 499 6536277",
                "contact:vk": "https://vk.com/gorzdrav",
                "contact:website": "https://gorzdrav.org",
                "level": "1",
                "name": "Горздрав",
                "name:ru": "Горздрав",
                "opening_hours": "Mo-Su 09:00-21:00"
            },
            {
                "amenity": "pharmacy",
                "brand": "Горздрав",
                "contact:email": "info@gor-zdrav.ru",
                "contact:facebook": "https://www.facebook.com/AptekaGorzdrav",
                "contact:instagram": "https://www.instagram.com/gorzdrav",
                "contact:ok": "https://ok.ru/group/57486617870381",
                "contact:phone": "+7 499 6536277",
                "contact:vk": "https://vk.com/gorzdrav",
                "contact:website": "https://gorzdrav.org",
                "name": "Горздрав",
                "name:en": "Gorzdrav",
                "name:ru": "Горздрав"
            },
            {
                "amenity": "pharmacy"
            },
            {
                "name": "Неофарм",
                "amenity": "pharmacy",
                "healthcare": "pharmacy",
                "contact:phone": "+7 495 7540600",
                "opening_hours": "24/7",
                "contact:website": "http://www.neopharm.ru"
            },
            {
                "amenity": "pharmacy"
            },
            {
                "amenity": "pharmacy",
                "contact:website": "https://www.eapteka.ru/",
                "name": "eApteka.ru"
            }
        ]
    },
    "theatre": {
        "count": 1,
        "detail": [
            {
                "name": "Мюзикл-театр \"Монотон\"",
                "amenity": "theatre",
                "contact:phone": "+7 495 7533000",
                "contact:website": "http://www.monoton-teatr.ru"
            }
        ]
    },
    "ticket": {
        "count": 1,
        "detail": [
            {
                "shop": "ticket",
                "contact:phone": "+7 916 9643031",
                "tickets:theatre": "yes"
            }
        ]
    },
    "playground": {
        "count": 1,
        "detail": [
            {
                "leisure": "playground"
            }
        ]
    },
    "fitness_centre": {
        "count": 2,
        "detail": [
            {
                "name": "Ананас",
                "leisure": "fitness_centre"
            },
            {
                "contact:phone": "+7 495 7532650",
                "leisure": "fitness_centre",
                "name": "Корона"
            }
        ]
    },
    "fabric": {
        "count": 1,
        "detail": [
            {
                "name": "Ткани",
                "shop": "fabric"
            }
        ]
    },
    "fast_food": {
        "count": 2,
        "detail": [
            {
                "amenity": "fast_food",
                "cuisine": "kebab",
                "diet:vegetarian": "no",
                "opening_hours:signed": "no",
                "wheelchair": "yes"
            },
            {
                "amenity": "fast_food",
                "cuisine": "coffee_shop",
                "name": "Москофе",
                "opening_hours": "Mo-Su,PH 09:00-21:00",
                "takeaway": "only"
            }
        ]
    },
    "hardware": {
        "count": 1,
        "detail": [
            {
                "name": "Южный двор",
                "shop": "hardware"
            }
        ]
    },
    "furniture": {
        "count": 1,
        "detail": [
            {
                "shop": "furniture"
            }
        ]
    },
    "tailor": {
        "count": 1,
        "detail": [
            {
                "name": "Ателье",
                "shop": "tailor"
            }
        ]
    },
    "newsagent": {
        "count": 3,
        "detail": [
            {
                "building": "kiosk",
                "building:levels": "1",
                "inscription": "Пресса",
                "shop": "newsagent"
            },
            {
                "name": "Пресса",
                "shop": "newsagent"
            },
            {
                "building": "kiosk",
                "building:levels": "1",
                "inscription": "Пресса",
                "shop": "newsagent"
            }
        ]
    },
    "bicycle_parking": {
        "count": 3,
        "detail": [
            {
                "fee": "no",
                "amenity": "bicycle_parking",
                "covered": "no",
                "capacity": "5",
                "supervised": "no",
                "opening_hours": "24/7",
                "bicycle_parking": "stands"
            },
            {
                "amenity": "bicycle_parking",
                "bicycle_parking": "wall_loops",
                "covered": "no",
                "fee": "no",
                "opening_hours": "24/7",
                "supervised": "no"
            },
            {
                "amenity": "bicycle_parking",
                "bicycle_parking": "wall_loops",
                "capacity": "6",
                "covered": "no",
                "fee": "no",
                "opening_hours": "24/7",
                "supervised": "no"
            }
        ]
    },
    "alcohol": {
        "count": 2,
        "detail": [
            {
                "name": "Добрый вечер",
                "shop": "alcohol",
                "opening_hours": "Mo-Su 09:00-23:00"
            },
            {
                "inscription": "Пиво",
                "name": "Пивбаза",
                "shop": "alcohol"
            }
        ]
    },
    "rental": {
        "count": 1,
        "detail": [
            {
                "bicycle:rental": "yes",
                "contact:website": "https://kutikatai.ru/",
                "name": "Кути Катай",
                "seasonal": "spring-autumn",
                "shop": "rental",
                "wheelchair": "yes"
            }
        ]
    },
    "massage": {
        "count": 1,
        "detail": [
            {
                "addr:city": "Москва",
                "addr:full": "Москва, улица Генерала Белобородова, 17",
                "image": "https://p1.zoon.ru/preview/VDIJs2n0w5nSLFQ0mJy6GQ/2250x3000x75/1/e/e/original_5db819bfc041016f8374b367_5db85e149b38c.jpg",
                "name": "Салон Французовой",
                "opening_hours": "Mo-Su 09:00-22:00",
                "phone": "+7 916 5222721",
                "shop": "massage"
            }
        ]
    },
    "toilets": {
        "count": 1,
        "detail": [
            {
                "access": "yes",
                "amenity": "toilets"
            }
        ]
    },
    "atm": {
        "count": 4,
        "detail": [
            {
                "amenity": "atm",
                "operator": "ПАО «Московский кредитный банк»"
            },
            {
                "amenity": "atm",
                "opening_hours": "24/7",
                "operator": "Сбербанк"
            },
            {
                "amenity": "atm",
                "opening_hours": "24/7",
                "operator": "Сбербанк"
            },
            {
                "amenity": "atm",
                "opening_hours": "24/7",
                "operator": "Сбербанк"
            }
        ]
    },
    "payment_terminal": {
        "count": 2,
        "detail": [
            {
                "amenity": "payment_terminal",
                "brand": "Московский кредитный банк",
                "contact:facebook": "https://www.facebook.com/mkb.ru",
                "contact:instagram": "https://www.instagram.com/bankmkb",
                "contact:phone": "+7 800 1004888",
                "contact:twitter": "https://twitter.com/bankmkb",
                "contact:vk": "https://vk.com/mkb_official",
                "contact:website": "https://mkb.ru",
                "operator": "ПАО «Московский кредитный банк»",
                "operator:wikidata": "Q4304175",
                "operator:wikipedia": "ru:Московский кредитный банк",
                "payment:credit_cards": "yes",
                "payment:debit_cards": "yes",
                "payment:notes": "yes"
            },
            {
                "amenity": "payment_terminal",
                "brand": "QIWI",
                "brand:wikidata": "Q4047736",
                "brand:wikipedia": "ru:Qiwi",
                "contact:facebook": "https://www.facebook.com/QiwiRussia",
                "contact:instagram": "https://www.instagram.com/qiwi_russia",
                "contact:ok": "https://ok.ru/qiwirussia",
                "contact:phone": "+7 800 7077759",
                "contact:twitter": "https://twitter.com/qiwirussia",
                "contact:vk": "https://vk.com/qiwirussia",
                "contact:website": "https://qiwi.com",
                "contact:youtube": "https://www.youtube.com/user/QiwiRussia",
                "operator": "КИВИ Банк (АО)",
                "payment:credit_cards": "yes",
                "payment:debit_cards": "yes",
                "payment:notes": "yes",
                "wheelchair": "yes"
            }
        ]
    },
    "recycling": {
        "count": 3,
        "detail": [
            {
                "amenity": "recycling",
                "recycling:plastic_bottles": "yes",
                "recycling_type": "container"
            },
            {
                "amenity": "recycling",
                "recycling:plastic_bottles": "yes",
                "recycling_type": "container"
            },
            {
                "amenity": "recycling",
                "recycling:glass": "yes",
                "recycling:paper": "yes",
                "recycling:plastic": "yes",
                "recycling_type": "container"
            }
        ]
    },
    "events_venue": {
        "count": 1,
        "detail": [
            {
                "amenity": "events_venue",
                "contact:phone": "+7 915 0246067",
                "contact:website": "http://zalrustradicii.ru/",
                "name": "Зал русских традиций"
            }
        ]
    },
    "tobacco": {
        "count": 1,
        "detail": [
            {
                "shop": "tobacco"
            }
        ]
    },
    "dry_cleaning": {
        "count": 1,
        "detail": [
            {
                "level": "-1",
                "name": "Евролюкс",
                "opening_hours": "Mo-Fr 10:00-20:00; Sa,Su 10:00-18:00",
                "shop": "dry_cleaning",
                "wheelchair": "no"
            }
        ]
    },
    "cafe": {
        "count": 1,
        "detail": [
            {
                "amenity": "cafe",
                "contact:phone": "+7 495 2080797",
                "contact:website": "http://www.don-pizzeron.ru/",
                "cuisine": "pizza",
                "delivery": "yes",
                "name": "Дон-Пиццерон",
                "opening_hours": "Mo-Su 11:00-23:00"
            }
        ]
    },
    "vending_machine": {
        "count": 2,
        "detail": [
            {
                "amenity": "vending_machine",
                "brand": "Халва",
                "contact:phone": "+7 800 5119263",
                "contact:website": "https://pochtomat.ru",
                "name": "Халва",
                "vending": "parcel_pickup",
                "wheelchair": "yes"
            },
            {
                "amenity": "vending_machine",
                "inscription": "Фермерский вендинг",
                "name": "А-молоко",
                "opening_hours": "24/7",
                "vending": "milk"
            }
        ]
    },
    "greengrocer": {
        "count": 2,
        "detail": [
            {
                "name": "Фруктовый маркет",
                "opening_hours": "Mo-Sa 09:00-22:00; Su 09:00-21:00",
                "shop": "greengrocer",
                "wheelchair": "no"
            },
            {
                "opening_hours": "Mo-Su 09:00-21:00",
                "shop": "greengrocer",
                "wheelchair": "yes"
            }
        ]
    },
    "veterinary": {
        "count": 1,
        "detail": [
            {
                "amenity": "veterinary",
                "contact:phone": "+7 495 7544822",
                "contact:website": "https://apogeyvet.ru/",
                "name": "Апогей",
                "opening_hours": "24/7"
            }
        ]
    },
    "bakery": {
        "count": 1,
        "detail": [
            {
                "name": "Каравай СВ",
                "opening_hours": "Mo-Su 09:00-21:00",
                "shop": "bakery",
                "wheelchair": "yes"
            }
        ]
    },
    "butcher": {
        "count": 2,
        "detail": [
            {
                "name": "Рублёвский",
                "opening_hours": "Mo-Su 09:00-21:00",
                "shop": "butcher",
                "wheelchair": "yes"
            },
            {
                "opening_hours": "Mo-Su 09:00-21:00",
                "shop": "butcher",
                "wheelchair": "yes"
            }
        ]
    },
    "fireplace": {
        "count": 1,
        "detail": [
            {
                "name": "Теплый очаг",
                "opening_hours": "Mo-Fr 10:00-20:00; Sa,Su 11:00-18:00",
                "shop": "fireplace"
            }
        ]
    },
    "charging_station": {
        "count": 1,
        "detail": [
            {
                "amenity": "charging_station",
                "name": "PlugMe"
            }
        ]
    },
    "kindergarten": {
        "count": 1,
        "detail": [
            {
                "addr:city": "Москва",
                "addr:country": "RU",
                "addr:housenumber": "14 к4",
                "addr:street": "улица Генерала Белобородова",
                "building": "kindergarten",
                "building:levels": "3"
            }
        ]
    },
    "service": {
        "count": 9,
        "detail": [
            {
                "addr:city": "Москва",
                "addr:country": "RU",
                "addr:housenumber": "20 с2",
                "addr:street": "улица Генерала Белобородова",
                "building": "service",
                "building:levels": "1",
                "location": "indoor",
                "power": "substation",
                "substation": "minor_distribution"
            },
            {
                "addr:city": "Москва",
                "addr:country": "RU",
                "addr:housenumber": "18 с1",
                "addr:street": "улица Генерала Белобородова",
                "building": "service",
                "building:levels": "1",
                "location": "indoor",
                "man_made": "heat_exchange_station",
                "pipeline": "substation",
                "substance": "heat",
                "substation": "distribution"
            },
            {
                "addr:city": "Москва",
                "addr:country": "RU",
                "addr:housenumber": "20 с1",
                "addr:street": "улица Генерала Белобородова",
                "building": "service",
                "building:levels": "1",
                "location": "indoor",
                "man_made": "heat_exchange_station",
                "pipeline": "substation",
                "substance": "heat",
                "substation": "distribution"
            },
            {
                "addr:housenumber": "12 с1",
                "addr:street": "улица Генерала Белобородова",
                "building": "service",
                "building:levels": "1",
                "location": "indoor",
                "power": "substation",
                "substation": "minor_distribution"
            },
            {
                "building": "service",
                "building:levels": "1",
                "location": "indoor",
                "man_made": "heat_exchange_station",
                "pipeline": "substation",
                "substance": "heat",
                "substation": "distribution"
            },
            {
                "addr:housenumber": "15 к2 с2",
                "addr:street": "Волоцкой переулок",
                "building": "service",
                "building:levels": "1",
                "location": "indoor",
                "power": "substation",
                "substation": "minor_distribution"
            },
            {
                "addr:housenumber": "12 с2",
                "addr:street": "улица Генерала Белобородова",
                "building": "service",
                "building:levels": "1",
                "location": "indoor",
                "power": "substation",
                "substation": "minor_distribution"
            },
            {
                "addr:housenumber": "13 к1 с1",
                "addr:street": "Волоцкой переулок",
                "building": "service",
                "building:levels": "1",
                "location": "indoor",
                "power": "substation",
                "substation": "minor_distribution"
            },
            {
                "building": "service",
                "building:levels": "1",
                "location": "indoor",
                "power": "substation",
                "substation": "minor_distribution"
            }
        ]
    }
}