{
    "residents": 5802,
    "alcohol": {
        "count": 2,
        "detail": [
            {
                "brand": "Ароматный мир",
                "contact:facebook": "https://www.facebook.com/amwine.ru",
                "contact:instagram": "https://instagram.com/amwine.ru",
                "contact:twitter": "https://twitter.com/amwineru",
                "contact:vk": "https://vk.com/amwineru",
                "contact:website": "https://amwine.ru",
                "drink:beer": "bottled",
                "drink:cider": "bottled",
                "drink:cognac": "bottled",
                "drink:soft_drink": "bottled",
                "drink:sparkling_wine": "bottled",
                "drink:vodka": "bottled",
                "drink:whisky": "bottled",
                "drink:wine": "bottled",
                "name": "Ароматный мир",
                "name:ru": "Ароматный мир",
                "opening_hours": "Mo-Sa 09:30-22:30; Su 11:00-22:00",
                "shop": "alcohol"
            },
            {
                "name": "Крафт-пиво",
                "shop": "alcohol",
                "drink:beer": "yes"
            }
        ]
    },
    "pharmacy": {
        "count": 11,
        "detail": [
            {
                "amenity": "pharmacy",
                "brand": "Ригла",
                "brand:wikidata": "Q4394431",
                "brand:wikipedia": "ru:Ригла",
                "healthcare": "pharmacy",
                "name": "Ригла",
                "name:en": "Rigla",
                "opening_hours": "24/7",
                "operator": "Ригла",
                "website": "http://www.rigla.ru/"
            },
            {
                "amenity": "pharmacy",
                "brand": "Горздрав",
                "contact:email": "info@gor-zdrav.ru",
                "contact:facebook": "https://www.facebook.com/AptekaGorzdrav",
                "contact:instagram": "https://www.instagram.com/gorzdrav",
                "contact:ok": "https://ok.ru/group/57486617870381",
                "contact:phone": "+7 499 6536277",
                "contact:vk": "https://vk.com/gorzdrav",
                "contact:website": "https://gorzdrav.org",
                "healthcare": "pharmacy",
                "name": "Горздрав",
                "name:ru": "Горздрав",
                "opening_hours": "Mo-Su 09:00-21:00"
            },
            {
                "amenity": "pharmacy",
                "brand": "Горздрав",
                "contact:email": "info@gor-zdrav.ru",
                "contact:facebook": "https://www.facebook.com/AptekaGorzdrav",
                "contact:instagram": "https://www.instagram.com/gorzdrav",
                "contact:ok": "https://ok.ru/group/57486617870381",
                "contact:phone": "+7 499 6536277",
                "contact:vk": "https://vk.com/gorzdrav",
                "contact:website": "https://gorzdrav.org",
                "healthcare": "pharmacy",
                "name": "Горздрав",
                "name:ru": "Горздрав",
                "opening_hours": "Mo-Su 09:00-21:00",
                "ref": "1187"
            },
            {
                "amenity": "pharmacy",
                "healthcare": "pharmacy",
                "opening_hours": "24/7"
            },
            {
                "amenity": "pharmacy",
                "healthcare": "pharmacy",
                "name": "Планета здоровья",
                "opening_hours": "24/7"
            },
            {
                "amenity": "pharmacy",
                "brand": "Горздрав",
                "contact:email": "info@gor-zdrav.ru",
                "contact:facebook": "https://www.facebook.com/AptekaGorzdrav",
                "contact:instagram": "https://www.instagram.com/gorzdrav",
                "contact:ok": "https://ok.ru/group/57486617870381",
                "contact:phone": "+7 499 6536277",
                "contact:vk": "https://vk.com/gorzdrav",
                "contact:website": "https://gorzdrav.org",
                "healthcare": "pharmacy",
                "name": "Горздрав",
                "name:ru": "Горздрав",
                "opening_hours": "Mo-Fr 08:00-22:00; Sa-Su 09:00-21:00"
            },
            {
                "name": "Столички",
                "brand": "Столички",
                "amenity": "pharmacy",
                "name:ru": "Столички",
                "operator": "ООО «НЕО-ФАРМ»",
                "contact:vk": "https://vk.com/stolichki_official",
                "healthcare": "pharmacy",
                "opening_hours": "Mo-Su 09:00-21:00",
                "contact:website": "http://stolichki.ru",
                "contact:facebook": "https://www.facebook.com/stolichki/",
                "contact:instagram": "https://www.instagram.com/stolichki/"
            },
            {
                "amenity": "pharmacy",
                "healthcare": "pharmacy"
            },
            {
                "name": "АСНА",
                "amenity": "pharmacy"
            },
            {
                "amenity": "pharmacy",
                "contact:email": "apt0261@fsapt.ru",
                "contact:facebook": "https://www.facebook.com/groups/aptekizvezda",
                "contact:phone": "+7 499 6582558",
                "contact:vk": "https://vk.com/aptekizvezda",
                "contact:website": "https://www.asna.ru/",
                "name": "АСНА - Северная Звезда",
                "opening_hours": "Mo-Su 08:00-22:00",
                "operator": "Фармастар"
            },
            {
                "amenity": "pharmacy",
                "healthcare": "pharmacy",
                "name": "Здоров.ру",
                "opening_hours": "07:00-23:00"
            }
        ]
    },
    "bus_stop": {
        "count": 6,
        "detail": [
            {
                "highway": "bus_stop",
                "name": "Улица Зои и Александра Космодемьянских",
                "public_transport": "platform"
            },
            {
                "name": "Метро «Войковская»",
                "highway": "bus_stop",
                "public_transport": "platform"
            },
            {
                "bench": "yes",
                "bus": "yes",
                "highway": "bus_stop",
                "name": "Мост Победы",
                "public_transport": "platform",
                "shelter": "yes"
            },
            {
                "highway": "bus_stop",
                "name": "Улица Зои и Александра Космодемьянских",
                "public_transport": "platform"
            },
            {
                "bin": "yes",
                "bus": "yes",
                "name": "1-й Новоподмосковный переулок",
                "bench": "yes",
                "highway": "bus_stop",
                "shelter": "yes",
                "public_transport": "platform"
            },
            {
                "bus": "yes",
                "highway": "bus_stop",
                "name": "1-й Новоподмосковный переулок",
                "public_transport": "platform",
                "shelter": "no"
            }
        ]
    },
    "post_office": {
        "count": 1,
        "detail": [
            {
                "amenity": "post_office",
                "contact:facebook": "https://www.facebook.com/ruspost",
                "contact:phone": "+7 800 2005888",
                "contact:twitter": "https://twitter.com/ruspostofficial",
                "contact:vk": "https://vk.com/russianpost",
                "contact:website": "https://www.pochta.ru",
                "name": "Москва 125026",
                "opening_hours": "Mo-Fr 08:00-13:00,14:00-20:00; Sa 09:00-13:00,14:00-18:00; Su off",
                "operator": "ФГУП «Почта России»",
                "operator:wikidata": "Q1502763",
                "operator:wikipedia": "ru:Почта России",
                "ref": "125026"
            }
        ]
    },
    "clothes": {
        "count": 4,
        "detail": [
            {
                "clothes": "underwear",
                "contact:website": "http://www.gracia.ru",
                "name": "Грация",
                "name:en": "Gratsiya",
                "shop": "clothes"
            },
            {
                "name": "K-style",
                "shop": "clothes"
            },
            {
                "name": "Твой стиль",
                "shop": "clothes"
            },
            {
                "name": "Ивановский трикотаж",
                "shop": "clothes"
            }
        ]
    },
    "bank": {
        "count": 5,
        "detail": [
            {
                "amenity": "bank",
                "atm": "yes",
                "branch": "Московский банк",
                "contact:facebook": "https://www.facebook.com/sberbank",
                "contact:instagram": "https://www.instagram.com/sberbank/",
                "contact:ok": "https://ok.ru/sberbank",
                "contact:phone": "+7 800 5555550",
                "contact:twitter": "https://twitter.com/sberbank/",
                "contact:vk": "https://vk.com/sberbank",
                "contact:website": "https://www.sberbank.ru",
                "contact:youtube": "https://www.youtube.com/sberbank",
                "name": "Сбербанк",
                "name:en": "Sberbank",
                "name:ru": "Сбербанк",
                "opening_hours": "Mo-Fr 08:30-20:30; Sa 09:00-17:00",
                "operator": "ПАО Сбербанк",
                "operator:wikidata": "Q205012",
                "operator:wikipedia": "ru:Сбербанк России",
                "ref": "9038/0508",
                "wheelchair": "yes"
            },
            {
                "amenity": "bank",
                "atm": "yes",
                "name": "ДО \"Войковский\" ТКБ",
                "opening_hours": "Mo-Th 09:30-19:00; Fr 09:30-17:30",
                "operator": "Транскапиталбанк",
                "operator:wikidata": "Q7833819",
                "operator:wikipedia": "ru:Транскапиталбанк",
                "phone": "+7 495 7973200;",
                "website": "http://www.transcapital.ru/"
            },
            {
                "amenity": "bank",
                "bic": "VTBRRUMM",
                "brand": "ВТБ",
                "brand:en": "VTB Bank",
                "brand:wikidata": "Q1549389",
                "brand:wikipedia": "en:VTB Bank",
                "contact:email": "info@vtb.ru",
                "contact:facebook": "https://www.facebook.com/vtbgroup",
                "contact:phone": "+7 800 2007799",
                "contact:twitter": "https://twitter.com/vtb",
                "contact:vk": "https://vk.com/vtb24",
                "contact:website": "https://www.vtb.ru",
                "contact:youtube": "https://www.youtube.com/user/vtbgroup",
                "name": "ВТБ",
                "name:en": "VTB Bank",
                "name:ru": "ВТБ",
                "operator": "Банк ВТБ (публичное акционерное общество)",
                "operator:wikidata": "Q1549389",
                "operator:wikipedia": "ru:Банк ВТБ"
            },
            {
                "amenity": "bank",
                "contact:website": "https://sovcombank.ru/",
                "name": "Совкомбанк"
            },
            {
                "amenity": "bank",
                "name": "Газпромбанк"
            }
        ]
    },
    "atm": {
        "count": 1,
        "detail": [
            {
                "amenity": "atm",
                "contact:email": "info@transcapital.ru",
                "contact:fax": "+7 495 7973201",
                "contact:phone": "+7 800 1003200",
                "contact:website": "http://www.transcapital.ru",
                "currency:RUB": "yes",
                "opening_hours": "24/7",
                "operator": "Транскапиталбанк",
                "operator:wikidata": "Q7833819",
                "operator:wikipedia": "ru:Транскапиталбанк"
            }
        ]
    },
    "kindergarten": {
        "count": 1,
        "detail": [
            {
                "amenity": "kindergarten"
            }
        ]
    },
    "vacant": {
        "count": 1,
        "detail": [
            {
                "shop": "vacant"
            }
        ]
    },
    "convenience": {
        "count": 11,
        "detail": [
            {
                "shop": "convenience",
                "inscription": "Продукты",
                "opening_hours": "24/7"
            },
            {
                "name": "У Палыча",
                "shop": "convenience",
                "brand": "У Палыча",
                "name:ru": "У Палыча",
                "contact:email": "com@palich.ru",
                "contact:phone": "+7 800 3330163",
                "opening_hours": "Mo-Fr 08:00-22:00; Sa,Su 09:00-21:00",
                "contact:website": "http://www.palich.ru"
            },
            {
                "shop": "convenience"
            },
            {
                "name": "Продукты",
                "shop": "convenience"
            },
            {
                "brand": "ВкусВилл",
                "brand:wikidata": "Q57271676",
                "brand:wikipedia": "ru:Вкусвилл",
                "contact:phone": "+7 495 6638602",
                "contact:website": "http://vkusvill.ru",
                "name": "ВкусВилл",
                "name:ru": "ВкусВилл",
                "opening_hours": "07:00-23:45",
                "shop": "convenience",
                "source": "Survey Nov 2016"
            },
            {
                "name": "У Палыча",
                "shop": "convenience",
                "brand": "У Палыча",
                "name:ru": "У Палыча",
                "contact:email": "com@palich.ru",
                "contact:phone": "+7 800 3330163",
                "opening_hours": "Mo-Su 09:00-21:00",
                "contact:website": "http://www.palich.ru"
            },
            {
                "shop": "convenience"
            },
            {
                "name": "Маш.Инторг",
                "shop": "convenience",
                "opening_hours": "Mo-Su 09:00-21:00"
            },
            {
                "shop": "convenience"
            },
            {
                "name": "Контакт",
                "shop": "convenience"
            },
            {
                "brand": "ВкусВилл",
                "contact:email": "info@izbenka.msk.ru",
                "contact:facebook": "https://www.facebook.com/vkusvill.ru",
                "contact:instagram": "https://www.instagram.com/izbenka_vkusvill",
                "contact:phone": "+7 495 6638602",
                "contact:telegram": "https://telegram.me/vkusvillbot",
                "contact:vk": "https://vk.com/vkusvill_ru",
                "contact:website": "https://vkusvill.ru",
                "name": "ВкусВилл",
                "name:ru": "ВкусВилл",
                "shop": "convenience"
            }
        ]
    },
    "fast_food": {
        "count": 7,
        "detail": [
            {
                "name": "Донер",
                "amenity": "fast_food",
                "cuisine": "kebab",
                "opening_hours": "24/7"
            },
            {
                "name": "Шаурма",
                "amenity": "fast_food",
                "cuisine": "kebab"
            },
            {
                "alt_name": "Стардогс",
                "amenity": "fast_food",
                "brand": "Стардог!s",
                "brand:en": "Stardog!s",
                "brand:ru": "Стардог!s",
                "brand:wikidata": "Q4439856",
                "brand:wikipedia": "ru:Стардогс",
                "contact:facebook": "https://www.facebook.com/stardogsrussia",
                "contact:instagram": "https://instagram.com/stardogsrussia/",
                "contact:ok": "https://ok.ru/group/54434706620420",
                "contact:phone": "+7 495 5405723",
                "contact:vk": "https://vk.com/club16270501",
                "contact:website": "http://www.stardogs.ru",
                "contact:youtube": "https://www.youtube.com/channel/UCLdQnDS5HTzowfvz-Uhc24A",
                "cuisine": "sausage",
                "diet:vegetarian": "no",
                "name": "Стардог!s",
                "name:en": "Stardog!s",
                "name:ru": "Стардог!s",
                "takeaway": "yes"
            },
            {
                "amenity": "fast_food",
                "cuisine": "kebab"
            },
            {
                "name": "Тостик'с",
                "amenity": "fast_food",
                "cuisine": "sandwich"
            },
            {
                "amenity": "fast_food",
                "fast_food": "cafeteria",
                "layer": "-1",
                "location": "underground",
                "name": "М Кафе",
                "note": "Буфет №17 Столовая №12",
                "opening_hours": "Mo-Th 08:00-17:00; Fr 08:00-15:30"
            },
            {
                "amenity": "fast_food",
                "cuisine": "kebab"
            }
        ]
    },
    "telephone": {
        "count": 1,
        "detail": [
            {
                "amenity": "telephone",
                "payment:telephone_cards": "yes"
            }
        ]
    },
    "community_centre": {
        "count": 1,
        "detail": [
            {
                "name": "Центр культуры \"Гармония\"",
                "amenity": "community_centre",
                "contact:phone": "+7 499 1500024",
                "opening_hours": "Mo-Sa 09:00-22:00",
                "contact:website": "http://gbukgarmoniya.ru"
            }
        ]
    },
    "beauty": {
        "count": 5,
        "detail": [
            {
                "shop": "beauty"
            },
            {
                "name": "Эгоист&ка",
                "shop": "beauty",
                "contact:phone": "+7 499 1500924",
                "contact:website": "http://ego-salon.ru"
            },
            {
                "shop": "beauty"
            },
            {
                "name": "Алисия",
                "shop": "beauty",
                "contact:phone": "+7 499 1599347",
                "opening_hours": "Mo-Su 10:00-22:00",
                "contact:website": "http://www.alisia.ru/"
            },
            {
                "name": "Iris",
                "shop": "beauty"
            }
        ]
    },
    "pawnbroker": {
        "count": 4,
        "detail": [
            {
                "shop": "pawnbroker"
            },
            {
                "level": "-1",
                "shop": "pawnbroker"
            },
            {
                "name": "Залог успеха",
                "shop": "pawnbroker",
                "opening_hours": "Mo-Fr 09:00-21:00; Sa-Su 10:00-21:00"
            },
            {
                "shop": "pawnbroker"
            }
        ]
    },
    "supermarket": {
        "count": 2,
        "detail": [
            {
                "alt_name": "Пятерочка",
                "brand": "Пятёрочка",
                "brand:en": "Pyaterochka",
                "brand:wikidata": "Q1768969",
                "brand:wikipedia": "ru:Пятёрочка",
                "contact:email": "vopros@5ka.ru",
                "contact:facebook": "https://www.facebook.com/pyaterochka",
                "contact:instagram": "https://www.instagram.com/pyaterochka_official",
                "contact:ok": "https://ok.ru/pyaterochka",
                "contact:phone": "+7 800 5555505",
                "contact:vk": "https://vk.com/pyaterochka_shop",
                "contact:website": "https://5ka.ru",
                "name": "Пятёрочка",
                "name:en": "Pyaterochka",
                "name:ru": "Пятёрочка",
                "opening_hours": "Mo-Su 07:00-23:00",
                "shop": "supermarket"
            },
            {
                "name": "Магнит у дома",
                "opening_hours": "Mo-Su 08:00-22:30",
                "shop": "supermarket"
            }
        ]
    },
    "florist": {
        "count": 5,
        "detail": [
            {
                "shop": "florist"
            },
            {
                "shop": "florist"
            },
            {
                "name": "Цветочный Рай",
                "shop": "florist",
                "addr:city": "Москва",
                "addr:street": "Ленинградское шоссе",
                "payment:cash": "yes",
                "payment:visa": "yes",
                "opening_hours": "Mo-Su 09:00-21:00",
                "payment:cards": "yes",
                "payment:coins": "yes",
                "payment:maestro": "yes",
                "payment:mastercard": "yes",
                "payment:debit_cards": "yes",
                "payment:credit_cards": "yes",
                "payment:visa_electron": "yes"
            },
            {
                "opening_hours": "24/7",
                "shop": "florist"
            },
            {
                "shop": "florist"
            }
        ]
    },
    "clinic": {
        "count": 1,
        "detail": [
            {
                "name": "Бикод",
                "amenity": "clinic",
                "healthcare": "clinic",
                "contact:phone": "+7 495 5189454",
                "contact:website": "http://www.bcode.ru",
                "health_facility:type": "clinic"
            }
        ]
    },
    "hairdresser": {
        "count": 3,
        "detail": [
            {
                "shop": "hairdresser"
            },
            {
                "male": "yes",
                "name": "TopGun",
                "shop": "hairdresser",
                "brand": "TOPGUN",
                "name:en": "TopGun",
                "contact:vk": "https://vk.com/topgunmoscow",
                "contact:phone": "+7 800 2004420",
                "opening_hours": "Mo-Su 10:00-22:00",
                "contact:website": "http://topgunbarbershop.ru",
                "contact:youtube": "https://www.youtube.com/user/lokoncev",
                "contact:facebook": "https://www.facebook.com/topgunbarbershopmoscow",
                "contact:instagram": "https://www.instagram.com/topgun_barbershop"
            },
            {
                "shop": "hairdresser"
            }
        ]
    },
    "butcher": {
        "count": 3,
        "detail": [
            {
                "brand": "Мясницкий ряд",
                "contact:email": "info2@kolbasa.ru",
                "contact:facebook": "https://www.facebook.com/kolbasaMR",
                "contact:phone": "+7 495 9811719",
                "contact:vk": "https://vk.com/kolbasamr",
                "contact:website": "http://www.kolbasa.ru",
                "name": "Мясницкий ряд",
                "name:ru": "Мясницкий ряд",
                "shop": "butcher"
            },
            {
                "name": "Рублевский",
                "shop": "butcher"
            },
            {
                "name": "Индейкин",
                "note": "Каждое 15 число и последний день месяца с 9 до 19",
                "opening_hours": "Mo-Su 09:00-21:00",
                "shop": "butcher"
            }
        ]
    },
    "outpost": {
        "count": 2,
        "detail": [
            {
                "brand": "Wildberries",
                "brand:wikidata": "Q24933714",
                "brand:wikipedia": "ru:Wildberries",
                "contact:email": "sales@wildberries.ru",
                "contact:facebook": "https://www.facebook.com/wbbot",
                "contact:instagram": "https://www.instagram.com/wildberriesru",
                "contact:ok": "https://ok.ru/wildberries",
                "contact:phone": "+7 800 1007505",
                "contact:skype": "Wildberries_ru",
                "contact:telegram": "wbshop_bot",
                "contact:twitter": "https://twitter.com/wildberries_ru",
                "contact:viber": "wildberries",
                "contact:vk": "https://vk.com/wbbot",
                "contact:website": "https://www.wildberries.ru",
                "contact:whatsapp": "+7 926 5373137",
                "contact:youtube": "https://www.youtube.com/user/Wildberriesshop",
                "level": "1",
                "name": "Wildberries",
                "name:en": "Wildberries",
                "shop": "outpost",
                "wheelchair": "no"
            },
            {
                "brand": "Wildberries",
                "brand:wikidata": "Q24933714",
                "brand:wikipedia": "ru:Wildberries",
                "contact:email": "sales@wildberries.ru",
                "contact:facebook": "https://www.facebook.com/wbbot",
                "contact:instagram": "https://www.instagram.com/wildberriesru",
                "contact:ok": "https://ok.ru/wildberries",
                "contact:phone": "+7 800 1007505",
                "contact:skype": "Wildberries_ru",
                "contact:telegram": "wbshop_bot",
                "contact:twitter": "https://twitter.com/wildberries_ru",
                "contact:viber": "wildberries",
                "contact:vk": "https://vk.com/wbbot",
                "contact:website": "https://www.wildberries.ru",
                "contact:whatsapp": "+7 926 5373137",
                "contact:youtube": "https://www.youtube.com/user/Wildberriesshop",
                "name": "Wildberries",
                "name:en": "Wildberries",
                "shop": "outpost"
            }
        ]
    },
    "pub": {
        "count": 2,
        "detail": [
            {
                "name": "Пиво есть!",
                "amenity": "pub",
                "name:en": "Pivo Est'!",
                "contact:phone": "+7 499 1506958",
                "opening_hours": "Mo-Su 12:00-23:00",
                "contact:website": "http://pivo-est.ru"
            },
            {
                "alt_name": "Wildschwein",
                "amenity": "pub",
                "contact:phone": "+7 977 2950410",
                "contact:website": "http://wildschwein.ru/",
                "level": "-1",
                "name": "Вилдшвайн",
                "opening_hours": "Mo-Fr 10:00-24:00; Sa,Su 12:00-24:00",
                "wifi": "free"
            }
        ]
    },
    "toilets": {
        "count": 5,
        "detail": [
            {
                "amenity": "toilets",
                "operator": "Городской туплет",
                "opening_hours": "24/7"
            },
            {
                "fee": "yes",
                "name": "Городской туалет",
                "amenity": "toilets",
                "name:ru": "Городской туалет",
                "building": "yes",
                "operator": "ООО «Комхоз-Сервис»",
                "payment:cash": "yes",
                "opening_hours": "24/7",
                "building:levels": "1",
                "toilets:disposal": "flush",
                "toilets:position": "seated",
                "payment:debit_cards": "yes",
                "payment:credit_cards": "yes"
            },
            {
                "fee": "yes",
                "name": "Городской туалет",
                "amenity": "toilets",
                "name:ru": "Городской туалет",
                "building": "yes",
                "operator": "ООО «Комхоз-Сервис»",
                "payment:cash": "yes",
                "opening_hours": "24/7",
                "building:levels": "1",
                "toilets:disposal": "flush",
                "toilets:position": "seated",
                "payment:debit_cards": "yes",
                "payment:credit_cards": "yes"
            },
            {
                "amenity": "toilets",
                "building": "yes",
                "building:levels": "1",
                "fee": "yes",
                "name": "Городской туалет",
                "name:en": "City toilet",
                "opening_hours": "24/7",
                "operator": "ООО «Комхоз-Сервис»",
                "payment:cash": "yes",
                "payment:credit_cards": "yes",
                "payment:debit_cards": "yes",
                "toilets:disposal": "flush",
                "toilets:position": "seated"
            },
            {
                "fee": "no",
                "amenity": "toilets",
                "building": "yes",
                "addr:street": "1-й Войковский проезд",
                "opening_hours": "Mo-Su 08:00-22:00",
                "building:levels": "1",
                "addr:housenumber": "4 соор1"
            }
        ]
    },
    "e-cigarette": {
        "count": 1,
        "detail": [
            {
                "name": "ПарОм",
                "shop": "e-cigarette",
                "level": "-1",
                "contact:phone": "+7 499 3806990",
                "opening_hours": "Mo-Fr 09:00-21:00; Sa,Su 10:00-21:00",
                "contact:website": "http://www.myparom.ru/"
            }
        ]
    },
    "parking": {
        "count": 1,
        "detail": [
            {
                "amenity": "parking",
                "description": "small parking for several cars"
            }
        ]
    },
    "playground": {
        "count": 2,
        "detail": [
            {
                "leisure": "playground"
            },
            {
                "leisure": "playground"
            }
        ]
    },
    "dentist": {
        "count": 1,
        "detail": [
            {
                "amenity": "dentist"
            }
        ]
    },
    "ice_cream": {
        "count": 3,
        "detail": [
            {
                "amenity": "ice_cream",
                "building": "kiosk",
                "building:levels": "1",
                "inscription": "Мороженое"
            },
            {
                "amenity": "ice_cream",
                "building": "kiosk",
                "building:levels": "1",
                "inscription": "Мороженое"
            },
            {
                "amenity": "ice_cream",
                "brand": "Айсберри",
                "building": "kiosk",
                "building:levels": "1"
            }
        ]
    },
    "newsagent": {
        "count": 3,
        "detail": [
            {
                "shop": "newsagent"
            },
            {
                "shop": "newsagent",
                "source": "Bing",
                "building": "kiosk"
            },
            {
                "shop": "newsagent",
                "building": "kiosk",
                "inscription": "Пресса",
                "building:levels": "1"
            }
        ]
    },
    "bench": {
        "count": 8,
        "detail": [
            {
                "amenity": "bench",
                "backrest": "yes"
            },
            {
                "amenity": "bench",
                "backrest": "yes"
            },
            {
                "amenity": "bench",
                "backrest": "yes"
            },
            {
                "amenity": "bench",
                "backrest": "yes"
            },
            {
                "amenity": "bench",
                "backrest": "yes"
            },
            {
                "amenity": "bench",
                "backrest": "yes"
            },
            {
                "amenity": "bench",
                "backrest": "yes"
            },
            {
                "amenity": "bench",
                "backrest": "yes"
            }
        ]
    },
    "books": {
        "count": 1,
        "detail": [
            {
                "name": "Дом книги",
                "shop": "books",
                "opening_hours": "Mo-Sa 10:00-20:00"
            }
        ]
    },
    "dairy": {
        "count": 1,
        "detail": [
            {
                "shop": "dairy"
            }
        ]
    },
    "bakery": {
        "count": 2,
        "detail": [
            {
                "name": "Французская пекарня",
                "shop": "bakery",
                "opening_hours": "Mo-Fr 07:00-22:00; Sa-Su 08:00-22:00"
            },
            {
                "name": "Каравай-СВ",
                "shop": "bakery"
            }
        ]
    },
    "photo": {
        "count": 1,
        "detail": [
            {
                "shop": "photo"
            }
        ]
    },
    "cafe": {
        "count": 1,
        "detail": [
            {
                "amenity": "cafe",
                "contact:phone": "+7 969 0438585",
                "cuisine": "uzbek",
                "name": "Микс-Макс",
                "opening_hours": "24/7"
            }
        ]
    },
    "car_parts": {
        "count": 1,
        "detail": [
            {
                "name": "Starvan",
                "shop": "car_parts",
                "contact:phone": "+7 499 1590652",
                "opening_hours": "Mo-Fr 10:00-19:00; Sa 11:00-16:00",
                "contact:website": "http://www.starvan.ru"
            }
        ]
    },
    "waste_disposal": {
        "count": 4,
        "detail": [
            {
                "amenity": "waste_disposal"
            },
            {
                "amenity": "waste_disposal"
            },
            {
                "amenity": "waste_disposal",
                "collection_times": "12:00-16:00",
                "operator": "ООО \"Эколайн\"",
                "ref": "11463298"
            },
            {
                "amenity": "waste_disposal"
            }
        ]
    },
    "tobacco": {
        "count": 3,
        "detail": [
            {
                "shop": "tobacco"
            },
            {
                "shop": "tobacco"
            },
            {
                "shop": "tobacco"
            }
        ]
    },
    "copyshop": {
        "count": 3,
        "detail": [
            {
                "contact:website": "http://pr-express.ru/",
                "level": "-1",
                "name": "Absolute Print",
                "opening_hours": "Mo-Sa 10:00-20:00; Su 11:00-18:00",
                "shop": "copyshop"
            },
            {
                "name": "Копирка",
                "opening_hours": "Mo-Fr 08:00-20:00; Sa-Su 10:00-19:00",
                "phone": "+7 495 6603600",
                "shop": "copyshop",
                "website": "https://kopirka.ru/"
            },
            {
                "name": "Копирка",
                "shop": "copyshop",
                "opening_hours": "Mo-Fr 08:00-20:00; Sa,Su 10:00-19:00"
            }
        ]
    },
    "dry_cleaning": {
        "count": 1,
        "detail": [
            {
                "shop": "dry_cleaning",
                "opening_hours": "Mo-Su 09:00-21:00"
            }
        ]
    },
    "confectionery": {
        "count": 1,
        "detail": [
            {
                "name": "Конфеты",
                "opening_hours": "Mo-Sa 08:00-21:00; Su 09:00-19:00",
                "shop": "confectionery"
            }
        ]
    },
    "seafood": {
        "count": 2,
        "detail": [
            {
                "shop": "seafood"
            },
            {
                "name": "Камчатские морепродукты",
                "shop": "seafood"
            }
        ]
    },
    "nuts": {
        "count": 1,
        "detail": [
            {
                "shop": "nuts"
            }
        ]
    },
    "cosmetics": {
        "count": 1,
        "detail": [
            {
                "name": "Русские корни",
                "shop": "cosmetics"
            }
        ]
    },
    "doctors": {
        "count": 3,
        "detail": [
            {
                "amenity": "doctors",
                "brand": "Инвитро",
                "brand:wikidata": "Q4200546",
                "brand:wikipedia": "ru:Медицинская компания Инвитро",
                "contact:email": "info@invitro.ru",
                "contact:facebook": "https://www.facebook.com/invitro.ru",
                "contact:instagram": "https://www.instagram.com/invitro.ru",
                "contact:phone": "+7 800 2003630",
                "contact:vk": "https://vk.com/invitro",
                "contact:website": "https://www.invitro.ru",
                "healthcare": "laboratory",
                "health_facility:type": "laboratory",
                "health_specialty:microbiology": "yes",
                "medical_system:western": "yes",
                "name": "Инвитро",
                "name:ru": "Инвитро"
            },
            {
                "amenity": "doctors",
                "contact:facebook": "https://www.facebook.com/kdllaboratory",
                "contact:instagram": "https://www.instagram.com/kdl.ru",
                "contact:phone": "+7 800 7006040",
                "contact:vk": "https://vk.com/kdllab",
                "contact:website": "https://www.kdl.ru/",
                "healthcare": "laboratory",
                "health_facility:type": "laboratory",
                "health_specialty:microbiology": "yes",
                "medical_system:western": "yes",
                "name": "KDL",
                "opening_hours": "Mo-Fr 07:30-14:30;Sa 07:30-13:30",
                "operator": "КДЛ Домодево-Тест"
            },
            {
                "amenity": "doctors",
                "contact:facebook": "https://www.facebook.com/kdllaboratory",
                "contact:instagram": "https://www.instagram.com/kdl.ru",
                "contact:phone": "+7 800 7006040",
                "contact:vk": "https://vk.com/kdllab",
                "contact:website": "https://www.kdl.ru/",
                "name": "KDL",
                "opening_hours": "Mo-Fr 07:30-14:30;Sa 07:30-13:30",
                "operator": "КДЛ ДОМОДЕДОВО-ТЕСТ"
            }
        ]
    },
    "fitness_station": {
        "count": 3,
        "detail": [
            {
                "leisure": "fitness_station"
            },
            {
                "leisure": "fitness_station",
                "sport": "fitness"
            },
            {
                "leisure": "fitness_station"
            }
        ]
    },
    "library": {
        "count": 1,
        "detail": [
            {
                "amenity": "library",
                "opening_hours": "Tu-Sa 12:00-21:00; Su 12:00-20:00"
            }
        ]
    },
    "optician": {
        "count": 1,
        "detail": [
            {
                "shop": "optician"
            }
        ]
    },
    "bicycle_rental": {
        "count": 1,
        "detail": [
            {
                "amenity": "bicycle_rental",
                "contact:email": "info@velobike.ru",
                "contact:phone": "+7 495 9664669",
                "contact:website": "https://velobike.ru/",
                "fee": "yes",
                "network": "Велобайк",
                "opening_hours": "24/7",
                "operator": "АО «СитиБайк»",
                "seasonal": "spring;summer;autumn"
            }
        ]
    },
    "mobile_phone": {
        "count": 1,
        "detail": [
            {
                "brand": "Tele2",
                "brand:wikidata": "Q4050799",
                "brand:wikipedia": "ru:Tele2 Россия",
                "contact:facebook": "https://www.facebook.com/Tele2Russia",
                "contact:ok": "https://ok.ru/tele2",
                "contact:telegram": "https://telegram.me/Tele2_bot",
                "contact:twitter": "https://twitter.com/Tele2Russia",
                "contact:vk": "https://vk.com/tele2",
                "contact:website": "https://tele2.ru",
                "contact:youtube": "https://www.youtube.com/user/AfishaTele2",
                "name": "Tele2",
                "name:en": "Tele2",
                "office": "telecommunication",
                "shop": "mobile_phone"
            }
        ]
    },
    "hearing_aids": {
        "count": 1,
        "detail": [
            {
                "shop": "hearing_aids"
            }
        ]
    },
    "massage": {
        "count": 1,
        "detail": [
            {
                "contact:email": "info@tairai.ru",
                "contact:facebook": "https://www.facebook.com/tairai.ru/",
                "contact:instagram": "https://www.instagram.com/tairai.ru/",
                "contact:phone": "+7 495 2254242",
                "contact:vk": "https://vk.com/tairai_ru",
                "name": "Тайрай",
                "opening_hours": "Mo-Su 10:00-22:00",
                "operator": "ИП Милевская А.М.",
                "shop": "massage"
            }
        ]
    },
    "doityourself": {
        "count": 1,
        "detail": [
            {
                "addr:city": "Москва",
                "addr:housenumber": "4",
                "addr:postcode": "127299",
                "addr:street": "1-й Новоподмосковный переулок",
                "name": "Хозмаг",
                "opening_hours": "Mo-Fr 09:00-20:00; Sa-Su 10:00-18:00",
                "shop": "doityourself"
            }
        ]
    },
    "furniture": {
        "count": 1,
        "detail": [
            {
                "contact:website": "http://www.finpine.ru/",
                "name": "Карельская сосна",
                "opening_hours": "Mo-Su 11:00-19:00",
                "shop": "furniture"
            }
        ]
    },
    "school": {
        "count": 2,
        "detail": [
            {
                "building": "school",
                "addr:street": "улица Зои и Александра Космодемьянских",
                "addr:housenumber": "4А"
            },
            {
                "name": "Школа №726",
                "amenity": "school",
                "website": "http://www.s726.ru/",
                "building": "school",
                "addr:street": "улица Зои и Александра Космодемьянских",
                "addr:housenumber": "6А"
            }
        ]
    },
    "commercial": {
        "count": 1,
        "detail": [
            {
                "building": "commercial",
                "building:levels": "15",
                "name": "Административное здание ОКБ"
            }
        ]
    },
    "service": {
        "count": 5,
        "detail": [
            {
                "building": "service",
                "building:levels": "1",
                "building:material": "brick",
                "height": "7",
                "roof:shape": "hipped"
            },
            {
                "building": "service",
                "building:levels": "1",
                "building:material": "brick",
                "height": "7",
                "roof:shape": "hipped"
            },
            {
                "power": "substation",
                "building": "service",
                "location": "indoor",
                "substation": "minor_distribution",
                "addr:street": "Ленинградское шоссе",
                "building:levels": "1",
                "addr:housenumber": "9 к1 с3"
            },
            {
                "power": "substation",
                "building": "service",
                "location": "kiosk",
                "substation": "minor_distribution",
                "building:levels": "1"
            },
            {
                "addr:housenumber": "5 к1 с23",
                "addr:street": "улица Космонавта Волкова",
                "building": "service",
                "building:levels": "1",
                "roof:shape": "gabled"
            }
        ]
    }
}