{
    "kindergarten": {
        "count": 1,
        "detail": [
            {
                "name": "Детский сад №2 \"Петушок\"",
                "amenity": "kindergarten"
            }
        ]
    },
    "post_office": {
        "count": 1,
        "detail": [
            {
                "amenity": "post_office",
                "ref": "601122"
            }
        ]
    },
    "convenience": {
        "count": 1,
        "detail": [
            {
                "name": "Яблочко",
                "shop": "convenience"
            }
        ]
    },
    "recycling": {
        "count": 2,
        "detail": [
            {
                "amenity": "recycling"
            },
            {
                "amenity": "recycling"
            }
        ]
    },
    "residents": 96,
    "parking": {
        "count": 2,
        "detail": [
            {
                "amenity": "parking"
            },
            {
                "amenity": "parking"
            }
        ]
    },
    "clinic": {
        "count": 1,
        "detail": [
            {
                "amenity": "clinic",
                "healthcare": "clinic"
            }
        ]
    },
    "vending_machine": {
        "count": 1,
        "detail": [
            {
                "amenity": "vending_machine",
                "vending": "food"
            }
        ]
    },
    "beauty": {
        "count": 1,
        "detail": [
            {
                "shop": "beauty"
            }
        ]
    },
    "playground": {
        "count": 2,
        "detail": [
            {
                "leisure": "playground"
            },
            {
                "leisure": "playground"
            }
        ]
    }
}