{
    "clinic": {
        "count": 1,
        "detail": [
            {
                "name": "Поликлиника",
                "amenity": "clinic",
                "healthcare": "clinic",
                "health_facility:type": "clinic"
            }
        ]
    },
    "supermarket": {
        "count": 3,
        "detail": [
            {
                "name": "Пятёрочка",
                "shop": "supermarket",
                "alt_name": "Пятерочка",
                "contact:website": "http://www.pyaterochka.ru/"
            },
            {
                "addr:housenumber": "21/2",
                "addr:street": "улица Дзержинского",
                "contact:phone": "+7 495 6609870",
                "contact:website": "http://www.ataksupermarket.ru/",
                "name": "АТАК",
                "opening_hours": "Mo-Su 09:00-22:00",
                "operator:wikidata": "Q2868738",
                "operator:wikipedia": "ru:Atac",
                "shop": "supermarket"
            },
            {
                "name": "Дикси",
                "shop": "supermarket",
                "contact:website": "http://www.dixy.ru/"
            }
        ]
    },
    "bus_stop": {
        "count": 6,
        "detail": [
            {
                "bin": "yes",
                "name": "Поликлиника",
                "bench": "yes",
                "highway": "bus_stop",
                "shelter": "yes",
                "alt_name": "Городская поликлиника",
                "public_transport": "platform"
            },
            {
                "bin": "yes",
                "name": "Поликлиника",
                "bench": "yes",
                "highway": "bus_stop",
                "shelter": "yes",
                "alt_name": "Городская поликлиника",
                "public_transport": "platform"
            },
            {
                "bus": "yes",
                "name": "Поликлиника",
                "alt_name": "Городская поликлиника",
                "public_transport": "stop_position"
            },
            {
                "bus": "yes",
                "name": "Поликлиника",
                "alt_name": "Городская поликлиника",
                "public_transport": "stop_position"
            },
            {
                "bus": "yes",
                "public_transport": "stop_position"
            },
            {
                "bin": "yes",
                "bench": "yes",
                "highway": "bus_stop",
                "shelter": "yes",
                "public_transport": "platform"
            }
        ]
    },
    "books": {
        "count": 2,
        "detail": [
            {
                "shop": "books"
            },
            {
                "name": "Книжный лабиринт",
                "shop": "books",
                "addr:city": "Ивантеевка",
                "addr:street": "улица Новая Слобода",
                "addr:postcode": "141282",
                "addr:housenumber": "4"
            }
        ]
    },
    "convenience": {
        "count": 3,
        "detail": [
            {
                "shop": "convenience"
            },
            {
                "name": "Продукты",
                "shop": "convenience"
            },
            {
                "name": "Пятёрочка",
                "shop": "convenience"
            }
        ]
    },
    "residents": 3675,
    "hospital": {
        "count": 1,
        "detail": [
            {
                "amenity": "hospital"
            }
        ]
    },
    "doctors": {
        "count": 2,
        "detail": [
            {
                "name": "Медикс",
                "amenity": "doctors"
            },
            {
                "name": "Медцентр Мой доктор",
                "amenity": "doctors",
                "name:ru": "Медцентр Мой доктор"
            }
        ]
    },
    "bank": {
        "count": 1,
        "detail": [
            {
                "amenity": "bank",
                "branch": "Среднерусский банк",
                "contact:facebook": "https://www.facebook.com/bankdruzey",
                "contact:instagram": "https://instagram.com/sberbank",
                "contact:ok": "https://ok.ru/sberbank",
                "contact:phone": "+7 800 5555550",
                "contact:twitter": "https://twitter.com/sberbank/",
                "contact:vk": "https://vk.com/sberbank",
                "contact:website": "https://www.sberbank.ru",
                "contact:youtube": "https://www.youtube.com/sberbank",
                "name": "Сбербанк",
                "name:en": "Sberbank",
                "name:ru": "Сбербанк",
                "opening_hours": "Mo-We,Fr 09:00-19:00; Th 09:00-18:00; Sa 09:00-17:00",
                "operator": "ПАО Сбербанк",
                "operator:wikidata": "Q205012",
                "operator:wikipedia": "ru:Сбербанк России",
                "ref": "9040/00834"
            }
        ]
    },
    "atm": {
        "count": 1,
        "detail": [
            {
                "amenity": "atm",
                "operator": "ВТБ"
            }
        ]
    },
    "florist": {
        "count": 1,
        "detail": [
            {
                "shop": "florist"
            }
        ]
    },
    "doityourself": {
        "count": 1,
        "detail": [
            {
                "name": "220 Вольт",
                "shop": "doityourself"
            }
        ]
    },
    "car_parts": {
        "count": 1,
        "detail": [
            {
                "name": "Exists",
                "shop": "car_parts"
            }
        ]
    },
    "pharmacy": {
        "count": 3,
        "detail": [
            {
                "name": "А5",
                "brand": "А5",
                "amenity": "pharmacy",
                "name:ru": "А5",
                "healthcare": "pharmacy",
                "contact:website": "http://apteka5.ru"
            },
            {
                "name": "Аюра",
                "email": "apteka@ayuralife.ru",
                "level": "1",
                "phone": "+7 496 5877097",
                "amenity": "pharmacy",
                "website": "http://www.ayuralive.ru",
                "operator": "ООО \"Этна\"",
                "addr:city": "Ивантеевка",
                "wheelchair": "yes",
                "addr:street": "улица Новая Слобода",
                "payment:cash": "yes",
                "payment:visa": "yes",
                "addr:postcode": "141282",
                "drive_through": "no",
                "opening_hours": "8:00-22:00",
                "addr:housenumber": "3",
                "payment:apple_pay": "yes",
                "payment:mastercard": "yes",
                "payment:contactless": "yes",
                "payment:samsung_pay": "yes"
            },
            {
                "amenity": "pharmacy",
                "addr:city": "Ивантеевка",
                "addr:street": "улица Новая Слобода",
                "addr:postcode": "141282",
                "addr:housenumber": "4"
            }
        ]
    },
    "shelter": {
        "count": 3,
        "detail": [
            {
                "amenity": "shelter",
                "shelter_type": "public_transport"
            },
            {
                "amenity": "shelter",
                "shelter_type": "public_transport"
            },
            {
                "amenity": "shelter",
                "shelter_type": "public_transport"
            }
        ]
    },
    "alcohol": {
        "count": 2,
        "detail": [
            {
                "name": "Красное и белое",
                "shop": "alcohol"
            },
            {
                "name": "Красное&Белое",
                "shop": "alcohol",
                "brand": "Красное&Белое",
                "name:ru": "Красное&Белое",
                "contact:phone": "+7 922 7033000",
                "contact:website": "http://www.krasnoeibeloe.ru",
                "contact:facebook": "https://www.facebook.com/krasnoe.beloe"
            }
        ]
    },
    "vacant": {
        "count": 1,
        "detail": [
            {
                "shop": "vacant"
            }
        ]
    },
    "baby_goods": {
        "count": 1,
        "detail": [
            {
                "name": "Кораблик",
                "shop": "baby_goods"
            }
        ]
    },
    "furniture": {
        "count": 1,
        "detail": [
            {
                "name": "Мебель для жизни",
                "shop": "furniture",
                "addr:city": "Ивантеевка",
                "addr:street": "улица Новая Слобода",
                "addr:postcode": "141282",
                "addr:housenumber": "4"
            }
        ]
    },
    "dentist": {
        "count": 1,
        "detail": [
            {
                "name": "Денталь",
                "amenity": "dentist",
                "website": "imladental.ru",
                "healthcare": "dentist",
                "opening_hours": "Mo-Su 09:00-21:00",
                "health_facility:type": "clinic",
                "medical_system:western": "yes",
                "health_specialty:dentistry": "yes"
            }
        ]
    },
    "gift": {
        "count": 1,
        "detail": [
            {
                "name": "Чайный дворик",
                "shop": "gift",
                "name:ru": "Чайный дворик"
            }
        ]
    },
    "shoes": {
        "count": 1,
        "detail": [
            {
                "name": "Обувной комфорт",
                "shop": "shoes",
                "addr:city": "Ивантеевка",
                "addr:street": "улица Новая Слобода",
                "addr:postcode": "141282",
                "addr:housenumber": "4"
            }
        ]
    },
    "veterinary": {
        "count": 1,
        "detail": [
            {
                "amenity": "veterinary",
                "addr:city": "Ивантеевка",
                "addr:street": "улица Новая Слобода",
                "addr:postcode": "141282",
                "addr:housenumber": "4"
            }
        ]
    },
    "cafe": {
        "count": 2,
        "detail": [
            {
                "amenity": "cafe",
                "contact:email": "hotline@coffee-like.com",
                "contact:phone": "+7 341 2908292;+7 800 3334130",
                "contact:website": "https://coffee-like.com/",
                "name": "Coffee Like",
                "opening_hours": "Mo-Fr 08:00-21:00;Sa-Su 09:00-21:00",
                "operator": "Дрягин Александр Михайлович"
            },
            {
                "addr:housenumber": "29",
                "addr:postcode": "141282",
                "addr:street": "1-я Нижняя улица",
                "amenity": "cafe",
                "cuisine": "russian",
                "name": "Доставка еды «Русская печка»",
                "name:en": "Russkaya Pechka",
                "opening_hours": "Mo-Su 10:00-22:00",
                "phone": "+7 925 6119950"
            }
        ]
    },
    "clothes": {
        "count": 1,
        "detail": [
            {
                "clothes": "workwear",
                "contact:email": "ivanteevka@vostok.ru",
                "contact:phone": "+7 499 2721406",
                "name": "Восток-Сервис",
                "opening_hours": "Mo-Fr 10:00-19:00;Sa 09:00-18:00",
                "shop": "clothes"
            }
        ]
    },
    "electronics": {
        "count": 1,
        "detail": [
            {
                "contact:email": "Degtyarev.a@dns-shop.ru",
                "contact:phone": "+7 800 7707999",
                "contact:website": "http://dns-shop.ru/",
                "name": "DNS",
                "opening_hours": "Mo-Su 10:00-21:00",
                "operator": "ДНС Ритейл",
                "shop": "electronics"
            }
        ]
    },
    "theatre": {
        "count": 1,
        "detail": [
            {
                "name": "КДЦ \"Первомайский\"",
                "amenity": "theatre",
                "building": "yes",
                "description": "Культурно-досуговый центр",
                "building:levels": "2",
                "addr:housenumber": "1А"
            }
        ]
    },
    "school": {
        "count": 1,
        "detail": [
            {
                "building": "school",
                "addr:city": "Ивантеевка",
                "addr:street": "Трубниковская улица",
                "building:levels": "3",
                "addr:housenumber": "27"
            }
        ]
    }
}