{
    "bus_stop": {
        "count": 5,
        "detail": [
            {
                "bench": "yes",
                "highway": "bus_stop",
                "name": "1 микрорайон/Завод «Элион»",
                "note": "остановка теперь на мосту",
                "shelter": "yes"
            },
            {
                "bin": "yes",
                "bus": "yes",
                "name": "1-й торговый центр",
                "bench": "yes",
                "source": "knowledge + bing",
                "highway": "bus_stop",
                "shelter": "yes",
                "public_transport": "platform"
            },
            {
                "bus": "yes",
                "name": "1-й торговый центр",
                "source": "knowledge + bing",
                "public_transport": "stop_position"
            },
            {
                "bus": "yes",
                "name": "1-й торговый центр",
                "public_transport": "stop_position"
            },
            {
                "bench": "yes",
                "highway": "bus_stop",
                "name": "1 микрорайон/Завод «Элион»",
                "shelter": "yes"
            }
        ]
    },
    "residents": 8982,
    "atm": {
        "count": 1,
        "detail": [
            {
                "amenity": "atm",
                "operator": "ПАО \"Сбербанк\"",
                "website": "https://www.sberbank.ru/"
            }
        ]
    },
    "hairdresser": {
        "count": 1,
        "detail": [
            {
                "shop": "hairdresser"
            }
        ]
    },
    "waste_basket": {
        "count": 3,
        "detail": [
            {
                "amenity": "waste_basket"
            },
            {
                "amenity": "waste_basket"
            },
            {
                "amenity": "waste_basket"
            }
        ]
    },
    "clinic": {
        "count": 1,
        "detail": [
            {
                "amenity": "clinic",
                "healthcare": "clinic",
                "health_facility:type": "clinic",
                "medical_system:western": "yes"
            }
        ]
    },
    "fountain": {
        "count": 1,
        "detail": [
            {
                "amenity": "fountain"
            }
        ]
    },
    "waste_disposal": {
        "count": 2,
        "detail": [
            {
                "waste": "trash",
                "amenity": "waste_disposal"
            },
            {
                "amenity": "waste_disposal"
            }
        ]
    },
    "cinema": {
        "count": 1,
        "detail": [
            {
                "name": "Кинематограф",
                "screen": "1",
                "amenity": "cinema",
                "contact:phone": "+7 915 3153499",
                "opening_hours": "Su-Th 16:00-01:00; Fr-Sa 16:00-03:00",
                "contact:website": "https://vk.com/kinematografclub",
                "internet_access": "wlan",
                "contact:livejournal": "http://kinematograf.livejournal.com",
                "internet_access:fee": "no"
            }
        ]
    },
    "parking": {
        "count": 1,
        "detail": [
            {
                "fee": "no",
                "amenity": "parking",
                "parking": "surface"
            }
        ]
    },
    "cafe": {
        "count": 1,
        "detail": [
            {
                "amenity": "cafe",
                "contact:phone": "+7 499 7544444",
                "name": "Суши Wok",
                "opening_hours": "10:00-23:00",
                "website": "https://sushiwok.ru/msk/"
            }
        ]
    },
    "supermarket": {
        "count": 1,
        "detail": [
            {
                "addr:housenumber": "к117",
                "is_in:neighbourhood": "1-й микрорайон",
                "name": "Верный",
                "opening_hours": "Mo-Su 09:00-22:00",
                "shop": "supermarket",
                "website": "https://www.verno-info.ru/"
            }
        ]
    },
    "convenience": {
        "count": 1,
        "detail": [
            {
                "shop": "convenience",
                "addr:city": "Зеленоград",
                "addr:street": "улица Николая Злобина",
                "addr:housenumber": "к107А",
                "is_in:neighbourhood": "1-й микрорайон"
            }
        ]
    },
    "police": {
        "count": 1,
        "detail": [
            {
                "amenity": "police"
            }
        ]
    },
    "playground": {
        "count": 1,
        "detail": [
            {
                "leisure": "playground"
            }
        ]
    },
    "restaurant": {
        "count": 1,
        "detail": [
            {
                "amenity": "restaurant",
                "email": "restoran-amsterdam@mail.ru",
                "name": "Амстердам",
                "opening_hours": "Su-Th 12:00-24:00; Fr-Sa 12:00-03:00",
                "phone": "+7 499 7624341;+7 499 7624430",
                "website": "http://ресторан-амстердам.рф/"
            }
        ]
    },
    "amusement_arcade": {
        "count": 1,
        "detail": [
            {
                "leisure": "amusement_arcade",
                "name": "Клуб виртуальной реальности VR HOUSE",
                "phone": "+7 985 5827474",
                "website": "https://vk.com/zelenograd.vrhouse"
            }
        ]
    },
    "dentist": {
        "count": 1,
        "detail": [
            {
                "amenity": "dentist",
                "contact:email": "klinikastar@mail.ru",
                "contact:facebook": "https://facebook.com/klinikastar",
                "contact:instagram": "https://instagram.com/klinikastar",
                "contact:phone": "+7 495 0231771",
                "contact:website": "https://farmastock.ru/",
                "name": "Стар",
                "opening_hours": "Mo-Su 08:00-21:00",
                "operator": "Стар"
            }
        ]
    },
    "service": {
        "count": 9,
        "detail": [
            {
                "building": "service",
                "addr:city": "Зеленоград",
                "addr:region": "Москва",
                "addr:country": "RU",
                "building:levels": "1",
                "addr:housenumber": "к119 с1",
                "is_in:neighbourhood": "1-й микрорайон"
            },
            {
                "source": "bing",
                "building": "service",
                "building:levels": "1",
                "addr:housenumber": "к101 с1",
                "is_in:neighbourhood": "1-й микрорайон"
            },
            {
                "source": "bing",
                "building": "service",
                "building:levels": "1",
                "addr:housenumber": "к101 с2",
                "is_in:neighbourhood": "1-й микрорайон"
            },
            {
                "source": "bing",
                "building": "service",
                "is_in:neighbourhood": "1-й микрорайон"
            },
            {
                "name": "Орбита",
                "fixme": "Что именно в здании? Только тёплая раздевалка? (http://www.zelenograd.ru/doc/read.php?id=268 )",
                "sport": "hockey",
                "source": "bing",
                "comment": "Хоккейный клуб Орбита",
                "building": "service",
                "addr:city": "Зеленоград",
                "building:levels": "1",
                "addr:housenumber": "к165 с1",
                "is_in:neighbourhood": "1-й микрорайон"
            },
            {
                "source": "bing",
                "building": "service",
                "addr:city": "Зеленоград",
                "building:levels": "1",
                "addr:housenumber": "к164 с1",
                "is_in:neighbourhood": "1-й микрорайон"
            },
            {
                "addr:city": "Зеленоград",
                "addr:housenumber": "к107Г с1",
                "building": "service",
                "building:levels": "1",
                "is_in:neighbourhood": "1-й микрорайон",
                "location": "indoor",
                "power": "substation",
                "substation": "minor_distribution"
            },
            {
                "addr:city": "Зеленоград",
                "addr:housenumber": "к160 с1",
                "building": "service",
                "building:levels": "1",
                "is_in:neighbourhood": "1-й микрорайон",
                "location": "indoor",
                "power": "substation",
                "substation": "minor_distribution"
            },
            {
                "addr:city": "Зеленоград",
                "addr:housenumber": "к145 с1",
                "building": "service",
                "building:levels": "1",
                "is_in:neighbourhood": "1-й микрорайон"
            }
        ]
    },
    "sports_centre": {
        "count": 1,
        "detail": [
            {
                "name": "ФОК \"Импульс\"",
                "leisure": "sports_centre",
                "building": "yes",
                "addr:city": "Зеленоград",
                "design:ref": "291-8-19с.87",
                "addr:region": "Москва",
                "addr:country": "RU",
                "building:levels": "2",
                "addr:housenumber": "к109А",
                "is_in:neighbourhood": "1-й микрорайон"
            }
        ]
    },
    "kindergarten": {
        "count": 2,
        "detail": [
            {
                "name": "Детский сад №214",
                "amenity": "kindergarten",
                "comment": "Детский сад №214",
                "building": "yes",
                "addr:city": "Зеленоград",
                "design:ref": "VI-13",
                "start_date": "1963",
                "addr:region": "Москва",
                "addr:country": "RU",
                "building:levels": "2",
                "addr:housenumber": "к104",
                "is_in:neighbourhood": "1-й микрорайон"
            },
            {
                "building": "kindergarten",
                "addr:city": "Зеленоград",
                "design:ref": "VI-13",
                "start_date": "1966",
                "addr:region": "Москва",
                "addr:country": "RU",
                "building:levels": "2",
                "addr:housenumber": "к115",
                "is_in:neighbourhood": "1-й микрорайон"
            }
        ]
    },
    "public_building": {
        "count": 1,
        "detail": [
            {
                "amenity": "public_building",
                "comment": "Добромед уже есть в POI",
                "building": "yes",
                "addr:city": "Зеленоград",
                "addr:region": "Москва",
                "addr:country": "RU",
                "official_name": "Медицинский центр \"Добромед\"",
                "building:levels": "1",
                "addr:housenumber": "к107В с1",
                "is_in:neighbourhood": "1-й микрорайон"
            }
        ]
    },
    "school": {
        "count": 1,
        "detail": [
            {
                "name": "Школа №804",
                "amenity": "school",
                "comment": "школа №804",
                "building": "yes",
                "addr:city": "Зеленоград",
                "design:ref": "65-426/1",
                "start_date": "1972",
                "addr:region": "Москва",
                "addr:country": "RU",
                "building:parts": "vertical",
                "building:levels": "3",
                "addr:housenumber": "к163",
                "is_in:neighbourhood": "1-й микрорайон"
            }
        ]
    }
}