{
    "bus_stop": {
        "count": 1,
        "detail": [
            {
                "highway": "bus_stop",
                "name": "Универмаг"
            }
        ]
    },
    "residents": 4152,
    "electronics": {
        "count": 1,
        "detail": [
            {
                "contact:email": "elisov.e@dns-shop.ru",
                "contact:phone": "+7 800 7707999",
                "contact:website": "http://dns-shop.ru/",
                "name": "DNS",
                "opening_hours": "Mo-Su 10:00-20:00",
                "operator": "ДНС Ритейл",
                "shop": "electronics"
            }
        ]
    },
    "e-cigarette": {
        "count": 1,
        "detail": [
            {
                "contact:phone": "+880 3014767",
                "name": "Q Store",
                "opening_hours": "Mo-Su 10:00-20:00",
                "shop": "e-cigarette"
            }
        ]
    },
    "hospital": {
        "count": 1,
        "detail": [
            {
                "name": "Поликлиника №5",
                "amenity": "hospital",
                "building": "yes",
                "addr:city": "Анжеро-Судженск",
                "addr:street": "улица Ленина",
                "addr:postcode": "652470",
                "addr:housenumber": "14"
            }
        ]
    },
    "mall": {
        "count": 1,
        "detail": [
            {
                "building": "yes",
                "building:levels": "2",
                "shop": "mall"
            }
        ]
    }
}