{
    "residents": 339,
    "parking": {
        "count": 9,
        "detail": [
            {
                "amenity": "parking"
            },
            {
                "amenity": "parking"
            },
            {
                "amenity": "parking"
            },
            {
                "amenity": "parking"
            },
            {
                "amenity": "parking"
            },
            {
                "amenity": "parking"
            },
            {
                "amenity": "parking",
                "parking": "surface"
            },
            {
                "amenity": "parking"
            },
            {
                "amenity": "parking"
            }
        ]
    },
    "bus_station": {
        "count": 1,
        "detail": [
            {
                "name": "Автовокзал",
                "amenity": "bus_station"
            }
        ]
    },
    "bank": {
        "count": 1,
        "detail": [
            {
                "atm": "yes",
                "name": "Сбербанк России",
                "amenity": "bank",
                "website": "https://www.sberbank.ru/"
            }
        ]
    },
    "car": {
        "count": 2,
        "detail": [
            {
                "name": "Экипаж",
                "shop": "car"
            },
            {
                "name": "Виктор",
                "shop": "car"
            }
        ]
    },
    "doityourself": {
        "count": 1,
        "detail": [
            {
                "name": "Мастер",
                "shop": "doityourself"
            }
        ]
    },
    "electronics": {
        "count": 1,
        "detail": [
            {
                "name": "Норд",
                "shop": "electronics"
            }
        ]
    },
    "atm": {
        "count": 1,
        "detail": [
            {
                "amenity": "atm",
                "operator": "Сбербанк России",
                "website": "https://www.sberbank.ru/"
            }
        ]
    },
    "bicycle": {
        "count": 2,
        "detail": [
            {
                "shop": "bicycle"
            },
            {
                "name": "Ремонт и Т.О. велосипедов",
                "shop": "bicycle",
                "repair": "yes"
            }
        ]
    },
    "hospital": {
        "count": 1,
        "detail": [
            {
                "name": "Отделение судебно-медицинской экспертизы",
                "amenity": "hospital"
            }
        ]
    },
    "bus_stop": {
        "count": 6,
        "detail": [
            {
                "name": "автовокзал",
                "highway": "bus_stop"
            },
            {
                "name": "автовокзал",
                "highway": "bus_stop"
            },
            {
                "highway": "bus_stop",
                "name": "Горгаз"
            },
            {
                "bus": "yes",
                "name": "Автовокзал",
                "public_transport": "stop_position"
            },
            {
                "bus": "yes",
                "name": "Автовокзал",
                "public_transport": "stop_position"
            },
            {
                "bus": "yes",
                "name": "Горгаз",
                "public_transport": "stop_position"
            }
        ]
    },
    "waste_basket": {
        "count": 2,
        "detail": [
            {
                "amenity": "waste_basket"
            },
            {
                "amenity": "waste_basket"
            }
        ]
    },
    "convenience": {
        "count": 1,
        "detail": [
            {
                "name": "Тройка",
                "shop": "convenience"
            }
        ]
    },
    "kiosk": {
        "count": 1,
        "detail": [
            {
                "name": "Роспечать",
                "shop": "kiosk"
            }
        ]
    },
    "fire_station": {
        "count": 1,
        "detail": [
            {
                "name": "Пожарная часть №7",
                "amenity": "fire_station",
                "name:ru": "СУ ФПС №7 МЧС России",
                "description": "Специальное Управление федеральной противопожарной службы №7 МЧС России"
            }
        ]
    },
    "sports_centre": {
        "count": 1,
        "detail": [
            {
                "name": "Спортзал",
                "leisure": "sports_centre"
            }
        ]
    },
    "pharmacy": {
        "count": 1,
        "detail": [
            {
                "name": "Классика",
                "amenity": "pharmacy",
                "dispensing": "no"
            }
        ]
    },
    "mall": {
        "count": 1,
        "detail": [
            {
                "name": "Монетка",
                "shop": "mall"
            }
        ]
    },
    "butcher": {
        "count": 1,
        "detail": [
            {
                "name": "Ариант",
                "shop": "butcher",
                "payment:coins": "no",
                "payment:notes": "no"
            }
        ]
    },
    "community_centre": {
        "count": 1,
        "detail": [
            {
                "name": "Спорткомплекс \"Авангард\"",
                "amenity": "community_centre",
                "name:ru": "Спорткомплекс \"Авангард\""
            }
        ]
    },
    "alcohol": {
        "count": 1,
        "detail": [
            {
                "name": "МАВТ ВИНОТЕКА",
                "shop": "alcohol",
                "name:en": "MAVT VINE",
                "website": "https://mavt.ru/",
                "opening_hours": "Mo-Su 10:00-23:00"
            }
        ]
    },
    "car_rental": {
        "count": 2,
        "detail": [
            {
                "name": "Гаражи",
                "amenity": "car_rental",
                "name:ru": "Гаражи"
            },
            {
                "name": "Гаражи",
                "amenity": "car_rental",
                "name:ru": "Гаражи"
            }
        ]
    },
    "car_wash": {
        "count": 1,
        "detail": [
            {
                "name": "Автомойка",
                "amenity": "car_wash"
            }
        ]
    },
    "beauty": {
        "count": 1,
        "detail": [
            {
                "name": "Beauty_Room",
                "shop": "beauty",
                "phone": "83514649809",
                "addr:street": "улица Ломинского",
                "addr:housenumber": "1А"
            }
        ]
    },
    "car_parts": {
        "count": 1,
        "detail": [
            {
                "name": "УралАвтоСаунд",
                "shop": "car_parts",
                "email": "lab-sound74@mail.ru",
                "phone": "89823552525",
                "addr:street": "улица Ломинского",
                "opening_hours": "Mo-Sa 09:00-19:00",
                "addr:housenumber": "1А"
            }
        ]
    },
    "bakery": {
        "count": 1,
        "detail": [
            {
                "name": "Кулинар",
                "shop": "bakery"
            }
        ]
    },
    "clinic": {
        "count": 1,
        "detail": [
            {
                "name": "Городская поликлиника",
                "amenity": "clinic",
                "building": "yes",
                "addr:street": "улица Дзержинского",
                "addr:housenumber": "13 с16"
            }
        ]
    },
    "college": {
        "count": 1,
        "detail": [
            {
                "name": "Снежинский Политехникум",
                "amenity": "college",
                "name:ru": "ПЛ-120. Снежинский Политехникум им. Иванова",
                "building": "yes",
                "name:full": "ГБОУ ПО \"Снежинский политехнический техникум имени Н.М.Иванова\""
            }
        ]
    },
    "arts_centre": {
        "count": 1,
        "detail": [
            {
                "name": "ЦДО им. Комарова",
                "amenity": "arts_centre",
                "building": "yes",
                "name:full": "МОУДОД «Дворец творчества детей и молодежи имени В. М. Комарова»"
            }
        ]
    },
    "mortuary": {
        "count": 1,
        "detail": [
            {
                "name": "Морг",
                "amenity": "mortuary",
                "building": "yes",
                "addr:street": "улица Дзержинского",
                "building:levels": "1",
                "addr:housenumber": "13 с9"
            }
        ]
    },
    "dentist": {
        "count": 1,
        "detail": [
            {
                "name": "Стоматологическая поликлиника",
                "amenity": "dentist",
                "name:ru": "Стоматологическая поликлиника",
                "building": "yes",
                "building:levels": "2"
            }
        ]
    },
    "place_of_worship": {
        "count": 1,
        "detail": [
            {
                "amenity": "place_of_worship",
                "building": "temple",
                "denomination": "russian_orthodox",
                "name": "Стройка храма",
                "religion": "christian"
            }
        ]
    }
}