{
    "residents": 5985,
    "bus_stop": {
        "count": 5,
        "detail": [
            {
                "bus": "yes",
                "name": "улица Хузангая",
                "share_taxi": "yes",
                "trolleybus": "yes",
                "public_transport": "stop_position"
            },
            {
                "name": "улица Хузангая",
                "highway": "bus_stop",
                "name:cv": "Хусанкай урамӗ",
                "shelter": "yes",
                "wheelchair": "no",
                "public_transport": "platform"
            },
            {
                "highway": "bus_stop",
                "name": "улица Хузангая",
                "name:cv": "Хусанкай урамӗ",
                "public_transport": "platform",
                "shelter": "yes",
                "wheelchair": "no"
            },
            {
                "highway": "bus_stop",
                "name": "Системпром",
                "name:cv": "Системпром",
                "public_transport": "platform",
                "shelter": "yes",
                "wheelchair": "no"
            },
            {
                "bus": "yes",
                "name": "улица Хузангая",
                "share_taxi": "yes",
                "trolleybus": "yes",
                "public_transport": "stop_position"
            }
        ]
    },
    "convenience": {
        "count": 3,
        "detail": [
            {
                "shop": "convenience"
            },
            {
                "shop": "convenience"
            },
            {
                "addr:housenumber": "5",
                "addr:street": "проспект 9-й Пятилетки",
                "building": "store",
                "name": "Ровесник",
                "shop": "convenience"
            }
        ]
    },
    "supermarket": {
        "count": 3,
        "detail": [
            {
                "name": "Магнит",
                "shop": "supermarket",
                "wheelchair": "limited"
            },
            {
                "name": "Сахарок",
                "shop": "supermarket",
                "wheelchair": "no"
            },
            {
                "name": "Смак",
                "shop": "supermarket",
                "wheelchair": "no"
            }
        ]
    },
    "fast_food": {
        "count": 1,
        "detail": [
            {
                "amenity": "fast_food",
                "cuisine": "sushi",
                "image": "http://sushiwok.ru/i/newstyle/logo.png",
                "name": "Суши WOK",
                "opening_hours": "09:00-22:00",
                "phone": "+7 8352 225588",
                "website": "https://sushiwok.ru/cheb/",
                "wheelchair": "limited"
            }
        ]
    },
    "cafe": {
        "count": 1,
        "detail": [
            {
                "name": "Городское",
                "amenity": "cafe",
                "wheelchair": "no"
            }
        ]
    },
    "pharmacy": {
        "count": 4,
        "detail": [
            {
                "name": "Аптека №107",
                "phone": "+7 8352 515471",
                "amenity": "pharmacy",
                "wheelchair": "no"
            },
            {
                "amenity": "pharmacy",
                "wheelchair": "limited"
            },
            {
                "amenity": "pharmacy"
            },
            {
                "amenity": "pharmacy"
            }
        ]
    },
    "bank": {
        "count": 1,
        "detail": [
            {
                "ref": "8613/030",
                "name": "Сбербанк",
                "branch": "Волго-Вятский банк",
                "amenity": "bank",
                "name:en": "Sberbank",
                "name:ru": "Сбербанк",
                "operator": "ПАО \"Сбербанк\"",
                "wheelchair": "yes",
                "contact:phone": "+7 495 5005550",
                "opening_hours": "Mo-Fr 08:00-19:00; Sa 08:30-17:00",
                "contact:website": "https://www.sberbank.ru",
                "operator:wikidata": "Q205012",
                "operator:wikipedia": "ru:Сбербанк России"
            }
        ]
    },
    "veterinary": {
        "count": 2,
        "detail": [
            {
                "addr:housenumber": "5",
                "addr:street": "проспект 9-й Пятилетки",
                "amenity": "veterinary",
                "name": "ZOOфарм",
                "phone": "+7 8352 216640; +7 8352 365216",
                "wheelchair": "no"
            },
            {
                "addr:housenumber": "7/13",
                "addr:street": "проспект 9-й Пятилетки",
                "amenity": "veterinary",
                "name": "Ваш Доктор",
                "phone": "+7 8352 380403; +7 8352 516000",
                "wheelchair": "limited"
            }
        ]
    },
    "mobile_phone": {
        "count": 2,
        "detail": [
            {
                "name": "Евросеть",
                "shop": "mobile_phone",
                "wheelchair": "limited"
            },
            {
                "name": "Салон связи",
                "shop": "mobile_phone",
                "building": "yes",
                "addr:street": "проспект 9-й Пятилетки",
                "addr:housenumber": "3Б"
            }
        ]
    },
    "toys": {
        "count": 1,
        "detail": [
            {
                "name": "Кроха",
                "shop": "toys",
                "phone": "+7 8352 511010",
                "name:ru": "Кроха",
                "wheelchair": "no",
                "addr:street": "проспект 9-й Пятилетки",
                "opening_hours": "Mo-Su 09:00-21:00",
                "addr:housenumber": "16 к1"
            }
        ]
    },
    "alcohol": {
        "count": 1,
        "detail": [
            {
                "name": "Бристоль",
                "shop": "alcohol"
            }
        ]
    },
    "clothes": {
        "count": 2,
        "detail": [
            {
                "name": "Арсенал-Ч",
                "note": "оф.207",
                "shop": "clothes",
                "email": "arsenal-ch@mail.ru",
                "phone": "+7 8352 225922",
                "clothes": "workwear"
            },
            {
                "addr:city": "Чебоксары",
                "addr:housenumber": "16Б",
                "addr:street": "проспект 9-й Пятилетки",
                "description": "Трикотажный магазин",
                "name": "Алёна",
                "shop": "clothes"
            }
        ]
    },
    "seafood": {
        "count": 1,
        "detail": [
            {
                "shop": "seafood"
            }
        ]
    },
    "variety_store": {
        "count": 1,
        "detail": [
            {
                "name": "Рубль Бум",
                "shop": "variety_store",
                "name:ru": "Рубль Бум"
            }
        ]
    },
    "optician": {
        "count": 1,
        "detail": [
            {
                "shop": "optician"
            }
        ]
    },
    "recycling": {
        "count": 1,
        "detail": [
            {
                "amenity": "recycling",
                "operator": "ООО «Уралтелеком-С»",
                "recycling_type": "container",
                "recycling:batteries": "yes"
            }
        ]
    },
    "driving_school": {
        "count": 2,
        "detail": [
            {
                "addr:city": "Чебоксары",
                "addr:housenumber": "18",
                "addr:postcode": "428027",
                "addr:street": "улица Хузангая",
                "amenity": "driving_school",
                "name": "Автошкола ГАПОУ \"Чебоксарский техникум ТрансСтройТех\" Минобразования Чувашии"
            },
            {
                "name": "Профессионал",
                "email": "madiprofi@mail.ru",
                "phone": "+7 903 3589009",
                "amenity": "driving_school",
                "website": "http://автопрофи21.рф",
                "license_classes": "B"
            }
        ]
    },
    "radiotechnics": {
        "count": 1,
        "detail": [
            {
                "email": "sales.ayb@mail.ru",
                "opening_hours": "Mo-Fr 10:00-19:00; Sa, Su 10:00-18:00",
                "phone": "+7 952 3138051",
                "shop": "radiotechnics"
            }
        ]
    },
    "college": {
        "count": 1,
        "detail": [
            {
                "addr:city": "Чебоксары",
                "addr:housenumber": "18",
                "addr:postcode": "428027",
                "addr:street": "улица Хузангая",
                "amenity": "college",
                "name": "ГАПОУ \"Чебоксарский техникум ТрансСтройТех\" Минобразования Чувашии",
                "phone": "+7 8352 523231",
                "website": "https://chttst21.ru/"
            }
        ]
    },
    "electronics": {
        "count": 1,
        "detail": [
            {
                "name": "Электротовары",
                "shop": "electronics"
            }
        ]
    },
    "bakery": {
        "count": 1,
        "detail": [
            {
                "name": "Пекарня Хлебец",
                "shop": "bakery"
            }
        ]
    },
    "pet": {
        "count": 1,
        "detail": [
            {
                "name": "Зоомагазин",
                "shop": "pet"
            }
        ]
    },
    "kindergarten": {
        "count": 2,
        "detail": [
            {
                "addr:housenumber": "6А",
                "addr:street": "проспект 9-й Пятилетки",
                "building": "kindergarten"
            },
            {
                "addr:housenumber": "3А",
                "addr:street": "проспект 9-й Пятилетки",
                "building": "kindergarten",
                "building:levels": "2"
            }
        ]
    },
    "florist": {
        "count": 1,
        "detail": [
            {
                "addr:housenumber": "5Б",
                "addr:street": "проспект 9-й Пятилетки",
                "building": "yes",
                "name": "Цветы",
                "shop": "florist",
                "wheelchair": "no"
            }
        ]
    }
}