{
    "bus_stop": {
        "count": 6,
        "detail": [
            {
                "highway": "bus_stop",
                "name": "улица Эльгера",
                "name:cv": "Элкер урамӗ",
                "public_transport": "platform",
                "shelter": "yes"
            },
            {
                "bin": "yes",
                "name": "Кооперативный институт",
                "bench": "yes",
                "highway": "bus_stop",
                "name:cv": "Коопераци институчӗ",
                "shelter": "yes",
                "public_transport": "platform"
            },
            {
                "bin": "yes",
                "name": "Кооперативный институт",
                "bench": "yes",
                "covered": "yes",
                "highway": "bus_stop",
                "name:cv": "Коопераци институчӗ",
                "shelter": "yes",
                "public_transport": "platform"
            },
            {
                "bus": "yes",
                "name": "улица Эльгера",
                "share_taxi": "yes",
                "trolleybus": "yes",
                "public_transport": "stop_position"
            },
            {
                "bus": "yes",
                "name": "Кооперативный институт",
                "share_taxi": "yes",
                "trolleybus": "yes",
                "public_transport": "stop_position"
            },
            {
                "bus": "yes",
                "name": "Кооперативный институт",
                "share_taxi": "yes",
                "trolleybus": "yes",
                "public_transport": "stop_position"
            }
        ]
    },
    "residents": 5472,
    "car_wash": {
        "count": 3,
        "detail": [
            {
                "amenity": "car_wash",
                "opening_hours": "08:00-21:00"
            },
            {
                "amenity": "car_wash"
            },
            {
                "amenity": "car_wash",
                "opening_hours": "24/7"
            }
        ]
    },
    "convenience": {
        "count": 3,
        "detail": [
            {
                "name": "Магия вкуса",
                "shop": "convenience"
            },
            {
                "name": "Выпечка",
                "shop": "convenience"
            },
            {
                "shop": "convenience",
                "building": "yes",
                "addr:street": "проспект Максима Горького",
                "addr:housenumber": "22Б"
            }
        ]
    },
    "pharmacy": {
        "count": 1,
        "detail": [
            {
                "name": "Цена красна",
                "amenity": "pharmacy",
                "wheelchair": "no"
            }
        ]
    },
    "drinking_water": {
        "count": 1,
        "detail": [
            {
                "amenity": "drinking_water"
            }
        ]
    },
    "tattoo": {
        "count": 1,
        "detail": [
            {
                "name": "Чё тату",
                "shop": "tattoo",
                "phone": "+7 8352 492555",
                "website": "www.чётату.рф",
                "contact:vk": "https://vk.com/chetattooo",
                "opening_hours": "Mo-Su 10:00-21:00"
            }
        ]
    },
    "clinic": {
        "count": 1,
        "detail": [
            {
                "name": "Центр кинезиологии",
                "amenity": "clinic",
                "contact:phone": "+7 8352 362350",
                "contact:website": "massage21.org"
            }
        ]
    },
    "bank": {
        "count": 3,
        "detail": [
            {
                "amenity": "bank",
                "brand": "Совкомбанк",
                "brand:en": "Sovcom Bank",
                "brand:ru": "Совкомбанк",
                "brand:wikidata": "Q4426566",
                "brand:wikipedia": "ru:Совкомбанк",
                "name": "Совкомбанк",
                "name:en": "Sovcom Bank",
                "name:ru": "Совкомбанк"
            },
            {
                "name": "Кузнецкий банк",
                "amenity": "bank"
            },
            {
                "bic": "VTBRRUMM",
                "name": "ВТБ Банк Москвы",
                "brand": "ВТБ Банк Москвы",
                "amenity": "bank",
                "name:en": "VTB Bank of Moscow",
                "name:ru": "ВТБ Банк Москвы",
                "contact:ok": "https://ok.ru/vtb",
                "contact:vk": "https://vk.com/vtb_bm",
                "contact:phone": "+7 800 2002326",
                "brand:wikidata": "Q767946",
                "brand:wikipedia": "ru:Банк Москвы",
                "contact:twitter": "https://twitter.com/VTB_BM",
                "contact:website": "https://www.bm.ru",
                "contact:youtube": "https://www.youtube.com/vtbgroup",
                "contact:facebook": "https://www.facebook.com/VTB.BankofMoscow",
                "contact:instagram": "https://www.instagram.com/bankvtb"
            }
        ]
    },
    "photo_studio": {
        "count": 1,
        "detail": [
            {
                "name": "Дитис",
                "shop": "photo_studio",
                "email": "t-s@mail.ru",
                "website": "ditis-studio.ru"
            }
        ]
    },
    "atm": {
        "count": 2,
        "detail": [
            {
                "name": "Почта банк",
                "amenity": "atm"
            },
            {
                "amenity": "atm",
                "contact:email": "info@psbank.ru",
                "contact:phone": "+7 495 7873333;+7 800 3330303",
                "contact:website": "https://psbank.ru/",
                "opening_hours": "Mo-Fr 07:00-21:00",
                "operator": "Промсвязьбанк"
            }
        ]
    },
    "shoes": {
        "count": 2,
        "detail": [
            {
                "name": "Rieker",
                "shop": "shoes"
            },
            {
                "name": "Новый сезон",
                "shop": "shoes"
            }
        ]
    },
    "restaurant": {
        "count": 1,
        "detail": [
            {
                "name": "Шале",
                "amenity": "restaurant"
            }
        ]
    },
    "furniture": {
        "count": 1,
        "detail": [
            {
                "name": "Verona",
                "shop": "furniture"
            }
        ]
    },
    "confectionery": {
        "count": 1,
        "detail": [
            {
                "name": "Акконд",
                "shop": "confectionery"
            }
        ]
    },
    "driving_school": {
        "count": 1,
        "detail": [
            {
                "name": "Трансойлсервис",
                "amenity": "driving_school",
                "website": "http://www.tos-avto.ru/",
                "license_classes": "B"
            }
        ]
    },
    "department_store": {
        "count": 2,
        "detail": [
            {
                "name": "Монолит",
                "shop": "department_store"
            },
            {
                "name": "Респект",
                "shop": "department_store"
            }
        ]
    },
    "bar": {
        "count": 1,
        "detail": [
            {
                "name": "Амбар",
                "amenity": "bar"
            }
        ]
    },
    "florist": {
        "count": 1,
        "detail": [
            {
                "shop": "florist"
            }
        ]
    },
    "curtain": {
        "count": 1,
        "detail": [
            {
                "name": "Евро Шторы",
                "shop": "curtain"
            }
        ]
    },
    "dry_cleaning": {
        "count": 1,
        "detail": [
            {
                "shop": "dry_cleaning"
            }
        ]
    },
    "car_repair": {
        "count": 1,
        "detail": [
            {
                "name": "Студия кузовного ремонта",
                "shop": "car_repair"
            }
        ]
    },
    "car_parts": {
        "count": 1,
        "detail": [
            {
                "name": "Автоимпорт",
                "shop": "car_parts"
            }
        ]
    },
    "service": {
        "count": 1,
        "detail": [
            {
                "building": "service"
            }
        ]
    }
}