{
    "residents": 8235,
    "bus_stop": {
        "count": 6,
        "detail": [
            {
                "bench": "yes",
                "highway": "bus_stop",
                "name": "Больничный комплекс",
                "name:cv": "Сыватӑш комплексӗ",
                "public_transport": "platform",
                "shelter": "yes",
                "tactile_paving": "yes",
                "wheelchair": "limited"
            },
            {
                "highway": "bus_stop",
                "name": "Детский медцентр",
                "name:cv": "Ача-пӑча медицина центӑрӗ",
                "public_transport": "platform",
                "shelter": "yes",
                "wheelchair": "limited"
            },
            {
                "highway": "bus_stop",
                "name": "Детский медцентр",
                "name:cv": "Ача-пӑча медицина центӑрӗ",
                "public_transport": "platform",
                "shelter": "yes",
                "wheelchair": "no"
            },
            {
                "highway": "bus_stop",
                "name": "Новоюжная автостанция",
                "name:cv": "Ҫӗнӗ кӑнтӑр автостанцийӗ",
                "public_transport": "platform",
                "wheelchair": "no"
            },
            {
                "bus": "yes",
                "name": "Детский медцентр",
                "share_taxi": "yes",
                "trolleybus": "yes",
                "public_transport": "stop_position"
            },
            {
                "bus": "yes",
                "name": "Детский медцентр",
                "share_taxi": "yes",
                "trolleybus": "yes",
                "public_transport": "stop_position"
            }
        ]
    },
    "hairdresser": {
        "count": 1,
        "detail": [
            {
                "name": "Золотой Гребень",
                "shop": "hairdresser",
                "addr:city": "Чебоксары",
                "wheelchair": "no",
                "addr:street": "улица Кадыкова",
                "addr:postcode": "428031",
                "opening_hours": "Mo-Fr 08:00-20:00; Sa-Su 08:00-19:00",
                "addr:housenumber": "4А",
                "toilets:wheelchair": "no"
            }
        ]
    },
    "cafe": {
        "count": 5,
        "detail": [
            {
                "name": "Парус",
                "amenity": "cafe",
                "wheelchair": "no"
            },
            {
                "name": "Клюква",
                "amenity": "cafe",
                "wheelchair": "yes"
            },
            {
                "amenity": "cafe",
                "name": "Ханара",
                "name:en": "Hanara",
                "opening_hours": "Mo-Su 10:00-22:00",
                "phone": "+7 8352 600150"
            },
            {
                "name": "МиксМакс",
                "amenity": "cafe",
                "building": "yes",
                "wheelchair": "no",
                "addr:street": "улица 324-й Стрелковой Дивизии",
                "addr:housenumber": "28Б"
            },
            {
                "name": "Пиццета",
                "amenity": "cafe",
                "cuisine": "pizza",
                "building": "yes",
                "roof:shape": "flat",
                "wheelchair": "no",
                "addr:street": "улица Кадыкова",
                "roof:colour": "dark_gray",
                "addr:housenumber": "4А",
                "toilets:wheelchair": "no"
            }
        ]
    },
    "courthouse": {
        "count": 2,
        "detail": [
            {
                "name": "Мировые судья",
                "amenity": "courthouse",
                "wheelchair": "yes"
            },
            {
                "name": "Судебные приставы",
                "amenity": "courthouse",
                "wheelchair": "limited"
            }
        ]
    },
    "bar": {
        "count": 1,
        "detail": [
            {
                "name": "Аут",
                "amenity": "bar",
                "wheelchair": "no"
            }
        ]
    },
    "convenience": {
        "count": 3,
        "detail": [
            {
                "name": "Купец",
                "shop": "convenience",
                "wheelchair": "no",
                "toilets:wheelchair": "no"
            },
            {
                "shop": "convenience",
                "wheelchair": "yes"
            },
            {
                "name": "Сахарок",
                "shop": "convenience",
                "building": "yes",
                "addr:city": "Чебоксары",
                "wheelchair": "no",
                "addr:street": "улица Кадыкова",
                "addr:postcode": "428031",
                "opening_hours": "08:00-22:00",
                "addr:housenumber": "10"
            }
        ]
    },
    "chemist": {
        "count": 1,
        "detail": [
            {
                "name": "Рубль Бум",
                "shop": "chemist",
                "wheelchair": "no",
                "toilets:wheelchair": "no"
            }
        ]
    },
    "supermarket": {
        "count": 1,
        "detail": [
            {
                "brand": "Пятёрочка",
                "brand:en": "Pyaterochka",
                "brand:wikidata": "Q1768969",
                "brand:wikipedia": "ru:Пятёрочка",
                "name": "Пятёрочка",
                "name:en": "Pyaterochka",
                "shop": "supermarket",
                "wheelchair": "yes"
            }
        ]
    },
    "bakery": {
        "count": 2,
        "detail": [
            {
                "shop": "bakery",
                "wheelchair": "limited"
            },
            {
                "shop": "bakery",
                "building": "yes",
                "wheelchair": "limited"
            }
        ]
    },
    "variety_store": {
        "count": 1,
        "detail": [
            {
                "name": "Fix Price",
                "shop": "variety_store",
                "wheelchair": "no",
                "opening_hours": "08:00-20:00"
            }
        ]
    },
    "bicycle": {
        "count": 1,
        "detail": [
            {
                "email": "activreall@mail.ru",
                "layer": "1",
                "name": "ActivReal",
                "opening_hours": "Mo-Fr 09:00-19:00; Sa-Su 09:00-18:00",
                "phone": "+7 967 4702136",
                "shop": "bicycle",
                "website": "http://activreall.ru",
                "wheelchair": "no"
            }
        ]
    },
    "pharmacy": {
        "count": 1,
        "detail": [
            {
                "amenity": "pharmacy",
                "wheelchair": "yes",
                "opening_hours": "Mo-Sa 09:00-20:00; Su 10:00-18:00"
            }
        ]
    },
    "library": {
        "count": 1,
        "detail": [
            {
                "amenity": "library",
                "contact:vk": "https://vk.com/id530157411;https://vk.com/lkassil19",
                "email": "childlibfil10@rambler.ru",
                "name": "Детская библиотека имени Л. Кассиля",
                "official_name": "Библиотека – детский информационный центр имени Л. Кассиля – филиал №10",
                "opening_hours": "Mo-Fr 09:00-18:00; Su 09:00-17:00",
                "phone": "+7 8352 511553",
                "website": "https://lib21.ru/affiliate/70"
            }
        ]
    },
    "bicycle_parking": {
        "count": 1,
        "detail": [
            {
                "amenity": "bicycle_parking"
            }
        ]
    },
    "department_store": {
        "count": 1,
        "detail": [
            {
                "name": "Хозяин",
                "shop": "department_store",
                "building": "store",
                "wheelchair": "no",
                "addr:street": "улица 324-й Стрелковой Дивизии",
                "addr:housenumber": "28"
            }
        ]
    },
    "kindergarten": {
        "count": 2,
        "detail": [
            {
                "addr:housenumber": "19",
                "addr:street": "проспект Тракторостроителей",
                "building": "kindergarten",
                "building:levels": "2",
                "roof:colour": "dark_gray",
                "roof:shape": "flat"
            },
            {
                "building": "kindergarten",
                "building:levels": "2"
            }
        ]
    },
    "commercial": {
        "count": 1,
        "detail": [
            {
                "name": "Газпром",
                "building": "commercial",
                "addr:street": "улица 324-й Стрелковой Дивизии",
                "addr:housenumber": "28А"
            }
        ]
    },
    "police": {
        "count": 1,
        "detail": [
            {
                "name": "ОВО",
                "amenity": "police",
                "building": "yes",
                "wheelchair": "no",
                "addr:street": "улица 324-й Стрелковой Дивизии",
                "addr:housenumber": "30"
            }
        ]
    },
    "restaurant": {
        "count": 1,
        "detail": [
            {
                "name": "Менуа",
                "amenity": "restaurant",
                "building": "yes",
                "wheelchair": "no",
                "addr:street": "улица Кадыкова",
                "addr:housenumber": "7А"
            }
        ]
    },
    "car_repair": {
        "count": 1,
        "detail": [
            {
                "name": "Автомороз",
                "shop": "car_repair",
                "building": "yes",
                "addr:street": "Пролетарская улица",
                "addr:housenumber": "18"
            }
        ]
    },
    "car_wash": {
        "count": 1,
        "detail": [
            {
                "amenity": "car_wash",
                "building": "yes",
                "addr:street": "Пролетарская улица",
                "addr:housenumber": "5А"
            }
        ]
    }
}