{
    "residents": 3472,
    "car": {
        "count": 2,
        "detail": [
            {
                "name": "Авто-Трио",
                "shop": "car",
                "description": "Магазин автозапчастей"
            },
            {
                "name": "Авто-максимум",
                "shop": "car"
            }
        ]
    },
    "bus_stop": {
        "count": 2,
        "detail": [
            {
                "name": "Политехнический колледж",
                "bench": "no",
                "highway": "bus_stop",
                "shelter": "no",
                "public_transport": "platform"
            },
            {
                "bus": "yes",
                "name": "Политехнический колледж",
                "public_transport": "stop_position"
            }
        ]
    },
    "courthouse": {
        "count": 2,
        "detail": [
            {
                "name": "Управление судебного депаратамента",
                "amenity": "courthouse"
            },
            {
                "name": "Арбитражный суд Владимирской области",
                "amenity": "courthouse"
            }
        ]
    },
    "post_office": {
        "count": 1,
        "detail": [
            {
                "ref": "600025",
                "name": "Отделение связи №600025",
                "phone": "+7-4922-325198",
                "amenity": "post_office",
                "website": "http://www.russianpost.ru",
                "operator": "Почта России",
                "contact:phone": "+7 4922 325198",
                "opening_hours": "Mo-Fr 08:00-12:00,13:00-17:00; Sa-Su Off",
                "contact:website": "http://www.russianpost.ru"
            }
        ]
    },
    "restaurant": {
        "count": 1,
        "detail": [
            {
                "name": "Бюргер",
                "amenity": "restaurant"
            }
        ]
    },
    "bank": {
        "count": 1,
        "detail": [
            {
                "name": "РусФинанс Банк",
                "amenity": "bank"
            }
        ]
    },
    "police": {
        "count": 2,
        "detail": [
            {
                "name": "Следственное управление Следственного комитета",
                "amenity": "police"
            },
            {
                "name": "УСФРФ по контролю за оборотом наркотиков",
                "amenity": "police"
            }
        ]
    },
    "parking_entrance": {
        "count": 2,
        "detail": [
            {
                "amenity": "parking_entrance"
            },
            {
                "access": "private",
                "amenity": "parking_entrance",
                "maxheight": "2.2"
            }
        ]
    },
    "waste_disposal": {
        "count": 4,
        "detail": [
            {
                "amenity": "waste_disposal"
            },
            {
                "amenity": "waste_disposal"
            },
            {
                "amenity": "waste_disposal"
            },
            {
                "amenity": "waste_disposal"
            }
        ]
    },
    "beauty": {
        "count": 1,
        "detail": [
            {
                "name": "DoIce Vita",
                "opening_hours": "Mo-Su 10:00-20:00",
                "phone": "+79997764171",
                "shop": "beauty",
                "website": "https://m.vk.com/parikmadd"
            }
        ]
    },
    "waste_basket": {
        "count": 4,
        "detail": [
            {
                "amenity": "waste_basket"
            },
            {
                "amenity": "waste_basket"
            },
            {
                "amenity": "waste_basket"
            },
            {
                "amenity": "waste_basket"
            }
        ]
    },
    "bench": {
        "count": 4,
        "detail": [
            {
                "amenity": "bench",
                "surface": "wood",
                "backrest": "no"
            },
            {
                "amenity": "bench",
                "surface": "wood",
                "backrest": "no"
            },
            {
                "amenity": "bench",
                "surface": "wood",
                "backrest": "no"
            },
            {
                "amenity": "bench",
                "surface": "wood",
                "backrest": "no"
            }
        ]
    },
    "kindergarten": {
        "count": 2,
        "detail": [
            {
                "name": "Сюрприз",
                "amenity": "kindergarten",
                "description": "Центр раннего развития"
            },
            {
                "building": "kindergarten",
                "addr:city": "Владимир",
                "addr:street": "Костерин переулок",
                "addr:country": "RU",
                "building:levels": "2",
                "addr:housenumber": "13"
            }
        ]
    },
    "doctors": {
        "count": 1,
        "detail": [
            {
                "name": "Центр современной медицины",
                "amenity": "doctors"
            }
        ]
    },
    "community_centre": {
        "count": 1,
        "detail": [
            {
                "name": "Стрелецкая 25",
                "amenity": "community_centre",
                "contact:vk": "strl25"
            }
        ]
    },
    "college": {
        "count": 1,
        "detail": [
            {
                "name": "Политехнический колледж",
                "amenity": "college",
                "building": "yes",
                "addr:city": "Владимир",
                "addr:street": "Октябрьский проспект",
                "addr:country": "RU",
                "building:levels": "4",
                "addr:housenumber": "11"
            }
        ]
    },
    "parking": {
        "count": 1,
        "detail": [
            {
                "access": "private",
                "amenity": "parking",
                "parking": "underground",
                "building": "garages"
            }
        ]
    },
    "school": {
        "count": 1,
        "detail": [
            {
                "building": "school",
                "addr:city": "Владимир",
                "addr:street": "Стрелецкая улица",
                "addr:country": "RU",
                "building:levels": "2",
                "addr:housenumber": "7А"
            }
        ]
    }
}