{
    "residents": 234,
    "cafe": {
        "count": 1,
        "detail": [
            {
                "amenity": "cafe"
            }
        ]
    },
    "kindergarten": {
        "count": 2,
        "detail": [
            {
                "building": "kindergarten"
            },
            {
                "building": "kindergarten"
            }
        ]
    },
    "hospital": {
        "count": 1,
        "detail": [
            {
                "name": "Поликлиника",
                "amenity": "hospital",
                "building": "yes",
                "addr:street": "улица Энгельса",
                "addr:housenumber": "11"
            }
        ]
    },
    "school": {
        "count": 1,
        "detail": [
            {
                "addr:city": "Далматово",
                "addr:housenumber": "109",
                "addr:street": "улица 4-го Уральского Полка",
                "building": "school",
                "building:levels": "3",
                "name": "Далматовская средняя общеобразовательная школа №2"
            }
        ]
    },
    "butcher": {
        "count": 1,
        "detail": [
            {
                "amenity": "fast_food",
                "building": "yes",
                "name": "Подкорытовские колбасы",
                "shop": "butcher"
            }
        ]
    }
}