{
    "residents": 6226,
    "supermarket": {
        "count": 2,
        "detail": [
            {
                "brand": "Пятёрочка",
                "brand:en": "Pyaterochka",
                "brand:wikidata": "Q1768969",
                "brand:wikipedia": "ru:Пятёрочка",
                "contact:email": "vopros@5ka.ru",
                "contact:phone": "+7 800 5555505",
                "contact:website": "https://5ka.ru",
                "name": "Пятёрочка",
                "name:en": "Pyaterochka",
                "name:ru": "Пятёрочка",
                "opening_hours": "Mo-Su 08:00-22:00",
                "shop": "supermarket"
            },
            {
                "addr:housenumber": "13Б",
                "addr:street": "улица Советской Армии",
                "brand": "Магнит",
                "brand:en": "Magnit",
                "brand:wikidata": "Q940518",
                "brand:wikipedia": "ru:Магнит (сеть магазинов)",
                "building": "yes",
                "building:levels": "1",
                "contact:email": "info@magnit.ru",
                "contact:phone": "+7 800 2009002",
                "contact:website": "https://magnit.ru",
                "name": "Магнит",
                "name:en": "Magnit",
                "name:ru": "Магнит",
                "opening_hours": "Mo-Su 08:30-22:00",
                "operator": "АО \"Тандер\"",
                "shop": "supermarket"
            }
        ]
    },
    "playground": {
        "count": 1,
        "detail": [
            {
                "leisure": "playground"
            }
        ]
    },
    "post_office": {
        "count": 1,
        "detail": [
            {
                "amenity": "post_office",
                "brand": "Почта России",
                "brand:wikidata": "Q1502763",
                "brand:wikipedia": "ru:Почта России",
                "contact:website": "https://www.pochta.ru",
                "name": "Нижний Новгород 603111",
                "opening_hours": "Mo-Fr 08:00-20:00; Sa 09:00-18:00",
                "operator": "АО «Почта России»",
                "ref": "603111"
            }
        ]
    },
    "pharmacy": {
        "count": 1,
        "detail": [
            {
                "amenity": "pharmacy",
                "contact:facebook": "http://facebook.com/aptekivita",
                "contact:instagram": "https://www.instagram.com/vita_express/",
                "contact:phone": "+7 800 7550003",
                "contact:vk": "https://vk.com/aptekivita",
                "contact:website": "https://vitaexpress.ru/",
                "name": "Вита Экспресс",
                "opening_hours": "Mo-Fr 08:00-21:00;Sa-Su 08:00-20:00"
            }
        ]
    },
    "kindergarten": {
        "count": 1,
        "detail": [
            {
                "building": "kindergarten",
                "addr:street": "проспект Октября",
                "building:levels": "1",
                "addr:housenumber": "21А"
            }
        ]
    },
    "service": {
        "count": 8,
        "detail": [
            {
                "ref": "362",
                "power": "substation",
                "voltage": "6000;400",
                "building": "service",
                "location": "indoor",
                "operator": "АО «Энергосетевая компания»",
                "frequency": "50",
                "substation": "minor_distribution",
                "building:levels": "1",
                "official_short_type": "ТП"
            },
            {
                "ref": "281",
                "power": "substation",
                "voltage": "6000;400",
                "building": "service",
                "location": "indoor",
                "operator": "АО «Энергосетевая компания»",
                "frequency": "50",
                "substation": "minor_distribution",
                "building:levels": "1",
                "official_short_type": "ТП"
            },
            {
                "ref": "288А",
                "power": "substation",
                "voltage": "6000;400",
                "building": "service",
                "location": "indoor",
                "operator": "АО «Энергосетевая компания»",
                "frequency": "50",
                "substation": "minor_distribution",
                "building:levels": "1",
                "official_short_type": "ТП"
            },
            {
                "ref": "286",
                "power": "substation",
                "voltage": "6000;400",
                "building": "service",
                "location": "indoor",
                "operator": "АО «Энергосетевая компания»",
                "frequency": "50",
                "substation": "minor_distribution",
                "building:levels": "1",
                "official_short_type": "ТП"
            },
            {
                "ref": "288",
                "power": "substation",
                "voltage": "6000;400",
                "building": "service",
                "location": "indoor",
                "operator": "АО «Энергосетевая компания»",
                "frequency": "50",
                "substation": "minor_distribution",
                "building:levels": "1",
                "official_short_type": "ТП"
            },
            {
                "ref": "9",
                "power": "substation",
                "voltage": "6000;400",
                "building": "service",
                "location": "indoor",
                "operator": "АО «Энергосетевая компания»",
                "frequency": "50",
                "substation": "minor_distribution",
                "building:levels": "1",
                "official_short_type": "ТП"
            },
            {
                "ref": "879",
                "power": "substation",
                "voltage": "6000;400",
                "building": "service",
                "location": "indoor",
                "operator": "АО «Энергосетевая компания»",
                "frequency": "50",
                "substation": "minor_distribution",
                "building:levels": "1",
                "official_short_type": "ТП"
            },
            {
                "ref": "364",
                "power": "substation",
                "voltage": "6000;400",
                "building": "service",
                "location": "indoor",
                "operator": "АО «Энергосетевая компания»",
                "frequency": "50",
                "substation": "minor_distribution",
                "building:levels": "1",
                "official_short_type": "ТП"
            }
        ]
    }
}