{
    "residents": 942,
    "bus_stop": {
        "count": 2,
        "detail": [
            {
                "highway": "bus_stop"
            },
            {
                "highway": "bus_stop"
            }
        ]
    },
    "bank": {
        "count": 1,
        "detail": [
            {
                "name": "Сберкасса",
                "amenity": "bank"
            }
        ]
    },
    "hospital": {
        "count": 1,
        "detail": [
            {
                "name": "Детская поликлинника",
                "amenity": "hospital"
            }
        ]
    },
    "car_rental": {
        "count": 1,
        "detail": [
            {
                "amenity": "car_rental"
            }
        ]
    },
    "pharmacy": {
        "count": 1,
        "detail": [
            {
                "amenity": "pharmacy"
            }
        ]
    },
    "telephone": {
        "count": 1,
        "detail": [
            {
                "amenity": "telephone"
            }
        ]
    },
    "cafe": {
        "count": 2,
        "detail": [
            {
                "amenity": "cafe",
                "name": "Позная",
                "phone": "+7 924 6148440;+7 908 6486112"
            },
            {
                "name": "Арзу",
                "amenity": "cafe",
                "cuisine": "kebab",
                "building": "yes",
                "addr:street": "Вокзальная улица",
                "addr:postcode": "665714",
                "addr:housenumber": "4А"
            }
        ]
    },
    "dentist": {
        "count": 1,
        "detail": [
            {
                "addr:postcode": "665714",
                "amenity": "dentist",
                "email": "DENTA.stom@outlook.com",
                "internet_access": "wlan",
                "name": "Детская стоматология",
                "opening_hours": "Mo-Sa 08:00-18:00",
                "phone": "+7 3953 481491"
            }
        ]
    },
    "mall": {
        "count": 1,
        "detail": [
            {
                "name": "Планета",
                "shop": "mall",
                "building": "yes",
                "addr:street": "Вокзальная улица",
                "addr:postcode": "665714",
                "addr:housenumber": "8А"
            }
        ]
    },
    "fire_station": {
        "count": 1,
        "detail": [
            {
                "name": "8 отряд ФПС",
                "phone": "01",
                "amenity": "fire_station",
                "building": "yes",
                "addr:city": "Братск",
                "addr:street": "Вокзальная улица",
                "addr:postcode": "665714",
                "addr:housenumber": "2Б"
            }
        ]
    },
    "public_building": {
        "count": 5,
        "detail": [
            {
                "name": "Детская поликлинника",
                "amenity": "public_building",
                "building": "yes",
                "addr:street": "Вокзальная улица",
                "addr:postcode": "665714",
                "addr:housenumber": "10А"
            },
            {
                "amenity": "public_building",
                "building": "yes",
                "addr:street": "Вокзальная улица",
                "addr:postcode": "665714",
                "addr:housenumber": "10В"
            },
            {
                "amenity": "public_building",
                "building": "yes",
                "addr:street": "Енисейская улица",
                "addr:postcode": "665714",
                "addr:housenumber": "95"
            },
            {
                "amenity": "public_building",
                "building": "yes",
                "addr:street": "Енисейская улица",
                "addr:postcode": "665714",
                "addr:housenumber": "91"
            },
            {
                "amenity": "public_building",
                "building": "yes",
                "addr:street": "Енисейская улица",
                "addr:postcode": "665714",
                "addr:housenumber": "50А"
            }
        ]
    },
    "service": {
        "count": 4,
        "detail": [
            {
                "power": "substation",
                "building": "service"
            },
            {
                "power": "substation",
                "building": "service"
            },
            {
                "power": "substation",
                "building": "service"
            },
            {
                "power": "substation",
                "building": "service"
            }
        ]
    },
    "social_facility": {
        "count": 1,
        "detail": [
            {
                "name": "Молочная кухня",
                "amenity": "social_facility",
                "building": "yes",
                "addr:street": "Енисейская улица",
                "addr:postcode": "665714",
                "social_facility": "dairy_kitchen",
                "addr:housenumber": "52В"
            }
        ]
    },
    "supermarket": {
        "count": 1,
        "detail": [
            {
                "name": "Русич-Маркет",
                "shop": "supermarket",
                "building": "yes",
                "operator": "Панарин В.В.",
                "addr:city": "Братск",
                "wheelchair": "yes",
                "addr:street": "Вокзальная улица",
                "addr:postcode": "665714"
            }
        ]
    }
}