{
    "bus_stop": {
        "count": 2,
        "detail": [
            {
                "highway": "bus_stop"
            },
            {
                "highway": "bus_stop"
            }
        ]
    },
    "supermarket": {
        "count": 1,
        "detail": [
            {
                "name": "Магнит",
                "shop": "supermarket"
            }
        ]
    },
    "residents": 3264,
    "optician": {
        "count": 1,
        "detail": [
            {
                "addr:city": "Янаул",
                "addr:housenumber": "2",
                "addr:street": "Советская улица",
                "name": "ГОСТОПТИКА",
                "opening_hours": "Mo-Sa 09:00-19:00; Su 10:00-18:00",
                "operator": "ГОСТОПТИКА",
                "phone": "+79063720950",
                "shop": "optician",
                "website": "http://gost-optika.com",
                "website_1": "https://vk.com/gostoptica"
            }
        ]
    },
    "florist": {
        "count": 2,
        "detail": [
            {
                "name": "Цветы",
                "shop": "florist",
                "operator": "https://vk.com/flowers_ynaul  +7(905)355-02-66",
                "addr:city": "Янаул",
                "addr:street": "Советская улица",
                "addr:postcode": "452800",
                "addr:housenumber": "1/1"
            },
            {
                "name": "Магазин Цветы",
                "shop": "florist",
                "building": "yes",
                "operator": "https://vk.com/flowers_ynaul  +7(905)355-02-66",
                "addr:city": "Янаул",
                "addr:street": "Советская улица",
                "addr:postcode": "452800",
                "addr:housenumber": "1/1"
            }
        ]
    },
    "pharmacy": {
        "count": 1,
        "detail": [
            {
                "amenity": "pharmacy",
                "contact:facebook": "http://facebook.com/aptekivita",
                "contact:instagram": "https://www.instagram.com/vita_express/",
                "contact:phone": "+7 800 7550003",
                "contact:vk": "https://vk.com/aptekivita",
                "contact:website": "https://vitaexpress.ru/",
                "name": "Вита Экспресс",
                "opening_hours": "Mo-Su 09:00-21:00"
            }
        ]
    },
    "electronics": {
        "count": 1,
        "detail": [
            {
                "contact:phone": "+7 800 7707999",
                "contact:website": "http://dns-shop.ru/",
                "name": "DNS",
                "opening_hours": "Mo-Su 10:00-20:00",
                "operator": "ДНС Ритейл",
                "shop": "electronics"
            }
        ]
    },
    "school": {
        "count": 2,
        "detail": [
            {
                "building": "school",
                "addr:city": "Янаул",
                "addr:street": "улица Азина",
                "addr:housenumber": "20"
            },
            {
                "building": "school",
                "addr:city": "Янаул",
                "addr:street": "улица Ленина",
                "addr:housenumber": "20"
            }
        ]
    },
    "mall": {
        "count": 5,
        "detail": [
            {
                "shop": "mall",
                "building": "yes",
                "addr:city": "Янаул",
                "addr:street": "Советская улица",
                "addr:housenumber": "1"
            },
            {
                "shop": "mall",
                "building": "yes",
                "addr:city": "Янаул",
                "addr:street": "улица Ленина",
                "addr:housenumber": "6"
            },
            {
                "shop": "mall",
                "building": "yes",
                "addr:city": "Янаул",
                "addr:street": "улица Ленина",
                "addr:housenumber": "1"
            },
            {
                "shop": "mall",
                "building": "yes",
                "addr:city": "Янаул",
                "addr:street": "улица Победы",
                "addr:housenumber": "68"
            },
            {
                "shop": "mall",
                "building": "yes",
                "addr:city": "Янаул",
                "addr:street": "Советская улица",
                "addr:housenumber": "15"
            }
        ]
    },
    "kindergarten": {
        "count": 2,
        "detail": [
            {
                "source": "Bing",
                "building": "kindergarten",
                "addr:city": "Янаул",
                "addr:street": "52-й квартал",
                "addr:housenumber": "8/1"
            },
            {
                "source": "Bing",
                "building": "kindergarten",
                "addr:city": "Янаул",
                "addr:street": "улица Победы",
                "addr:housenumber": "74"
            }
        ]
    },
    "commercial": {
        "count": 3,
        "detail": [
            {
                "source": "Bing",
                "building": "commercial",
                "addr:city": "Янаул",
                "addr:street": "улица Азина",
                "addr:housenumber": "28"
            },
            {
                "building": "commercial",
                "addr:city": "Янаул",
                "addr:street": "Советская улица",
                "addr:housenumber": "21А"
            },
            {
                "building": "commercial"
            }
        ]
    },
    "townhall": {
        "count": 1,
        "detail": [
            {
                "source": "Bing",
                "amenity": "townhall",
                "building": "yes",
                "addr:city": "Янаул",
                "addr:street": "улица Азина",
                "addr:postcode": "452800",
                "addr:housenumber": "30"
            }
        ]
    },
    "sports_centre": {
        "count": 1,
        "detail": [
            {
                "name": "Дворец спорта",
                "leisure": "sports_centre",
                "building": "yes",
                "addr:city": "Янаул",
                "addr:street": "улица Ленина",
                "addr:housenumber": "16"
            }
        ]
    },
    "marketplace": {
        "count": 1,
        "detail": [
            {
                "addr:city": "Янаул",
                "addr:housenumber": "3",
                "addr:street": "улица Худайбердина",
                "amenity": "marketplace",
                "building": "yes"
            }
        ]
    },
    "post_office": {
        "count": 1,
        "detail": [
            {
                "amenity": "post_office",
                "building": "yes",
                "addr:city": "Янаул",
                "addr:street": "улица Худайбердина",
                "addr:housenumber": "5"
            }
        ]
    },
    "bank": {
        "count": 1,
        "detail": [
            {
                "amenity": "bank",
                "building": "yes",
                "addr:city": "Янаул",
                "addr:street": "Советская улица",
                "addr:housenumber": "13Б"
            }
        ]
    },
    "butcher": {
        "count": 1,
        "detail": [
            {
                "shop": "butcher",
                "building": "yes",
                "addr:city": "Янаул",
                "addr:street": "улица Худайбердина",
                "addr:housenumber": "19"
            }
        ]
    },
    "police": {
        "count": 1,
        "detail": [
            {
                "amenity": "police",
                "building": "yes",
                "addr:city": "Янаул",
                "addr:street": "улица Худайбердина",
                "addr:housenumber": "17"
            }
        ]
    },
    "hairdresser": {
        "count": 1,
        "detail": [
            {
                "shop": "hairdresser",
                "building": "yes",
                "addr:city": "Янаул",
                "addr:street": "Советская улица",
                "addr:housenumber": "19"
            }
        ]
    },
    "social_facility": {
        "count": 1,
        "detail": [
            {
                "amenity": "social_facility",
                "building": "yes",
                "addr:city": "Янаул",
                "addr:street": "Советская улица",
                "addr:housenumber": "21"
            }
        ]
    },
    "cafe": {
        "count": 1,
        "detail": [
            {
                "amenity": "cafe",
                "building": "yes",
                "addr:city": "Янаул",
                "addr:street": "улица Ленина",
                "addr:housenumber": "4А"
            }
        ]
    },
    "ice_rink": {
        "count": 1,
        "detail": [
            {
                "leisure": "ice_rink",
                "building": "yes"
            }
        ]
    },
    "convenience": {
        "count": 2,
        "detail": [
            {
                "name": "Продукты",
                "shop": "convenience",
                "building": "yes",
                "addr:city": "Янаул",
                "addr:street": "52-й квартал",
                "addr:housenumber": "14А"
            },
            {
                "shop": "convenience",
                "building": "yes"
            }
        ]
    },
    "clinic": {
        "count": 2,
        "detail": [
            {
                "name": "Детская поликлиника",
                "amenity": "clinic",
                "building": "yes"
            },
            {
                "amenity": "clinic",
                "building": "yes"
            }
        ]
    },
    "dentist": {
        "count": 1,
        "detail": [
            {
                "amenity": "dentist",
                "building": "yes"
            }
        ]
    },
    "furniture": {
        "count": 1,
        "detail": [
            {
                "name": "Магазин Уют",
                "shop": "furniture",
                "building": "yes",
                "addr:city": "Янаул",
                "addr:street": "улица Азина",
                "addr:postcode": "452800"
            }
        ]
    }
}