{
    "residents": 4191,
    "bus_stop": {
        "count": 2,
        "detail": [
            {
                "bus": "yes",
                "bench": "yes",
                "highway": "platform",
                "shelter": "yes",
                "public_transport": "platform"
            },
            {
                "bus": "yes",
                "bench": "yes",
                "highway": "platform",
                "shelter": "yes",
                "public_transport": "platform"
            }
        ]
    },
    "hairdresser": {
        "count": 1,
        "detail": [
            {
                "name": "Юлия",
                "shop": "hairdresser",
                "opening_hours": "Mo-Fr 08:00-19:00; Sa 08:00-18:00; Su 08:00-17:00"
            }
        ]
    },
    "convenience": {
        "count": 2,
        "detail": [
            {
                "name": "Сударушка",
                "shop": "convenience"
            },
            {
                "name": "Горница",
                "shop": "convenience",
                "opening_hours": "9:00-19:45"
            }
        ]
    },
    "supermarket": {
        "count": 1,
        "detail": [
            {
                "name": "Экономика",
                "shop": "supermarket",
                "opening_hours": "08:00-20:00"
            }
        ]
    },
    "mobile_phone": {
        "count": 2,
        "detail": [
            {
                "shop": "mobile_phone",
                "office": "telecommunication"
            },
            {
                "name": "Мегафон",
                "shop": "mobile_phone",
                "office": "telecommunication"
            }
        ]
    },
    "bank": {
        "count": 1,
        "detail": [
            {
                "atm": "yes",
                "name": "Россия",
                "amenity": "bank",
                "opening_hours": "Mo-Th 09:00-18:00; Fr 09:00-16:00"
            }
        ]
    },
    "car_parts": {
        "count": 2,
        "detail": [
            {
                "name": "Вираж-3",
                "shop": "car_parts"
            },
            {
                "shop": "car_parts",
                "operator": "ИП Сергеев С. В.",
                "opening_hours": "9:00-21:00"
            }
        ]
    },
    "fabric": {
        "count": 1,
        "detail": [
            {
                "name": "Гамма",
                "shop": "fabric",
                "opening_hours": "Mo-Fr 10:00-14:00,14:30-19:00; Sa,Su 09:00-14:00,14:30-17:00"
            }
        ]
    },
    "garden_centre": {
        "count": 1,
        "detail": [
            {
                "name": "Сад и огород",
                "shop": "garden_centre"
            }
        ]
    },
    "atm": {
        "count": 2,
        "detail": [
            {
                "name": "Сбербанк",
                "amenity": "atm",
                "operator": "Сбербанк",
                "opening_hours": "24/7"
            },
            {
                "name": "Транскредитбанк",
                "amenity": "atm",
                "opening_hours": "24/7"
            }
        ]
    },
    "bicycle": {
        "count": 1,
        "detail": [
            {
                "name": "Трек",
                "shop": "bicycle"
            }
        ]
    },
    "doityourself": {
        "count": 1,
        "detail": [
            {
                "name": "Успех",
                "shop": "doityourself"
            }
        ]
    },
    "florist": {
        "count": 1,
        "detail": [
            {
                "name": "Цветы",
                "shop": "florist"
            }
        ]
    },
    "clothes": {
        "count": 1,
        "detail": [
            {
                "name": "Элита",
                "shop": "clothes"
            }
        ]
    },
    "fuel": {
        "count": 1,
        "detail": [
            {
                "amenity": "fuel"
            }
        ]
    },
    "college": {
        "count": 1,
        "detail": [
            {
                "name": "Ржевское подразделение Октябрьского учебного центра профессиональных квалификаций",
                "amenity": "college"
            }
        ]
    },
    "fast_food": {
        "count": 1,
        "detail": [
            {
                "amenity": "fast_food",
                "cuisine": "pizza",
                "name": "Pizza Arma",
                "opening_hours": "11:00-23:00",
                "phone": "+7 904 0047474;+7 915 7099232"
            }
        ]
    },
    "sports_centre": {
        "count": 1,
        "detail": [
            {
                "name": "Фитнес-студия",
                "sport": "fitness",
                "leisure": "sports_centre"
            }
        ]
    },
    "cosmetics": {
        "count": 1,
        "detail": [
            {
                "name": "Натали",
                "shop": "cosmetics"
            }
        ]
    },
    "alcohol": {
        "count": 1,
        "detail": [
            {
                "name": "Пиво на разлив",
                "shop": "alcohol"
            }
        ]
    },
    "school": {
        "count": 2,
        "detail": [
            {
                "name": "Гимназия №10",
                "amenity": "school",
                "building": "school",
                "addr:street": "Трудовая улица",
                "addr:housenumber": "4"
            },
            {
                "ref": "12",
                "building": "school",
                "addr:street": "Ленинградское шоссе",
                "addr:housenumber": "42"
            }
        ]
    },
    "arts_centre": {
        "count": 1,
        "detail": [
            {
                "name": "Дом культуры",
                "amenity": "arts_centre",
                "building": "yes",
                "addr:street": "улица Урицкого",
                "addr:housenumber": "93"
            }
        ]
    },
    "veterinary": {
        "count": 1,
        "detail": [
            {
                "amenity": "veterinary",
                "building": "yes",
                "addr:street": "улица Урицкого",
                "addr:housenumber": "93"
            }
        ]
    }
}