{
    "residents": 2010,
    "drinking_water": {
        "count": 1,
        "detail": [
            {
                "amenity": "drinking_water",
                "man_made": "water_well",
                "description": "колонка"
            }
        ]
    },
    "bus_stop": {
        "count": 1,
        "detail": [
            {
                "highway": "bus_stop"
            }
        ]
    },
    "hardware": {
        "count": 1,
        "detail": [
            {
                "name": "Аверьянова И.Г. ИП",
                "shop": "hardware",
                "name:ru": "Аверьянова И.Г. ИП"
            }
        ]
    },
    "cafe": {
        "count": 1,
        "detail": [
            {
                "amenity": "cafe",
                "name": "Мамина кухня",
                "opening_hours": "Mo-Su 08:00-21:00"
            }
        ]
    },
    "community_centre": {
        "count": 1,
        "detail": [
            {
                "name": "Дом Культуры",
                "amenity": "community_centre",
                "building": "yes"
            }
        ]
    },
    "kindergarten": {
        "count": 1,
        "detail": [
            {
                "building": "kindergarten",
                "addr:street": "Пионерская улица",
                "addr:housenumber": "15"
            }
        ]
    },
    "supermarket": {
        "count": 1,
        "detail": [
            {
                "name": "Пятёрочка",
                "shop": "supermarket",
                "building": "yes"
            }
        ]
    },
    "convenience": {
        "count": 1,
        "detail": [
            {
                "name": "Пятачок",
                "shop": "convenience",
                "building": "yes"
            }
        ]
    },
    "townhall": {
        "count": 1,
        "detail": [
            {
                "amenity": "townhall",
                "building": "yes",
                "addr:street": "улица Мира",
                "addr:housenumber": "37"
            }
        ]
    }
}