{
    "residents": 666,
    "butcher": {
        "count": 2,
        "detail": [
            {
                "shop": "butcher"
            },
            {
                "addr:street": "Школьная улица",
                "name": "Павловская Курочка",
                "opening_hours": "Mo-Su 08:00-20:00",
                "shop": "butcher"
            }
        ]
    },
    "pharmacy": {
        "count": 1,
        "detail": [
            {
                "addr:housenumber": "17",
                "addr:street": "Школьная улица",
                "amenity": "pharmacy",
                "name": "Домашняя аптека",
                "opening_hours": "Mo-Fr 08:00-20:00; Sa-Su 09:00-19:00",
                "phone": "+7 83136 79450"
            }
        ]
    },
    "bar": {
        "count": 1,
        "detail": [
            {
                "name": "Хаш и уха",
                "amenity": "bar"
            }
        ]
    },
    "waste_disposal": {
        "count": 2,
        "detail": [
            {
                "amenity": "waste_disposal"
            },
            {
                "amenity": "waste_disposal"
            }
        ]
    },
    "florist": {
        "count": 1,
        "detail": [
            {
                "addr:street": "Школьная улица",
                "name": "Цветы",
                "phone": "+7 929 0527400",
                "shop": "florist"
            }
        ]
    },
    "cafe": {
        "count": 2,
        "detail": [
            {
                "amenity": "cafe",
                "name": "\"СМАК\""
            },
            {
                "addr:street": "Школьная улица",
                "amenity": "cafe",
                "name": "Бистро",
                "phone": "+7 930 8047327"
            }
        ]
    },
    "convenience": {
        "count": 3,
        "detail": [
            {
                "name": "Выручалочка",
                "shop": "convenience",
                "opening_hours": "Mo-Su 00:00-13:00, 14:00-00:00"
            },
            {
                "addr:street": "Новая улица",
                "name": "Продукты",
                "name:ru": "Продукты",
                "opening_hours": "Mo-Su 07:00-13:30, 14:00-22:00",
                "shop": "convenience"
            },
            {
                "addr:street": "Школьная улица",
                "building": "yes",
                "name": "Татьяна",
                "opening_hours": "Mo-Su 10:00-23:00",
                "shop": "convenience"
            }
        ]
    },
    "supermarket": {
        "count": 1,
        "detail": [
            {
                "addr:street": "Шоссейная улица",
                "name": "Пятёрочка",
                "name:ru": "Пятёрочка",
                "opening_hours": "Mo-Su 08:00-22:00",
                "shop": "supermarket"
            }
        ]
    },
    "electronics": {
        "count": 1,
        "detail": [
            {
                "contact:phone": "+7 800 7707999",
                "contact:website": "https://www.dns-shop.ru/",
                "name": "DNS",
                "opening_hours": "Mo-Su 09:00-18:00",
                "operator": "ДНС Ритейл",
                "shop": "electronics"
            }
        ]
    },
    "clothes": {
        "count": 1,
        "detail": [
            {
                "addr:street": "Школьная улица",
                "building": "yes",
                "name": "Одежда",
                "opening_hours": "Mo-Su 09:00-13:00, 14:00-18:00",
                "shop": "clothes"
            }
        ]
    }
}