{
    "residents": 5085,
    "bus_stop": {
        "count": 6,
        "detail": [
            {
                "name": "Центральный рынок",
                "bench": "yes",
                "highway": "bus_stop",
                "shelter": "yes",
                "old_name": "Дом торговли",
                "public_transport": "platform"
            },
            {
                "name": "Центральный рынок",
                "highway": "bus_stop",
                "old_name": "Дом торговли",
                "public_transport": "platform"
            },
            {
                "name": "Цирк",
                "bench": "no",
                "highway": "bus_stop",
                "shelter": "no",
                "public_transport": "platform"
            },
            {
                "name": "Цирк",
                "fixme": "знак остановки отсутствует. предлагаю к удалению",
                "highway": "bus_stop",
                "public_transport": "platform"
            },
            {
                "bus": "yes",
                "name": "Центральный рынок",
                "old_name": "Дом торговли",
                "public_transport": "stop_position"
            },
            {
                "bus": "yes",
                "name": "Центральный рынок",
                "old_name": "Дом торговли",
                "public_transport": "stop_position"
            }
        ]
    },
    "supermarket": {
        "count": 1,
        "detail": [
            {
                "name": "Spar",
                "shop": "supermarket"
            }
        ]
    },
    "cafe": {
        "count": 4,
        "detail": [
            {
                "amenity": "cafe"
            },
            {
                "amenity": "cafe",
                "name": "Тындыр"
            },
            {
                "name": "Шаурма",
                "amenity": "cafe"
            },
            {
                "name": "Руслан",
                "amenity": "cafe"
            }
        ]
    },
    "doctors": {
        "count": 1,
        "detail": [
            {
                "amenity": "doctors",
                "name": "Поликлиника больницы №4",
                "opening_hours": "Mo-Fr 07:00-20:00; Sa,Su 08:00-18:00",
                "phone": "+7 831 2463589"
            }
        ]
    },
    "toilets": {
        "count": 1,
        "detail": [
            {
                "amenity": "toilets"
            }
        ]
    },
    "drinking_water": {
        "count": 1,
        "detail": [
            {
                "amenity": "drinking_water",
                "man_made": "water_tap"
            }
        ]
    },
    "convenience": {
        "count": 5,
        "detail": [
            {
                "name": "Сириус",
                "shop": "convenience"
            },
            {
                "name": "Колбасы",
                "shop": "convenience"
            },
            {
                "name": "Ghjlerns",
                "shop": "convenience"
            },
            {
                "name": "Владимирский",
                "shop": "convenience",
                "building": "yes",
                "addr:street": "улица Алёши Пешкова",
                "building:levels": "1",
                "addr:housenumber": "33А"
            },
            {
                "note": "табличка на доме",
                "shop": "convenience",
                "building": "yes",
                "addr:street": "Приокская улица",
                "addr:postcode": "603002",
                "building:levels": "1",
                "addr:housenumber": "10"
            }
        ]
    },
    "shoes": {
        "count": 3,
        "detail": [
            {
                "name": "Лапоток",
                "shop": "shoes"
            },
            {
                "name": "Обувничёк",
                "shop": "shoes"
            },
            {
                "name": "Bellwest",
                "shop": "shoes"
            }
        ]
    },
    "variety_store": {
        "count": 1,
        "detail": [
            {
                "name": "FixPrice",
                "shop": "variety_store"
            }
        ]
    },
    "bank": {
        "count": 2,
        "detail": [
            {
                "amenity": "bank",
                "atm": "yes",
                "brand:wikidata": "Q1377835",
                "brand:wikipedia": "ru:Альфа-банк",
                "contact:phone": "+7 495 7888878",
                "contact:website": "https://alfabank.ru",
                "name": "Альфа-Банк",
                "name:en": "Alfa-Bank",
                "name:ru": "Альфа-Банк",
                "opening_hours": "Mo-Fr 09:00-20:00; Sa 10:00-18:00; Su off",
                "operator": "АО \"Альфа-Банк\"",
                "ref": "0740"
            },
            {
                "amenity": "bank",
                "atm": "yes",
                "branch": "Волго-Вятский банк",
                "contact:facebook": "https://www.facebook.com/sberbank",
                "contact:instagram": "https://www.instagram.com/sberbank/",
                "contact:ok": "https://ok.ru/sberbank",
                "contact:phone": "+7 800 5555550",
                "contact:twitter": "https://twitter.com/sberbank/",
                "contact:vk": "https://vk.com/sberbank",
                "contact:website": "https://www.sberbank.ru/",
                "contact:youtube": "https://www.youtube.com/sberbank",
                "name": "Сбербанк",
                "name:en": "Sberbank",
                "name:ru": "Сбербанк",
                "opening_hours": "Mo-Fr 09:00-19:00; Sa 09:00-17:00",
                "operator": "ПАО Сбербанк",
                "operator:wikidata": "Q205012",
                "operator:wikipedia": "ru:Сбербанк России",
                "ref": "9042/092",
                "wheelchair": "yes"
            }
        ]
    },
    "atm": {
        "count": 2,
        "detail": [
            {
                "amenity": "atm",
                "operator": "Альфа-Банк",
                "opening_hours": "08:00-22:00"
            },
            {
                "amenity": "atm",
                "operator": "Альфа-Банк",
                "opening_hours": "24/7"
            }
        ]
    },
    "jewelry": {
        "count": 1,
        "detail": [
            {
                "name": "Алтын",
                "shop": "jewelry"
            }
        ]
    },
    "interior_decoration": {
        "count": 1,
        "detail": [
            {
                "name": "Обои сан",
                "shop": "interior_decoration"
            }
        ]
    },
    "kiosk": {
        "count": 1,
        "detail": [
            {
                "name": "Пирожки",
                "shop": "kiosk"
            }
        ]
    },
    "bakery": {
        "count": 1,
        "detail": [
            {
                "name": "Шаурма",
                "shop": "bakery"
            }
        ]
    },
    "clothes": {
        "count": 3,
        "detail": [
            {
                "shop": "clothes"
            },
            {
                "shop": "clothes"
            },
            {
                "name": "Пуховик",
                "shop": "clothes"
            }
        ]
    },
    "pharmacy": {
        "count": 1,
        "detail": [
            {
                "amenity": "pharmacy"
            }
        ]
    },
    "chemist": {
        "count": 1,
        "detail": [
            {
                "shop": "chemist"
            }
        ]
    },
    "fitness_station": {
        "count": 1,
        "detail": [
            {
                "fitness_station:horizontal_bar": "yes",
                "leisure": "fitness_station"
            }
        ]
    },
    "florist": {
        "count": 2,
        "detail": [
            {
                "name": "Эдельвейс",
                "shop": "florist"
            },
            {
                "name": "24 часа",
                "shop": "florist",
                "opening_hours": "24/7"
            }
        ]
    },
    "car_wash": {
        "count": 2,
        "detail": [
            {
                "amenity": "car_wash"
            },
            {
                "amenity": "car_wash"
            }
        ]
    },
    "watches": {
        "count": 1,
        "detail": [
            {
                "name": "Часы",
                "shop": "watches"
            }
        ]
    },
    "pawnbroker": {
        "count": 1,
        "detail": [
            {
                "shop": "pawnbroker"
            }
        ]
    },
    "bookmaker": {
        "count": 1,
        "detail": [
            {
                "contact:email": "info@ligastavok.ru",
                "contact:phone": "+7 800 5554455",
                "contact:website": "https://www.ligastavok.ru/",
                "name": "Лига Ставок",
                "opening_hours": "24/7",
                "operator": "Первая международная букмекерская компания",
                "shop": "bookmaker"
            }
        ]
    },
    "veterinary": {
        "count": 1,
        "detail": [
            {
                "addr:housenumber": "14",
                "addr:postcode": "603002",
                "addr:street": "улица Даля",
                "amenity": "veterinary",
                "building": "yes",
                "building:levels": "1",
                "email": "evrika@r52.ru",
                "name": "Эврика",
                "phone": "+7 831 2460039",
                "website": "http://evrika.r52.ru"
            }
        ]
    },
    "service": {
        "count": 4,
        "detail": [
            {
                "ref": "2761",
                "power": "substation",
                "building": "service",
                "building:levels": "1"
            },
            {
                "branch": "Нижновэнерго, Центральные ЭС, Заречный РЭС",
                "building": "service",
                "building:levels": "1",
                "frequency": "50",
                "location": "indoor",
                "official_short_type": "ТП",
                "operator": "ПАО «МРСК Центра и Приволжья»",
                "power": "substation",
                "ref": "2496",
                "substation": "minor_distribution",
                "voltage": "6000;400"
            },
            {
                "ref": "2498",
                "power": "substation",
                "building": "service",
                "building:levels": "1"
            },
            {
                "branch": "Нижновэнерго, Центральные ЭС, Заречный РЭС",
                "building": "service",
                "building:levels": "1",
                "frequency": "50",
                "location": "indoor",
                "official_short_type": "ТП",
                "operator": "ПАО «МРСК Центра и Приволжья»",
                "power": "substation",
                "ref": "2763",
                "substation": "minor_distribution",
                "voltage": "6000;400"
            }
        ]
    },
    "school": {
        "count": 1,
        "detail": [
            {
                "building": "school",
                "addr:street": "Коммунистическая улица",
                "building:levels": "4",
                "addr:housenumber": "75"
            }
        ]
    },
    "sports_centre": {
        "count": 1,
        "detail": [
            {
                "addr:housenumber": "79",
                "addr:street": "Коммунистическая улица",
                "building": "yes",
                "leisure": "sports_centre",
                "name": "Искра",
                "phone": "+7 831 2463783"
            }
        ]
    }
}