{
    "residents": 2924,
    "bus_stop": {
        "count": 6,
        "detail": [
            {
                "bench": "no",
                "bus": "yes",
                "highway": "bus_stop",
                "name": "Заречная",
                "old_name": "Автоколонна 1311",
                "public_transport": "platform",
                "route_ref": "Т2;Т7;3;16К;17К;18К;20К;22К;28К;30К;34К",
                "shelter": "no",
                "tactile_paving": "no"
            },
            {
                "alt_name": "Заречная",
                "bench": "no",
                "bus": "yes",
                "highway": "bus_stop",
                "name": "Еврокомфорт",
                "old_name": "Автоколонна 1311",
                "public_transport": "platform",
                "route_ref": "Т2;3;16К;17К;18К;20К;22К;28К;30К;34К",
                "shelter": "no",
                "tactile_paving": "no"
            },
            {
                "alt_name": "Заречная",
                "bus": "yes",
                "name": "Еврокомфорт",
                "old_name": "Автоколонна 1311",
                "public_transport": "stop_position",
                "share_taxi": "yes",
                "trolleybus": "yes"
            },
            {
                "bus": "yes",
                "name": "Заречная",
                "old_name": "Автоколонна 1311",
                "public_transport": "stop_position",
                "share_taxi": "yes",
                "trolleybus": "yes"
            },
            {
                "alt_name": "улица Мира",
                "bus": "yes",
                "name": "бульвар Ураева",
                "public_transport": "stop_position",
                "share_taxi": "yes",
                "trolleybus": "yes"
            },
            {
                "alt_name": "улица Мира",
                "bench": "yes",
                "bin": "yes",
                "bus": "yes",
                "highway": "bus_stop",
                "name": "бульвар Ураева",
                "public_transport": "platform",
                "route_ref": "Т2;Т7;3;16К;17К;18К;20К;22К;28К;30К;34К",
                "shelter": "yes"
            }
        ]
    },
    "waste_basket": {
        "count": 1,
        "detail": [
            {
                "amenity": "waste_basket"
            }
        ]
    },
    "hardware": {
        "count": 4,
        "detail": [
            {
                "name": "Газовые технологии",
                "shop": "hardware"
            },
            {
                "name": "Техника",
                "shop": "hardware"
            },
            {
                "name": "ТМК",
                "shop": "hardware"
            },
            {
                "name": "Электрома",
                "shop": "hardware"
            }
        ]
    },
    "car_wash": {
        "count": 1,
        "detail": [
            {
                "amenity": "car_wash"
            }
        ]
    },
    "car_repair": {
        "count": 4,
        "detail": [
            {
                "shop": "car_repair"
            },
            {
                "shop": "car_repair"
            },
            {
                "shop": "car_repair",
                "description": "газовое оборудование"
            },
            {
                "name": "Подбор автоэмалей",
                "shop": "car_repair",
                "building": "yes",
                "addr:street": "улица Мира",
                "addr:housenumber": "133"
            }
        ]
    },
    "convenience": {
        "count": 3,
        "detail": [
            {
                "name": "Акашевская",
                "shop": "convenience"
            },
            {
                "name": "ГастрономЪ",
                "shop": "convenience"
            },
            {
                "shop": "convenience",
                "building": "yes"
            }
        ]
    },
    "electronics": {
        "count": 1,
        "detail": [
            {
                "name": "Лёд и пламень",
                "shop": "electronics"
            }
        ]
    },
    "car_parts": {
        "count": 2,
        "detail": [
            {
                "name": "Лада",
                "shop": "car_parts"
            },
            {
                "name": "Кардан",
                "shop": "car_parts"
            }
        ]
    },
    "cafe": {
        "count": 1,
        "detail": [
            {
                "name": "Экспересс",
                "amenity": "cafe"
            }
        ]
    },
    "hairdresser": {
        "count": 1,
        "detail": [
            {
                "shop": "hairdresser"
            }
        ]
    },
    "yes": {
        "count": 1,
        "detail": [
            {
                "name": "Бристоль",
                "shop": "yes"
            }
        ]
    },
    "doctors": {
        "count": 1,
        "detail": [
            {
                "addr:city": "Йошкар-Ола",
                "addr:postcode": "424005",
                "addr:street": "улица Мира",
                "addr:unit": "70",
                "amenity": "doctors",
                "description": "Многопрофильный медицинский центр",
                "level": "0",
                "name": "МедМакс",
                "opening_hours": "Mo-Fr 07:30-20:00, Sa 8:00-13:00",
                "phone": "+7 8362 495496",
                "website": "https://medmax12.ru/"
            }
        ]
    },
    "kindergarten": {
        "count": 2,
        "detail": [
            {
                "name": "Детский Сад №45 \"Алые Паруса\"",
                "amenity": "kindergarten"
            },
            {
                "addr:city": "Йошкар-Ола",
                "addr:country": "RU",
                "addr:housenumber": "15Б",
                "addr:postcode": "424038",
                "addr:street": "улица Кирова",
                "building": "kindergarten",
                "building:levels": "3",
                "name": "Детский сад №47 \"Чудо остров\""
            }
        ]
    },
    "doityourself": {
        "count": 1,
        "detail": [
            {
                "name": "Еврокомфорт",
                "shop": "doityourself",
                "building": "yes",
                "int_name": "Eurocomfort",
                "addr:street": "улица Мира",
                "addr:housenumber": "113"
            }
        ]
    },
    "food": {
        "count": 1,
        "detail": [
            {
                "name": "Загляни",
                "shop": "food",
                "amenity": "pub",
                "building": "yes",
                "addr:street": "улица Мира",
                "addr:housenumber": "103А"
            }
        ]
    },
    "supermarket": {
        "count": 2,
        "detail": [
            {
                "addr:city": "Йошкар-Ола",
                "addr:housenumber": "16",
                "addr:street": "улица Кирова",
                "brand": "Пятёрочка",
                "brand:en": "Pyaterochka",
                "brand:wikidata": "Q1768969",
                "brand:wikipedia": "ru:Пятёрочка",
                "building": "yes",
                "name": "Продсклад Победа",
                "name:en": "Pyaterochka",
                "opening_hours": "Mo-Su 08:00-21:00",
                "payment:cash": "yes",
                "payment:credit_cards": "yes",
                "payment:debit_cards": "yes",
                "shop": "supermarket"
            },
            {
                "shop": "supermarket",
                "building": "yes"
            }
        ]
    },
    "tyres": {
        "count": 1,
        "detail": [
            {
                "building": "yes",
                "name": "Запаска",
                "shop": "tyres"
            }
        ]
    }
}