{
    "residents": 8967,
    "hospital": {
        "count": 2,
        "detail": [
            {
                "amenity": "hospital",
                "email": "info@tkvm.ru",
                "healthcare": "hospital",
                "name": "Клиника восстановительной медицины",
                "opening_hours": "Mo-Su 08:00-21:00",
                "phone": "+7 4822 780060",
                "website": "https://www.tkvm.ru/"
            },
            {
                "addr:postcode": "170006",
                "amenity": "hospital",
                "healthcare": "hospital",
                "name": "Центр детской неврологии и медицинской реабилитации",
                "website": "http://www.detsk2.medsait.com"
            }
        ]
    },
    "supermarket": {
        "count": 4,
        "detail": [
            {
                "addr:city": "Тверь",
                "addr:housenumber": "30",
                "addr:street": "улица Софьи Перовской",
                "brand": "Магнит",
                "brand:en": "Magnit",
                "brand:wikidata": "Q940518",
                "brand:wikipedia": "ru:Магнит (сеть магазинов)",
                "name": "Магнит",
                "name:en": "Magnit",
                "opening_hours": "Mo-Su 10:00-22:00",
                "shop": "supermarket"
            },
            {
                "name": "Славянка",
                "name:ru": "Магнит",
                "opening_hours": "24/7",
                "shop": "supermarket"
            },
            {
                "brand": "Пятёрочка",
                "brand:en": "Pyaterochka",
                "brand:wikidata": "Q1768969",
                "brand:wikipedia": "ru:Пятёрочка",
                "name": "Пятёрочка",
                "name:en": "Pyaterochka",
                "shop": "supermarket"
            },
            {
                "name": "Универсал",
                "shop": "supermarket",
                "addr:city": "Тверь",
                "addr:street": "улица Софьи Перовской",
                "opening_hours": "24/7",
                "addr:housenumber": "6"
            }
        ]
    },
    "pharmacy": {
        "count": 2,
        "detail": [
            {
                "amenity": "pharmacy",
                "healthcare": "pharmacy",
                "name": "Аптека №1",
                "opening_hours": "Mo-Fr 08:00-21:00; Sa-Su 10:00-19:00"
            },
            {
                "amenity": "pharmacy",
                "healthcare": "pharmacy",
                "name": "Планета Здоровья",
                "opening_hours": "Mo-Su 08:00-22:00"
            }
        ]
    },
    "bus_stop": {
        "count": 3,
        "detail": [
            {
                "bench": "yes",
                "bus": "yes",
                "highway": "bus_stop",
                "public_transport": "platform",
                "shelter": "no",
                "tactile_paving": "no"
            },
            {
                "bench": "yes",
                "bus": "yes",
                "highway": "bus_stop",
                "name": "Суворовское училище",
                "public_transport": "platform",
                "shelter": "yes",
                "tactile_paving": "no"
            },
            {
                "bench": "no",
                "bus": "yes",
                "highway": "bus_stop",
                "name": "Суворовское училище",
                "public_transport": "platform",
                "shelter": "no",
                "tactile_paving": "no"
            }
        ]
    },
    "university": {
        "count": 1,
        "detail": [
            {
                "amenity": "university",
                "name": "Тверской филиал Московского гуманитарно-экономического института"
            }
        ]
    },
    "dentist": {
        "count": 1,
        "detail": [
            {
                "amenity": "dentist",
                "healthcare": "dentist",
                "name": "ТГМА Стоматологическая поликлиника"
            }
        ]
    },
    "convenience": {
        "count": 1,
        "detail": [
            {
                "name": "Универсал",
                "shop": "convenience"
            }
        ]
    },
    "post_office": {
        "count": 1,
        "detail": [
            {
                "addr:country": "RU",
                "addr:postcode": "170006",
                "amenity": "post_office",
                "name": "Отделение №6",
                "operator": "Почта России",
                "ref": "170006",
                "website": "https://russianpost.ru/",
                "wheelchair": "yes"
            }
        ]
    },
    "atm": {
        "count": 1,
        "detail": [
            {
                "alt_name": "РоссельхозБанк",
                "amenity": "atm",
                "operator": "Россельхозбанк",
                "website": "https://www.rshb.ru/"
            }
        ]
    },
    "cafe": {
        "count": 1,
        "detail": [
            {
                "name": "Берлога",
                "amenity": "cafe"
            }
        ]
    },
    "bank": {
        "count": 1,
        "detail": [
            {
                "addr:postcode": "170006",
                "alt_name": "РоссельхозБанк",
                "amenity": "bank",
                "brand": "Россельхозбанк",
                "brand:en": "Rosselkhozbank",
                "brand:ru": "Россельхозбанк",
                "brand:wikidata": "Q3920226",
                "brand:wikipedia": "en:Russian Agricultural Bank",
                "email": "mail@tver.rshb.ru",
                "name": "Россельхозбанк",
                "name:en": "Rosselkhozbank",
                "name:ru": "Россельхозбанк",
                "website": "https://www.rshb.ru/"
            }
        ]
    },
    "alcohol": {
        "count": 1,
        "detail": [
            {
                "name": "Вереск",
                "shop": "alcohol",
                "opening_hours": "09:00-18:00"
            }
        ]
    },
    "fast_food": {
        "count": 2,
        "detail": [
            {
                "name": "Милано",
                "amenity": "fast_food",
                "cuisine": "pizza"
            },
            {
                "amenity": "fast_food",
                "cuisine": "regional",
                "name": "Столовая"
            }
        ]
    },
    "butcher": {
        "count": 2,
        "detail": [
            {
                "name": "Цыпа",
                "shop": "butcher"
            },
            {
                "name": "Царицыно",
                "shop": "butcher"
            }
        ]
    },
    "kiosk": {
        "count": 1,
        "detail": [
            {
                "shop": "kiosk"
            }
        ]
    },
    "clothes": {
        "count": 2,
        "detail": [
            {
                "name": "Арзум",
                "shop": "clothes",
                "opening_hours": "10:00-20:00"
            },
            {
                "name": "Белльеру",
                "shop": "clothes",
                "website": "www.belleru.com"
            }
        ]
    },
    "hardware": {
        "count": 1,
        "detail": [
            {
                "name": "Домовёнок",
                "shop": "hardware"
            }
        ]
    },
    "sauna": {
        "count": 1,
        "detail": [
            {
                "name": "Сауна",
                "leisure": "sauna"
            }
        ]
    },
    "doctors": {
        "count": 1,
        "detail": [
            {
                "amenity": "doctors",
                "healthcare": "doctor",
                "name": "Женская консультация №3"
            }
        ]
    },
    "vending_machine": {
        "count": 1,
        "detail": [
            {
                "amenity": "vending_machine",
                "vending": "coffee"
            }
        ]
    },
    "kindergarten": {
        "count": 2,
        "detail": [
            {
                "building": "kindergarten",
                "addr:street": "Учительская улица",
                "building:levels": "2",
                "addr:housenumber": "47"
            },
            {
                "building": "kindergarten",
                "addr:street": "улица Дмитрия Донского",
                "building:levels": "2",
                "addr:housenumber": "38"
            }
        ]
    },
    "school": {
        "count": 1,
        "detail": [
            {
                "building": "school",
                "addr:street": "Учительская улица",
                "building:levels": "3",
                "addr:housenumber": "6"
            }
        ]
    },
    "mall": {
        "count": 1,
        "detail": [
            {
                "building": "yes",
                "noname": "yes",
                "shop": "mall"
            }
        ]
    },
    "service": {
        "count": 1,
        "detail": [
            {
                "building": "service"
            }
        ]
    }
}