{
    "residents": 3720,
    "bus_stop": {
        "count": 2,
        "detail": [
            {
                "name": "Первоуральский металлургический колледж",
                "highway": "bus_stop",
                "network": "3, 10"
            },
            {
                "name": "Первоуральский металлургический колледж",
                "highway": "bus_stop",
                "network": "3, 4, 10"
            }
        ]
    },
    "supermarket": {
        "count": 2,
        "detail": [
            {
                "addr:city": "Первоуральск",
                "addr:housenumber": "5",
                "addr:street": "проспект Космонавтов",
                "brand": "Пятёрочка",
                "brand:en": "Pyaterochka",
                "brand:wikidata": "Q1768969",
                "brand:wikipedia": "ru:Пятёрочка",
                "name": "Пятёрочка",
                "name:en": "Pyaterochka",
                "name:ru": "Пятёрочка",
                "shop": "supermarket"
            },
            {
                "addr:city": "Первоуральск",
                "addr:housenumber": "1Б",
                "addr:street": "проспект Ильича",
                "brand": "Кировский",
                "brand:wikidata": "Q63301903",
                "name": "Кировский",
                "shop": "supermarket"
            }
        ]
    },
    "college": {
        "count": 1,
        "detail": [
            {
                "addr:city": "Первоуральск",
                "addr:housenumber": "1",
                "addr:postcode": "623101",
                "addr:street": "проспект Космонавтов",
                "amenity": "college",
                "email": "mail@pmk-online.ru",
                "fax": "+7 (3439) 63–84–30",
                "name": "Первоуральский Металлургический Колледж",
                "phone": "+7 (3439) 63–84–30",
                "website": "https://pmk-online.ru/"
            }
        ]
    },
    "alcohol": {
        "count": 1,
        "detail": [
            {
                "addr:city": "Первоуральск",
                "addr:housenumber": "3/2",
                "addr:street": "проспект Ильича",
                "brand": "Красное & Белое",
                "brand:en": "Red&White",
                "brand:wikidata": "Q24933790",
                "brand:wikipedia": "en:Krasnoe & Beloe",
                "name": "Красное & Белое",
                "name:en": "Red&White",
                "shop": "alcohol"
            }
        ]
    },
    "cafe": {
        "count": 1,
        "detail": [
            {
                "addr:city": "Первоуральск",
                "addr:housenumber": "5А",
                "addr:street": "проспект Космонавтов",
                "amenity": "cafe",
                "name": "Провинция"
            }
        ]
    },
    "convenience": {
        "count": 1,
        "detail": [
            {
                "name": "Продуктовый магазин",
                "shop": "convenience"
            }
        ]
    },
    "waste_disposal": {
        "count": 1,
        "detail": [
            {
                "amenity": "waste_disposal"
            }
        ]
    },
    "sports_centre": {
        "count": 1,
        "detail": [
            {
                "name": "Дворец водных видов спорта",
                "sport": "swimming",
                "leisure": "sports_centre",
                "building": "yes",
                "addr:street": "проспект Ильича",
                "addr:housenumber": "2А"
            }
        ]
    },
    "hospital": {
        "count": 1,
        "detail": [
            {
                "amenity": "hospital",
                "building": "hospital",
                "healthcare": "hospital",
                "name": "Городская больница № 2"
            }
        ]
    },
    "kindergarten": {
        "count": 1,
        "detail": [
            {
                "building": "kindergarten",
                "addr:city": "Первоуральск",
                "addr:street": "проспект Космонавтов",
                "addr:country": "RU",
                "addr:postcode": "623101",
                "addr:housenumber": "4А"
            }
        ]
    },
    "kiosk": {
        "count": 1,
        "detail": [
            {
                "shop": "kiosk",
                "building": "yes"
            }
        ]
    },
    "florist": {
        "count": 1,
        "detail": [
            {
                "name": "Павильон М",
                "shop": "florist",
                "building": "retail"
            }
        ]
    }
}