{
    "arts_centre": {
        "count": 1,
        "detail": [
            {
                "name": "Дом культуры \"Радий\"",
                "amenity": "arts_centre",
                "addr:city": "Ярославль",
                "wheelchair": "yes",
                "addr:street": "улица Щепкина",
                "addr:postcode": "150010",
                "addr:housenumber": "8"
            }
        ]
    },
    "convenience": {
        "count": 3,
        "detail": [
            {
                "name": "Магнит",
                "shop": "convenience"
            },
            {
                "name": "Пекарня",
                "shop": "convenience",
                "addr:city": "Ярославль",
                "addr:street": "улица Щепкина",
                "addr:postcode": "150010",
                "addr:housenumber": "10А"
            },
            {
                "name": "Атрус",
                "shop": "convenience"
            }
        ]
    },
    "supermarket": {
        "count": 4,
        "detail": [
            {
                "name": "Дикси",
                "shop": "supermarket"
            },
            {
                "name": "Магнит",
                "shop": "supermarket"
            },
            {
                "name": "Каблучок",
                "shop": "supermarket"
            },
            {
                "addr:city": "Ярославль",
                "addr:housenumber": "15",
                "addr:postcode": "150010",
                "addr:street": "Индустриальный переулок",
                "name": "Наш Квартал",
                "opening_hours": "Mo-Su 08:00-23:00",
                "payment:cash": "yes",
                "payment:coins": "yes",
                "payment:credit_cards": "yes",
                "shop": "supermarket"
            }
        ]
    },
    "residents": 9126,
    "bus_stop": {
        "count": 2,
        "detail": [
            {
                "name": "улица Пирогова",
                "highway": "bus_stop"
            },
            {
                "name": "улица Пирогова",
                "highway": "bus_stop"
            }
        ]
    },
    "library": {
        "count": 1,
        "detail": [
            {
                "name": "Библиотека №7",
                "email": "filial7@clib.yar.ru",
                "phone": "+7 4852 466778",
                "amenity": "library",
                "website": "http://www.clib.yar.ru/",
                "operator": "Централизованная библиотечная система города Ярославля",
                "official_name": "Муниципальное учреждение культуры «Централизованная библиотечная система города Ярославля». Филиал №7",
                "opening_hours": "Mo-Fr 11:00-19:00; Sa 10:00-18:00"
            }
        ]
    },
    "waste_basket": {
        "count": 1,
        "detail": [
            {
                "amenity": "waste_basket"
            }
        ]
    },
    "hairdresser": {
        "count": 1,
        "detail": [
            {
                "name": "Стиль",
                "shop": "hairdresser",
                "addr:city": "Ярославль",
                "addr:street": "1-я Тормозная улица",
                "addr:postcode": "150010",
                "addr:housenumber": "46"
            }
        ]
    },
    "waste_disposal": {
        "count": 2,
        "detail": [
            {
                "amenity": "waste_disposal"
            },
            {
                "amenity": "waste_disposal"
            }
        ]
    },
    "atm": {
        "count": 1,
        "detail": [
            {
                "amenity": "atm",
                "contact:email": "info@psbank.ru",
                "contact:phone": "+7 495 7873333;+7 800 3330303",
                "contact:website": "https://psbank.ru/",
                "opening_hours": "Mo-Su 09:00-22:00",
                "operator": "Промсвязьбанк"
            }
        ]
    },
    "pharmacy": {
        "count": 1,
        "detail": [
            {
                "amenity": "pharmacy",
                "contact:facebook": "http://facebook.com/aptekivita",
                "contact:instagram": "https://www.instagram.com/vita_express/",
                "contact:phone": "+7 800 7550003",
                "contact:vk": "https://vk.com/aptekivita",
                "contact:website": "https://vitaexpress.ru/",
                "name": "Вита Экспресс",
                "opening_hours": "Mo-Sa 08:00-21:00;Su 09:00-20:00"
            }
        ]
    },
    "vending_machine": {
        "count": 1,
        "detail": [
            {
                "amenity": "vending_machine",
                "contact:phone": "+7 800 7753553",
                "contact:website": "http://omnicdek.com/",
                "name": "ОмниСДЭК",
                "opening_hours": "Mo-Su 08:00-23:00",
                "ref": "6185",
                "vending": "parcel_pickup"
            }
        ]
    },
    "school": {
        "count": 1,
        "detail": [
            {
                "addr:city": "Ярославль",
                "addr:housenumber": "10",
                "addr:postcode": "150010",
                "addr:street": "Индустриальный переулок",
                "amenity": "school",
                "building": "school",
                "building:levels": "2",
                "fax": "+7 4852 467248",
                "name": "Средняя школа №73",
                "official_name": "Муниципальное образовательное учреждение основная общеобразовательная школа № 73",
                "phone": "+7 4852 467248",
                "website": "https://school73.edu.yar.ru/"
            }
        ]
    },
    "cafe": {
        "count": 1,
        "detail": [
            {
                "source": "BING",
                "amenity": "cafe",
                "building": "yes",
                "roof:material": "tar_paper",
                "building:levels": "1"
            }
        ]
    }
}