{
    "residents": 4350,
    "cafe": {
        "count": 7,
        "detail": [
            {
                "name": "Баккара",
                "amenity": "cafe"
            },
            {
                "name": "ПНИ",
                "email": "pni-cafe@yandex.ru",
                "phone": "+7 4852 647767",
                "amenity": "cafe",
                "smoking": "yes",
                "website": "http://www.pni-cafe.ru/?page_id=4",
                "wheelchair": "no",
                "opening_hours": "12:00-23:00",
                "internet_access": "wlan"
            },
            {
                "name": "Cafe №1",
                "amenity": "cafe"
            },
            {
                "name": "Кавказская пленница",
                "amenity": "cafe",
                "opening_hours": "Su-Th 11:00-01:00; Fr-Sa 11:00-03:00"
            },
            {
                "name": "Крымский дворик",
                "amenity": "cafe"
            },
            {
                "name": "Фреш",
                "amenity": "cafe"
            },
            {
                "name": "Брюгге",
                "amenity": "cafe",
                "cuisine": "grill",
                "name:en": "Bruges",
                "name:ru": "Брюгге"
            }
        ]
    },
    "theatre": {
        "count": 2,
        "detail": [
            {
                "addr:city": "Ярославль",
                "addr:country": "RU",
                "addr:housenumber": "23",
                "addr:street": "улица Свободы",
                "amenity": "theatre",
                "description": "Находится в здании ТЮЗа",
                "email": "teatrkukol@inbox.ru",
                "name": "Театр кукол",
                "operator": "ГУК ЯО «Ярославский государственный театр кукол»",
                "phone": "+7 485 2726303",
                "ref:mkrf_theaters": "12590",
                "website": "http://www.yatk.yaroslavl.ru/",
                "wikidata": "Q4538870",
                "wikipedia": "ru:Ярославский театр кукол"
            },
            {
                "addr:city": "Ярославль",
                "addr:country": "RU",
                "addr:housenumber": "23",
                "addr:street": "улица Свободы",
                "alt_name": "ТЮЗ",
                "amenity": "theatre",
                "building": "yes",
                "email": "zritel_yatuz@post.ru",
                "name": "Ярославский государственный театр юного зрителя им. В. С. Розова",
                "old_name": "Театр на площади Юности",
                "operator": "ГУК ЯО «Ярославский государственный театр юного зрителя»",
                "phone": "+7 4852 308683;+7 4852 329768;+7 4852 329498",
                "ref:mkrf_theaters": "12591",
                "website": "http://www.yartuz.ru/",
                "wikidata": "Q4538871",
                "wikipedia": "ru:Ярославский театр юного зрителя"
            }
        ]
    },
    "clothes": {
        "count": 2,
        "detail": [
            {
                "name": "Округ",
                "shop": "clothes"
            },
            {
                "name": "Старый город",
                "shop": "clothes"
            }
        ]
    },
    "bus_stop": {
        "count": 2,
        "detail": [
            {
                "bench": "yes",
                "bus": "yes",
                "highway": "bus_stop",
                "name": "Мукомольный переулок",
                "public_transport": "platform",
                "shelter": "yes"
            },
            {
                "bus": "yes",
                "highway": "bus_stop",
                "name": "Улица Республиканская",
                "public_transport": "platform"
            }
        ]
    },
    "bar": {
        "count": 3,
        "detail": [
            {
                "name": "Пятое авеню",
                "amenity": "bar"
            },
            {
                "phone": "+7 4852 338309",
                "amenity": "bar",
                "name:en": "Hookah Place",
                "opening_hours": "Mo-Su 12:00-03:00",
                "internet_access": "wlan"
            },
            {
                "amenity": "bar",
                "contact:phone": "+7 906 6390005",
                "contact:website": "http://aladdin76.ru",
                "name": "Аладдин, кальян-бар",
                "opening_hours": "Mo-Fr 14:00-02:00; Sa-Su 14:00-05:00",
                "smoking": "dedicated"
            }
        ]
    },
    "dentist": {
        "count": 1,
        "detail": [
            {
                "name": "Авторитет",
                "amenity": "dentist"
            }
        ]
    },
    "beverages": {
        "count": 1,
        "detail": [
            {
                "name": "Виномания",
                "shop": "beverages"
            }
        ]
    },
    "convenience": {
        "count": 2,
        "detail": [
            {
                "name": "Социал",
                "shop": "convenience"
            },
            {
                "shop": "convenience"
            }
        ]
    },
    "bank": {
        "count": 2,
        "detail": [
            {
                "bic": "VTBRRUMM",
                "name": "ВТБ Банк Москвы",
                "brand": "ВТБ Банк Москвы",
                "amenity": "bank",
                "name:en": "VTB Bank of Moscow",
                "name:ru": "ВТБ Банк Москвы",
                "contact:ok": "https://ok.ru/vtb",
                "contact:vk": "https://vk.com/vtb_bm",
                "contact:phone": "+7 800 2002326",
                "opening_hours": "Mo-Th 09:00-18:00; Fr 09:00-17:00; Sa 10:00-15:00; Su off",
                "brand:wikidata": "Q767946",
                "brand:wikipedia": "ru:Банк Москвы",
                "contact:twitter": "https://twitter.com/VTB_BM",
                "contact:website": "https://www.bm.ru",
                "contact:youtube": "https://www.youtube.com/vtbgroup",
                "contact:facebook": "https://www.facebook.com/VTB.BankofMoscow",
                "contact:instagram": "https://www.instagram.com/bankvtb"
            },
            {
                "atm": "yes",
                "name": "Ренессанс Кредит",
                "phone": "+7 4852 304000",
                "amenity": "bank",
                "website": "https://rencredit.ru",
                "opening_hours": "Mo-Fr 10:00-20:00; Sa 10:00-17:00"
            }
        ]
    },
    "restaurant": {
        "count": 2,
        "detail": [
            {
                "amenity": "restaurant",
                "name": "Багет, паштет и желтый плед",
                "website": "https://baget-pashtet.ru/"
            },
            {
                "name": "Светлана ",
                "amenity": "restaurant"
            }
        ]
    },
    "florist": {
        "count": 1,
        "detail": [
            {
                "name": "Kraft",
                "shop": "florist",
                "email": "info@lovekraft.ru",
                "phone": "+7 4852 909001",
                "website": "http://lovekraft.ru",
                "opening_hours": "Mo-Su 10:30-22:00"
            }
        ]
    },
    "waste_basket": {
        "count": 2,
        "detail": [
            {
                "amenity": "waste_basket"
            },
            {
                "amenity": "waste_basket"
            }
        ]
    },
    "sports_centre": {
        "count": 1,
        "detail": [
            {
                "name": "Кросфит-Ураган",
                "leisure": "sports_centre"
            }
        ]
    },
    "supermarket": {
        "count": 1,
        "detail": [
            {
                "brand": "Дикси",
                "brand:en": "Dixy",
                "brand:wikidata": "Q4161561",
                "brand:wikipedia": "ru:Дикси (сеть магазинов)",
                "name": "Дикси",
                "shop": "supermarket"
            }
        ]
    },
    "gift": {
        "count": 1,
        "detail": [
            {
                "shop": "gift"
            }
        ]
    },
    "post_office": {
        "count": 1,
        "detail": [
            {
                "name": "СДЭК",
                "phone": "+7 915 9758634",
                "amenity": "post_office",
                "name:ru": "СДЭК",
                "website": "http://www.edostavka.ru/",
                "addr:street": "Большая Октябрьская улица",
                "opening_hours": "Mo-Fr 10:00-20:00; Sa 10:00-16:00; Su 10:00-14:00",
                "addr:housenumber": "39/2"
            }
        ]
    },
    "waste_disposal": {
        "count": 1,
        "detail": [
            {
                "amenity": "waste_disposal"
            }
        ]
    },
    "bicycle_parking": {
        "count": 1,
        "detail": [
            {
                "amenity": "bicycle_parking"
            }
        ]
    },
    "place_of_worship": {
        "count": 3,
        "detail": [
            {
                "amenity": "place_of_worship",
                "building": "chapel",
                "religion": "christian",
                "denomination": "orthodox"
            },
            {
                "addr:city": "Ярославль",
                "addr:housenumber": "41А",
                "addr:street": "Большая Октябрьская улица",
                "amenity": "place_of_worship",
                "building": "church",
                "denomination": "russian_orthodox",
                "historic": "yes",
                "name": "Церковь Похвалы Пресвятой Богородицы",
                "religion": "christian",
                "source": "BING",
                "tourism": "attraction"
            },
            {
                "addr:city": "Ярославль",
                "addr:housenumber": "41",
                "addr:street": "Большая Октябрьская улица",
                "amenity": "place_of_worship",
                "building": "church",
                "denomination": "russian_orthodox",
                "historic": "yes",
                "name": "Храм Дмитрия Солунского",
                "religion": "christian",
                "source": "BING",
                "tourism": "attraction"
            }
        ]
    },
    "fitness_centre": {
        "count": 2,
        "detail": [
            {
                "name": "ФК \"Стиль Жизни\"",
                "email": "newfitness76@yandex.ru",
                "leisure": "fitness_centre",
                "name:en": "FC \"Life Style\"",
                "website": "http://фкстильжизни.рф",
                "internet_access": "wlan"
            },
            {
                "leisure": "fitness_centre",
                "name": "Гараж",
                "opening_hours": "Mo-Su 07:00-23:00",
                "sport": "fitness;gym"
            }
        ]
    },
    "car": {
        "count": 1,
        "detail": [
            {
                "name": "Европа",
                "shop": "car",
                "car:sales": "used",
                "second_hand": "only"
            }
        ]
    },
    "toilets": {
        "count": 1,
        "detail": [
            {
                "amenity": "toilets",
                "changing_table": "no",
                "unisex": "yes",
                "wheelchair": "no"
            }
        ]
    },
    "atm": {
        "count": 1,
        "detail": [
            {
                "amenity": "atm",
                "contact:email": "info@psbank.ru",
                "contact:phone": "+7 495 7873333;+7 800 3330303",
                "contact:website": "https://psbank.ru/",
                "opening_hours": "Mo-Su 08:00-20:00",
                "operator": "Промсвязьбанк"
            }
        ]
    },
    "studio": {
        "count": 1,
        "detail": [
            {
                "amenity": "studio",
                "contact:email": "info@maximumtest.ru",
                "contact:phone": "+7 485 2208996",
                "contact:website": "http://maximumtest.ru/",
                "name": "Maximum",
                "opening_hours": "Mo-Su 12:00-20:00",
                "operator": "Акопов Георгий Серегеевич"
            }
        ]
    },
    "parking": {
        "count": 1,
        "detail": [
            {
                "access": "yes",
                "amenity": "parking",
                "fee": "yes",
                "layer": "-1",
                "parking": "underground"
            }
        ]
    },
    "fast_food": {
        "count": 1,
        "detail": [
            {
                "amenity": "fast_food",
                "contact:email": "FeedBack@burgerking.ru",
                "contact:phone": "+7 495 5445000",
                "contact:vk": "https://vk.com/burgerking",
                "contact:website": "https://burgerking.ru/",
                "name": "Бургер кинг",
                "opening_hours": "09:00-01:00",
                "operator": "БУРГЕР РУС"
            }
        ]
    },
    "university": {
        "count": 3,
        "detail": [
            {
                "name": "Естественно-географический факультет ЯГПУ",
                "amenity": "university",
                "alt_name": "Корпус №2",
                "building": "yes",
                "addr:city": "Ярославль",
                "addr:street": "Которосльная набережная",
                "addr:postcode": "150000",
                "addr:housenumber": "46"
            },
            {
                "name": "Институт педагогики и психологии ЯГПУ",
                "amenity": "university",
                "building": "yes",
                "addr:city": "Ярославль",
                "addr:street": "Которосльная набережная",
                "addr:postcode": "150000",
                "addr:housenumber": "44"
            },
            {
                "name": "ЯГПУ им К.Д. Ушинского (главный корпус)",
                "source": "BING",
                "amenity": "university",
                "building": "yes",
                "addr:street": "Республиканская улица",
                "addr:housenumber": "1/108"
            }
        ]
    },
    "police": {
        "count": 1,
        "detail": [
            {
                "name": "ОМ Кировского района",
                "height": "11",
                "amenity": "police",
                "building": "civic",
                "roof:shape": "hipped",
                "addr:street": "Большая Октябрьская улица",
                "building:levels": "2",
                "addr:housenumber": "42"
            }
        ]
    },
    "arts_centre": {
        "count": 1,
        "detail": [
            {
                "name": "Джазовый центр",
                "amenity": "arts_centre",
                "building": "yes",
                "addr:city": "Ярославль",
                "addr:street": "Большая Октябрьская улица",
                "addr:country": "RU",
                "addr:postcode": "150000",
                "building:levels": "3",
                "addr:housenumber": "50"
            }
        ]
    },
    "nightclub": {
        "count": 1,
        "detail": [
            {
                "name": "Семь Пятниц",
                "source": "Bing",
                "amenity": "nightclub",
                "name:en": "Seven Fridays",
                "building": "yes",
                "addr:city": "Ярославль",
                "addr:street": "Комсомольская улица",
                "addr:housenumber": "10А"
            }
        ]
    },
    "service": {
        "count": 1,
        "detail": [
            {
                "ref": "158",
                "name": "ТП-158",
                "power": "substation",
                "building": "service",
                "building:levels": "1"
            }
        ]
    },
    "commercial": {
        "count": 1,
        "detail": [
            {
                "addr:city": "Ярославль",
                "addr:country": "RU",
                "addr:housenumber": "45",
                "addr:region": "Ярославская область",
                "addr:street": "Большая Октябрьская улица",
                "building": "commercial",
                "building:levels": "2",
                "height": "9"
            }
        ]
    }
}