{
    "mobile_phone": {
        "count": 1,
        "detail": [
            {
                "name": "ЦОК Мегафон",
                "shop": "mobile_phone"
            }
        ]
    },
    "convenience": {
        "count": 2,
        "detail": [
            {
                "name": "Ладья",
                "shop": "convenience"
            },
            {
                "building": "yes",
                "name": "Пятёрочка",
                "shop": "convenience"
            }
        ]
    },
    "variety_store": {
        "count": 1,
        "detail": [
            {
                "name": "Продукты",
                "shop": "variety_store"
            }
        ]
    },
    "library": {
        "count": 1,
        "detail": [
            {
                "name": "Центральная библиотека",
                "amenity": "library"
            }
        ]
    },
    "pharmacy": {
        "count": 1,
        "detail": [
            {
                "name": "Аптека +",
                "amenity": "pharmacy"
            }
        ]
    },
    "residents": 471,
    "post_office": {
        "count": 1,
        "detail": [
            {
                "addr:city": "Ветлуга",
                "addr:housenumber": "74",
                "addr:postcode": "606860",
                "addr:street": "улица Алешкова",
                "amenity": "post_office",
                "brand": "Почта России",
                "brand:wikidata": "Q1502763",
                "brand:wikipedia": "ru:Почта России",
                "name": "Почта России 606860"
            }
        ]
    },
    "bank": {
        "count": 2,
        "detail": [
            {
                "name": "Саровкомбанк",
                "amenity": "bank",
                "addr:city": "Ветлуга",
                "addr:street": "улица Ленина",
                "addr:postcode": "606860",
                "addr:housenumber": "4А"
            },
            {
                "name": "Ассоциация Банк",
                "amenity": "bank"
            }
        ]
    },
    "atm": {
        "count": 1,
        "detail": [
            {
                "amenity": "atm"
            }
        ]
    },
    "marketplace": {
        "count": 2,
        "detail": [
            {
                "amenity": "marketplace",
                "name": "Рынок выходного дня"
            },
            {
                "name": "Сельскохозяйственный рынок",
                "amenity": "marketplace"
            }
        ]
    },
    "supermarket": {
        "count": 3,
        "detail": [
            {
                "name": "Исток",
                "shop": "supermarket"
            },
            {
                "name": "Меркурий",
                "shop": "supermarket"
            },
            {
                "brand": "Магнит",
                "brand:en": "Magnit",
                "brand:wikidata": "Q940518",
                "brand:wikipedia": "ru:Магнит (сеть магазинов)",
                "name": "Магнит",
                "name:en": "Magnit",
                "shop": "supermarket"
            }
        ]
    },
    "place_of_worship": {
        "count": 2,
        "detail": [
            {
                "addr:city": "Ветлуга",
                "addr:housenumber": "18А",
                "addr:postcode": "606860",
                "addr:street": "улица Алешкова",
                "amenity": "place_of_worship",
                "name": "Приход Церкви В Честь Великомученицы Екатерины",
                "religion": "christian"
            },
            {
                "addr:city": "Ветлуга",
                "addr:housenumber": "79А",
                "addr:postcode": "606860",
                "addr:street": "улица Алешкова",
                "amenity": "place_of_worship",
                "building": "yes",
                "denomination": "orthodox",
                "name": "Троицкий собор",
                "religion": "christian"
            }
        ]
    },
    "furniture": {
        "count": 1,
        "detail": [
            {
                "name": "Мебель на заказ",
                "shop": "furniture"
            }
        ]
    },
    "hardware": {
        "count": 1,
        "detail": [
            {
                "name": "Всё для дома",
                "shop": "hardware",
                "email": "vddshop00@gmail.com",
                "phone": "+7 83150 21193",
                "name:ru": "Всё для дома",
                "addr:postcode": "606860",
                "opening_hours": "Mo-Fr 08:30-17:30; Sa-Su 08:30-14:00"
            }
        ]
    },
    "electronics": {
        "count": 1,
        "detail": [
            {
                "contact:phone": "+7 800 7707999",
                "contact:website": "https://www.dns-shop.ru/",
                "name": "DNS",
                "opening_hours": "Mo-Fr 09:00-18:00;Sa-Su 09:00-17:00",
                "operator": "ДНС Ритейл",
                "shop": "electronics"
            }
        ]
    },
    "fire_station": {
        "count": 1,
        "detail": [
            {
                "addr:city": "Ветлуга",
                "addr:housenumber": "72А",
                "addr:postcode": "606860",
                "addr:street": "улица Алешкова",
                "amenity": "fire_station",
                "building": "yes"
            }
        ]
    },
    "cafe": {
        "count": 1,
        "detail": [
            {
                "amenity": "cafe",
                "building": "yes"
            }
        ]
    }
}