{
    "residents": 2007,
    "bus_station": {
        "count": 1,
        "detail": [
            {
                "amenity": "bus_station",
                "bus": "yes",
                "name": "Печоры",
                "public_transport": "station"
            }
        ]
    },
    "cafe": {
        "count": 12,
        "detail": [
            {
                "name": "Бриз",
                "amenity": "cafe",
                "wheelchair": "no",
                "internet_access": "wlan"
            },
            {
                "name": "Лилия",
                "amenity": "cafe"
            },
            {
                "name": "Столовая",
                "amenity": "cafe"
            },
            {
                "name": "Оазис",
                "amenity": "cafe",
                "wheelchair": "no"
            },
            {
                "amenity": "cafe",
                "wheelchair": "no"
            },
            {
                "amenity": "cafe",
                "cuisine": "local;coffee_shop;russian;pancake;pizza",
                "diet:vegan": "yes",
                "internet_access": "wlan",
                "internet_access:fee": "no",
                "level": "3",
                "name": "Чёрная кошка",
                "opening_hours": "Mo-Su 10:00-21:00",
                "phone": "+7 81148 22050",
                "smoking": "no"
            },
            {
                "name": "Монастырский буфет",
                "amenity": "cafe"
            },
            {
                "amenity": "cafe",
                "operator": "ООО \"Брячина\"",
                "addr:street": "Октябрьская площадь",
                "addr:housenumber": "3"
            },
            {
                "name": "Монастырская трапезная (летняя веранда)",
                "amenity": "cafe"
            },
            {
                "amenity": "cafe",
                "name": "Несвятые святые"
            },
            {
                "amenity": "cafe",
                "name": "Несвятые святые"
            },
            {
                "addr:city": "Печоры",
                "addr:housenumber": "1А",
                "addr:street": "Октябрьская площадь",
                "amenity": "cafe",
                "building": "yes",
                "building:levels": "1",
                "name": "Старая Башня",
                "website": "http://starbash.ru"
            }
        ]
    },
    "toilets": {
        "count": 2,
        "detail": [
            {
                "amenity": "toilets",
                "wheelchair": "no"
            },
            {
                "amenity": "toilets",
                "wheelchair": "no"
            }
        ]
    },
    "bus_stop": {
        "count": 6,
        "detail": [
            {
                "bus": "yes",
                "highway": "bus_stop",
                "name": "Школа №2",
                "public_transport": "platform"
            },
            {
                "name": "Кинотеатр",
                "highway": "bus_stop",
                "shelter": "yes",
                "public_transport": "platform"
            },
            {
                "highway": "bus_stop",
                "name": "Печоры",
                "public_transport": "platform",
                "shelter": "yes"
            },
            {
                "bus": "yes",
                "highway": "bus_stop",
                "name": "Печоры",
                "public_transport": "platform",
                "shelter": "yes"
            },
            {
                "bus": "yes",
                "highway": "bus_stop",
                "name": "Печоры",
                "public_transport": "platform"
            },
            {
                "bus": "yes",
                "highway": "bus_stop",
                "name": "Школа №2",
                "public_transport": "platform"
            }
        ]
    },
    "post_office": {
        "count": 1,
        "detail": [
            {
                "addr:country": "RU",
                "addr:housenumber": "25",
                "addr:postcode": "181500",
                "addr:street": "улица Свободы",
                "amenity": "post_office",
                "name": "Отделение связи №181500",
                "official_name": "Городское отделение почтовой связи Печоры",
                "operator": "Почта России",
                "phone": "+7 81148 21144",
                "ref": "181500",
                "website": "https://russianpost.ru/"
            }
        ]
    },
    "library": {
        "count": 1,
        "detail": [
            {
                "name": "Районная библиотека",
                "amenity": "library"
            }
        ]
    },
    "pharmacy": {
        "count": 1,
        "detail": [
            {
                "name": "Аптека №24",
                "amenity": "pharmacy"
            }
        ]
    },
    "bank": {
        "count": 2,
        "detail": [
            {
                "amenity": "bank",
                "atm": "yes",
                "branch": "Северо-Западный банк",
                "contact:facebook": "https://www.facebook.com/sberbank",
                "contact:instagram": "https://instagram.com/sberbank",
                "contact:ok": "https://ok.ru/sberbank",
                "contact:phone": "+7 800 5555550",
                "contact:twitter": "https://twitter.com/sberbank/",
                "contact:vk": "https://vk.com/sberbank",
                "contact:website": "https://www.sberbank.ru",
                "contact:youtube": "https://www.youtube.com/sberbank",
                "name": "Сбербанк",
                "name:en": "Sberbank",
                "name:ru": "Сбербанк",
                "opening_hours": "Mo-Fr 09:00-18:00",
                "operator": "ПАО Сбербанк",
                "ref": "8630/01564",
                "wheelchair": "yes"
            },
            {
                "name": "ПробизнесБанк",
                "phone": "+7 8112 794333",
                "amenity": "bank",
                "website": "http://www.prbb.ru/",
                "wikidata": "Q4379512",
                "addr:city": "Печоры",
                "wikipedia": "ru:Пробизнесбанк",
                "addr:street": "Октябрьская площадь",
                "addr:postcode": "181500",
                "opening_hours": "Mo-Fr 10:00-19:00",
                "addr:housenumber": "5"
            }
        ]
    },
    "clothes": {
        "count": 2,
        "detail": [
            {
                "name": "Гудвин",
                "shop": "clothes"
            },
            {
                "shop": "clothes",
                "addr:city": "Печоры",
                "addr:postcode": "181500"
            }
        ]
    },
    "atm": {
        "count": 2,
        "detail": [
            {
                "amenity": "atm"
            },
            {
                "name": "Банкомат Сбербанка",
                "amenity": "atm",
                "operator": "Сбербанк"
            }
        ]
    },
    "taxi": {
        "count": 1,
        "detail": [
            {
                "amenity": "taxi"
            }
        ]
    },
    "books": {
        "count": 1,
        "detail": [
            {
                "shop": "books"
            }
        ]
    },
    "bench": {
        "count": 3,
        "detail": [
            {
                "seats": "2",
                "amenity": "bench",
                "backrest": "no"
            },
            {
                "amenity": "bench"
            },
            {
                "amenity": "bench"
            }
        ]
    },
    "electronics": {
        "count": 1,
        "detail": [
            {
                "addr:city": "Печоры",
                "addr:housenumber": "1",
                "addr:postcode": "181500",
                "addr:street": "Октябрьская площадь",
                "brand:wikidata": "Q65310",
                "brand:wikipedia": "ru:Евросеть",
                "name": "Евросеть",
                "opening_hours": "09:00-19:00",
                "phone": "+7 800 7000010",
                "shop": "electronics",
                "website": "https://euroset.ru/",
                "wheelchair": "no"
            }
        ]
    },
    "yes": {
        "count": 2,
        "detail": [
            {
                "name": "МТС",
                "shop": "yes"
            },
            {
                "name": "Каштанка",
                "name:en": "Kashtanka",
                "shop": "yes"
            }
        ]
    },
    "supermarket": {
        "count": 4,
        "detail": [
            {
                "addr:housenumber": "6",
                "addr:street": "Октябрьская площадь",
                "brand": "Дикси",
                "brand:en": "Dixy",
                "brand:wikidata": "Q4161561",
                "brand:wikipedia": "ru:Дикси (сеть магазинов)",
                "name": "Дикси",
                "shop": "supermarket"
            },
            {
                "name": "Магнит",
                "shop": "supermarket"
            },
            {
                "name": "Магнит",
                "shop": "supermarket"
            },
            {
                "addr:city": "Печоры",
                "addr:housenumber": "14",
                "addr:street": "Юрьевская улица",
                "brand": "Магнит",
                "brand:en": "Magnit",
                "brand:wikidata": "Q940518",
                "brand:wikipedia": "ru:Магнит (сеть магазинов)",
                "building": "yes",
                "name": "Магнит",
                "name:en": "Magnit",
                "shop": "supermarket"
            }
        ]
    },
    "furniture": {
        "count": 1,
        "detail": [
            {
                "shop": "furniture",
                "wheelchair": "no"
            }
        ]
    },
    "hairdresser": {
        "count": 2,
        "detail": [
            {
                "name": "Шарм",
                "shop": "hairdresser",
                "addr:city": "Печоры",
                "wheelchair": "no",
                "addr:street": "Юрьевская улица",
                "addr:postcode": "181500"
            },
            {
                "name": "Катти",
                "shop": "hairdresser",
                "addr:city": "Печоры",
                "wheelchair": "no",
                "addr:postcode": "181500"
            }
        ]
    },
    "parking": {
        "count": 1,
        "detail": [
            {
                "fee": "no",
                "amenity": "parking",
                "park_ride": "no",
                "supervised": "no"
            }
        ]
    },
    "convenience": {
        "count": 7,
        "detail": [
            {
                "name": "Балтика",
                "shop": "convenience",
                "operator": "ООО ТС Балтика",
                "addr:street": "Юрьевская улица",
                "addr:housenumber": "3"
            },
            {
                "name": "Нива",
                "shop": "convenience",
                "addr:street": "улица Свободы",
                "addr:housenumber": "30"
            },
            {
                "name": "Океан",
                "shop": "convenience",
                "operator": "ИП Бало- Балицкая В.С.",
                "addr:street": "Юрьевская улица",
                "addr:housenumber": "1"
            },
            {
                "name": "Престиж",
                "shop": "convenience",
                "operator": "ООО Престиж",
                "addr:street": "Юрьевская улица",
                "addr:housenumber": "3"
            },
            {
                "name": "Для всей семьи",
                "shop": "convenience",
                "name:ru": "Для всей семьи",
                "operator": "ИП Зиновьева В.Б.",
                "addr:street": "Рижская улица",
                "addr:housenumber": "2А"
            },
            {
                "shop": "convenience"
            },
            {
                "name": "Сервис",
                "shop": "convenience",
                "building": "yes",
                "operator": "ИП Урышина Н.М.",
                "addr:city": "Печоры",
                "addr:street": "Псковская улица",
                "addr:postcode": "181500",
                "addr:housenumber": "30А"
            }
        ]
    },
    "religion": {
        "count": 1,
        "detail": [
            {
                "name": "Церковная лавка",
                "shop": "religion"
            }
        ]
    },
    "clock": {
        "count": 1,
        "detail": [
            {
                "faces": "1",
                "amenity": "clock",
                "display": "analog",
                "support": "wall_mounted",
                "start_date": "1913",
                "visibility": "street"
            }
        ]
    },
    "wine": {
        "count": 1,
        "detail": [
            {
                "name": "Красное и Белое",
                "shop": "wine"
            }
        ]
    },
    "butcher": {
        "count": 1,
        "detail": [
            {
                "name": "Великолукский мясокомбинат",
                "shop": "butcher",
                "building": "yes"
            }
        ]
    },
    "place_of_worship": {
        "count": 3,
        "detail": [
            {
                "name": "Никольский храм",
                "amenity": "place_of_worship",
                "building": "church",
                "religion": "christian",
                "start_date": "1565",
                "denomination": "russian_orthodox",
                "official_name": "церковь во имя св. Николая Мирликийского Чудотворца"
            },
            {
                "amenity": "place_of_worship",
                "building": "yes",
                "denomination": "orthodox",
                "name": "Варварьинская церковь",
                "name:et": "Barbara kirik",
                "religion": "christian"
            },
            {
                "addr:city": "Печоры",
                "addr:housenumber": "2",
                "addr:street": "Фабричная улица",
                "amenity": "place_of_worship",
                "building": "yes",
                "denomination": "orthodox",
                "name": "Церковь Сорокамучеников",
                "name:et": "Neljakümne Märtri kirik",
                "religion": "christian"
            }
        ]
    },
    "school": {
        "count": 1,
        "detail": [
            {
                "name": "Спортивный зал МБОУ \"Печорская лингвистическаягимназия\"",
                "building": "school",
                "addr:city": "Печоры",
                "addr:street": "Псковская улица",
                "addr:postcode": "181500",
                "building:levels": "1",
                "addr:housenumber": "24А"
            }
        ]
    },
    "gift": {
        "count": 1,
        "detail": [
            {
                "shop": "gift",
                "building": "yes"
            }
        ]
    }
}