{
    "bank": {
        "count": 1,
        "detail": [
            {
                "atm": "yes",
                "name": "Урал ФД",
                "amenity": "bank"
            }
        ]
    },
    "supermarket": {
        "count": 1,
        "detail": [
            {
                "alt_name": "Пятерочка",
                "brand": "Пятёрочка",
                "brand:wikidata": "Q1768969",
                "brand:wikipedia": "ru:Пятёрочка",
                "contact:facebook": "https://www.facebook.com/pyaterochka",
                "contact:phone": "+7 800 5555505",
                "contact:website": "https://5ka.ru",
                "name": "Пятёрочка",
                "name:en": "Pyatyorochka",
                "name:ru": "Пятёрочка",
                "opening_hours": "08:00-23:00",
                "operator": "X5 Retail Group",
                "ref": "7473",
                "shop": "supermarket",
                "website": "http://e5.ru/"
            }
        ]
    },
    "hospital": {
        "count": 1,
        "detail": [
            {
                "name": "Медикор",
                "amenity": "hospital",
                "description": "Медицинский центр"
            }
        ]
    },
    "pharmacy": {
        "count": 2,
        "detail": [
            {
                "amenity": "pharmacy"
            },
            {
                "amenity": "pharmacy"
            }
        ]
    },
    "bicycle": {
        "count": 1,
        "detail": [
            {
                "shop": "bicycle"
            }
        ]
    },
    "hifi": {
        "count": 1,
        "detail": [
            {
                "name": "Собака.ru",
                "shop": "hifi"
            }
        ]
    },
    "bar": {
        "count": 1,
        "detail": [
            {
                "name": "Кочегарка",
                "amenity": "bar"
            }
        ]
    },
    "marketplace": {
        "count": 1,
        "detail": [
            {
                "name": "Гайвинский рынок",
                "amenity": "marketplace"
            }
        ]
    },
    "dentist": {
        "count": 1,
        "detail": [
            {
                "name": "Стоматология",
                "amenity": "dentist",
                "emergency": "yes"
            }
        ]
    },
    "convenience": {
        "count": 1,
        "detail": [
            {
                "name": "Торговый павильон",
                "shop": "convenience",
                "addr:street": "улица Вильямса",
                "addr:housenumber": "37В"
            }
        ]
    },
    "residents": 6723,
    "mall": {
        "count": 1,
        "detail": [
            {
                "name": "Кит на Гайве",
                "shop": "mall"
            }
        ]
    },
    "cafe": {
        "count": 1,
        "detail": [
            {
                "name": "Кофе с собой AMERICA.NO",
                "amenity": "cafe",
                "name:en": "Coffee AMERICA.NO",
                "name:ru": "Кофе с собой AMERICA.NO",
                "website": "http://vk.com/coffeeamericano",
                "opening_hours": "Mo-Su 10:00-22:00"
            }
        ]
    },
    "bus_stop": {
        "count": 2,
        "detail": [
            {
                "fixme": "Положение остановок может быть неточным",
                "highway": "bus_stop",
                "name": "ул. Гайвинская",
                "public_transport": "platform"
            },
            {
                "bus": "yes",
                "name": "ул. Гайвинская",
                "fixme": "Положение остановок может быть неточным",
                "highway": "bus_stop",
                "public_transport": "platform"
            }
        ]
    },
    "medical_supply": {
        "count": 1,
        "detail": [
            {
                "contact:email": "info@orteka.ru",
                "contact:facebook": "https://www.facebook.com/orteka.rus",
                "contact:instagram": "https://www.instagram.com/orteka_rus/",
                "contact:phone": "+7 800 3333112",
                "contact:vk": "https://vk.com/orteka_ru",
                "contact:website": "https://orteka.ru/salon/orteka-vilyamsa.php",
                "name": "Ортека",
                "opening_hours": "Mo-Su 09:00-20:00",
                "operator": "НИКАМЕД",
                "shop": "medical_supply"
            }
        ]
    },
    "fast_food": {
        "count": 2,
        "detail": [
            {
                "amenity": "fast_food",
                "contact:phone": "+7 342 2251224",
                "contact:website": "https://ivan-pizza.ru/",
                "name": "Иван Pizza",
                "opening_hours": "Fr-Sa 10:00-24:00;Mo,Tu,We,Th,Su 10:00-23:00",
                "operator": "Мочалов Н.В."
            },
            {
                "amenity": "fast_food",
                "contact:email": "FeedBack@burgerking.ru",
                "contact:phone": "+7 495 5445000",
                "contact:vk": "https://vk.com/burgerking",
                "contact:website": "https://burgerking.ru/",
                "name": "Бургер кинг",
                "opening_hours": "10:00-22:00",
                "operator": "БУРГЕР РУС"
            }
        ]
    },
    "butcher": {
        "count": 1,
        "detail": [
            {
                "shop": "butcher"
            }
        ]
    },
    "clothes": {
        "count": 1,
        "detail": [
            {
                "shop": "clothes"
            }
        ]
    },
    "hairdresser": {
        "count": 1,
        "detail": [
            {
                "name": "Блюз",
                "shop": "hairdresser"
            }
        ]
    },
    "electronics": {
        "count": 1,
        "detail": [
            {
                "contact:email": "24@mvideo.ru",
                "contact:facebook": "https://www.facebook.com/mvideo.ru",
                "contact:instagram": "https://www.instagram.com/mvideo_ru/",
                "contact:ok": "https://ok.ru/mvideo",
                "contact:phone": "+7 800 6007775",
                "contact:twitter": "https://twitter.com/mvideo",
                "contact:vk": "https://vk.com/mvideo",
                "contact:website": "https://mvideo.ru/",
                "name": "М.Видео",
                "opening_hours": "Mo-Su 10:00-21:00",
                "operator": "МВМ",
                "shop": "electronics"
            }
        ]
    },
    "doctors": {
        "count": 1,
        "detail": [
            {
                "amenity": "doctors",
                "contact:facebook": "https://www.facebook.com/kdllaboratory",
                "contact:instagram": "https://www.instagram.com/kdl.ru",
                "contact:phone": "+7 342 2060400",
                "contact:vk": "https://vk.com/kdllab",
                "contact:website": "https://www.kdl.ru/",
                "health_facility:type": "laboratory",
                "health_specialty:microbiology": "yes",
                "name": "KDL",
                "opening_hours": "Mo-Fr 07:30-20:00;Sa 08:00-12:00;Su 09:00-13:00",
                "operator": "«Медицинский центр «Диапазон»"
            }
        ]
    },
    "kindergarten": {
        "count": 1,
        "detail": [
            {
                "name": "Детский сад №394",
                "amenity": "kindergarten",
                "building": "kindergarten",
                "addr:street": "Гайвинская улица",
                "building:levels": "2",
                "addr:housenumber": "16"
            }
        ]
    }
}