{
    "residents": 3504,
    "supermarket": {
        "count": 1,
        "detail": [
            {
                "name": "ЧП ОПУП \"Магазин Солнечный\"",
                "shop": "supermarket"
            }
        ]
    },
    "police": {
        "count": 1,
        "detail": [
            {
                "name": "Участковый пункт ГУВД по Пермскому краю",
                "amenity": "police"
            }
        ]
    },
    "school": {
        "count": 2,
        "detail": [
            {
                "addr:housenumber": "30",
                "addr:street": "Томская улица",
                "amenity": "school",
                "building": "school",
                "building:levels": "3",
                "name": "Школа №79",
                "official_name": "МОУ Средняя общеобразовательная школа №79",
                "ref": "79"
            },
            {
                "name": "Средняя общеобразовательная школа №153",
                "amenity": "school",
                "building": "school",
                "addr:street": "Социалистическая улица",
                "building:levels": "2",
                "addr:housenumber": "6А"
            }
        ]
    },
    "kindergarten": {
        "count": 1,
        "detail": [
            {
                "addr:housenumber": "10А",
                "addr:street": "Социалистическая улица",
                "building": "kindergarten",
                "building:levels": "2",
                "description": "Корпус А",
                "source:start_date": "website",
                "start_date": "1973"
            }
        ]
    }
}