{
    "residents": 3495,
    "post_office": {
        "count": 1,
        "detail": [
            {
                "ref": "618900",
                "name": "Лысьва 618900",
                "amenity": "post_office",
                "operator": "Почта России",
                "contact:vk": "https://vk.com/russianpost",
                "addr:street": "улица Кузьмина",
                "contact:phone": "+7 34249 26659",
                "opening_hours": "Mo-Fr 08:00-20:00; Sa 09:00-18:00; Su 09:00-14:00",
                "contact:website": "https://www.pochta.ru",
                "addr:housenumber": "16",
                "contact:facebook": "https://www.facebook.com/ruspost",
                "operator:wikidata": "Q1502763",
                "operator:wikipedia": "ru:Почта России"
            }
        ]
    },
    "school": {
        "count": 1,
        "detail": [
            {
                "name": "Школа 3",
                "amenity": "school",
                "name:ru": "Школа 3"
            }
        ]
    },
    "cafe": {
        "count": 2,
        "detail": [
            {
                "name": "Сковородка",
                "amenity": "cafe",
                "name:ru": "Сковородка"
            },
            {
                "name": "Урал",
                "amenity": "cafe",
                "name:ru": "Урал"
            }
        ]
    },
    "car": {
        "count": 1,
        "detail": [
            {
                "name": "Автозапчасти",
                "shop": "car"
            }
        ]
    },
    "chemist": {
        "count": 1,
        "detail": [
            {
                "ref": "20652224",
                "name": "Магнит Косметик",
                "shop": "chemist",
                "name:ru": "Магнит Косметик",
                "operator": "АО Тандер",
                "contact:phone": "+7 800 2009002",
                "opening_hours": "09:30-20:30",
                "brand:wikidata": "Q940518",
                "brand:wikipedia": "ru:Магнит (сеть магазинов)",
                "contact:website": "https://magnitcosmetic.ru"
            }
        ]
    },
    "convenience": {
        "count": 1,
        "detail": [
            {
                "ref": "20651816",
                "name": "Магнит",
                "shop": "convenience",
                "name:en": "Magnit",
                "name:ru": "Магнит",
                "operator": "АО Тандер",
                "contact:phone": "+7 800 2009002",
                "opening_hours": "09:30-21:30",
                "brand:wikidata": "Q940518",
                "brand:wikipedia": "ru:Магнит (сеть магазинов)",
                "contact:website": "http://magnit-info.ru"
            }
        ]
    },
    "hardware": {
        "count": 2,
        "detail": [
            {
                "name": "Скобяная Лавка",
                "shop": "hardware"
            },
            {
                "name": "Аквадом",
                "shop": "hardware"
            }
        ]
    },
    "electronics": {
        "count": 3,
        "detail": [
            {
                "name": "Электропрофи",
                "shop": "electronics"
            },
            {
                "contact:phone": "+7 800 7707999",
                "contact:website": "http://dns-shop.ru/",
                "name": "DNS",
                "opening_hours": "Mo-Su 10:00-20:00",
                "operator": "ДНС Ритейл",
                "shop": "electronics"
            },
            {
                "contact:phone": "+7 800 7707999",
                "contact:website": "http://dns-shop.ru/",
                "name": "DNS",
                "opening_hours": "Mo-Su 10:00-20:00",
                "operator": "ДНС Ритейл",
                "shop": "electronics"
            }
        ]
    },
    "supermarket": {
        "count": 1,
        "detail": [
            {
                "alt_name": "Пятерочка",
                "alt_name:ru": "Пятерочка",
                "brand": "Пятёрочка",
                "brand:wikidata": "Q1768969",
                "brand:wikipedia": "ru:Пятёрочка",
                "contact:email": "vopros@5ka.ru",
                "contact:facebook": "https://www.facebook.com/pyaterochka",
                "contact:instagram": "https://www.instagram.com/pyaterochka_official",
                "contact:ok": "https://ok.ru/pyaterochka",
                "contact:phone": "+7 800 5555505",
                "contact:vk": "https://vk.com/pyaterochka_shop",
                "contact:website": "https://5ka.ru",
                "email": "vopros@5ka.ru",
                "name": "Пятёрочка",
                "name:en": "Pyaterchka",
                "name:ru": "Пятёрочка",
                "shop": "supermarket"
            }
        ]
    },
    "alcohol": {
        "count": 1,
        "detail": [
            {
                "name": "Лион",
                "shop": "alcohol",
                "name:en": "Лион",
                "name:ru": "Лион"
            }
        ]
    },
    "pharmacy": {
        "count": 4,
        "detail": [
            {
                "addr:postcode": "618900",
                "amenity": "pharmacy"
            },
            {
                "addr:postcode": "618900",
                "amenity": "pharmacy"
            },
            {
                "addr:postcode": "618900",
                "amenity": "pharmacy"
            },
            {
                "addr:postcode": "618900",
                "amenity": "pharmacy"
            }
        ]
    },
    "police": {
        "count": 1,
        "detail": [
            {
                "amenity": "police"
            }
        ]
    },
    "hairdresser": {
        "count": 1,
        "detail": [
            {
                "shop": "hairdresser"
            }
        ]
    },
    "jewelry": {
        "count": 1,
        "detail": [
            {
                "addr:postcode": "618900",
                "shop": "jewelry"
            }
        ]
    },
    "restaurant": {
        "count": 1,
        "detail": [
            {
                "name": "Блинная Сковородка",
                "amenity": "restaurant",
                "name:ru": "Блинная Сковородка",
                "building": "yes",
                "addr:street": "улица Федосеева",
                "addr:housenumber": "28"
            }
        ]
    },
    "sports_centre": {
        "count": 1,
        "detail": [
            {
                "name": "Спортивно оздоровительный комплекс",
                "sport": "swimming",
                "leisure": "sports_centre",
                "building": "yes",
                "addr:city": "Лысьва",
                "addr:street": "улица Федосеева",
                "addr:housenumber": "18А"
            }
        ]
    }
}