{
    "residents": 963,
    "supermarket": {
        "count": 3,
        "detail": [
            {
                "brand": "Дикси",
                "brand:en": "Dixy",
                "brand:wikidata": "Q4161561",
                "brand:wikipedia": "ru:Дикси (сеть магазинов)",
                "name": "Дикси",
                "name:ru": "Дикси",
                "shop": "supermarket",
                "website": "https://dixy.ru/"
            },
            {
                "brand": "Магнит",
                "brand:en": "Magnit",
                "brand:wikidata": "Q940518",
                "brand:wikipedia": "ru:Магнит (сеть магазинов)",
                "name": "Магнит",
                "name:en": "Magnit",
                "shop": "supermarket"
            },
            {
                "name": "Пятёрочка",
                "shop": "supermarket"
            }
        ]
    },
    "bank": {
        "count": 3,
        "detail": [
            {
                "name": "Банк СГБ",
                "amenity": "bank"
            },
            {
                "addr:postcode": "162840",
                "amenity": "bank",
                "name": "Россельхосбанк",
                "name:ru": "Россельхосбанк"
            },
            {
                "amenity": "bank",
                "atm": "yes",
                "name": "Совкомбанк",
                "opening_hours": "Tu-Fr 09:00-17:30; Sa 09:00-17:00",
                "operator:wikidata": "Q4426566",
                "operator:wikipedia": "ru:Совкомбанк",
                "phone": "+7 800 2006696",
                "website": "https://sovcombank.ru"
            }
        ]
    },
    "cafe": {
        "count": 2,
        "detail": [
            {
                "name": "Пирожковая",
                "amenity": "cafe"
            },
            {
                "amenity": "cafe",
                "internet_access": "wlan",
                "name": "У городничего",
                "opening_hours": "Mo-Th 09:00-19:00; Fr-Sa 09:00-22:00; Su 10:00-18:00",
                "phone": "+79210535301"
            }
        ]
    },
    "library": {
        "count": 1,
        "detail": [
            {
                "amenity": "library",
                "name": "Устюженская Централизованная Библиотечная Система"
            }
        ]
    },
    "cosmetics": {
        "count": 1,
        "detail": [
            {
                "brand": "Магнит Косметик",
                "brand:en": "Magnit Cosmetics",
                "brand:wikidata": "Q940518",
                "brand:wikipedia": "ru:Магнит (сеть магазинов)",
                "name": "Магнит Косметик",
                "name:en": "Magnit Cosmetics",
                "shop": "cosmetics"
            }
        ]
    },
    "doityourself": {
        "count": 1,
        "detail": [
            {
                "name": "Мастерок",
                "shop": "doityourself"
            }
        ]
    },
    "place_of_worship": {
        "count": 2,
        "detail": [
            {
                "name": "Дом молитвы",
                "amenity": "place_of_worship",
                "building": "yes",
                "religion": "christian",
                "addr:city": "Устюжна",
                "addr:region": "Вологодская область",
                "addr:street": "улица Красных Зорь",
                "addr:country": "RU",
                "denomination": "baptist",
                "addr:postcode": "162840",
                "addr:housenumber": "7"
            },
            {
                "amenity": "place_of_worship",
                "building": "yes",
                "name": "Воскресенская церковь",
                "religion": "christian"
            }
        ]
    },
    "convenience": {
        "count": 1,
        "detail": [
            {
                "addr:city": "Устюжна",
                "addr:country": "RU",
                "addr:region": "Вологодская область",
                "building": "yes",
                "name": "Алеся",
                "shop": "convenience"
            }
        ]
    },
    "townhall": {
        "count": 1,
        "detail": [
            {
                "amenity": "townhall",
                "building": "public",
                "addr:city": "Устюжна",
                "addr:region": "Вологодская область",
                "addr:street": "Коммунистический переулок",
                "addr:country": "RU",
                "addr:housenumber": "13"
            }
        ]
    },
    "car_repair": {
        "count": 1,
        "detail": [
            {
                "addr:housenumber": "16",
                "addr:street": "Коммунистический переулок",
                "building": "yes",
                "shop": "car_repair"
            }
        ]
    }
}