{
    "convenience": {
        "count": 4,
        "detail": [
            {
                "name": "Продукты",
                "shop": "convenience"
            },
            {
                "name": "Продукты",
                "shop": "convenience"
            },
            {
                "name": "Магнит",
                "shop": "convenience"
            },
            {
                "name": "Пятёрочка",
                "shop": "convenience"
            }
        ]
    },
    "butcher": {
        "count": 1,
        "detail": [
            {
                "name": "МиМП",
                "shop": "butcher"
            }
        ]
    },
    "pharmacy": {
        "count": 1,
        "detail": [
            {
                "name": "Аптека \"Антей\"",
                "amenity": "pharmacy"
            }
        ]
    },
    "residents": 6804,
    "florist": {
        "count": 1,
        "detail": [
            {
                "name": "Цветы",
                "shop": "florist"
            }
        ]
    },
    "bus_stop": {
        "count": 4,
        "detail": [
            {
                "name": "Фрязиновская",
                "highway": "bus_stop",
                "public_transport": "platform"
            },
            {
                "name": "Фрязиновская",
                "highway": "bus_stop",
                "public_transport": "platform"
            },
            {
                "bus": "yes",
                "name": "Фрязиновская",
                "public_transport": "stop_position"
            },
            {
                "bus": "yes",
                "name": "Фрязиновская",
                "public_transport": "stop_position"
            }
        ]
    },
    "car_parts": {
        "count": 1,
        "detail": [
            {
                "shop": "car_parts"
            }
        ]
    },
    "bar": {
        "count": 1,
        "detail": [
            {
                "amenity": "bar",
                "name": "Фокка"
            }
        ]
    },
    "cafe": {
        "count": 1,
        "detail": [
            {
                "addr:city": "Вологда",
                "addr:street": "Фрязиновская улица",
                "amenity": "cafe",
                "internet_access": "no",
                "name": "Пиццерия \"Дон Батон\".",
                "outdoor_seating": "no"
            }
        ]
    },
    "service": {
        "count": 3,
        "detail": [
            {
                "name": "ТП-561",
                "power": "substation",
                "source": "oets35.ru",
                "voltage": "10000",
                "building": "service",
                "building:levels": "1"
            },
            {
                "name": "ТП-773",
                "power": "substation",
                "source": "voce.ru",
                "building": "service",
                "building:levels": "1"
            },
            {
                "power": "switchgear",
                "voltage": "10000",
                "building": "service",
                "building:levels": "1"
            }
        ]
    },
    "car_repair": {
        "count": 1,
        "detail": [
            {
                "name": "Шиномонтаж",
                "shop": "car_repair",
                "service": "tyres",
                "building": "yes",
                "building:levels": "1"
            }
        ]
    }
}