{
    "bus_stop": {
        "count": 1,
        "detail": [
            {
                "highway": "bus_stop"
            }
        ]
    },
    "police": {
        "count": 2,
        "detail": [
            {
                "name": "МО МВД России \"Сокольский\"",
                "amenity": "police"
            },
            {
                "amenity": "police",
                "building": "yes",
                "addr:city": "Сокол",
                "addr:street": "улица Набережная Свободы",
                "addr:housenumber": "35"
            }
        ]
    },
    "university": {
        "count": 2,
        "detail": [
            {
                "name": "Бпоу ВО Сокольский Лпт",
                "amenity": "university"
            },
            {
                "name": "Бпоу ВО Сокольский Лпт",
                "amenity": "university"
            }
        ]
    },
    "bank": {
        "count": 1,
        "detail": [
            {
                "name": "Мосуралбанк",
                "amenity": "bank",
                "addr:street": "Советская улица",
                "addr:housenumber": "36"
            }
        ]
    },
    "doctors": {
        "count": 1,
        "detail": [
            {
                "name": "Акушерское отделение",
                "amenity": "doctors"
            }
        ]
    },
    "kindergarten": {
        "count": 3,
        "detail": [
            {
                "name": "Детский сад № 30",
                "amenity": "kindergarten"
            },
            {
                "addr:city": "Сокол",
                "addr:housenumber": "6",
                "addr:street": "улица Капитана Воронина",
                "building": "kindergarten",
                "name": "Детский сад №30"
            },
            {
                "name": "Детский сад №30",
                "amenity": "kindergarten",
                "building": "kindergarten",
                "addr:street": "улица Суворова",
                "addr:housenumber": "18А"
            }
        ]
    },
    "supermarket": {
        "count": 2,
        "detail": [
            {
                "name": "Магнит",
                "name:en": "Magnit",
                "shop": "supermarket"
            },
            {
                "name": "Пятёрочка",
                "shop": "supermarket",
                "building": "commercial",
                "addr:city": "Сокол",
                "addr:street": "улица Кирова",
                "addr:housenumber": "23"
            }
        ]
    },
    "residents": 2595,
    "books": {
        "count": 1,
        "detail": [
            {
                "name": "Книги",
                "shop": "books",
                "building": "yes",
                "addr:street": "улица Суворова",
                "addr:housenumber": "19"
            }
        ]
    },
    "hospital": {
        "count": 1,
        "detail": [
            {
                "name": "Городская больница N2",
                "amenity": "hospital",
                "building": "yes",
                "addr:street": "улица Суворова",
                "description": "Муниципальное учреждение здравоохранения \"Сокольская центральная районная больница\" Городская больница N2",
                "opening_hours": "24/7",
                "addr:housenumber": "21"
            }
        ]
    },
    "school": {
        "count": 1,
        "detail": [
            {
                "name": "Школа №9",
                "amenity": "school",
                "building": "school",
                "addr:city": "Сокол",
                "addr:street": "Советская улица",
                "addr:housenumber": "39"
            }
        ]
    },
    "courthouse": {
        "count": 1,
        "detail": [
            {
                "amenity": "courthouse",
                "building": "yes",
                "addr:city": "Сокол",
                "addr:street": "улица Суворова",
                "addr:housenumber": "25"
            }
        ]
    },
    "convenience": {
        "count": 1,
        "detail": [
            {
                "shop": "convenience",
                "building": "yes",
                "addr:city": "Сокол",
                "addr:street": "улица Кирова",
                "addr:housenumber": "36А"
            }
        ]
    }
}