{
    "bus_stop": {
        "count": 2,
        "detail": [
            {
                "bus": "yes",
                "highway": "bus_stop",
                "name": "Площадь Елькина",
                "public_transport": "platform",
                "shelter": "yes"
            },
            {
                "bus": "yes",
                "highway": "bus_stop",
                "name": "пл. Елькина",
                "public_transport": "platform",
                "shelter": "yes"
            }
        ]
    },
    "courthouse": {
        "count": 1,
        "detail": [
            {
                "amenity": "courthouse",
                "name": "Усольский районный суд"
            }
        ]
    },
    "convenience": {
        "count": 5,
        "detail": [
            {
                "addr:city": "Усолье",
                "addr:housenumber": "172",
                "addr:postcode": "618460",
                "addr:street": "улица Солеваров",
                "brand": "Магнит",
                "brand:en": "Magnit",
                "brand:wikidata": "Q940518",
                "brand:wikipedia": "ru:Магнит (сеть магазинов)",
                "contact:phone": "+7 800 2009002",
                "contact:website": "http://magnit-info.ru",
                "name": "Магнит",
                "name:en": "Magnit",
                "name:ru": "Магнит",
                "opening_hours": "09:00-22:00",
                "operator": "АО Тандер",
                "ref": "20625224",
                "shop": "convenience"
            },
            {
                "shop": "convenience"
            },
            {
                "shop": "convenience"
            },
            {
                "shop": "convenience"
            },
            {
                "addr:city": "Усолье",
                "addr:housenumber": "170",
                "addr:street": "улица Солеваров",
                "building": "yes",
                "name": "Рябинушка",
                "shop": "convenience"
            }
        ]
    },
    "post_office": {
        "count": 1,
        "detail": [
            {
                "ref": "618460",
                "name": "Усолье 618460",
                "is_in": "Усолье, Пермский край",
                "amenity": "post_office",
                "operator": "Почта России",
                "addr:city": "Усолье",
                "contact:vk": "https://vk.com/russianpost",
                "addr:region": "Пермский край",
                "addr:street": "улица Свободы",
                "addr:country": "RU",
                "addr:postcode": "618460",
                "contact:phone": "+7 3424 422274",
                "official_name": "УСОЛЬЕ",
                "opening_hours": "Tu-Fr 10:00-13:00,14:00-19:00; Sa 09:00-13:00,14:00-18:00",
                "contact:website": "https://www.pochta.ru",
                "addr:housenumber": "134",
                "contact:facebook": "https://www.facebook.com/ruspost",
                "operator:wikidata": "Q1502763",
                "operator:wikipedia": "ru:Почта России"
            }
        ]
    },
    "residents": 369,
    "clothes": {
        "count": 1,
        "detail": [
            {
                "name": "Рябинушка",
                "shop": "clothes"
            }
        ]
    },
    "cinema": {
        "count": 1,
        "detail": [
            {
                "amenity": "cinema"
            }
        ]
    },
    "pharmacy": {
        "count": 1,
        "detail": [
            {
                "amenity": "pharmacy"
            }
        ]
    },
    "bank": {
        "count": 1,
        "detail": [
            {
                "ref": "6984/0704",
                "name": "Сбербанк",
                "branch": "Волго-Вятский банк",
                "amenity": "bank",
                "name:en": "Sberbank",
                "name:ru": "Сбербанк",
                "operator": "ПАО \"Сбербанк\"",
                "wheelchair": "yes",
                "contact:phone": "+7 495 5005550",
                "opening_hours": "Mo-Fr 09:30-18:30",
                "contact:website": "http://www.sberbank.ru",
                "operator:wikidata": "Q205012",
                "operator:wikipedia": "ru:Сбербанк России"
            }
        ]
    },
    "atm": {
        "count": 3,
        "detail": [
            {
                "ref": "730970",
                "branch": "Волго-Вятский банк",
                "amenity": "atm",
                "cash_in": "no",
                "operator": "ПАО \"Сбербанк\"",
                "currency:EUR": "no",
                "currency:RUB": "yes",
                "currency:USD": "no",
                "contact:phone": "+7 800 5555550",
                "contact:website": "http://www.sberbank.ru",
                "operator:wikidata": "Q205012",
                "operator:wikipedia": "ru:Сбербанк России"
            },
            {
                "ref": "816471",
                "branch": "Волго-Вятский банк",
                "amenity": "atm",
                "cash_in": "yes",
                "operator": "ПАО \"Сбербанк\"",
                "currency:EUR": "no",
                "currency:RUB": "yes",
                "currency:USD": "no",
                "contact:phone": "+7 800 5555550",
                "contact:website": "http://www.sberbank.ru",
                "operator:wikidata": "Q205012",
                "operator:wikipedia": "ru:Сбербанк России"
            },
            {
                "ref": "816469",
                "branch": "Волго-Вятский банк",
                "amenity": "atm",
                "cash_in": "no",
                "operator": "ПАО \"Сбербанк\"",
                "currency:EUR": "no",
                "currency:RUB": "yes",
                "currency:USD": "no",
                "contact:phone": "+7 800 5555550",
                "contact:website": "http://www.sberbank.ru",
                "operator:wikidata": "Q205012",
                "operator:wikipedia": "ru:Сбербанк России"
            }
        ]
    },
    "alcohol": {
        "count": 2,
        "detail": [
            {
                "name": "Крепость",
                "shop": "alcohol"
            },
            {
                "name": "Лион",
                "shop": "alcohol"
            }
        ]
    },
    "community_centre": {
        "count": 2,
        "detail": [
            {
                "addr:city": "Усолье",
                "addr:housenumber": "138",
                "addr:street": "улица Свободы",
                "amenity": "community_centre",
                "building": "yes",
                "name": "УСОЛЬСКИЙ ДОМ КУЛЬТУРЫ"
            },
            {
                "addr:city": "Усолье",
                "addr:housenumber": "136",
                "addr:street": "улица Свободы",
                "amenity": "community_centre",
                "building": "yes",
                "name": "ЦЕНТР ДОСУГА"
            }
        ]
    },
    "townhall": {
        "count": 2,
        "detail": [
            {
                "addr:city": "Усолье",
                "addr:housenumber": "138А",
                "addr:street": "улица Свободы",
                "amenity": "townhall",
                "building": "yes",
                "name": "АДМИНИСТРАЦИЯ УСОЛЬСКОГО МУНИЦИПАЛЬНОГО РАЙОНА"
            },
            {
                "addr:city": "Усолье",
                "addr:housenumber": "155",
                "addr:street": "улица Свободы",
                "amenity": "townhall",
                "building": "yes",
                "name": "АДМИНИСТРАЦИЯ УСОЛЬСКОГО ГОРОДСКОГО ПОСЕЛЕНИЯ"
            }
        ]
    },
    "fire_station": {
        "count": 1,
        "detail": [
            {
                "addr:city": "Усолье",
                "addr:housenumber": "12",
                "addr:street": "улица Радищева",
                "amenity": "fire_station",
                "building": "yes",
                "name": "Пожарная часть № 74"
            }
        ]
    },
    "school": {
        "count": 1,
        "detail": [
            {
                "name": "Детская школа Исккуств",
                "amenity": "school",
                "building": "yes",
                "addr:city": "Усолье",
                "addr:street": "улица Луначарского",
                "addr:housenumber": "2"
            }
        ]
    },
    "police": {
        "count": 1,
        "detail": [
            {
                "addr:city": "Усолье",
                "addr:housenumber": "9",
                "addr:street": "улица Елькина",
                "amenity": "police",
                "building": "yes",
                "name": "ОТДЕЛЕНИЕ ПОЛИЦИИ УСОЛЬСКОГО РАЙОНА"
            }
        ]
    },
    "furniture": {
        "count": 1,
        "detail": [
            {
                "addr:city": "Усолье",
                "addr:housenumber": "6А",
                "addr:street": "улица Луначарского",
                "building": "yes",
                "name": "ВАЛЕТИНА, МЕБЕЛЬ",
                "shop": "furniture"
            }
        ]
    }
}