{
    "residents": 8937,
    "pharmacy": {
        "count": 5,
        "detail": [
            {
                "amenity": "pharmacy",
                "healthcare": "pharmacy",
                "name": "Здоровые люди"
            },
            {
                "amenity": "pharmacy",
                "healthcare": "pharmacy",
                "name": "Озерки",
                "wheelchair": "no"
            },
            {
                "amenity": "pharmacy",
                "healthcare": "pharmacy",
                "name": "Петербургские аптеки",
                "name:ru": "Петербургские аптеки",
                "opening_hours": "Mo-Su 08:00-22:00",
                "phone": "+7 812 7000303",
                "website": "https://papteki.ru/"
            },
            {
                "name": "Центр гомеопатии",
                "amenity": "pharmacy",
                "dispensing": "no"
            },
            {
                "amenity": "pharmacy",
                "dispensing": "yes",
                "healthcare": "pharmacy",
                "level": "0",
                "name": "Аптека Доктора Живило",
                "opening_hours": "Mo-Su 10:00-21:00"
            }
        ]
    },
    "bank": {
        "count": 7,
        "detail": [
            {
                "name": "УралСиб",
                "amenity": "bank"
            },
            {
                "amenity": "bank",
                "atm": "yes",
                "name": "Промсвязьбанк",
                "website": "https://www.psbank.ru/"
            },
            {
                "amenity": "bank",
                "description": "Дополнительный офис \"Ивановская 8\"",
                "name": "Авангард",
                "opening_hours": "Mo-Fr 09:30-20:00; Sa,Su 11:00-13:00,14:00-19:00",
                "phone": "+7 812 3265093",
                "website": "https://baltinvestbank.com/"
            },
            {
                "amenity": "bank",
                "name": "Home Credit",
                "website": "https://spb.homecredit.ru/"
            },
            {
                "amenity": "bank",
                "brand": "Альфа-Банк",
                "brand:en": "Alfa-Bank",
                "brand:ru": "Альфа-Банк",
                "brand:wikidata": "Q1377835",
                "brand:wikipedia": "ru:Альфа-банк",
                "contact:phone": "+7 495 7888878",
                "contact:website": "https://alfabank.ru",
                "name": "Альфа-Банк",
                "name:en": "Alfa-Bank",
                "name:ru": "Альфа-Банк",
                "opening_hours": "Mo-Fr 09:00-20:00; Sa 10:00-19:00; Su off",
                "operator": "АО \"Альфа-Банк\"",
                "ref": "0735"
            },
            {
                "name": "Открытие",
                "amenity": "bank"
            },
            {
                "amenity": "bank",
                "name": "Венец"
            }
        ]
    },
    "atm": {
        "count": 11,
        "detail": [
            {
                "amenity": "atm",
                "contact:email": "info@psbank.ru",
                "contact:phone": "+7 495 7873333;+7 800 3330303",
                "contact:website": "https://psbank.ru/",
                "indoor": "yes",
                "opening_hours": "Mo-Su 07:00-23:00",
                "operator": "Промсвязьбанк"
            },
            {
                "amenity": "atm",
                "indoor": "yes",
                "opening_hours": "00:00-00:27,05:33-24:00",
                "operator": "Сбербанк России"
            },
            {
                "indoor": "yes",
                "amenity": "atm",
                "operator": "ВТБ24",
                "opening_hours": "00:00-00:45,05:33-24:00"
            },
            {
                "amenity": "atm",
                "indoor": "yes",
                "opening_hours": "00:00-00:27,05:33-24:00",
                "operator": "ВТБ24"
            },
            {
                "amenity": "atm",
                "indoor": "yes",
                "opening_hours": "00:00-00:27,05:33-24:00",
                "operator": "ВТБ24"
            },
            {
                "amenity": "atm",
                "brand": "Санкт-Петербург",
                "contact:email": "cc@bspb.ru",
                "contact:facebook": "https://www.facebook.com/bspb/",
                "contact:instagram": "https://instagram.com/bank_spb",
                "contact:ok": "https://ok.ru/bspb",
                "contact:phone": "+7 800 2225050;+7 812 3295050",
                "contact:twitter": "https://twitter.com/bank_spb",
                "contact:vk": "https://vk.com/bspb",
                "contact:website": "https://www.bspb.ru/",
                "currency:RUB": "yes",
                "indoor": "yes",
                "opening_hours": "Mo-Su 05:35-00:25",
                "operator": "ПАО Банк Санкт-Петербург",
                "telegram": "https://t.me/mybspb"
            },
            {
                "amenity": "atm",
                "operator": "Альфа-Банк"
            },
            {
                "amenity": "atm",
                "indoor": "yes",
                "opening_hours": "00:00-00:27,05:33-24:00",
                "operator": "Сбербанк России"
            },
            {
                "amenity": "atm",
                "indoor": "yes",
                "opening_hours": "00:00-00:27,05:33-24:00",
                "operator": "Сбербанк России"
            },
            {
                "amenity": "atm",
                "contact:email": "info@psbank.ru",
                "contact:phone": "+7 495 7873333;+7 800 3330303",
                "contact:website": "https://psbank.ru/",
                "opening_hours": "Mo-Fr 09:30-20:00",
                "operator": "Промсвязьбанк"
            },
            {
                "amenity": "atm",
                "contact:email": "info@psbank.ru",
                "contact:phone": "+7 495 7873333;+7 800 3330303",
                "contact:website": "https://psbank.ru/",
                "opening_hours": "24/7",
                "operator": "Промсвязьбанк"
            }
        ]
    },
    "alcohol": {
        "count": 3,
        "detail": [
            {
                "level": "-1",
                "name": "РусАлка",
                "shop": "alcohol",
                "wheelchair": "no"
            },
            {
                "level": "-1",
                "shop": "alcohol",
                "wheelchair": "no"
            },
            {
                "brand": "Калейдоскоп напитков мира",
                "name": "Напитки мира",
                "opening_hours": "10:00-22:00",
                "operator": "Калейдоскоп",
                "phone": "+7 812 2442998",
                "shop": "alcohol",
                "website": "https://www.napitkimira.com/",
                "wheelchair": "no"
            }
        ]
    },
    "hardware": {
        "count": 3,
        "detail": [
            {
                "name": "Все инструменты.ру",
                "opening_hours": "Mo-Fr 10:00-13:30,14:00-22:00; Sa-Su 10:00-13:30,14:00-21:00",
                "shop": "hardware",
                "website": "https://www.ulmart.ru/",
                "wheelchair": "no"
            },
            {
                "level": "-1",
                "name": "Пилея",
                "opening_hours": "Mo-Su 10:00-20:00",
                "shop": "hardware",
                "wheelchair": "no"
            },
            {
                "shop": "hardware"
            }
        ]
    },
    "pub": {
        "count": 1,
        "detail": [
            {
                "name": "Hanse Bier",
                "phone": "+7 812 6355548",
                "amenity": "pub",
                "website": "http://www.hansebier.ru/",
                "opening_hours": "Mo-Fr 00:00-02:00,12:00-24:00; Sa,Su 00:00-05:00,12:00-24:00",
                "internet_access": "wlan",
                "internet_access:fee": "no"
            }
        ]
    },
    "jewelry": {
        "count": 6,
        "detail": [
            {
                "name": "Искорка",
                "shop": "jewelry",
                "brand": "Ювелирторг",
                "phone": "+7 812 5606981",
                "website": "http://www.juvelirtorg.spb.ru/",
                "opening_hours": "Mo-Sa 10:00-20:00; Su 11:00-20:00"
            },
            {
                "name": "Яшма золото",
                "shop": "jewelry"
            },
            {
                "name": "Золотой",
                "name:en": "585 Gold",
                "name:ru": "585 Gold",
                "shop": "jewelry"
            },
            {
                "name": "Наше золото",
                "shop": "jewelry"
            },
            {
                "name": "585 GOLD",
                "shop": "jewelry"
            },
            {
                "name": "Камея",
                "shop": "jewelry",
                "opening_hours": "Mo-Su 09:00-20:00"
            }
        ]
    },
    "tableware": {
        "count": 1,
        "detail": [
            {
                "name": "Семь Холмов – Предметы кухни",
                "shop": "tableware",
                "website": "http://www.predmeti.ru/"
            }
        ]
    },
    "bus_stop": {
        "count": 12,
        "detail": [
            {
                "bus": "yes",
                "highway": "bus_stop",
                "name": "улица Седова",
                "public_transport": "platform",
                "share_taxi": "yes",
                "trolleybus": "yes"
            },
            {
                "bus": "yes",
                "highway": "bus_stop",
                "local_ref": "5;11;12;140",
                "name": "улица Седова",
                "public_transport": "platform",
                "share_taxi": "no",
                "trolleybus": "no"
            },
            {
                "bus": "yes",
                "name": "улица Бабушкина",
                "operator": "СПб ГУП \"Организатор перевозок\"",
                "public_transport": "stop_position",
                "ref": "8;11;12;56;119;140;476",
                "share_taxi": "yes",
                "tactile_paving": "no",
                "trolleybus": "no"
            },
            {
                "bench": "yes",
                "bin": "yes",
                "bus": "yes",
                "highway": "bus_stop",
                "name": "улица Бабушкина",
                "public_transport": "platform",
                "shelter": "yes",
                "tactile_paving": "no",
                "wheelchair": "no"
            },
            {
                "bench": "yes",
                "bin": "yes",
                "bus": "yes",
                "highway": "bus_stop",
                "name": "улица Полярников",
                "public_transport": "platform",
                "shelter": "yes",
                "tactile_paving": "no",
                "trolleybus": "yes",
                "wheelchair": "limited"
            },
            {
                "bench": "no",
                "bus": "yes",
                "highway": "bus_stop",
                "local_ref": "5;56;97;118",
                "name": "Ивановская улица",
                "name:ru": "Ивановская улица",
                "public_transport": "platform",
                "share_taxi": "yes",
                "shelter": "no"
            },
            {
                "bus": "yes",
                "name": "Ивановская улица",
                "name:ru": "Ивановская улица",
                "public_transport": "stop_position"
            },
            {
                "bus": "yes",
                "name": "улица Седова",
                "public_transport": "stop_position"
            },
            {
                "bus": "yes",
                "name": "Станция метро «Ломоносовская»",
                "public_transport": "stop_position"
            },
            {
                "bus": "yes",
                "name": "Ивановская улица",
                "name:ru": "Ивановская улица",
                "network": "СПб ГУП \"Организатор перевозок\"",
                "public_transport": "stop_position",
                "ref": "8;56;97;118;119;157;476",
                "share_taxi": "yes",
                "tactile_paving": "no"
            },
            {
                "bus": "yes",
                "name": "улица Полярников",
                "operator": "СПб ГУП \"Организатор перевозок\"",
                "public_transport": "stop_position",
                "ref": "8;14;28",
                "share_taxi": "yes",
                "tactile_paving": "no",
                "trolleybus": "yes"
            },
            {
                "bus": "yes",
                "name": "улица Седова",
                "public_transport": "stop_position"
            }
        ]
    },
    "library": {
        "count": 1,
        "detail": [
            {
                "amenity": "library",
                "name": "Библиотека имени Ф.Абрамова"
            }
        ]
    },
    "optician": {
        "count": 4,
        "detail": [
            {
                "name": "Невская Оптика",
                "shop": "optician"
            },
            {
                "name": "Хамелеон",
                "shop": "optician"
            },
            {
                "name": "Глаз Алмаз",
                "shop": "optician",
                "wheelchair": "no"
            },
            {
                "name": "Дозор",
                "opening_hours": "Mo-Fr 10:00-20:00; Sa-Su 11:00-19:00",
                "shop": "optician",
                "wheelchair": "no"
            }
        ]
    },
    "cafe": {
        "count": 7,
        "detail": [
            {
                "amenity": "cafe",
                "cuisine": "russian",
                "name": "На всю Ивановскую",
                "opening_hours": "Mo-Su 11:00-23:00"
            },
            {
                "amenity": "cafe",
                "level": "-1",
                "name": "Погребок",
                "wheelchair": "no"
            },
            {
                "name": "Антикафе",
                "amenity": "cafe"
            },
            {
                "name": "бистро \"Пышки\"",
                "amenity": "cafe"
            },
            {
                "amenity": "cafe",
                "name": "Чача & пури"
            },
            {
                "amenity": "cafe",
                "name": "Домовой"
            },
            {
                "amenity": "cafe",
                "level": "-1",
                "name": "Греческая таверна \"Узо\"",
                "wheelchair": "no"
            }
        ]
    },
    "convenience": {
        "count": 15,
        "detail": [
            {
                "level": "-1",
                "name": "Продукты",
                "opening_hours": "24/7",
                "operator": "ИП Ахмедов",
                "shop": "convenience",
                "wheelchair": "no"
            },
            {
                "name": "Продукты",
                "shop": "convenience",
                "name:ru": "Продукты",
                "opening_hours": "24/7"
            },
            {
                "name": "Продукты",
                "shop": "convenience",
                "opening_hours": "24/7"
            },
            {
                "name": "Продукты",
                "shop": "convenience",
                "operator": "ИП Геймбух",
                "opening_hours": "24/7"
            },
            {
                "shop": "convenience"
            },
            {
                "operator": "ООО \"Исток\"",
                "shop": "convenience"
            },
            {
                "name": "Продукты",
                "shop": "convenience",
                "name:ru": "Продукты",
                "opening_hours": "24/7"
            },
            {
                "level": "-1",
                "name": "Продукты",
                "opening_hours": "24/7",
                "shop": "convenience",
                "wheelchair": "no"
            },
            {
                "level": "-1",
                "name": "Продукты",
                "opening_hours": "Mo-Su 09:00-21:30",
                "shop": "convenience",
                "wheelchair": "no"
            },
            {
                "shop": "convenience",
                "opening_hours": "24/7"
            },
            {
                "opening_hours": "24/7",
                "payment:cash": "yes",
                "payment:maestro": "yes",
                "payment:mastercard": "yes",
                "payment:visa": "yes",
                "payment:visa_electron": "yes",
                "shop": "convenience",
                "wheelchair": "no"
            },
            {
                "name": "Море чая",
                "shop": "convenience"
            },
            {
                "name": "Продукты",
                "opening_hours": "24/7",
                "shop": "convenience"
            },
            {
                "shop": "convenience"
            },
            {
                "name": "Продукты",
                "opening_hours": "24/7",
                "shop": "convenience"
            }
        ]
    },
    "hairdresser": {
        "count": 3,
        "detail": [
            {
                "shop": "hairdresser"
            },
            {
                "name": "Free style",
                "shop": "hairdresser"
            },
            {
                "shop": "hairdresser"
            }
        ]
    },
    "mobile_phone": {
        "count": 5,
        "detail": [
            {
                "brand": "Мегафон",
                "brand:en": "MegaFon",
                "brand:wikidata": "Q1720713",
                "brand:wikipedia": "en:MegaFon",
                "name": "Мегафон",
                "name:en": "MegaFon",
                "opening_hours": "Mo-Su 09:00-21:00",
                "shop": "mobile_phone"
            },
            {
                "brand": "Евросеть",
                "brand:en": "Euroset",
                "brand:wikidata": "Q65310",
                "brand:wikipedia": "en:Euroset",
                "name": "Евросеть",
                "name:en": "Euroset",
                "opening_hours": "Mo-Su 09:00-22:00",
                "shop": "mobile_phone",
                "website": "https://euroset.ru/"
            },
            {
                "brand": "Связной",
                "brand:en": "Svyaznoy",
                "brand:wikidata": "Q65371",
                "brand:wikipedia": "en:Svyaznoy",
                "level": "0",
                "name": "Связной",
                "name:en": "Svyaznoy",
                "shop": "mobile_phone",
                "website": "http://www.svyaznoy.ru/",
                "wheelchair": "no"
            },
            {
                "brand": "Теле2",
                "brand:en": "Tele2",
                "brand:wikidata": "Q309865",
                "brand:wikipedia": "en:Tele2",
                "name": "Теле2",
                "name:en": "Tele2",
                "shop": "mobile_phone"
            },
            {
                "addr:housenumber": "71/8",
                "addr:street": "улица Бабушкина",
                "brand": "МТС",
                "brand:en": "MTS",
                "brand:wikidata": "Q1368919",
                "brand:wikipedia": "en:MTS (network provider)",
                "building": "yes",
                "name": "МТС",
                "name:en": "MTS",
                "shop": "mobile_phone",
                "website": "http://www.mts.ru"
            }
        ]
    },
    "shoes": {
        "count": 3,
        "detail": [
            {
                "name": "Обувной дворик",
                "shop": "shoes"
            },
            {
                "name": "Rieker",
                "shop": "shoes"
            },
            {
                "name": "Sofia",
                "shop": "shoes"
            }
        ]
    },
    "cosmetics": {
        "count": 1,
        "detail": [
            {
                "name": "Гранд Презент",
                "shop": "cosmetics"
            }
        ]
    },
    "toys": {
        "count": 1,
        "detail": [
            {
                "level": "-1",
                "name": "Солнышко",
                "opening_hours": "Mo-Sa 10:00-21:00; Su 11:00-20:00",
                "shop": "toys",
                "wheelchair": "no"
            }
        ]
    },
    "seafood": {
        "count": 2,
        "detail": [
            {
                "cuisine": "japanese;sushi",
                "name": "Суши шоп",
                "opening_hours": "Mo-Su 10:00-23:00",
                "phone": "+7 812 4934444",
                "shop": "seafood",
                "website": "https://www.sushishop.ru/"
            },
            {
                "level": "0",
                "name": "Икра и рыба",
                "opening_hours": "09:00-21:00",
                "operator": "Мартынов А.А.",
                "payment:cash": "yes",
                "payment:maestro": "yes",
                "payment:mastercard": "yes",
                "payment:visa": "yes",
                "payment:visa_electron": "yes",
                "phone": "+7 905 2294536",
                "shop": "seafood",
                "wheelchair": "no"
            }
        ]
    },
    "waste_disposal": {
        "count": 8,
        "detail": [
            {
                "amenity": "waste_disposal"
            },
            {
                "amenity": "waste_disposal"
            },
            {
                "amenity": "waste_disposal"
            },
            {
                "amenity": "waste_disposal"
            },
            {
                "amenity": "waste_disposal"
            },
            {
                "amenity": "waste_disposal"
            },
            {
                "amenity": "waste_disposal"
            },
            {
                "amenity": "waste_disposal"
            }
        ]
    },
    "clothes": {
        "count": 4,
        "detail": [
            {
                "name": "Milavitsa",
                "shop": "clothes"
            },
            {
                "name": "Милашка",
                "opening_hours": "Mo-Su 10:00-20:00",
                "shop": "clothes",
                "wheelchair": "no"
            },
            {
                "level": "-1",
                "name": "Детская одежда, обувь",
                "opening_hours": "Mo-Fr 10:00-20:00; Sa-Su 10:00-19:00",
                "operator": "ИП Полякова Н.Н.",
                "shop": "clothes",
                "wheelchair": "no"
            },
            {
                "name": "Мари",
                "opening_hours": "Mo-Su 10:00-21:00",
                "phone": "+7 812 3673321",
                "shop": "clothes",
                "wheelchair": "no"
            }
        ]
    },
    "butcher": {
        "count": 1,
        "detail": [
            {
                "brand": "Великолукский мясокомбинат",
                "brand:wikidata": "Q18401767",
                "brand:wikipedia": "ru:Великолукский мясокомбинат",
                "name": "Великолукский мясокомбинат",
                "shop": "butcher"
            }
        ]
    },
    "fast_food": {
        "count": 6,
        "detail": [
            {
                "amenity": "fast_food",
                "name": "Суши шоп",
                "wheelchair": "no"
            },
            {
                "amenity": "fast_food",
                "cuisine": "kebab",
                "name": "Кебаб сити",
                "opening_hours": "24/7"
            },
            {
                "name": "Шаверма",
                "amenity": "fast_food",
                "cuisine": "oriental",
                "fast_food": "shawarma",
                "opening_hours": "24/7"
            },
            {
                "name": "Шаверма",
                "amenity": "fast_food",
                "name:ru": "Шаверма",
                "opening_hours": "24/7"
            },
            {
                "amenity": "fast_food",
                "cuisine": "kebab",
                "level": "0",
                "name": "Сфинкс",
                "wheelchair": "no"
            },
            {
                "amenity": "fast_food",
                "name": "Shop & Sushi"
            }
        ]
    },
    "pet": {
        "count": 4,
        "detail": [
            {
                "level": "-1",
                "shop": "pet",
                "wheelchair": "no"
            },
            {
                "shop": "pet"
            },
            {
                "amenity": "bar",
                "description": "Пункт самовывоза",
                "name": "Корюшка",
                "shop": "pet",
                "website": "www.petsburg.ru"
            },
            {
                "name": "Ёжкин кот",
                "shop": "pet"
            }
        ]
    },
    "florist": {
        "count": 5,
        "detail": [
            {
                "name": "Цветория",
                "name:ru": "Цветория",
                "opening_hours": "24/7",
                "shop": "florist"
            },
            {
                "name": "Цветория",
                "shop": "florist"
            },
            {
                "name": "ЦветОптТорг",
                "shop": "florist"
            },
            {
                "name": "ЦветыОптРозница",
                "shop": "florist",
                "name:ru": "ЦветыОптРозница",
                "opening_hours": "24/7"
            },
            {
                "level": "0",
                "name": "ЦветБукет",
                "opening_hours": "Mo-Su 08:00-23:00",
                "shop": "florist",
                "wheelchair": "no"
            }
        ]
    },
    "supermarket": {
        "count": 1,
        "detail": [
            {
                "brand": "Магнит",
                "brand:en": "Magnit",
                "brand:wikidata": "Q940518",
                "brand:wikipedia": "ru:Магнит (сеть магазинов)",
                "name": "Магнит",
                "name:de": "Magnit",
                "name:en": "Magnit",
                "name:ru": "Магнит",
                "opening_hours": "Mo-Su 08:00-23:00",
                "phone": "+7 800 2009002",
                "shop": "supermarket",
                "website": "https://magnit-info.ru/"
            }
        ]
    },
    "driving_school": {
        "count": 1,
        "detail": [
            {
                "name": "Невская",
                "amenity": "driving_school",
                "opening_hours": "10:00-20:00",
                "license_classes": "В"
            }
        ]
    },
    "bench": {
        "count": 58,
        "detail": [
            {
                "seats": "3",
                "amenity": "bench",
                "backrest": "no",
                "material": "stone"
            },
            {
                "seats": "3",
                "amenity": "bench",
                "backrest": "no",
                "material": "stone"
            },
            {
                "amenity": "bench",
                "backrest": "yes",
                "material": "wood",
                "seats": "6"
            },
            {
                "amenity": "bench",
                "backrest": "yes",
                "material": "wood",
                "seats": "6"
            },
            {
                "amenity": "bench",
                "backrest": "yes",
                "material": "wood",
                "seats": "6"
            },
            {
                "amenity": "bench"
            },
            {
                "amenity": "bench"
            },
            {
                "amenity": "bench"
            },
            {
                "amenity": "bench"
            },
            {
                "amenity": "bench",
                "backrest": "yes"
            },
            {
                "amenity": "bench",
                "backrest": "yes"
            },
            {
                "amenity": "bench",
                "backrest": "yes"
            },
            {
                "amenity": "bench"
            },
            {
                "amenity": "bench"
            },
            {
                "amenity": "bench",
                "backrest": "yes"
            },
            {
                "amenity": "bench"
            },
            {
                "amenity": "bench"
            },
            {
                "amenity": "bench"
            },
            {
                "amenity": "bench"
            },
            {
                "amenity": "bench"
            },
            {
                "amenity": "bench"
            },
            {
                "amenity": "bench"
            },
            {
                "amenity": "bench"
            },
            {
                "amenity": "bench"
            },
            {
                "amenity": "bench"
            },
            {
                "amenity": "bench"
            },
            {
                "amenity": "bench"
            },
            {
                "amenity": "bench"
            },
            {
                "amenity": "bench"
            },
            {
                "amenity": "bench"
            },
            {
                "amenity": "bench"
            },
            {
                "amenity": "bench"
            },
            {
                "amenity": "bench"
            },
            {
                "amenity": "bench"
            },
            {
                "amenity": "bench"
            },
            {
                "amenity": "bench"
            },
            {
                "amenity": "bench"
            },
            {
                "amenity": "bench"
            },
            {
                "amenity": "bench"
            },
            {
                "amenity": "bench"
            },
            {
                "amenity": "bench"
            },
            {
                "amenity": "bench"
            },
            {
                "amenity": "bench"
            },
            {
                "amenity": "bench"
            },
            {
                "amenity": "bench"
            },
            {
                "amenity": "bench"
            },
            {
                "amenity": "bench"
            },
            {
                "amenity": "bench"
            },
            {
                "amenity": "bench"
            },
            {
                "amenity": "bench"
            },
            {
                "amenity": "bench"
            },
            {
                "amenity": "bench"
            },
            {
                "amenity": "bench"
            },
            {
                "amenity": "bench"
            },
            {
                "amenity": "bench"
            },
            {
                "amenity": "bench"
            },
            {
                "amenity": "bench"
            },
            {
                "amenity": "bench"
            }
        ]
    },
    "electronics": {
        "count": 1,
        "detail": [
            {
                "name": "Ремонт аудио, видео, TV техники",
                "opening_hours": "Mo-Fr 10:00-14:00, 15:00-19:00; Sa 10:00-14:00, 15:00-18:00",
                "phone": "+78125603051",
                "shop": "electronics"
            }
        ]
    },
    "hunting": {
        "count": 1,
        "detail": [
            {
                "name": "Ружьё",
                "shop": "hunting",
                "website": "www.rusgun.spb.su",
                "opening_hours": "10:00-20:00"
            }
        ]
    },
    "community_centre": {
        "count": 2,
        "detail": [
            {
                "amenity": "community_centre",
                "name": "Подростково-молодежный центр Невский",
                "wheelchair": "no"
            },
            {
                "name": "Подростковый клуб \"Полярник\"",
                "amenity": "community_centre",
                "opening_hours": "Mo-Sa 16:00-21:00"
            }
        ]
    },
    "confectionery": {
        "count": 2,
        "detail": [
            {
                "name": "Север",
                "shop": "confectionery",
                "wheelchair": "no"
            },
            {
                "brand": "Фабрика имени Крупской",
                "brand:wikidata": "Q4480319",
                "name": "Магазин фабрики имени Крупской",
                "shop": "confectionery"
            }
        ]
    },
    "gift": {
        "count": 1,
        "detail": [
            {
                "shop": "gift"
            }
        ]
    },
    "waste_basket": {
        "count": 71,
        "detail": [
            {
                "amenity": "waste_basket"
            },
            {
                "amenity": "waste_basket"
            },
            {
                "amenity": "waste_basket"
            },
            {
                "amenity": "waste_basket"
            },
            {
                "amenity": "waste_basket"
            },
            {
                "amenity": "waste_basket"
            },
            {
                "amenity": "waste_basket"
            },
            {
                "amenity": "waste_basket"
            },
            {
                "amenity": "waste_basket"
            },
            {
                "amenity": "waste_basket"
            },
            {
                "amenity": "waste_basket"
            },
            {
                "amenity": "waste_basket"
            },
            {
                "amenity": "waste_basket"
            },
            {
                "amenity": "waste_basket"
            },
            {
                "amenity": "waste_basket"
            },
            {
                "amenity": "waste_basket"
            },
            {
                "amenity": "waste_basket"
            },
            {
                "amenity": "waste_basket"
            },
            {
                "amenity": "waste_basket"
            },
            {
                "amenity": "waste_basket"
            },
            {
                "amenity": "waste_basket"
            },
            {
                "amenity": "waste_basket"
            },
            {
                "amenity": "waste_basket"
            },
            {
                "amenity": "waste_basket"
            },
            {
                "amenity": "waste_basket"
            },
            {
                "amenity": "waste_basket"
            },
            {
                "amenity": "waste_basket"
            },
            {
                "amenity": "waste_basket"
            },
            {
                "amenity": "waste_basket"
            },
            {
                "amenity": "waste_basket"
            },
            {
                "amenity": "waste_basket"
            },
            {
                "amenity": "waste_basket"
            },
            {
                "amenity": "waste_basket"
            },
            {
                "amenity": "waste_basket"
            },
            {
                "amenity": "waste_basket"
            },
            {
                "amenity": "waste_basket"
            },
            {
                "amenity": "waste_basket"
            },
            {
                "amenity": "waste_basket"
            },
            {
                "amenity": "waste_basket"
            },
            {
                "amenity": "waste_basket"
            },
            {
                "amenity": "waste_basket"
            },
            {
                "amenity": "waste_basket"
            },
            {
                "amenity": "waste_basket"
            },
            {
                "amenity": "waste_basket"
            },
            {
                "amenity": "waste_basket"
            },
            {
                "amenity": "waste_basket"
            },
            {
                "amenity": "waste_basket"
            },
            {
                "amenity": "waste_basket"
            },
            {
                "amenity": "waste_basket"
            },
            {
                "amenity": "waste_basket"
            },
            {
                "amenity": "waste_basket"
            },
            {
                "amenity": "waste_basket"
            },
            {
                "amenity": "waste_basket"
            },
            {
                "amenity": "waste_basket"
            },
            {
                "amenity": "waste_basket"
            },
            {
                "amenity": "waste_basket"
            },
            {
                "amenity": "waste_basket"
            },
            {
                "amenity": "waste_basket"
            },
            {
                "amenity": "waste_basket"
            },
            {
                "amenity": "waste_basket"
            },
            {
                "amenity": "waste_basket"
            },
            {
                "amenity": "waste_basket"
            },
            {
                "amenity": "waste_basket"
            },
            {
                "amenity": "waste_basket"
            },
            {
                "amenity": "waste_basket"
            },
            {
                "amenity": "waste_basket"
            },
            {
                "amenity": "waste_basket"
            },
            {
                "amenity": "waste_basket"
            },
            {
                "amenity": "waste_basket"
            },
            {
                "amenity": "waste_basket"
            },
            {
                "amenity": "waste_basket"
            }
        ]
    },
    "greengrocer": {
        "count": 2,
        "detail": [
            {
                "name": "Овощи, фрукты",
                "shop": "greengrocer"
            },
            {
                "shop": "greengrocer"
            }
        ]
    },
    "post_box": {
        "count": 3,
        "detail": [
            {
                "ref": "260",
                "amenity": "post_box",
                "operator": "Почта России",
                "design:year": "2010",
                "drive_through": "no",
                "post_box:type": "wall",
                "post_box:design": "ЯПНМ-II-С",
                "collection_times": "Mo-Fr 01:10,14:10; Sa-Su 14:10"
            },
            {
                "amenity": "post_box",
                "collection_times": "Mo-Fr 01:05,14:05; Sa-Su 14:05",
                "design:year": "2010",
                "drive_through": "no",
                "operator": "Почта России",
                "post_box:design": "ЯПНМ-II-С",
                "post_box:type": "wall",
                "ref": "259"
            },
            {
                "ref": "340",
                "indoor": "yes",
                "amenity": "post_box",
                "operator": "Почта России",
                "drive_through": "no",
                "opening_hours": "Mo-Fr 08:00-20:00; Sa 10:00-16:00; Su off",
                "post_box:type": "pillar",
                "post_box:design": "rounded_pillar",
                "collection_times": "Mo-Sa 08:15"
            }
        ]
    },
    "beauty": {
        "count": 6,
        "detail": [
            {
                "name": "Акварель",
                "shop": "beauty",
                "opening_hours": "09:00-20:00"
            },
            {
                "beauty": "nails",
                "contact:instagram": "https://www.instagram.com/mel_manik_spb",
                "contact:phone": "+7 995 6000740;+7 911 1692606",
                "contact:vk": "https://vk.com/mel_manik",
                "name": "Mel Manik",
                "opening_hours": "Mo-Su 09:00-21:00",
                "reservation": "required",
                "shop": "beauty",
                "wheelchair": "no"
            },
            {
                "name": "Nota Bene",
                "shop": "beauty",
                "phone": "+7 812 5681527",
                "website": "nota-bene.spb.ru",
                "opening_hours": "Mo-Su 10:00-21:00"
            },
            {
                "name": "Софья",
                "shop": "beauty"
            },
            {
                "name": "Леди",
                "shop": "beauty"
            },
            {
                "shop": "beauty"
            }
        ]
    },
    "vending_machine": {
        "count": 6,
        "detail": [
            {
                "amenity": "vending_machine",
                "indoor": "yes",
                "opening_hours": "00:00-00:27,05:33-24:00",
                "vending": "subway_tokens"
            },
            {
                "amenity": "vending_machine",
                "indoor": "yes",
                "opening_hours": "00:00-00:27,05:33-24:00",
                "vending": "subway_tokens"
            },
            {
                "amenity": "vending_machine",
                "indoor": "yes",
                "opening_hours": "00:00-00:27,05:33-24:00",
                "vending": "public_transport_tickets"
            },
            {
                "amenity": "vending_machine",
                "indoor": "yes",
                "opening_hours": "00:00-00:27,05:33-24:00",
                "vending": "public_transport_tickets"
            },
            {
                "amenity": "vending_machine",
                "indoor": "yes",
                "opening_hours": "00:00-00:27,05:33-24:00",
                "vending": "public_transport_tickets"
            },
            {
                "amenity": "vending_machine",
                "indoor": "yes",
                "opening_hours": "00:00-00:27,05:33-24:00",
                "vending": "public_transport_tickets"
            }
        ]
    },
    "telephone": {
        "count": 1,
        "detail": [
            {
                "phone": "+7 812 3628703",
                "amenity": "telephone",
                "operator": "Ростелеком",
                "payment:telephone_cards": "yes"
            }
        ]
    },
    "outpost": {
        "count": 1,
        "detail": [
            {
                "brand": "Wildberries",
                "brand:wikidata": "Q24933714",
                "brand:wikipedia": "ru:Wildberries",
                "contact:phone": "+7 812 3098091",
                "contact:vk": "https://vk.com/wildberries_shop",
                "contact:website": "https://www.wildberries.ru",
                "name": "Wildberries",
                "opening_hours": "Mo-Su 10:00-21:00",
                "reservation": "required",
                "shop": "outpost",
                "wheelchair": "no"
            }
        ]
    },
    "department_store": {
        "count": 1,
        "detail": [
            {
                "level": "-1",
                "name": "Дом быта",
                "opening_hours": "Mo-Su 10:00-20:00",
                "shop": "department_store"
            }
        ]
    },
    "garden_centre": {
        "count": 1,
        "detail": [
            {
                "level": "0",
                "name": "Семена",
                "opening_hours": "Mo-Su 10:00-20:00",
                "shop": "garden_centre",
                "wheelchair": "no"
            }
        ]
    },
    "tobacco": {
        "count": 1,
        "detail": [
            {
                "level": "-1",
                "shop": "tobacco",
                "wheelchair": "no"
            }
        ]
    },
    "dentist": {
        "count": 2,
        "detail": [
            {
                "amenity": "dentist",
                "healthcare": "dentist",
                "name": "Ренессанс Дент",
                "opening_hours": "Mo-Su 09:00-21:00",
                "phone": "+7 812 5605432",
                "website": "https://www.rendent.ru/"
            },
            {
                "amenity": "dentist",
                "healthcare": "dentist",
                "name": "Витаника",
                "opening_hours": "Mo-Fr 09:00-21:00; Sa-Su 09:00-20:00",
                "phone": "+7 812 9720440",
                "website": "vitanika.com"
            }
        ]
    },
    "pawnbroker": {
        "count": 1,
        "detail": [
            {
                "name": "Доверие",
                "shop": "pawnbroker",
                "phone": "+7 812 7027005",
                "website": "www.doveriegroup.ru",
                "opening_hours": "Mo-Su 08:00-20:00"
            }
        ]
    },
    "doctors": {
        "count": 1,
        "detail": [
            {
                "name": "Психоневрологический диспансер №9",
                "phone": "+7 812 5603524",
                "amenity": "doctors",
                "name:ru": "Психоневрологический диспансер Невского района",
                "website": "http://www.pnd9.ru"
            }
        ]
    },
    "tattoo": {
        "count": 1,
        "detail": [
            {
                "shop": "tattoo"
            }
        ]
    },
    "beverages": {
        "count": 1,
        "detail": [
            {
                "email": "info@glav-beer.ru",
                "level": "-1",
                "name": "Главпиво",
                "phone": "+7 812 9888891",
                "shop": "beverages",
                "website": "https://www.glav-beer.ru/",
                "wheelchair": "no"
            }
        ]
    },
    "police": {
        "count": 1,
        "detail": [
            {
                "amenity": "police",
                "name": "Тревожная кнопка"
            }
        ]
    },
    "bar": {
        "count": 4,
        "detail": [
            {
                "amenity": "bar",
                "name": "Рундук"
            },
            {
                "amenity": "bar",
                "cuisine": "burger;grill;friture;coffee_shop;steak_house;russian;german;chicken",
                "diet:vegetarian": "yes",
                "internet_access": "wlan",
                "name": "Роджер",
                "name:en": "Roger",
                "opening_hours": "Mo-Su 17:00-02:00",
                "phone": "+7 962 6901018",
                "website": "https://vk.com/pubroger"
            },
            {
                "amenity": "bar",
                "name": "Санскрит",
                "opening_hours": "Su-Th 12:00-02:00; Fr-Sa 12:00-04:00"
            },
            {
                "amenity": "bar",
                "name": "Живое пиво"
            }
        ]
    },
    "clinic": {
        "count": 1,
        "detail": [
            {
                "amenity": "clinic",
                "healthcare": "clinic",
                "name": "Городская поликлиника №46",
                "phone": "+7 812 5603378"
            }
        ]
    },
    "hookah_lounge": {
        "count": 1,
        "detail": [
            {
                "addr:city": "Санкт-Петербург",
                "addr:housenumber": "17 литА",
                "addr:postcode": "192171",
                "addr:street": "Ивановская улица",
                "amenity": "hookah_lounge",
                "internet_access": "wlan",
                "name": "Feromon Freemen's club",
                "opening_hours": "Mo-Su 12:00-06:00",
                "phone": "+7 812 9070095",
                "website": "https://feromon.group/freemens.html"
            }
        ]
    },
    "bakery": {
        "count": 2,
        "detail": [
            {
                "level": "-1",
                "name": "Лавка Пекаря",
                "opening_hours": "Mo-Su 08:00-21:00",
                "shop": "bakery",
                "wheelchair": "no"
            },
            {
                "level": "-1",
                "name": "Ваша пекарня",
                "shop": "bakery"
            }
        ]
    },
    "yes": {
        "count": 1,
        "detail": [
            {
                "level": "-1",
                "name": "Фермер",
                "shop": "yes",
                "wheelchair": "no"
            }
        ]
    },
    "funeral_directors": {
        "count": 1,
        "detail": [
            {
                "contact:email": "ritus_ltd@mail.ru",
                "contact:phone": "+7 812 9172179",
                "contact:website": "https://www.ritus-spb.ru/",
                "name": "Ритус",
                "opening_hours": "Mo-Fr 11:00-19:00;Sa-Su 11:00-17:00",
                "operator": "ООО Ритус",
                "shop": "funeral_directors"
            }
        ]
    },
    "brewing_supplies": {
        "count": 1,
        "detail": [
            {
                "contact:email": "ntraditions.spb@gmail.com",
                "contact:instagram": "https://instagram.com/ntradition.spb",
                "contact:phone": "+7 812 9482940;+7 931 3432440",
                "contact:vk": "https://vk.com/ntsamogonspb",
                "contact:website": "https://ntradition.ru/",
                "name": "Народные традиции",
                "opening_hours": "Mo-Su 10:00-19:00",
                "operator": "Народные традиции",
                "shop": "brewing_supplies"
            }
        ]
    },
    "pastry": {
        "count": 1,
        "detail": [
            {
                "contact:email": "ceo@am.cafe",
                "contact:facebook": "https://facebook.com/am.cafe.spb",
                "contact:instagram": "https://instagram.com/am.cafe.spb",
                "contact:phone": "+7 812 3000707",
                "contact:vk": "https://vk.com/am.cafe",
                "contact:website": "https://am.cafe/",
                "name": "Выпечка АМ!",
                "opening_hours": "Mo-Su 07:00-21:00",
                "operator": "Выпечка АМ!",
                "shop": "pastry"
            }
        ]
    },
    "kindergarten": {
        "count": 2,
        "detail": [
            {
                "addr:city": "Санкт-Петербург",
                "addr:country": "RU",
                "addr:housenumber": "96",
                "addr:street": "улица Седова",
                "building": "kindergarten",
                "ref": "137"
            },
            {
                "name": "Детский сад №30",
                "building": "kindergarten",
                "addr:street": "улица Седова",
                "building:levels": "2",
                "addr:housenumber": "78"
            }
        ]
    },
    "school": {
        "count": 1,
        "detail": [
            {
                "name": "Школа №458",
                "amenity": "school",
                "building": "school",
                "addr:street": "Ивановская улица",
                "building:levels": "4",
                "addr:housenumber": "11",
                "building:architecture": "stalinist neoclassicism"
            }
        ]
    },
    "service": {
        "count": 8,
        "detail": [
            {
                "power": "substation",
                "source": "bing",
                "building": "service",
                "building:levels": "1"
            },
            {
                "building": "service",
                "building:levels": "1",
                "power": "substation",
                "substation": "minor_distribution"
            },
            {
                "building": "service",
                "pipeline": "substation",
                "substance": "gas",
                "description": "Газораспределительный Пункт",
                "building:levels": "1"
            },
            {
                "building": "service",
                "pipeline": "substation",
                "substance": "gas",
                "building:levels": "1"
            },
            {
                "ref": "8224",
                "power": "substation",
                "branch": "Кабельная сеть",
                "voltage": "10000;400",
                "building": "service",
                "location": "indoor",
                "operator": "Ленэнерго",
                "frequency": "50",
                "substation": "minor_distribution",
                "building:levels": "1"
            },
            {
                "building": "service",
                "power": "substation",
                "substation": "minor_distribution"
            },
            {
                "ref": "410",
                "building": "service",
                "man_made": "mineshaft",
                "operator": "Петербургский метрополитен",
                "mineshaft_type": "air",
                "building:levels": "1"
            },
            {
                "building": "service",
                "power": "substation",
                "substation": "minor_distribution"
            }
        ]
    },
    "newsagent": {
        "count": 2,
        "detail": [
            {
                "brand": "Первая полоса",
                "brand:wikidata": "Q62736412",
                "building": "yes",
                "building:levels": "1",
                "name": "Первая полоса",
                "shop": "newsagent"
            },
            {
                "building": "kiosk",
                "shop": "newsagent"
            }
        ]
    },
    "toilets": {
        "count": 3,
        "detail": [
            {
                "amenity": "toilets",
                "building": "yes",
                "fee": "yes",
                "unisex": "yes"
            },
            {
                "amenity": "toilets",
                "building": "yes",
                "fee": "yes",
                "unisex": "yes"
            },
            {
                "amenity": "toilets",
                "building": "yes",
                "fee": "yes",
                "unisex": "yes"
            }
        ]
    },
    "ticket": {
        "count": 1,
        "detail": [
            {
                "building": "kiosk",
                "building:levels": "1",
                "contact:phone": "+7 812 5765555",
                "contact:vk": "https://vk.com/marshrut_spb",
                "contact:website": "http://orgp.spb.ru",
                "opening_hours": "08:00-13:00,14:00-20:00",
                "operator": "Организатор перевозок",
                "shop": "ticket",
                "tickets:public_transport": "yes"
            }
        ]
    }
}