{
    "residents": 4493,
    "supermarket": {
        "count": 3,
        "detail": [
            {
                "alt_name": "Пятерочка",
                "alt_name:ru": "Пятерочка",
                "brand": "Пятёрочка",
                "brand:en": "Pyaterochka",
                "brand:wikidata": "Q1768969",
                "brand:wikipedia": "ru:Пятёрочка",
                "name": "Пятёрочка",
                "name:en": "Pyaterochka",
                "name:ru": "Пятёрочка",
                "opening_hours": "Mo-Su 08:00-23:00",
                "operator": "X5 Retail Group",
                "phone": "+7 800 5555505",
                "shop": "supermarket",
                "website": "https://5ka.ru/"
            },
            {
                "addr:city": "Санкт-Петербург",
                "addr:housenumber": "21",
                "addr:street": "улица Олеко Дундича",
                "brand": "Дикси",
                "brand:wikidata": "Q4161561",
                "brand:wikipedia": "ru:Дикси (сеть магазинов)",
                "building": "store",
                "building:levels": "1",
                "contact:facebook": "https://www.facebook.com/Dixyclub",
                "contact:instagram": "https://www.instagram.com/dixy.channel",
                "contact:ok": "https://ok.ru/dixyclub",
                "contact:phone": "+7 800 3330201",
                "contact:vk": "https://vk.com/dixyclub",
                "contact:website": "https://dixy.ru",
                "contact:youtube": "https://www.youtube.com/user/DixyChannel",
                "name": "Дикси",
                "name:ru": "Дикси",
                "opening_hours": "24/7",
                "shop": "supermarket"
            },
            {
                "addr:city": "Санкт-Петербург",
                "addr:housenumber": "97 литА",
                "addr:postcode": "192283",
                "addr:street": "Будапештская улица",
                "brand": "Семишагофф",
                "brand:wikidata": "Q58003374",
                "building": "store",
                "building:levels": "1",
                "name": "Семишагофф",
                "opening_hours": "09:00-23:00",
                "phone": "+7 812 6485000",
                "shop": "supermarket",
                "website": "http://semishagoff.org/"
            }
        ]
    },
    "hairdresser": {
        "count": 4,
        "detail": [
            {
                "name": "Салон красоты \"Венера\"",
                "shop": "hairdresser"
            },
            {
                "name": "Парикмахерская",
                "shop": "hairdresser"
            },
            {
                "shop": "hairdresser"
            },
            {
                "name": "Монокэ",
                "opening_hours": "Mo-Su 10:00-21:00",
                "shop": "hairdresser"
            }
        ]
    },
    "pharmacy": {
        "count": 3,
        "detail": [
            {
                "amenity": "pharmacy",
                "name": "Петербургские аптеки",
                "opening_hours": "Mo-Fr 09:00-21:00; Sa-Su 10:00-20:00",
                "phone": "+7 812 7000303",
                "website": "https://papteki.ru/"
            },
            {
                "amenity": "pharmacy",
                "name": "Шиповник",
                "opening_hours": "Mo-Su 09:00-21:00",
                "operator": "ООО \"Розничные сети\"",
                "ref": "102"
            },
            {
                "amenity": "pharmacy",
                "name": "Алоэ"
            }
        ]
    },
    "cafe": {
        "count": 4,
        "detail": [
            {
                "name": "Венера",
                "amenity": "cafe"
            },
            {
                "amenity": "cafe",
                "name": "Хомяк",
                "opening_hours": "10:00-22:00",
                "operator": "ООО \"Хомяк\"",
                "phone": "+7 812 4533555",
                "website": "http://cafehome.ru/"
            },
            {
                "amenity": "cafe",
                "email": "info@cafe-jemchug.ru",
                "name": "Жемчуг",
                "name:ru": "Жемчуг",
                "opening_hours": "Mo-Th 12:00-24:00; Fr-Sa 13:00-01:00; Su 13:00-23:00",
                "phone": "+7 921 3997933",
                "website": "https://www.cafe-jemchug.ru/"
            },
            {
                "name": "чайхана \"Ширин\"",
                "amenity": "cafe"
            }
        ]
    },
    "butcher": {
        "count": 2,
        "detail": [
            {
                "name": "Элика",
                "shop": "butcher"
            },
            {
                "name": "Свежая корзина",
                "opening_hours": "Mo-Su 09:00-21:00",
                "shop": "butcher"
            }
        ]
    },
    "doityourself": {
        "count": 1,
        "detail": [
            {
                "name": "Мастерок",
                "shop": "doityourself",
                "name:ru": "Мастерок"
            }
        ]
    },
    "bar": {
        "count": 1,
        "detail": [
            {
                "amenity": "bar",
                "name": "РазлиВНович"
            }
        ]
    },
    "convenience": {
        "count": 2,
        "detail": [
            {
                "name": "Продукты",
                "shop": "convenience",
                "opening_hours": "24/7"
            },
            {
                "name": "Продукты",
                "opening_hours": "24/7",
                "shop": "convenience"
            }
        ]
    },
    "bus_stop": {
        "count": 11,
        "detail": [
            {
                "bus": "yes",
                "highway": "bus_stop",
                "local_ref": "Автобусы 2М(по ночам), 2МА(по ночам),50,54.56,74,96,157,159",
                "name": "Будапештская улица",
                "public_transport": "platform"
            },
            {
                "bus": "yes",
                "name": "Будапештская улица",
                "highway": "bus_stop",
                "local_ref": "Автобусы 56,96",
                "public_transport": "platform"
            },
            {
                "bus": "yes",
                "highway": "bus_stop",
                "local_ref": "Автобусы 56,96. Троллейбус 47(по будням)",
                "name": "Улица Олеко Дундича",
                "public_transport": "platform"
            },
            {
                "bus": "yes",
                "highway": "bus_stop",
                "local_ref": "Автобусы 56,96. Троллейбус 47(по будням)",
                "name": "Будапештская улица, 104",
                "public_transport": "platform"
            },
            {
                "bus": "yes",
                "name": "Будапештская улица",
                "highway": "bus_stop",
                "local_ref": "Автобусы 2М(по ночам), 2МА(по ночам),50,54,56,74,96,157,159",
                "public_transport": "platform"
            },
            {
                "bus": "yes",
                "name": "Улица Олеко Дундича",
                "public_transport": "stop_position"
            },
            {
                "bus": "yes",
                "name": "Будапештская улица",
                "public_transport": "stop_position"
            },
            {
                "bus": "yes",
                "name": "Будапештская улица",
                "public_transport": "stop_position"
            },
            {
                "bus": "yes",
                "name": "Будапештская улица, 104",
                "public_transport": "stop_position"
            },
            {
                "bus": "yes",
                "name": "Улица Олеко Дундича",
                "public_transport": "stop_position"
            },
            {
                "name": "Улица Олеко Дундича",
                "highway": "bus_stop",
                "name:ru": "Улица Олеко Дундича 40",
                "local_ref": "Троллейбус 47(по будням)"
            }
        ]
    },
    "fast_food": {
        "count": 4,
        "detail": [
            {
                "name": "Бистро",
                "amenity": "fast_food",
                "opening_hours": "24/7"
            },
            {
                "amenity": "fast_food",
                "fast_food": "cafeteria",
                "name": "Узген сити"
            },
            {
                "amenity": "fast_food",
                "fast_food": "shawarma",
                "name": "АрмКебаб"
            },
            {
                "name": "Doner Kebab",
                "amenity": "fast_food",
                "building": "yes",
                "fast_food": "shawarma",
                "building:levels": "1"
            }
        ]
    },
    "outpost": {
        "count": 2,
        "detail": [
            {
                "name": "Ozon",
                "shop": "outpost"
            },
            {
                "name": "Wildberries",
                "shop": "outpost"
            }
        ]
    },
    "veterinary": {
        "count": 1,
        "detail": [
            {
                "amenity": "veterinary",
                "name": "Энималс",
                "opening_hours": "10:00-21:00",
                "phone": "+7 812 7159290;+7 812 7154740"
            }
        ]
    },
    "clinic": {
        "count": 1,
        "detail": [
            {
                "amenity": "clinic",
                "name": "BaltGaz"
            }
        ]
    },
    "furniture": {
        "count": 1,
        "detail": [
            {
                "name": "Аллегро",
                "opening_hours": "11:00-20:00",
                "phone": "+7 812 9141113",
                "shop": "furniture"
            }
        ]
    },
    "dentist": {
        "count": 1,
        "detail": [
            {
                "amenity": "dentist",
                "name": "Интан",
                "name:ru": "Семейная стоматология #1",
                "opening_hours": "Mo-Sa 09:00-20:00; Su 11:00-20:00",
                "phone": "+7 812 7770202",
                "website": "https://www.intan.ru/"
            }
        ]
    },
    "beauty": {
        "count": 1,
        "detail": [
            {
                "name": "Стриж.Ка",
                "shop": "beauty"
            }
        ]
    },
    "waste_disposal": {
        "count": 6,
        "detail": [
            {
                "amenity": "waste_disposal"
            },
            {
                "amenity": "waste_disposal"
            },
            {
                "waste": "trash",
                "amenity": "waste_disposal"
            },
            {
                "amenity": "waste_disposal"
            },
            {
                "amenity": "waste_disposal"
            },
            {
                "amenity": "waste_disposal"
            }
        ]
    },
    "mobile_phone": {
        "count": 3,
        "detail": [
            {
                "name": "МТС",
                "shop": "mobile_phone",
                "name:en": "MTS",
                "name:ru": "МТС"
            },
            {
                "name": "Мегафон",
                "shop": "mobile_phone"
            },
            {
                "name": "Tele2",
                "shop": "mobile_phone"
            }
        ]
    },
    "police": {
        "count": 1,
        "detail": [
            {
                "name": "участковый пункт полиции №30",
                "amenity": "police"
            }
        ]
    },
    "social_centre": {
        "count": 1,
        "detail": [
            {
                "amenity": "social_centre",
                "name": "Подростково-молодёжный центр «Современник»"
            }
        ]
    },
    "dry_cleaning": {
        "count": 1,
        "detail": [
            {
                "name": "Прачечная-Химчистка",
                "shop": "dry_cleaning"
            }
        ]
    },
    "payment_terminal": {
        "count": 4,
        "detail": [
            {
                "brand": "qiwi",
                "amenity": "payment_terminal"
            },
            {
                "brand": "qiwi",
                "amenity": "payment_terminal"
            },
            {
                "brand": "qiwi",
                "amenity": "payment_terminal"
            },
            {
                "amenity": "payment_terminal"
            }
        ]
    },
    "car_parts": {
        "count": 1,
        "detail": [
            {
                "shop": "car_parts"
            }
        ]
    },
    "fitness_centre": {
        "count": 1,
        "detail": [
            {
                "leisure": "fitness_centre",
                "name": "Лидер",
                "opening_hours": "Mo-Fr 07:00-23:30; Sa, Su 09:00-22:00"
            }
        ]
    },
    "post_box": {
        "count": 3,
        "detail": [
            {
                "amenity": "post_box",
                "collection_times": "Mo-Fr 04:30,17:00; Sa 09:55; Su 17:00",
                "design:year": "2010",
                "drive_through": "no",
                "operator": "Почта России",
                "post_box:design": "ЯПНМ-II-С",
                "post_box:type": "wall",
                "ref": "469"
            },
            {
                "ref": "81",
                "indoor": "yes",
                "amenity": "post_box",
                "operator": "Почта России",
                "design:year": "2006",
                "drive_through": "no",
                "opening_hours": "Mo-Fr 08:00-20:00;Sa 09:00-18:00;Su 09:00-14:00",
                "post_box:type": "wall",
                "post_box:design": "ЯПВ-Н-П",
                "collection_times": "Mo-Sa 09:55"
            },
            {
                "amenity": "post_box",
                "collection_times": "Mo-Fr 04:35,17:05; Sa 10:00; Su 17:05",
                "design:year": "2010",
                "drive_through": "no",
                "operator": "Почта России",
                "post_box:design": "ЯПНМ-II-С",
                "post_box:type": "wall",
                "ref": "470"
            }
        ]
    },
    "waste_basket": {
        "count": 63,
        "detail": [
            {
                "amenity": "waste_basket"
            },
            {
                "amenity": "waste_basket"
            },
            {
                "amenity": "waste_basket"
            },
            {
                "amenity": "waste_basket"
            },
            {
                "amenity": "waste_basket"
            },
            {
                "amenity": "waste_basket"
            },
            {
                "amenity": "waste_basket"
            },
            {
                "amenity": "waste_basket"
            },
            {
                "amenity": "waste_basket"
            },
            {
                "amenity": "waste_basket"
            },
            {
                "amenity": "waste_basket"
            },
            {
                "amenity": "waste_basket"
            },
            {
                "amenity": "waste_basket"
            },
            {
                "amenity": "waste_basket"
            },
            {
                "amenity": "waste_basket"
            },
            {
                "amenity": "waste_basket"
            },
            {
                "amenity": "waste_basket"
            },
            {
                "amenity": "waste_basket"
            },
            {
                "amenity": "waste_basket"
            },
            {
                "amenity": "waste_basket"
            },
            {
                "amenity": "waste_basket"
            },
            {
                "amenity": "waste_basket"
            },
            {
                "amenity": "waste_basket"
            },
            {
                "amenity": "waste_basket"
            },
            {
                "amenity": "waste_basket"
            },
            {
                "amenity": "waste_basket"
            },
            {
                "amenity": "waste_basket"
            },
            {
                "amenity": "waste_basket"
            },
            {
                "amenity": "waste_basket"
            },
            {
                "amenity": "waste_basket"
            },
            {
                "amenity": "waste_basket"
            },
            {
                "amenity": "waste_basket"
            },
            {
                "amenity": "waste_basket"
            },
            {
                "amenity": "waste_basket"
            },
            {
                "amenity": "waste_basket"
            },
            {
                "amenity": "waste_basket"
            },
            {
                "amenity": "waste_basket"
            },
            {
                "amenity": "waste_basket"
            },
            {
                "amenity": "waste_basket"
            },
            {
                "amenity": "waste_basket"
            },
            {
                "amenity": "waste_basket"
            },
            {
                "amenity": "waste_basket"
            },
            {
                "amenity": "waste_basket"
            },
            {
                "amenity": "waste_basket"
            },
            {
                "amenity": "waste_basket"
            },
            {
                "amenity": "waste_basket"
            },
            {
                "amenity": "waste_basket"
            },
            {
                "amenity": "waste_basket"
            },
            {
                "amenity": "waste_basket"
            },
            {
                "amenity": "waste_basket"
            },
            {
                "amenity": "waste_basket"
            },
            {
                "amenity": "waste_basket"
            },
            {
                "amenity": "waste_basket"
            },
            {
                "amenity": "waste_basket"
            },
            {
                "amenity": "waste_basket"
            },
            {
                "amenity": "waste_basket"
            },
            {
                "amenity": "waste_basket"
            },
            {
                "amenity": "waste_basket"
            },
            {
                "amenity": "waste_basket"
            },
            {
                "amenity": "waste_basket"
            },
            {
                "amenity": "waste_basket"
            },
            {
                "amenity": "waste_basket"
            },
            {
                "amenity": "waste_basket"
            }
        ]
    },
    "bench": {
        "count": 51,
        "detail": [
            {
                "amenity": "bench"
            },
            {
                "amenity": "bench"
            },
            {
                "amenity": "bench"
            },
            {
                "amenity": "bench"
            },
            {
                "amenity": "bench"
            },
            {
                "amenity": "bench"
            },
            {
                "amenity": "bench"
            },
            {
                "amenity": "bench"
            },
            {
                "amenity": "bench"
            },
            {
                "amenity": "bench"
            },
            {
                "amenity": "bench"
            },
            {
                "amenity": "bench"
            },
            {
                "amenity": "bench"
            },
            {
                "amenity": "bench"
            },
            {
                "amenity": "bench"
            },
            {
                "amenity": "bench"
            },
            {
                "amenity": "bench",
                "backrest": "yes"
            },
            {
                "amenity": "bench",
                "backrest": "yes"
            },
            {
                "amenity": "bench",
                "backrest": "yes"
            },
            {
                "amenity": "bench",
                "backrest": "yes"
            },
            {
                "amenity": "bench",
                "backrest": "yes"
            },
            {
                "amenity": "bench",
                "backrest": "yes"
            },
            {
                "amenity": "bench",
                "backrest": "yes"
            },
            {
                "amenity": "bench",
                "backrest": "yes"
            },
            {
                "amenity": "bench",
                "backrest": "yes"
            },
            {
                "amenity": "bench",
                "backrest": "yes"
            },
            {
                "amenity": "bench",
                "backrest": "yes"
            },
            {
                "amenity": "bench",
                "backrest": "yes"
            },
            {
                "amenity": "bench",
                "backrest": "yes"
            },
            {
                "amenity": "bench",
                "backrest": "yes"
            },
            {
                "amenity": "bench",
                "backrest": "yes"
            },
            {
                "amenity": "bench",
                "backrest": "yes"
            },
            {
                "amenity": "bench",
                "backrest": "yes"
            },
            {
                "amenity": "bench",
                "backrest": "yes"
            },
            {
                "amenity": "bench",
                "backrest": "yes"
            },
            {
                "amenity": "bench",
                "backrest": "yes"
            },
            {
                "amenity": "bench"
            },
            {
                "amenity": "bench"
            },
            {
                "amenity": "bench"
            },
            {
                "amenity": "bench"
            },
            {
                "amenity": "bench"
            },
            {
                "amenity": "bench"
            },
            {
                "amenity": "bench"
            },
            {
                "amenity": "bench"
            },
            {
                "amenity": "bench"
            },
            {
                "amenity": "bench"
            },
            {
                "amenity": "bench"
            },
            {
                "amenity": "bench"
            },
            {
                "amenity": "bench"
            },
            {
                "amenity": "bench"
            },
            {
                "amenity": "bench"
            }
        ]
    },
    "telephone": {
        "count": 1,
        "detail": [
            {
                "phone": "+7 812 3669681",
                "amenity": "telephone",
                "operator": "Ростелеком",
                "payment:telephone_cards": "yes"
            }
        ]
    },
    "atm": {
        "count": 2,
        "detail": [
            {
                "amenity": "atm",
                "operator": "Связь-Банк"
            },
            {
                "indoor": "yes",
                "amenity": "atm",
                "operator": "Почта-банк",
                "opening_hours": "Mo-Fr 08:00-20:00;Sa 09:00-18:00;Su 09:00-14:00"
            }
        ]
    },
    "clothes": {
        "count": 3,
        "detail": [
            {
                "name": "Обувь. Сумки. Джинсы.",
                "shop": "clothes"
            },
            {
                "shop": "clothes",
                "operator": "ИП Трухин"
            },
            {
                "name": "Одежда",
                "shop": "clothes"
            }
        ]
    },
    "dairy": {
        "count": 1,
        "detail": [
            {
                "name": "Живое молоко",
                "shop": "dairy"
            }
        ]
    },
    "optician": {
        "count": 1,
        "detail": [
            {
                "name": "Оптика",
                "shop": "optician"
            }
        ]
    },
    "greengrocer": {
        "count": 7,
        "detail": [
            {
                "name": "Овощи. Фрукты.",
                "shop": "greengrocer"
            },
            {
                "name": "Фруктовый остров",
                "shop": "greengrocer"
            },
            {
                "shop": "greengrocer",
                "building": "kiosk"
            },
            {
                "name": "Фрукты, овощи",
                "shop": "greengrocer",
                "building": "kiosk",
                "building:levels": "1"
            },
            {
                "name": "Овощи, фрукты",
                "shop": "greengrocer",
                "building": "yes",
                "building:levels": "1"
            },
            {
                "name": "Овощи, фрукты",
                "shop": "greengrocer",
                "building": "yes",
                "building:levels": "1"
            },
            {
                "name": "Овощи, фрукты",
                "shop": "greengrocer",
                "building": "yes",
                "building:levels": "1"
            }
        ]
    },
    "florist": {
        "count": 2,
        "detail": [
            {
                "name": "Цветы",
                "shop": "florist"
            },
            {
                "shop": "florist",
                "building": "yes",
                "building:levels": "1"
            }
        ]
    },
    "bathroom_furnishing": {
        "count": 1,
        "detail": [
            {
                "name": "Сантех мастер",
                "shop": "bathroom_furnishing"
            }
        ]
    },
    "bakery": {
        "count": 2,
        "detail": [
            {
                "name": "Изба-пекарня",
                "shop": "bakery"
            },
            {
                "building": "yes",
                "building:levels": "1",
                "name": "Zernyshkin",
                "shop": "bakery"
            }
        ]
    },
    "seafood": {
        "count": 1,
        "detail": [
            {
                "name": "Фишка",
                "shop": "seafood"
            }
        ]
    },
    "garden_centre": {
        "count": 1,
        "detail": [
            {
                "name": "Дачник",
                "shop": "garden_centre"
            }
        ]
    },
    "kindergarten": {
        "count": 2,
        "detail": [
            {
                "addr:city": "Санкт-Петербург",
                "addr:housenumber": "19 к2",
                "addr:street": "улица Олеко Дундича",
                "building": "kindergarten",
                "building:cladding": "panel",
                "building:levels": "2",
                "design:ref": "2С-04-3",
                "height": "8"
            },
            {
                "addr:city": "Санкт-Петербург",
                "addr:housenumber": "89 к2",
                "addr:street": "Будапештская улица",
                "building": "kindergarten",
                "building:levels": "2",
                "design:code:SPb": "ДС-20",
                "source:building:levels": "serial features"
            }
        ]
    },
    "service": {
        "count": 9,
        "detail": [
            {
                "addr:housenumber": "108 к3",
                "addr:street": "Будапештская улица",
                "building": "service",
                "description": "Насосная станция"
            },
            {
                "addr:housenumber": "30 к1 литБ",
                "addr:letter": "Б",
                "addr:street": "Купчинская улица",
                "building": "service",
                "building:levels": "1"
            },
            {
                "power": "substation",
                "building": "service",
                "addr:street": "Будапештская улица",
                "addr:housenumber": "108 к4"
            },
            {
                "power": "substation",
                "building": "service",
                "addr:street": "Будапештская улица",
                "addr:housenumber": "97 к3"
            },
            {
                "power": "substation",
                "building": "service",
                "addr:street": "Будапештская улица",
                "building:levels": "1",
                "addr:housenumber": "95 к2"
            },
            {
                "addr:housenumber": "104 к4 литБ",
                "addr:letter": "Б",
                "addr:street": "Будапештская улица",
                "building": "service",
                "power": "substation"
            },
            {
                "addr:housenumber": "26 к2 литБ",
                "addr:letter": "Б",
                "addr:street": "улица Олеко Дундича",
                "building": "service",
                "power": "substation"
            },
            {
                "power": "substation",
                "building": "service",
                "addr:street": "Будапештская улица",
                "addr:housenumber": "106 к3"
            },
            {
                "building": "service"
            }
        ]
    },
    "school": {
        "count": 1,
        "detail": [
            {
                "addr:housenumber": "26 к2 литА",
                "addr:letter": "А",
                "addr:street": "улица Олеко Дундича",
                "building": "school",
                "building:levels": "4",
                "design:ref": "2С-02-10",
                "source:building:levels": "serial features"
            }
        ]
    },
    "newsagent": {
        "count": 1,
        "detail": [
            {
                "name": "Союзпечать",
                "shop": "newsagent",
                "building": "yes",
                "building:levels": "1"
            }
        ]
    },
    "kiosk": {
        "count": 1,
        "detail": [
            {
                "building": "kiosk",
                "building:levels": "1",
                "shop": "kiosk"
            }
        ]
    },
    "shelter": {
        "count": 11,
        "detail": [
            {
                "amenity": "shelter",
                "building": "yes",
                "shelter_type": "weather_shelter"
            },
            {
                "amenity": "shelter",
                "building": "yes",
                "shelter_type": "weather_shelter"
            },
            {
                "amenity": "shelter",
                "building": "yes",
                "shelter_type": "weather_shelter"
            },
            {
                "amenity": "shelter",
                "building": "yes",
                "shelter_type": "weather_shelter"
            },
            {
                "amenity": "shelter",
                "building": "yes",
                "shelter_type": "weather_shelter"
            },
            {
                "amenity": "shelter",
                "building": "yes",
                "shelter_type": "weather_shelter"
            },
            {
                "amenity": "shelter",
                "building": "yes",
                "shelter_type": "weather_shelter"
            },
            {
                "amenity": "shelter",
                "building": "yes",
                "shelter_type": "weather_shelter"
            },
            {
                "amenity": "shelter",
                "building": "yes",
                "shelter_type": "weather_shelter"
            },
            {
                "amenity": "shelter",
                "building": "yes",
                "shelter_type": "weather_shelter"
            },
            {
                "amenity": "shelter",
                "building": "yes",
                "shelter_type": "public_transport"
            }
        ]
    }
}