{
    "residents": 5250,
    "supermarket": {
        "count": 4,
        "detail": [
            {
                "alt_name": "Пятерочка",
                "alt_name:ru": "Пятерочка",
                "name": "Пятёрочка",
                "name:ru": "Пятёрочка",
                "opening_hours": "09:00-23:00",
                "operator": "ООО \"Агроторг\"",
                "phone": "+7 800 5555505",
                "shop": "supermarket",
                "website": "http://pyaterochka.ru/"
            },
            {
                "name": "Бриз",
                "opening_hours": "24/7",
                "shop": "supermarket"
            },
            {
                "brand:wikidata": "Q940518",
                "brand:wikipedia": "ru:Магнит (сеть магазинов)",
                "name": "Магнит",
                "name:de": "Magnit",
                "name:en": "Magnit",
                "name:ru": "Магнит",
                "opening_hours": "Mo-Su 08:30-22:00",
                "phone": "+7 800 2009002",
                "shop": "supermarket",
                "website": "https://magnit-info.ru/"
            },
            {
                "name": "Пловдив",
                "name:ru": "Пловдив",
                "opening_hours": "Mo-Su 08:00-23:00",
                "payment:cash": "yes",
                "payment:debit_cards": "yes",
                "shop": "supermarket",
                "website": "http://www.plovdiv.su"
            }
        ]
    },
    "bench": {
        "count": 1,
        "detail": [
            {
                "amenity": "bench"
            }
        ]
    },
    "post_office": {
        "count": 1,
        "detail": [
            {
                "amenity": "post_office",
                "brand": "Почта России",
                "contact:website": "https://www.pochta.ru",
                "name": "Санкт-Петербург 198330",
                "opening_hours": "Mo-Fr 08:00-20:00; Sa 09:00-13:00,14:00-18:00; Su off",
                "operator": "АО «Почта России»",
                "phone": "+7 812 7555422;+7 812 7555424;+7 812 7558531",
                "ref": "198330",
                "website": "https://www.pochta.ru"
            }
        ]
    },
    "convenience": {
        "count": 1,
        "detail": [
            {
                "name": "Оазис",
                "shop": "convenience",
                "opening_hours": "24/7"
            }
        ]
    },
    "butcher": {
        "count": 1,
        "detail": [
            {
                "name": "Три поросёнка",
                "shop": "butcher"
            }
        ]
    },
    "cinema": {
        "count": 1,
        "detail": [
            {
                "amenity": "cinema"
            }
        ]
    },
    "bus_stop": {
        "count": 6,
        "detail": [
            {
                "bench": "yes",
                "bin": "yes",
                "highway": "bus_stop",
                "name": "Петергофское шоссе, 5",
                "public_transport": "platform",
                "shelter": "yes",
                "tactile_paving": "no"
            },
            {
                "bench": "no",
                "bin": "no",
                "highway": "bus_stop",
                "name": "Петергофское шоссе, 5",
                "public_transport": "platform",
                "shelter": "no"
            },
            {
                "bench": "yes",
                "bus": "yes",
                "highway": "bus_stop",
                "local_ref": "87",
                "name": "Проспект маршала Жукова",
                "public_transport": "platform",
                "shelter": "yes",
                "trolleybus": "no"
            },
            {
                "bus": "yes",
                "name": "Проспект маршала Жукова",
                "public_transport": "stop_position"
            },
            {
                "bus": "yes",
                "name": "Петергофское шоссе, 5",
                "public_transport": "stop_position"
            },
            {
                "bus": "yes",
                "name": "Петергофское шоссе, 5",
                "public_transport": "stop_position"
            }
        ]
    },
    "shoes": {
        "count": 1,
        "detail": [
            {
                "name": "Ремонт обуви",
                "shop": "shoes"
            }
        ]
    },
    "bank": {
        "count": 1,
        "detail": [
            {
                "amenity": "bank",
                "branch": "Северо-Западный банк",
                "contact:facebook": "https://www.facebook.com/sberbank",
                "contact:instagram": "https://instagram.com/sberbank",
                "contact:ok": "https://ok.ru/sberbank",
                "contact:phone": "+7 800 5555550",
                "contact:twitter": "https://twitter.com/sberbank/",
                "contact:vk": "https://vk.com/sberbank",
                "contact:website": "https://www.sberbank.ru/",
                "contact:youtube": "https://www.youtube.com/sberbank",
                "name": "Сбербанк",
                "name:en": "Sberbank",
                "name:ru": "Сбербанк",
                "opening_hours": "Mo-Fr 10:00-14:00,15:00-18:00",
                "operator": "ПАО Сбербанк",
                "operator:wikidata": "Q205012",
                "operator:wikipedia": "ru:Сбербанк России",
                "ref": "9055/0736",
                "wheelchair": "no"
            }
        ]
    },
    "cafe": {
        "count": 1,
        "detail": [
            {
                "amenity": "cafe",
                "name": "Север"
            }
        ]
    },
    "photo": {
        "count": 1,
        "detail": [
            {
                "amenity": "pharmacy",
                "shop": "photo"
            }
        ]
    },
    "beauty": {
        "count": 1,
        "detail": [
            {
                "shop": "beauty"
            }
        ]
    },
    "pharmacy": {
        "count": 2,
        "detail": [
            {
                "amenity": "pharmacy",
                "name": "Алоэ",
                "opening_hours": "Mo-Su 09:00-22:00",
                "phone": "+7 812 4553391"
            },
            {
                "amenity": "pharmacy",
                "contact:facebook": "http://facebook.com/aptekivita",
                "contact:instagram": "https://www.instagram.com/vita_express/",
                "contact:phone": "+7 800 7550003",
                "contact:vk": "https://vk.com/aptekivita",
                "contact:website": "https://vitaexpress.ru/",
                "name": "Вита Экспресс",
                "opening_hours": "Mo-Su 08:00-22:00"
            }
        ]
    },
    "pet": {
        "count": 1,
        "detail": [
            {
                "name": "Фабер 4",
                "shop": "pet"
            }
        ]
    },
    "hardware": {
        "count": 1,
        "detail": [
            {
                "name": "Улыбка Радуги",
                "name:ru": "Улыбка Радуги",
                "shop": "hardware"
            }
        ]
    },
    "waste_disposal": {
        "count": 5,
        "detail": [
            {
                "amenity": "waste_disposal"
            },
            {
                "amenity": "waste_disposal"
            },
            {
                "amenity": "waste_disposal"
            },
            {
                "amenity": "waste_disposal"
            },
            {
                "amenity": "waste_disposal"
            }
        ]
    },
    "florist": {
        "count": 2,
        "detail": [
            {
                "addr:city": "Санкт-Петербург",
                "addr:housenumber": "3",
                "addr:postcode": "198330",
                "addr:street": "Петергофское шоссе",
                "atm": "no",
                "name": "Цветовик",
                "opening_hours": "24/7",
                "shop": "florist"
            },
            {
                "contact:phone": "+7 901 3003705",
                "contact:vk": "https://vk.com/club63290804",
                "name": "Магазин цветов",
                "opening_hours": "Mo-Su 09:00-21:00",
                "operator": "Магазин цветов",
                "shop": "florist"
            }
        ]
    },
    "playground": {
        "count": 1,
        "detail": [
            {
                "leisure": "playground",
                "opening_hours": "24/7"
            }
        ]
    },
    "community_centre": {
        "count": 1,
        "detail": [
            {
                "amenity": "community_centre",
                "community_centre:for": "juvenile",
                "email": "mayak@ligovo.org",
                "name": "Маяк",
                "phone": "+7 812 7457212",
                "website": "http://ligovo.org/pmk-mayak/"
            }
        ]
    },
    "kindergarten": {
        "count": 5,
        "detail": [
            {
                "amenity": "kindergarten",
                "contact:email": "detcad.dolphin@mail.ru",
                "contact:instagram": "https://instagram.com/chouseip",
                "contact:phone": "+7 812 7589293;+7 965 0944636",
                "contact:vk": "https://vk.com/club47201873",
                "contact:website": "https://doshkolniki.spb.ru/",
                "name": "Частный детский сад",
                "opening_hours": "Mo-Fr 07:45-19:45",
                "operator": "Частный детский сад \"Дельфин\""
            },
            {
                "name": "Детский сад №49",
                "height": "8",
                "amenity": "kindergarten",
                "building": "kindergarten",
                "addr:city": "Санкт-Петербург",
                "design:ref": "2C-04-8",
                "addr:street": "Петергофское шоссе",
                "addr:country": "RU",
                "building:levels": "2",
                "addr:housenumber": "7 к2",
                "building:cladding": "brick"
            },
            {
                "height": "8",
                "building": "kindergarten",
                "addr:city": "Санкт-Петербург",
                "design:ref": "2С-04-3",
                "addr:street": "улица Маршала Захарова",
                "addr:country": "RU",
                "building:levels": "2",
                "addr:housenumber": "27 к4",
                "building:cladding": "panel"
            },
            {
                "height": "8",
                "building": "kindergarten",
                "addr:city": "Санкт-Петербург",
                "design:ref": "2С-04-3",
                "addr:street": "Петергофское шоссе",
                "addr:country": "RU",
                "building:levels": "2",
                "addr:housenumber": "1 к3",
                "building:cladding": "panel"
            },
            {
                "height": "8",
                "building": "kindergarten",
                "addr:city": "Санкт-Петербург",
                "design:ref": "2C-04-8",
                "addr:street": "Петергофское шоссе",
                "addr:country": "RU",
                "building:levels": "2",
                "addr:housenumber": "1 к2",
                "building:cladding": "brick"
            }
        ]
    },
    "service": {
        "count": 7,
        "detail": [
            {
                "building": "service",
                "addr:city": "Санкт-Петербург",
                "addr:street": "улица Маршала Захарова",
                "addr:country": "RU",
                "addr:housenumber": "33 к2"
            },
            {
                "building": "service"
            },
            {
                "ref": "6866",
                "power": "substation",
                "building": "service"
            },
            {
                "ref": "36402",
                "power": "substation",
                "building": "service",
                "substation": "minor_distribution",
                "official_short_type": "ТП"
            },
            {
                "building": "service",
                "pipeline": "substation",
                "substance": "gas",
                "design:code:SPb": "ГРП-4*4"
            },
            {
                "ref": "36864",
                "power": "substation",
                "voltage": "10000;400",
                "building": "service",
                "substation": "minor_distribution",
                "building:levels": "1",
                "official_short_type": "ТП"
            },
            {
                "building": "service",
                "building:levels": "1",
                "frequency": "50",
                "official_short_type": "ТП",
                "power": "substation",
                "ref": "36871",
                "substation": "minor_distribution",
                "voltage": "10000;400"
            }
        ]
    },
    "doctors": {
        "count": 1,
        "detail": [
            {
                "name": "Детское поликлиническое отделение №74",
                "amenity": "doctors",
                "building": "policlinic",
                "addr:city": "Санкт-Петербург",
                "design:ref": "VII-42л",
                "addr:street": "улица Маршала Захарова",
                "addr:country": "RU",
                "building:levels": "3",
                "addr:housenumber": "31",
                "source:building:levels": "serial features"
            }
        ]
    },
    "school": {
        "count": 2,
        "detail": [
            {
                "building": "school",
                "addr:city": "Санкт-Петербург",
                "design:ref": "2С-02-10",
                "addr:street": "Петергофское шоссе",
                "addr:country": "RU",
                "building:levels": "4",
                "addr:housenumber": "5 к3"
            },
            {
                "name": "Школа №247",
                "amenity": "school",
                "building": "school",
                "addr:city": "Санкт-Петербург",
                "design:ref": "2С-02-10",
                "addr:street": "Петергофское шоссе",
                "addr:country": "RU",
                "building:levels": "4",
                "addr:housenumber": "5 к4",
                "source:building:levels": "serial features"
            }
        ]
    }
}