{
    "residents": 6306,
    "doityourself": {
        "count": 5,
        "detail": [
            {
                "name": "Планета Инструмент",
                "shop": "doityourself",
                "website": "http://planetainstrument.ru",
                "operator": "ООО \"Сфера\"",
                "opening_hours": "Mo-Sa 10:00-20:00"
            },
            {
                "name": "1й стройхоз",
                "shop": "doityourself",
                "operator": "ООО \"Дебют\"",
                "opening_hours": "Mo-Sa 10:00-20:00;Su 10:00-19:00"
            },
            {
                "name": "Кафельбург",
                "shop": "doityourself",
                "fixme": "как обозначить магазин, продающий кафель?",
                "opening_hours": "Mo-Su 10:00-20:00"
            },
            {
                "shop": "doityourself",
                "level": "0",
                "opening_hours": "10:00-20:00"
            },
            {
                "name": "Крепёж",
                "shop": "doityourself",
                "phone": "+7 904 6348724",
                "amenity": "cafe",
                "name:ru": "Лотос Байкала"
            }
        ]
    },
    "police": {
        "count": 1,
        "detail": [
            {
                "name": "Участковый пункт полиции №2",
                "phone": "+7 812 2650597",
                "amenity": "police"
            }
        ]
    },
    "cafe": {
        "count": 12,
        "detail": [
            {
                "name": "Проспект",
                "amenity": "cafe",
                "name:ru": "Проспект",
                "opening_hours": "24/7",
                "internet_access:type": "Wlan"
            },
            {
                "name": "Индиш",
                "amenity": "cafe",
                "cuisine": "indian",
                "description": "кафе бар",
                "opening_hours": "24/7"
            },
            {
                "name": "Бегемот",
                "amenity": "cafe",
                "cuisine": "local",
                "opening_hours": "12:00-22:00"
            },
            {
                "name": "Наша столовая",
                "amenity": "cafe",
                "opening_hours": "Mo-Su 09:00-23:00"
            },
            {
                "name": "Подвальчик",
                "level": "o",
                "amenity": "cafe",
                "opening_hours": "11:00-24:00"
            },
            {
                "cafe": "bistrot",
                "name": "Рюмочка",
                "level": "0",
                "amenity": "cafe",
                "cuisine": "japanese;sushi",
                "opening_hours": "Mo-Su 06:00-01:00"
            },
            {
                "name": "Долина",
                "amenity": "cafe",
                "opening_hours": "09:00-23:00"
            },
            {
                "name": "Мечта",
                "amenity": "cafe",
                "name:ru": "Мечта"
            },
            {
                "name": "Олимпикс",
                "amenity": "cafe",
                "opening_hours": "11:00-22:00"
            },
            {
                "amenity": "cafe",
                "name": "Сити",
                "name:ru": "Сити",
                "opening_hours": "Mo-Sa 11:00-21:00"
            },
            {
                "name": "Кофе Фото",
                "amenity": "cafe",
                "cuisine": "coffee_shop",
                "name:ru": "Кому Кофе"
            },
            {
                "addr:housenumber": "68 к2",
                "addr:street": "проспект Обуховской Обороны",
                "amenity": "cafe",
                "building": "yes",
                "building:levels": "2",
                "cuisine": "georgian",
                "internet_access": "wlan",
                "name": "Vinograd",
                "opening_hours": "Mo-Th 11:00-23:00; Fr 11:00-03:00; Sa 12:00-03:00; Su 12:00-23:00",
                "phone": "+7 812 4123242",
                "source:addr": "rgis"
            }
        ]
    },
    "playground": {
        "count": 2,
        "detail": [
            {
                "leisure": "playground"
            },
            {
                "leisure": "playground"
            }
        ]
    },
    "mobile_phone": {
        "count": 5,
        "detail": [
            {
                "brand": "Связной",
                "brand:en": "Svyaznoy",
                "brand:wikidata": "Q65371",
                "brand:wikipedia": "en:Svyaznoy",
                "level": "1",
                "name": "Связной",
                "name:en": "Svyaznoy",
                "opening_hours": "09:00-22:00",
                "shop": "mobile_phone"
            },
            {
                "brand": "Tele2",
                "brand:wikidata": "Q309865",
                "brand:wikipedia": "en:Tele2",
                "name": "Tele2",
                "opening_hours": "09:00-21:00",
                "shop": "mobile_phone"
            },
            {
                "brand": "МТС",
                "brand:en": "MTS",
                "brand:wikidata": "Q1368919",
                "brand:wikipedia": "en:MTS (network provider)",
                "name": "МТС",
                "name:en": "MTS",
                "name:ru": "МТС",
                "opening_hours": "09:00-22:00",
                "shop": "mobile_phone"
            },
            {
                "brand": "Билайн",
                "brand:en": "Beeline",
                "brand:wikidata": "Q402880",
                "brand:wikipedia": "en:Beeline (brand)",
                "level": "1",
                "name": "Билайн",
                "name:en": "Beeline",
                "name:ru": "Билайн",
                "opening_hours": "09:00-21:00",
                "shop": "mobile_phone"
            },
            {
                "name": "Мегафон Экспресс",
                "shop": "mobile_phone",
                "office": "telecommunication"
            }
        ]
    },
    "bank": {
        "count": 2,
        "detail": [
            {
                "amenity": "bank",
                "branch": "Северо-Западный банк",
                "brand": "Сбербанк",
                "brand:en": "Sberbank",
                "brand:ru": "Сбербанк",
                "brand:wikidata": "Q205012",
                "brand:wikipedia": "en:Sberbank of Russia",
                "contact:facebook": "https://www.facebook.com/sberbank",
                "contact:instagram": "https://instagram.com/sberbank",
                "contact:ok": "https://ok.ru/sberbank",
                "contact:phone": "+7 800 5555550",
                "contact:twitter": "https://twitter.com/sberbank/",
                "contact:vk": "https://vk.com/sberbank",
                "contact:website": "https://www.sberbank.ru/",
                "contact:youtube": "https://www.youtube.com/sberbank",
                "level": "1",
                "name": "Сбербанк",
                "name:en": "Sberbank",
                "name:ru": "Сбербанк",
                "opening_hours": "Mo-Fr 10:00-19:00; Sa 10:00-18:00",
                "operator": "ПАО Сбербанк",
                "operator:wikidata": "Q205012",
                "operator:wikipedia": "ru:Сбербанк России",
                "ref": "9055/0529",
                "wheelchair": "yes"
            },
            {
                "amenity": "bank",
                "brand": "Совкомбанк",
                "brand:en": "Sovcom Bank",
                "brand:ru": "Совкомбанк",
                "brand:wikidata": "Q4426566",
                "brand:wikipedia": "ru:Совкомбанк",
                "name": "Совкомбанк",
                "name:en": "Sovcom Bank",
                "name:ru": "Совкомбанк",
                "opening_hours": "10:00-19:00",
                "ref": "203"
            }
        ]
    },
    "doctors": {
        "count": 2,
        "detail": [
            {
                "name": "Центр восстановительного лечения имени С.С. Мнухина \"Детская психиатрия\"",
                "amenity": "doctors"
            },
            {
                "name": "Отделение лечебно-трудовой реабилитации психоневрологическог диспансера Невского района",
                "amenity": "doctors"
            }
        ]
    },
    "car_parts": {
        "count": 3,
        "detail": [
            {
                "name": "Кузов",
                "shop": "car_parts"
            },
            {
                "name": "Кореана",
                "shop": "car_parts",
                "opening_hours": "Mo-Sa 10:00-20:00; Su 10:00-18:00"
            },
            {
                "shop": "car_parts",
                "opening_hours": "Mo-Fr 09:00-20:00; Sa-Su 10:00-19:00"
            }
        ]
    },
    "furniture": {
        "count": 2,
        "detail": [
            {
                "shop": "furniture"
            },
            {
                "email": "5745094@mail.ru",
                "name": "Мебель",
                "opening_hours": "Mo-Su 11:00-19:00, Su 11:00-18:00",
                "operator": "OOO «Престиж-М»",
                "phone": "+7 812 5745094",
                "shop": "furniture",
                "website": "https://dubrava-mebelspb.ru"
            }
        ]
    },
    "clothes": {
        "count": 7,
        "detail": [
            {
                "clothes": "coveralls",
                "name": "Спецодежда",
                "name:ru": "Восток-Сервис",
                "note": "магазин спецодежды: сапоги, каски, рукавицы, халаты",
                "opening_hours": "09:00-21:00",
                "operator": "Восток сервис",
                "shop": "clothes",
                "website": "https://www.vostok.spb.ru/"
            },
            {
                "name": "Ивановский трикотаж",
                "shop": "clothes",
                "level": "1"
            },
            {
                "name": "ТриКотаЖ",
                "shop": "clothes",
                "level": "1",
                "second_hand": "no",
                "opening_hours": "10:00-20:00"
            },
            {
                "name": "Женский стиль",
                "shop": "clothes",
                "level": "1"
            },
            {
                "name": "Мир Детского Трикотажа",
                "shop": "clothes",
                "name:ru": "Мир Детского Трикотажа",
                "wheelchair": "no",
                "opening_hours": "Mo-Su 09:00-20:00"
            },
            {
                "name": "Ивановский трикотаж",
                "shop": "clothes",
                "opening_hours": "Mo-Su 08:30-18:30"
            },
            {
                "name": "Мужской трикотаж",
                "shop": "clothes",
                "opening_hours": "Tu-Su 10:00-18:00"
            }
        ]
    },
    "funeral_directors": {
        "count": 1,
        "detail": [
            {
                "name": "Военно ритуальная компания",
                "shop": "funeral_directors",
                "phone": "+7 906 2538262",
                "description": "памятники, ритуальные услуги",
                "opening_hours": "24/7"
            }
        ]
    },
    "convenience": {
        "count": 4,
        "detail": [
            {
                "name": "Продукты",
                "shop": "convenience",
                "name:ru": "Продукты",
                "opening_hours": "24/7"
            },
            {
                "name": "Продукты",
                "shop": "convenience",
                "opening_hours": "24/7"
            },
            {
                "name": "Продукты",
                "shop": "convenience",
                "name:ru": "Продукты",
                "opening_hours": "24/7"
            },
            {
                "food": "yes",
                "name": "Продукты",
                "shop": "convenience",
                "name:ru": "Продукты",
                "operator": "ИП Джамилов",
                "opening_hours": "Mo-Fr 08:00-00:00; Sa-Su 09:00-00:00"
            }
        ]
    },
    "orthopedics": {
        "count": 3,
        "detail": [
            {
                "name": "Орто-С",
                "shop": "orthopedics",
                "level": "2",
                "description": "Магазин ортопедической обуви",
                "opening_hours": "Mo-Su 10:00-20:00"
            },
            {
                "name": "Орто-С",
                "shop": "orthopedics",
                "level": "1"
            },
            {
                "name": "Ортопедический салон \"Кладовая здоровья\"",
                "shop": "orthopedics"
            }
        ]
    },
    "beauty": {
        "count": 3,
        "detail": [
            {
                "name": "Шанель",
                "shop": "beauty",
                "phone": "+7 812 5745364",
                "opening_hours": "Mo-Sa 10:00-21:00; Su 11:00-20:00"
            },
            {
                "name": "Василиса",
                "shop": "beauty",
                "level": "1",
                "phone": "+7 812 5675087",
                "opening_hours": "Mo-Sa 09:00-21:00; Su 10:00-20:00"
            },
            {
                "name": "Стиль",
                "shop": "beauty",
                "phone": "+7 812 9262654",
                "opening_hours": "Mo-Su 10:00-21:00"
            }
        ]
    },
    "waste_disposal": {
        "count": 6,
        "detail": [
            {
                "amenity": "waste_disposal"
            },
            {
                "amenity": "waste_disposal"
            },
            {
                "amenity": "waste_disposal"
            },
            {
                "amenity": "waste_disposal"
            },
            {
                "amenity": "waste_disposal"
            },
            {
                "amenity": "waste_disposal"
            }
        ]
    },
    "pet": {
        "count": 2,
        "detail": [
            {
                "opening_hours": "Mo-Sa 10:00-19:00;Su 11:00-18:00",
                "operator": "ООО \"Агидис\"",
                "shop": "pet"
            },
            {
                "name": "Zoo",
                "shop": "pet",
                "level": "0",
                "opening_hours": "Mo-Sa 10:00-20:00; Su 11:00-19:00"
            }
        ]
    },
    "veterinary": {
        "count": 1,
        "detail": [
            {
                "amenity": "veterinary",
                "opening_hours": "Mo-Su 09:00-22:00",
                "phone": "+7 812 4120652"
            }
        ]
    },
    "bus_stop": {
        "count": 2,
        "detail": [
            {
                "bus": "yes",
                "highway": "bus_stop",
                "local_ref": "3М;3Мб;31;114;116",
                "name": "станция метро «Елизаровская»",
                "public_transport": "platform",
                "shelter": "yes"
            },
            {
                "bus": "yes",
                "name": "станция метро «Елизаровская»",
                "public_transport": "stop_position"
            }
        ]
    },
    "pitch": {
        "count": 3,
        "detail": [
            {
                "sport": "soccer",
                "leisure": "pitch"
            },
            {
                "sport": "volleyball",
                "leisure": "pitch"
            },
            {
                "sport": "basketball",
                "leisure": "pitch"
            }
        ]
    },
    "atm": {
        "count": 8,
        "detail": [
            {
                "indoor": "yes",
                "amenity": "atm",
                "operator": "ВТБ24",
                "opening_hours": "00:00-00:40,05:38-24:00"
            },
            {
                "ref": "10031120",
                "indoor": "yes",
                "amenity": "atm",
                "cash_in": "no",
                "operator": "Сбербанк России",
                "opening_hours": "00:00-00:40,05:38-24:00"
            },
            {
                "amenity": "atm",
                "brand": "Санкт-Петербург",
                "contact:email": "cc@bspb.ru",
                "contact:facebook": "https://www.facebook.com/bspb/",
                "contact:instagram": "https://instagram.com/bank_spb",
                "contact:ok": "https://ok.ru/bspb",
                "contact:phone": "+7 800 2225050;+7 812 3295050",
                "contact:twitter": "https://twitter.com/bank_spb",
                "contact:vk": "https://vk.com/bspb",
                "contact:website": "https://www.bspb.ru/",
                "currency:RUB": "yes",
                "indoor": "yes",
                "opening_hours": "Mo-Su 05:35-00:24",
                "operator": "ПАО Банк Санкт-Петербург",
                "telegram": "https://t.me/mybspb"
            },
            {
                "indoor": "yes",
                "amenity": "atm",
                "operator": "Альфа-Банк",
                "opening_hours": "00:00-00:40,05:38-24:00"
            },
            {
                "ref": "331550",
                "brand": "Сбербанк",
                "indoor": "yes",
                "amenity": "atm",
                "cash_in": "no",
                "operator": "Сбербанк России",
                "opening_hours": "00:00-24:00,05:38-24:00"
            },
            {
                "ref": "10975534",
                "brand": "Сбербанк",
                "indoor": "yes",
                "amenity": "atm",
                "cash_in": "yes",
                "operator": "Сбербанк России",
                "opening_hours": "24/7"
            },
            {
                "ref": "10975533",
                "brand": "Сбербанк",
                "indoor": "yes",
                "amenity": "atm",
                "cash_in": "yes",
                "operator": "Сбербанк России",
                "opening_hours": "24/7"
            },
            {
                "ref": "10975537",
                "brand": "Сбербанк",
                "indoor": "yes",
                "amenity": "atm",
                "cash_in": "no",
                "operator": "Сбербанк России",
                "opening_hours": "24/7"
            }
        ]
    },
    "newsagent": {
        "count": 2,
        "detail": [
            {
                "brand": "Первая полоса",
                "brand:wikidata": "Q62736412",
                "name": "Первая полоса",
                "opening_hours": "Mo-Sa 06:45-22:30; Su 08:15-21:45",
                "second_hand": "no",
                "shop": "newsagent"
            },
            {
                "name": "Первая полоса",
                "shop": "newsagent",
                "second_hand": "no",
                "opening_hours": "Mo-Sa 06:45-21:45; Su 08:15-20:45"
            }
        ]
    },
    "jewelry": {
        "count": 1,
        "detail": [
            {
                "name": "585",
                "shop": "jewelry",
                "craft": "jeweller",
                "level": "1",
                "opening_hours": "10:00-20:00"
            }
        ]
    },
    "pharmacy": {
        "count": 1,
        "detail": [
            {
                "amenity": "pharmacy",
                "healthcare": "pharmacy",
                "level": "1",
                "name": "Первая помощь",
                "opening_hours": "Mo-Fr 08:00-21:00; Sa 09:00-21:00; Su 10:00-20:00"
            }
        ]
    },
    "pastry": {
        "count": 1,
        "detail": [
            {
                "name": "Метрополь",
                "shop": "pastry",
                "level": "1",
                "operator": "Север",
                "opening_hours": "Mo-Fr 09:00-21:00; Sa 10:00-21:00; Su 10:00-20:00"
            }
        ]
    },
    "gift": {
        "count": 1,
        "detail": [
            {
                "name": "Найс",
                "shop": "gift",
                "opening_hours": "Mo-Sa 10:00-20:00"
            }
        ]
    },
    "money_lender": {
        "count": 1,
        "detail": [
            {
                "atm": "yes",
                "name": "Деньга",
                "shop": "money_lender",
                "level": "0",
                "opening_hours": "Mo-Su 09:00-21:00"
            }
        ]
    },
    "cosmetics": {
        "count": 1,
        "detail": [
            {
                "name": "Косметика белоруссии",
                "shop": "cosmetics",
                "level": "1"
            }
        ]
    },
    "bookmaker": {
        "count": 1,
        "detail": [
            {
                "name": "Вексельная система",
                "shop": "bookmaker",
                "level": "1",
                "opening_hours": "24/7"
            }
        ]
    },
    "hardware": {
        "count": 3,
        "detail": [
            {
                "shop": "hardware",
                "level": "0",
                "opening_hours": "Mo-Fr 10:00-20:00; Sa 11:00-19:00; Su 11:00-18:00"
            },
            {
                "shop": "hardware",
                "level": "0",
                "opening_hours": "Mo-Fr 10:30-19:30; Sa 11:00-18:00"
            },
            {
                "name": "Оптовичок",
                "shop": "hardware",
                "name:ru": "Оптовичок",
                "opening_hours": "Mo-Fr 08:00-19:00; Sa 10:00-18:00; Su 11:00-18:00"
            }
        ]
    },
    "bakery": {
        "count": 3,
        "detail": [
            {
                "atm": "yes",
                "name": "Хлебная усадьба",
                "shop": "bakery",
                "level": "1",
                "opening_hours": "09:00-21:00"
            },
            {
                "brand": "Булочные Ф. Вольчека",
                "contact:email": "info@fvolchek.ru",
                "contact:phone": "+7 812 6420638",
                "contact:vk": "f.volchek",
                "contact:website": "http://fvolchek.ru/",
                "drink:coffee": "served",
                "drink:mors": "served",
                "drink:tea": "served",
                "name": "Булочная Ф. Вольчека",
                "name:ru": "Булочная Ф. Вольчека",
                "opening_hours": "Mo-Su 08:00-22:00",
                "payment:cash": "yes",
                "payment:maestro": "yes",
                "payment:mastercard": "yes",
                "payment:visa": "yes",
                "payment:visa_debit": "yes",
                "payment:visa_electron": "yes",
                "shop": "bakery",
                "takeaway": "yes"
            },
            {
                "name": "Булочная N52",
                "shop": "bakery",
                "opening_hours": "Mo-Su 08:00-22:00"
            }
        ]
    },
    "travel_agency": {
        "count": 1,
        "detail": [
            {
                "name": "Aurora",
                "shop": "travel_agency",
                "contact:website": "www.maldives-aurora.com"
            }
        ]
    },
    "car_repair": {
        "count": 3,
        "detail": [
            {
                "name": "Profauto",
                "shop": "car_repair",
                "phone": "+7 812 3650082"
            },
            {
                "shop": "car_repair"
            },
            {
                "name": "Мега-Точка",
                "shop": "car_repair",
                "building": "yes",
                "building:levels": "2"
            }
        ]
    },
    "sauna": {
        "count": 1,
        "detail": [
            {
                "access": "customers",
                "fee": "yes",
                "leisure": "sauna",
                "name": "Тропик-РА",
                "opening_hours": "24/7",
                "phone": "+7 812 7030193",
                "website": "http://tropik-ra.ru/"
            }
        ]
    },
    "car_wash": {
        "count": 2,
        "detail": [
            {
                "amenity": "car_wash"
            },
            {
                "amenity": "car_wash"
            }
        ]
    },
    "yes": {
        "count": 1,
        "detail": [
            {
                "name": "КБмет",
                "shop": "yes",
                "phone": "+7 812 4128656",
                "operator": "БалтТех",
                "description": "складское, торговое оборудование",
                "opening_hours": "Mo-Fr 10:00-18:00; Sa-Su off"
            }
        ]
    },
    "telephone": {
        "count": 1,
        "detail": [
            {
                "phone": "+7 812 3655215",
                "amenity": "telephone",
                "operator": "Ростелеком",
                "payment:telephone_cards": "yes"
            }
        ]
    },
    "post_box": {
        "count": 2,
        "detail": [
            {
                "ref": "256",
                "amenity": "post_box",
                "operator": "Почта России",
                "design:year": "2010",
                "drive_through": "no",
                "post_box:type": "wall",
                "post_box:design": "ЯПНМ-II-С",
                "collection_times": "Mo-Fr 00:50,13:20; Sa-Su 13:20"
            },
            {
                "ref": "390",
                "indoor": "yes",
                "amenity": "post_box",
                "operator": "Почта России",
                "drive_through": "no",
                "opening_hours": "Mo-Fr 08:00-20:00; Sa 09:00-18:00",
                "post_box:type": "wall",
                "post_box:design": "custom",
                "collection_times": "Mo-Sa 08:55"
            }
        ]
    },
    "clock": {
        "count": 1,
        "detail": [
            {
                "faces": "2",
                "amenity": "clock",
                "display": "analog",
                "support": "wall_mounted"
            }
        ]
    },
    "supermarket": {
        "count": 2,
        "detail": [
            {
                "name": "Дикси",
                "shop": "supermarket",
                "brand": "Дикси",
                "name:ru": "Дикси",
                "website": "https://dixy.ru/",
                "contact:vk": "https://vk.com/dixyclub",
                "contact:phone": "+7 800 3330201",
                "opening_hours": "Mo-Su 08:00-23:00",
                "brand:wikidata": "Q4161561",
                "brand:wikipedia": "ru:Дикси (сеть магазинов)",
                "contact:youtube": "https://www.youtube.com/user/DixyChannel"
            },
            {
                "name": "Пятёрочка",
                "shop": "supermarket",
                "name:en": "Pyaterochka",
                "name:ru": "Пятёрочка",
                "alt_name": "Пятерочка",
                "alt_name:ru": "Пятерочка",
                "payment:cash": "yes",
                "opening_hours": "Mo-Su 09:00-23:00",
                "payment:debit_cards": "yes",
                "payment:credit_cards": "yes"
            }
        ]
    },
    "waste_basket": {
        "count": 55,
        "detail": [
            {
                "amenity": "waste_basket"
            },
            {
                "amenity": "waste_basket"
            },
            {
                "amenity": "waste_basket"
            },
            {
                "amenity": "waste_basket"
            },
            {
                "amenity": "waste_basket"
            },
            {
                "amenity": "waste_basket"
            },
            {
                "amenity": "waste_basket"
            },
            {
                "amenity": "waste_basket"
            },
            {
                "amenity": "waste_basket"
            },
            {
                "amenity": "waste_basket"
            },
            {
                "amenity": "waste_basket"
            },
            {
                "amenity": "waste_basket"
            },
            {
                "amenity": "waste_basket"
            },
            {
                "amenity": "waste_basket"
            },
            {
                "amenity": "waste_basket"
            },
            {
                "amenity": "waste_basket"
            },
            {
                "amenity": "waste_basket"
            },
            {
                "amenity": "waste_basket"
            },
            {
                "amenity": "waste_basket"
            },
            {
                "amenity": "waste_basket"
            },
            {
                "amenity": "waste_basket"
            },
            {
                "amenity": "waste_basket"
            },
            {
                "amenity": "waste_basket"
            },
            {
                "amenity": "waste_basket"
            },
            {
                "amenity": "waste_basket"
            },
            {
                "amenity": "waste_basket"
            },
            {
                "amenity": "waste_basket"
            },
            {
                "amenity": "waste_basket"
            },
            {
                "amenity": "waste_basket"
            },
            {
                "amenity": "waste_basket"
            },
            {
                "amenity": "waste_basket"
            },
            {
                "amenity": "waste_basket"
            },
            {
                "amenity": "waste_basket"
            },
            {
                "amenity": "waste_basket"
            },
            {
                "amenity": "waste_basket"
            },
            {
                "amenity": "waste_basket"
            },
            {
                "amenity": "waste_basket"
            },
            {
                "amenity": "waste_basket"
            },
            {
                "amenity": "waste_basket"
            },
            {
                "amenity": "waste_basket"
            },
            {
                "amenity": "waste_basket"
            },
            {
                "amenity": "waste_basket"
            },
            {
                "amenity": "waste_basket"
            },
            {
                "amenity": "waste_basket"
            },
            {
                "amenity": "waste_basket"
            },
            {
                "amenity": "waste_basket"
            },
            {
                "amenity": "waste_basket"
            },
            {
                "amenity": "waste_basket"
            },
            {
                "amenity": "waste_basket"
            },
            {
                "amenity": "waste_basket"
            },
            {
                "amenity": "waste_basket"
            },
            {
                "amenity": "waste_basket"
            },
            {
                "amenity": "waste_basket"
            },
            {
                "amenity": "waste_basket"
            },
            {
                "amenity": "waste_basket"
            }
        ]
    },
    "bench": {
        "count": 29,
        "detail": [
            {
                "amenity": "bench"
            },
            {
                "amenity": "bench"
            },
            {
                "amenity": "bench"
            },
            {
                "amenity": "bench"
            },
            {
                "amenity": "bench"
            },
            {
                "amenity": "bench"
            },
            {
                "amenity": "bench"
            },
            {
                "amenity": "bench"
            },
            {
                "amenity": "bench"
            },
            {
                "amenity": "bench"
            },
            {
                "amenity": "bench"
            },
            {
                "amenity": "bench"
            },
            {
                "amenity": "bench"
            },
            {
                "amenity": "bench"
            },
            {
                "amenity": "bench"
            },
            {
                "amenity": "bench"
            },
            {
                "amenity": "bench"
            },
            {
                "amenity": "bench"
            },
            {
                "amenity": "bench"
            },
            {
                "amenity": "bench"
            },
            {
                "amenity": "bench"
            },
            {
                "amenity": "bench"
            },
            {
                "amenity": "bench"
            },
            {
                "amenity": "bench"
            },
            {
                "amenity": "bench"
            },
            {
                "amenity": "bench"
            },
            {
                "amenity": "bench"
            },
            {
                "amenity": "bench"
            },
            {
                "amenity": "bench"
            }
        ]
    },
    "books": {
        "count": 1,
        "detail": [
            {
                "addr:housenumber": "6/1",
                "addr:street": "проспект Елизарова",
                "amenity": "cafe",
                "cuisine": "georgian",
                "description": "Кафе без названия и пекарня",
                "name": "Синица",
                "opening_hours": "Mo-Fr 10:00-20:00; Sa-Su 11:00-19:00",
                "shop": "books",
                "takeaway": "yes"
            }
        ]
    },
    "florist": {
        "count": 2,
        "detail": [
            {
                "shop": "florist"
            },
            {
                "name": "Цветы",
                "shop": "florist",
                "opening_hours": "24/7"
            }
        ]
    },
    "hairdresser": {
        "count": 2,
        "detail": [
            {
                "shop": "hairdresser",
                "operator": "ИП Алтухова, ИП Васильева",
                "opening_hours": "Mo-Su 10:00-19:00"
            },
            {
                "shop": "hairdresser",
                "opening_hours": "10:00-19:00"
            }
        ]
    },
    "bag": {
        "count": 1,
        "detail": [
            {
                "name": "Пакеты, сумки",
                "shop": "bag",
                "opening_hours": "09:00-18:30"
            }
        ]
    },
    "dentist": {
        "count": 2,
        "detail": [
            {
                "name": "Стоматологическая поликлиника № 13 - отделение платных услуг",
                "amenity": "dentist",
                "healthcare": "dentist",
                "opening_hours": "Mo-Fr 08:30-20:00",
                "health_facility:type": "clinic",
                "medical_system:western": "yes",
                "health_specialty:dentistry": "yes"
            },
            {
                "name": "Невская стоматология",
                "amenity": "dentist",
                "name:ru": "Невская стоматология",
                "opening_hours": "Mo-Fr 10:00-21:00"
            }
        ]
    },
    "parking": {
        "count": 1,
        "detail": [
            {
                "fee": "yes",
                "amenity": "parking",
                "parking": "surface"
            }
        ]
    },
    "computer": {
        "count": 1,
        "detail": [
            {
                "shop": "computer",
                "service": "only",
                "computer": "notebook"
            }
        ]
    },
    "childcare": {
        "count": 1,
        "detail": [
            {
                "amenity": "childcare"
            }
        ]
    },
    "vending_machine": {
        "count": 6,
        "detail": [
            {
                "indoor": "yes",
                "amenity": "vending_machine",
                "vending": "tokens",
                "operator": "Петербургский метрополитен",
                "opening_hours": "00:00-24:00,05:38-24:00"
            },
            {
                "indoor": "yes",
                "amenity": "vending_machine",
                "vending": "tokens",
                "operator": "Петербургский метрополитен",
                "opening_hours": "00:00-24:00,05:38-24:00"
            },
            {
                "indoor": "yes",
                "amenity": "vending_machine",
                "vending": "tokens",
                "operator": "Петербургский метрополитен",
                "opening_hours": "00:00-24:00,05:38-24:00"
            },
            {
                "indoor": "yes",
                "amenity": "vending_machine",
                "vending": "public_transport_tickets",
                "operator": "Петербургский метрополитен",
                "opening_hours": "00:00-24:00,05:38-24:00"
            },
            {
                "indoor": "yes",
                "amenity": "vending_machine",
                "vending": "public_transport_tickets",
                "operator": "Петербургский метрополитен",
                "opening_hours": "00:00-24:00,05:38-24:00"
            },
            {
                "indoor": "yes",
                "amenity": "vending_machine",
                "vending": "public_transport_tickets",
                "operator": "Петербургский метрополитен",
                "opening_hours": "00:00-24:00,05:38-24:00"
            }
        ]
    },
    "payment_terminal": {
        "count": 1,
        "detail": [
            {
                "ref": "98265",
                "brand": "Сбербанк",
                "indoor": "yes",
                "amenity": "payment_terminal",
                "operator": "Сбербанк России",
                "opening_hours": "00:00-24:00,05:38-24:00"
            }
        ]
    },
    "ticket": {
        "count": 1,
        "detail": [
            {
                "name": "Билетер",
                "shop": "ticket",
                "second_hand": "no",
                "opening_hours": "10:00-15:00,16:00-21:00"
            }
        ]
    },
    "fast_food": {
        "count": 3,
        "detail": [
            {
                "name": "Шаверма Фалафель",
                "level": "0",
                "amenity": "fast_food",
                "cuisine": "pie",
                "opening_hours": "24/7"
            },
            {
                "name": "Шаверма",
                "amenity": "fast_food",
                "cuisine": "kebab",
                "description": "шаверма",
                "opening_hours": "24/7"
            },
            {
                "name": "Бистро",
                "amenity": "fast_food",
                "cuisine": "local",
                "opening_hours": "Mo-Sa 10:00-18:00"
            }
        ]
    },
    "greengrocer": {
        "count": 1,
        "detail": [
            {
                "name": "Фрукты, Овощи",
                "shop": "greengrocer"
            }
        ]
    },
    "electronics": {
        "count": 1,
        "detail": [
            {
                "addr:city": "Санкт-Петербург",
                "addr:housenumber": "93",
                "addr:postcode": "192029",
                "addr:street": "проспект Обуховской Обороны",
                "name": "Блеск",
                "opening_hours": "Mo-Fr 09:00-17:30",
                "payment:cash": "yes",
                "payment:notes": "yes",
                "shop": "electronics",
                "website": "http://www.bleskspb.ru"
            }
        ]
    },
    "fitness_station": {
        "count": 1,
        "detail": [
            {
                "blind": "no",
                "fitness_station": "yes",
                "leisure": "fitness_station",
                "sport": "fitness",
                "wheelchair": "no"
            }
        ]
    },
    "fountain": {
        "count": 1,
        "detail": [
            {
                "amenity": "fountain",
                "name": "Фонтан"
            }
        ]
    },
    "clinic": {
        "count": 3,
        "detail": [
            {
                "amenity": "clinic",
                "contact:email": "info@atlantinfo.ru",
                "contact:phone": "+7 800 3015156;+7 812 6605156;+7 960 2387499",
                "contact:website": "https://atlantinfo.ru/",
                "name": "Атлас",
                "opening_hours": "Mo-Su 10:00-20:00",
                "operator": "Атлас"
            },
            {
                "name": "Ленинградский областной противотуберкулезный диспансер",
                "phone": "+7 812 4120127",
                "height": "13",
                "amenity": "clinic",
                "building": "hospital",
                "operator": "Комитет по здравоохранению ЛО",
                "addr:street": "переулок Ногина",
                "source:height": "satellite image",
                "building:levels": "3",
                "addr:housenumber": "5В"
            },
            {
                "name": "Женская консультация № 31",
                "amenity": "clinic",
                "building": "hospital",
                "operator": "Поликлиника № 6",
                "addr:street": "переулок Ногина",
                "opening_hours": "Mo-Fr 08:00-20:00",
                "building:levels": "2",
                "addr:housenumber": "4"
            }
        ]
    },
    "mall": {
        "count": 1,
        "detail": [
            {
                "mall": "Торговый комплекс",
                "name": "ТК \"Елизаровский\"",
                "shop": "mall",
                "building": "retail",
                "addr:city": "Санкт-Петербург",
                "wheelchair": "limited",
                "addr:street": "улица Бабушкина",
                "opening_hours": "Mo-Su 09:00-21:00",
                "building:levels": "3",
                "addr:housenumber": "8 к2"
            }
        ]
    },
    "school": {
        "count": 3,
        "detail": [
            {
                "addr:housenumber": "7А",
                "addr:street": "проспект Елизарова",
                "building": "school",
                "building:levels": "4"
            },
            {
                "building": "school",
                "addr:street": "проспект Елизарова",
                "description": "Начальные классы",
                "source:addr": "rgis",
                "building:levels": "2",
                "addr:housenumber": "5"
            },
            {
                "addr:housenumber": "13",
                "addr:street": "улица Ольминского",
                "amenity": "college",
                "building": "school",
                "building:levels": "3",
                "description": "ГБОУ НПО ПЛ метростроя СПб",
                "name": "Профессиональный лицей Метростроя Санкт-Петербурга (вторая площадка)",
                "phone": "+7 812 3651430",
                "website": "https://www.licey-metrostroya.spb.ru/"
            }
        ]
    },
    "service": {
        "count": 6,
        "detail": [
            {
                "power": "substation",
                "building": "service"
            },
            {
                "addr:housenumber": "1 литБ",
                "addr:letter": "Б",
                "addr:street": "улица Ольги Берггольц",
                "building": "service",
                "building:levels": "1"
            },
            {
                "ref": "3161",
                "power": "substation",
                "branch": "Кабельная сеть",
                "voltage": "6000;400",
                "building": "service",
                "location": "indoor",
                "operator": "Ленэнерго",
                "frequency": "50",
                "substation": "minor_distribution",
                "addr:street": "проспект Обуховской Обороны",
                "building:levels": "1",
                "addr:housenumber": "93 литР"
            },
            {
                "ref": "3228",
                "power": "substation",
                "branch": "Кабельная сеть",
                "voltage": "6000;400",
                "building": "service",
                "location": "indoor",
                "operator": "Ленэнерго",
                "frequency": "50",
                "substation": "minor_distribution",
                "addr:street": "улица Ольминского",
                "building:levels": "1",
                "addr:housenumber": "8 литК"
            },
            {
                "building": "service",
                "pipeline": "substation",
                "substance": "gas",
                "addr:street": "улица Ольминского",
                "building:levels": "1",
                "addr:housenumber": "4 к2"
            },
            {
                "ref": "3109",
                "power": "substation",
                "branch": "Кабельная сеть",
                "voltage": "10000;400",
                "building": "service",
                "location": "indoor",
                "operator": "Ленэнерго",
                "frequency": "50",
                "substation": "minor_distribution",
                "building:levels": "1"
            }
        ]
    },
    "toilets": {
        "count": 1,
        "detail": [
            {
                "fee": "yes",
                "access": "public",
                "amenity": "toilets",
                "building": "toilets",
                "wheelchair": "no",
                "opening_hours": "Mo-Su 08:00-22:00",
                "drinking_water": "no",
                "building:levels": "1",
                "toilets:disposal": "flush",
                "toilets:position": "seated"
            }
        ]
    }
}