{
    "residents": 6918,
    "car_parts": {
        "count": 1,
        "detail": [
            {
                "name": "Би-Би",
                "shop": "car_parts",
                "source": "http://auto49.ru",
                "website": "http://auto49.ru",
                "addr:city": "Санкт-Петербург",
                "addr:street": "Шлиссельбургский проспект",
                "opening_hours": "9:00-22:00",
                "addr:housenumber": "17"
            }
        ]
    },
    "library": {
        "count": 1,
        "detail": [
            {
                "name": "Рыбацкая библиотека",
                "amenity": "library"
            }
        ]
    },
    "bus_stop": {
        "count": 10,
        "detail": [
            {
                "bench": "yes",
                "bin": "yes",
                "bus": "yes",
                "highway": "bus_stop",
                "local_ref": "51;115;115А;189;327;328",
                "name": "улица Дмитрия Устинова",
                "public_transport": "platform",
                "shelter": "yes"
            },
            {
                "bench": "yes",
                "bin": "yes",
                "highway": "bus_stop",
                "local_ref": "51;115;115А;327;328",
                "name": "Универсам (Шлиссельбургский проспект)",
                "public_transport": "platform",
                "shelter": "yes"
            },
            {
                "bench": "yes",
                "bin": "yes",
                "highway": "bus_stop",
                "local_ref": "51;115;115А;189;327;328",
                "name": "Шлиссельбургский проспект",
                "name:ru": "Шлиссельбургский проспект",
                "public_transport": "platform",
                "shelter": "yes"
            },
            {
                "bench": "yes",
                "bin": "yes",
                "bus": "yes",
                "highway": "bus_stop",
                "local_ref": "51;115;115А;189;327;328",
                "name": "улица Дмитрия Устинова, 6",
                "public_transport": "platform",
                "shelter": "yes"
            },
            {
                "bench": "yes",
                "bin": "yes",
                "highway": "bus_stop",
                "local_ref": "51;115;115А;327;328",
                "name": "Универсам (Шлиссельбургский проспект)",
                "public_transport": "platform",
                "shelter": "yes"
            },
            {
                "bus": "yes",
                "name": "улица Дмитрия Устинова, 6",
                "public_transport": "stop_position"
            },
            {
                "bus": "yes",
                "name": "Универсам (Шлиссельбургский проспект)",
                "public_transport": "stop_position"
            },
            {
                "bus": "yes",
                "name": "улица Дмитрия Устинова",
                "public_transport": "stop_position"
            },
            {
                "bus": "yes",
                "name": "Шлиссельбургский проспект",
                "name:ru": "Шлиссельбургский проспект",
                "public_transport": "stop_position"
            },
            {
                "bus": "yes",
                "name": "Универсам (Шлиссельбургский проспект)",
                "public_transport": "stop_position"
            }
        ]
    },
    "pharmacy": {
        "count": 4,
        "detail": [
            {
                "amenity": "pharmacy",
                "name": "Аптека №67"
            },
            {
                "name": "Фармакор",
                "amenity": "pharmacy"
            },
            {
                "amenity": "pharmacy",
                "contact:facebook": "http://facebook.com/aptekivita",
                "contact:instagram": "https://www.instagram.com/vita_express/",
                "contact:phone": "+7 800 7550003",
                "contact:vk": "https://vk.com/aptekivita",
                "contact:website": "https://vitaexpress.ru/",
                "name": "Вита Экспресс",
                "opening_hours": "Mo-Fr 08:00-22:00;Sa-Su 09:00-22:00"
            },
            {
                "amenity": "pharmacy",
                "contact:email": "info@papteki.ru",
                "contact:phone": "+7 812 7000303",
                "contact:website": "https://papteki.ru/",
                "name": "Петербургские аптеки",
                "opening_hours": "Mo-Su 08:00-22:00"
            }
        ]
    },
    "waste_disposal": {
        "count": 4,
        "detail": [
            {
                "amenity": "waste_disposal"
            },
            {
                "amenity": "waste_disposal"
            },
            {
                "amenity": "waste_disposal"
            },
            {
                "amenity": "waste_disposal"
            }
        ]
    },
    "car_repair": {
        "count": 1,
        "detail": [
            {
                "shop": "car_repair",
                "service": "tyres"
            }
        ]
    },
    "hairdresser": {
        "count": 2,
        "detail": [
            {
                "shop": "hairdresser"
            },
            {
                "shop": "hairdresser"
            }
        ]
    },
    "florist": {
        "count": 2,
        "detail": [
            {
                "name": "Опт и Розница",
                "shop": "florist",
                "opening_hours": "24/7"
            },
            {
                "name": "Цветоптрозница",
                "shop": "florist",
                "opening_hours": "24/7"
            }
        ]
    },
    "convenience": {
        "count": 5,
        "detail": [
            {
                "name": "Продукты",
                "shop": "convenience",
                "opening_hours": "24/7"
            },
            {
                "name": "Продукты",
                "shop": "convenience",
                "operator": "ООО 5 Шагов",
                "opening_hours": "09:00-22:00"
            },
            {
                "name": "Три мушкетёра",
                "shop": "convenience",
                "opening_hours": "24/7"
            },
            {
                "name": "Корона",
                "shop": "convenience",
                "building": "store",
                "addr:street": "Шлиссельбургский проспект",
                "building:levels": "2",
                "addr:housenumber": "15"
            },
            {
                "building": "store",
                "building:levels": "1",
                "name": "Продукты",
                "opening_hours": "Mo-Su 06:00-01:00",
                "shop": "convenience"
            }
        ]
    },
    "supermarket": {
        "count": 2,
        "detail": [
            {
                "brand:wikidata": "Q940518",
                "brand:wikipedia": "ru:Магнит (сеть магазинов)",
                "name": "Магнит",
                "name:de": "Magnit",
                "name:en": "Magnit",
                "name:ru": "Магнит",
                "opening_hours": "Mo-Su 10:00-22:00",
                "phone": "+7 800 2009002",
                "shop": "supermarket",
                "website": "https://magnit-info.ru/"
            },
            {
                "addr:city": "Санкт-Петербург",
                "addr:country": "RU",
                "addr:housenumber": "17 к1 литА",
                "addr:letter": "А",
                "addr:street": "Шлиссельбургский проспект",
                "alt_name": "Перекресток",
                "brand": "Перекресток",
                "brand:en": "Perekrestok",
                "brand:wikidata": "Q1684639",
                "brand:wikipedia": "en:Perekrestok (supermarket chain)",
                "building": "store",
                "building:levels": "2",
                "contact:phone": "+7 812 4483010",
                "name": "Перекресток",
                "opening_hours": "Mo-Su 08:00-23:00",
                "operator": "Торговый дом \"ПЕРЕКРЕСТОК\"",
                "shop": "supermarket",
                "website": "https://www.perekrestok.ru/"
            }
        ]
    },
    "car_wash": {
        "count": 2,
        "detail": [
            {
                "amenity": "car_wash"
            },
            {
                "amenity": "car_wash",
                "opening_hours": "24/7"
            }
        ]
    },
    "dentist": {
        "count": 1,
        "detail": [
            {
                "name": "Полидент+",
                "amenity": "dentist",
                "opening_hours": "Mo-Sa 09:00-21:00; Su 11:00-19:00"
            }
        ]
    },
    "post_box": {
        "count": 1,
        "detail": [
            {
                "ref": "273",
                "amenity": "post_box",
                "operator": "Почта России",
                "design:year": "2010",
                "drive_through": "no",
                "post_box:type": "wall",
                "post_box:design": "ЯПНМ-II-С",
                "collection_times": "Mo-Fr 02:15,14:45; Sa-Su 14:45"
            }
        ]
    },
    "bench": {
        "count": 8,
        "detail": [
            {
                "amenity": "bench",
                "backrest": "yes"
            },
            {
                "amenity": "bench",
                "backrest": "yes"
            },
            {
                "amenity": "bench",
                "backrest": "yes"
            },
            {
                "amenity": "bench",
                "backrest": "yes"
            },
            {
                "amenity": "bench",
                "backrest": "yes"
            },
            {
                "amenity": "bench",
                "backrest": "yes"
            },
            {
                "amenity": "bench",
                "backrest": "yes"
            },
            {
                "amenity": "bench",
                "backrest": "yes"
            }
        ]
    },
    "service": {
        "count": 13,
        "detail": [
            {
                "building": "service",
                "addr:city": "Санкт-Петербург",
                "addr:street": "Шлиссельбургский проспект",
                "addr:country": "RU",
                "addr:housenumber": "18 к2"
            },
            {
                "building": "service",
                "addr:city": "Санкт-Петербург",
                "addr:street": "Шлиссельбургский проспект",
                "addr:country": "RU",
                "addr:housenumber": "31 к3"
            },
            {
                "building": "service",
                "addr:city": "Санкт-Петербург",
                "addr:street": "Шлиссельбургский проспект",
                "addr:country": "RU",
                "addr:housenumber": "23 к3"
            },
            {
                "building": "service",
                "addr:city": "Санкт-Петербург",
                "addr:street": "улица Дмитрия Устинова",
                "addr:country": "RU",
                "addr:housenumber": "7 к2"
            },
            {
                "building": "service",
                "addr:street": "Шлиссельбургский проспект",
                "building:levels": "2",
                "addr:housenumber": "14 к3"
            },
            {
                "building": "service"
            },
            {
                "power": "substation",
                "building": "service",
                "addr:letter": "Е",
                "addr:street": "Шлиссельбургский проспект",
                "addr:housenumber": "21"
            },
            {
                "power": "substation",
                "building": "service",
                "addr:letter": "Б",
                "addr:street": "улица Дмитрия Устинова",
                "addr:housenumber": "5"
            },
            {
                "power": "substation",
                "building": "service",
                "substation": "yes"
            },
            {
                "building": "service"
            },
            {
                "building": "service"
            },
            {
                "building": "service"
            },
            {
                "building": "service"
            }
        ]
    },
    "kindergarten": {
        "count": 4,
        "detail": [
            {
                "building": "kindergarten",
                "addr:city": "Санкт-Петербург",
                "addr:street": "Шлиссельбургский проспект",
                "addr:country": "RU",
                "building:levels": "2",
                "design:code:SPb": "ДС-05",
                "addr:housenumber": "31 к2"
            },
            {
                "building": "kindergarten",
                "addr:city": "Санкт-Петербург",
                "addr:street": "Шлиссельбургский проспект",
                "addr:country": "RU",
                "building:levels": "2",
                "design:code:SPb": "ДС-08",
                "addr:housenumber": "23 к2"
            },
            {
                "building": "kindergarten",
                "addr:city": "Санкт-Петербург",
                "addr:street": "Караваевская улица",
                "addr:country": "RU",
                "building:levels": "2",
                "design:code:SPb": "ДС-05",
                "addr:housenumber": "10 к3"
            },
            {
                "addr:housenumber": "1 к2",
                "addr:street": "улица Дмитрия Устинова",
                "building": "kindergarten",
                "building:levels": "3"
            }
        ]
    },
    "doctors": {
        "count": 1,
        "detail": [
            {
                "name": "Поликлиника №77",
                "amenity": "doctors",
                "building": "policlinic",
                "addr:city": "Санкт-Петербург",
                "addr:street": "Шлиссельбургский проспект",
                "addr:country": "RU",
                "building:levels": "3",
                "design:code:SPb": "Поликл-04",
                "addr:housenumber": "25 к1"
            }
        ]
    },
    "place_of_worship": {
        "count": 1,
        "detail": [
            {
                "addr:city": "Санкт-Петербург",
                "addr:country": "RU",
                "addr:housenumber": "16 к1",
                "addr:street": "Караваевская улица",
                "amenity": "place_of_worship",
                "building": "yes",
                "denomination": "orthodox",
                "religion": "christian"
            }
        ]
    }
}