{
    "residents": 8163,
    "bus_stop": {
        "count": 6,
        "detail": [
            {
                "bus": "yes",
                "highway": "bus_stop",
                "local_ref": "2;66;73",
                "name": "Улица Трефолева",
                "public_transport": "platform"
            },
            {
                "bench": "yes",
                "bus": "yes",
                "highway": "bus_stop",
                "local_ref": "2;66;73",
                "name": "Огородный переулок",
                "public_transport": "platform",
                "shelter": "yes",
                "tactile_paving": "no"
            },
            {
                "bus": "yes",
                "name": "Огородный переулок",
                "trolleybus": "yes",
                "public_transport": "stop_position"
            },
            {
                "bus": "yes",
                "name": "Улица Трефолева",
                "trolleybus": "yes",
                "public_transport": "stop_position"
            },
            {
                "bus": "yes",
                "name": "Огородный переулок",
                "trolleybus": "yes",
                "public_transport": "stop_position"
            },
            {
                "bus": "yes",
                "highway": "bus_stop",
                "local_ref": "2;66;73",
                "name": "Огородный переулок",
                "public_transport": "platform"
            }
        ]
    },
    "alcohol": {
        "count": 3,
        "detail": [
            {
                "name": "Норман",
                "shop": "alcohol",
                "addr:street": "проспект Стачек",
                "opening_hours": "11:00-22:00",
                "addr:housenumber": "41"
            },
            {
                "addr:housenumber": "28",
                "addr:street": "проспект Стачек",
                "check_date:opening_hours": "2021-04-27",
                "name": "Норман",
                "opening_hours": "Mo-Su 11:00-22:00",
                "shop": "alcohol",
                "wheelchair": "no"
            },
            {
                "name": "РосАл",
                "opening_hours": "24/7",
                "shop": "alcohol"
            }
        ]
    },
    "doctors": {
        "count": 2,
        "detail": [
            {
                "name": "Женская консультация Кировского района",
                "amenity": "doctors"
            },
            {
                "name": "Детская поликлиника №21",
                "amenity": "doctors",
                "building": "yes",
                "old_name": "Ушаковская больница",
                "emergency": "yes",
                "addr:street": "проспект Стачек",
                "building:levels": "3",
                "addr:housenumber": "34 к1",
                "building:architecture": "neoclassicism"
            }
        ]
    },
    "bank": {
        "count": 2,
        "detail": [
            {
                "addr:housenumber": "40",
                "addr:postcode": "198097",
                "addr:street": "проспект Стачек",
                "amenity": "bank",
                "atm": "yes",
                "branch": "Северо-Западный банк",
                "contact:phone": "+7 800 5555550",
                "contact:website": "https://www.sberbank.ru/",
                "name": "Сбербанк",
                "name:en": "Sberbank",
                "name:ru": "Сбербанк",
                "opening_hours": "Mo-Fr 10:00-19:00",
                "operator": "ПАО Сбербанк",
                "operator:wikidata": "Q205012",
                "operator:wikipedia": "ru:Сбербанк России",
                "phone": "+7 812 7864105",
                "ref": "9055/0415",
                "wheelchair": "yes"
            },
            {
                "amenity": "bank",
                "name": "Мособлбанк",
                "opening_hours": "Mo-Fr 09:00-20:00; Sa 10:00-16:00",
                "phone": "+7 812 6556036",
                "website": "https://mosoblbank.ru/"
            }
        ]
    },
    "doityourself": {
        "count": 1,
        "detail": [
            {
                "addr:housenumber": "32",
                "addr:street": "проспект Стачек",
                "name": "ВсеИнструменты.ру",
                "shop": "doityourself"
            }
        ]
    },
    "kindergarten": {
        "count": 4,
        "detail": [
            {
                "name": "Детский сад №49",
                "amenity": "kindergarten",
                "addr:street": "Огородный переулок",
                "official_name": "Детский сад 49",
                "addr:housenumber": "3"
            },
            {
                "building": "kindergarten",
                "addr:street": "улица Трефолева",
                "building:levels": "2",
                "design:code:SPb": "ДС-15",
                "addr:housenumber": "10А"
            },
            {
                "building": "kindergarten",
                "addr:street": "Огородный переулок",
                "building:levels": "2",
                "design:code:SPb": "?",
                "addr:housenumber": "8",
                "building:cladding": "brick"
            },
            {
                "building": "kindergarten",
                "addr:street": "улица Маршала Говорова",
                "building:levels": "2",
                "design:code:SPb": "ДС-33",
                "addr:housenumber": "24 к1"
            }
        ]
    },
    "restaurant": {
        "count": 2,
        "detail": [
            {
                "amenity": "restaurant",
                "contact:vk": "https://vk.com/club10958821",
                "cuisine": "japanese;sushi",
                "name": "Токио-City",
                "name:en": "Tokyo-City",
                "name:ru": "Токио-Сити",
                "opening_hours": "Mo-Th 11:00-24:00; Fr 11:00-01:00; Sa 12:00-01:00; Su 12:00-24:00",
                "payment:maestro": "yes",
                "payment:mastercard": "yes",
                "payment:visa": "yes",
                "phone": "+7 812 3343628",
                "website": "https://www.tokyo-city.ru/"
            },
            {
                "amenity": "restaurant",
                "cuisine": "korean",
                "internet_access": "yes",
                "internet_access:fee": "no",
                "name": "Yimone",
                "name:ko": "이모네",
                "payment:coins": "yes",
                "payment:maestro": "yes",
                "payment:mastercard": "yes",
                "payment:visa": "yes",
                "payment:visa_debit": "yes",
                "payment:visa_electron": "yes",
                "smoking": "no"
            }
        ]
    },
    "library": {
        "count": 1,
        "detail": [
            {
                "amenity": "library"
            }
        ]
    },
    "playground": {
        "count": 6,
        "detail": [
            {
                "leisure": "playground"
            },
            {
                "leisure": "playground"
            },
            {
                "leisure": "playground"
            },
            {
                "leisure": "playground"
            },
            {
                "leisure": "playground",
                "opening_hours": "24/7"
            },
            {
                "leisure": "playground",
                "opening_hours": "24/7"
            }
        ]
    },
    "hunting": {
        "count": 1,
        "detail": [
            {
                "name": "Оружейный двор",
                "shop": "hunting"
            }
        ]
    },
    "university": {
        "count": 1,
        "detail": [
            {
                "name": "Институт Народов Севера заочное отделение",
                "amenity": "university",
                "addr:street": "проспект Стачек",
                "addr:housenumber": "30"
            }
        ]
    },
    "electronics_repair": {
        "count": 1,
        "detail": [
            {
                "name": "Прогресс-Сервис",
                "shop": "electronics_repair"
            }
        ]
    },
    "convenience": {
        "count": 4,
        "detail": [
            {
                "shop": "convenience",
                "opening_hours": "24/7"
            },
            {
                "food": "yes",
                "name": "Продукты",
                "name:ru": "Продукты",
                "opening_hours": "24/7",
                "operator": "ООО УниверсалСтрой",
                "shop": "convenience",
                "wheelchair": "no"
            },
            {
                "name": "Продукты",
                "shop": "convenience",
                "opening_hours": "24/7"
            },
            {
                "shop": "convenience",
                "opening_hours": "24/7"
            }
        ]
    },
    "bakery": {
        "count": 2,
        "detail": [
            {
                "name": "Каравай",
                "shop": "bakery"
            },
            {
                "brand": "Булочные Ф. Вольчека",
                "contact:email": "info@fvolchek.ru",
                "contact:phone": "+7 812 6420638",
                "contact:vk": "f.volchek",
                "contact:website": "http://fvolchek.ru/",
                "name": "Булочная Ф. Вольчека",
                "name:ru": "Булочная Ф. Вольчека",
                "opening_hours": "Mo-Su 08:00-22:00",
                "shop": "bakery"
            }
        ]
    },
    "hardware": {
        "count": 2,
        "detail": [
            {
                "name": "Строй Дом",
                "shop": "hardware"
            },
            {
                "name": "Паркет Двери",
                "shop": "hardware",
                "phone": "+7 921 6546555",
                "website": "http://iq-parket.com",
                "opening_hours": "Mo-Sa 12:00-19:00"
            }
        ]
    },
    "vacuum_cleaner": {
        "count": 1,
        "detail": [
            {
                "name": "Карекс",
                "shop": "vacuum_cleaner"
            }
        ]
    },
    "waste_disposal": {
        "count": 9,
        "detail": [
            {
                "amenity": "waste_disposal"
            },
            {
                "amenity": "waste_disposal"
            },
            {
                "amenity": "waste_disposal"
            },
            {
                "amenity": "waste_disposal"
            },
            {
                "amenity": "waste_disposal"
            },
            {
                "amenity": "waste_disposal"
            },
            {
                "amenity": "waste_disposal"
            },
            {
                "amenity": "waste_disposal"
            },
            {
                "amenity": "waste_disposal"
            }
        ]
    },
    "mobile_phone": {
        "count": 1,
        "detail": [
            {
                "name": "Partner",
                "shop": "mobile_phone"
            }
        ]
    },
    "beauty": {
        "count": 2,
        "detail": [
            {
                "name": "Иера",
                "shop": "beauty",
                "opening_hours": "10:00-21:00"
            },
            {
                "name": "Шер",
                "shop": "beauty"
            }
        ]
    },
    "houseware": {
        "count": 2,
        "detail": [
            {
                "name": "Строй дом",
                "opening_hours": "Mo-Fr 10:00-19:00; Sa 11:00-18:00; Su 11:00-17:00",
                "shop": "houseware"
            },
            {
                "shop": "houseware"
            }
        ]
    },
    "fast_food": {
        "count": 3,
        "detail": [
            {
                "name": "Суши-шоп",
                "amenity": "fast_food"
            },
            {
                "name": "Посиделки",
                "amenity": "fast_food",
                "fast_food": "cafeteria",
                "payment:visa": "yes",
                "opening_hours": "9:00-18:00",
                "payment:maestro": "yes",
                "payment:mastercard": "yes"
            },
            {
                "amenity": "fast_food",
                "fast_food": "cafeteria",
                "payment:visa": "yes",
                "opening_hours": "Mo-Fr 10:00-17:00",
                "payment:maestro": "yes",
                "payment:mastercard": "yes"
            }
        ]
    },
    "florist": {
        "count": 2,
        "detail": [
            {
                "name": "Цветомания",
                "shop": "florist",
                "opening_hours": "24/7"
            },
            {
                "name": "Цветовик",
                "shop": "florist",
                "opening_hours": "24/7"
            }
        ]
    },
    "variety_store": {
        "count": 2,
        "detail": [
            {
                "name": "Эконом-сити",
                "shop": "variety_store"
            },
            {
                "name": "Fix Price",
                "shop": "variety_store"
            }
        ]
    },
    "hairdresser": {
        "count": 4,
        "detail": [
            {
                "name": "Сочи",
                "shop": "hairdresser"
            },
            {
                "shop": "hairdresser"
            },
            {
                "shop": "hairdresser"
            },
            {
                "check_date:opening_hours": "2021-04-27",
                "name": "Том Сойер",
                "opening_hours": "Mo-Su 10:00-22:00",
                "shop": "hairdresser",
                "wheelchair": "no"
            }
        ]
    },
    "fabric": {
        "count": 1,
        "detail": [
            {
                "name": "Швейные машины \"Ладога\"",
                "shop": "fabric"
            }
        ]
    },
    "police": {
        "count": 1,
        "detail": [
            {
                "amenity": "police",
                "name": "Следственное управление",
                "wheelchair": "no"
            }
        ]
    },
    "cafe": {
        "count": 2,
        "detail": [
            {
                "amenity": "cafe"
            },
            {
                "name": "Кабанчик",
                "amenity": "cafe",
                "smoking": "no"
            }
        ]
    },
    "shoes": {
        "count": 1,
        "detail": [
            {
                "name": "ЦентрОбувь",
                "shop": "shoes"
            }
        ]
    },
    "fitness_station": {
        "count": 1,
        "detail": [
            {
                "leisure": "fitness_station"
            }
        ]
    },
    "post_box": {
        "count": 2,
        "detail": [
            {
                "amenity": "post_box",
                "check_date": "2021-04-27",
                "collection_times": "Mo-Sa 08:10",
                "drive_through": "no",
                "indoor": "yes",
                "opening_hours": "Mo-Fr 08:00-20:00; Sa 09:00-13:00,14:00-18:00; Su off",
                "operator": "Почта России",
                "post_box:type": "pillar",
                "ref": "1082"
            },
            {
                "amenity": "post_box",
                "check_date": "2021-04-27",
                "collection_times": "Mo-Su 00:15",
                "drive_through": "no",
                "operator": "Почта России",
                "post_box:design": "soviet",
                "post_box:type": "wall",
                "ref": "1243"
            }
        ]
    },
    "butcher": {
        "count": 2,
        "detail": [
            {
                "name": "Фермер",
                "opening_hours": "Mo-Sa 10:00-21:00; Su 10:00-20:00",
                "shop": "butcher"
            },
            {
                "shop": "butcher"
            }
        ]
    },
    "beverages": {
        "count": 1,
        "detail": [
            {
                "name": "пиf'ko",
                "shop": "beverages",
                "name:en": "пиf'ko",
                "name:ru": "пиf'ko"
            }
        ]
    },
    "atm": {
        "count": 3,
        "detail": [
            {
                "amenity": "atm",
                "operator": "Мособлбанк"
            },
            {
                "amenity": "atm",
                "operator": "Альфа-Банк"
            },
            {
                "amenity": "atm",
                "brand": "Санкт-Петербург",
                "contact:email": "cc@bspb.ru",
                "contact:facebook": "https://www.facebook.com/bspb/",
                "contact:instagram": "https://instagram.com/bank_spb",
                "contact:ok": "https://ok.ru/bspb",
                "contact:phone": "+7 800 2225050;+7 812 3295050",
                "contact:twitter": "https://twitter.com/bank_spb",
                "contact:vk": "https://vk.com/bspb",
                "contact:website": "https://www.bspb.ru/",
                "currency:RUB": "yes",
                "opening_hours": "Mo-Su 09:00-18:00",
                "operator": "ПАО Банк Санкт-Петербург",
                "telegram": "https://t.me/mybspb"
            }
        ]
    },
    "car_parts": {
        "count": 1,
        "detail": [
            {
                "name": "Автозапчасти",
                "shop": "car_parts",
                "website": "http://afora.ru"
            }
        ]
    },
    "dentist": {
        "count": 3,
        "detail": [
            {
                "amenity": "dentist",
                "contact:email": "swedent.k@mail.ru",
                "contact:phone": "+7 812 7466890;+7 812 7472454;+7 911 1762161",
                "contact:website": "https://swedishstom.ru/",
                "name": "Шведская стоматология",
                "name:en": "Swiss stomatology",
                "opening_hours": "Mo-Su 09:30-21:30",
                "operator": "Шведская Стоматология"
            },
            {
                "amenity": "dentist",
                "name": "Мой зубной",
                "opening_hours": "Mo-Su 09:00-21:00",
                "wheelchair": "no"
            },
            {
                "name": "Стоматологическая поликлиника №10",
                "amenity": "dentist",
                "building": "yes",
                "addr:street": "Огородный переулок",
                "building:levels": "3",
                "addr:housenumber": "4 к2"
            }
        ]
    },
    "supermarket": {
        "count": 2,
        "detail": [
            {
                "name": "Дикси",
                "opening_hours": "Mo-Su 09:00-23:00",
                "shop": "supermarket"
            },
            {
                "name": "Магнит у дома",
                "opening_hours": "08:30-22:30",
                "shop": "supermarket"
            }
        ]
    },
    "car_repair": {
        "count": 1,
        "detail": [
            {
                "service": "tyres",
                "shop": "car_repair"
            }
        ]
    },
    "post_office": {
        "count": 1,
        "detail": [
            {
                "amenity": "post_office"
            }
        ]
    },
    "furniture": {
        "count": 1,
        "detail": [
            {
                "name": "Дэфо",
                "shop": "furniture"
            }
        ]
    },
    "bench": {
        "count": 9,
        "detail": [
            {
                "amenity": "bench"
            },
            {
                "amenity": "bench"
            },
            {
                "amenity": "bench"
            },
            {
                "amenity": "bench"
            },
            {
                "amenity": "bench"
            },
            {
                "amenity": "bench"
            },
            {
                "amenity": "bench"
            },
            {
                "amenity": "bench"
            },
            {
                "amenity": "bench"
            }
        ]
    },
    "bicycle_parking": {
        "count": 1,
        "detail": [
            {
                "access": "yes",
                "amenity": "bicycle_parking",
                "bicycle_parking": "wall_loops",
                "capacity": "7",
                "covered": "no",
                "fee": "no"
            }
        ]
    },
    "school": {
        "count": 2,
        "detail": [
            {
                "building": "school",
                "design:ref": "ША",
                "addr:street": "Огородный переулок",
                "addr:postcode": "198097",
                "building:levels": "4",
                "design:code:SPb": "Шк-15_30е",
                "design:modified": "Пристроен спортзал между ризалитами",
                "addr:housenumber": "9",
                "building:cladding": "plaster",
                "building:architecture": "stalinist neoclassicism"
            },
            {
                "addr:housenumber": "50",
                "addr:street": "Турбинная улица",
                "amenity": "school",
                "building": "school",
                "building:cladding": "mdf",
                "building:levels": "4",
                "design:code:SPb": "Шк-16",
                "design:modified": "yes",
                "design:note": "санирован",
                "name": "Вечерняя школа №162"
            }
        ]
    },
    "commercial": {
        "count": 2,
        "detail": [
            {
                "addr:housenumber": "37",
                "addr:letter": "А",
                "addr:street": "проспект Стачек",
                "building": "commercial",
                "building:architecture": "modern",
                "building:levels": "2",
                "description": "Бизнес-центр",
                "old_name": "Дом Е. П. Овсянниковой"
            },
            {
                "addr:housenumber": "29",
                "addr:letter": "А",
                "addr:street": "улица Маршала Говорова",
                "building": "commercial",
                "building:levels": "3",
                "name": "Бизнес-центр \"Командарм\"",
                "roof:shape": "flat"
            }
        ]
    },
    "service": {
        "count": 6,
        "detail": [
            {
                "building": "service",
                "building:levels": "1"
            },
            {
                "building": "service",
                "building:levels": "1"
            },
            {
                "building": "service",
                "building:levels": "1",
                "power": "substation",
                "substation": "minor_distribution"
            },
            {
                "building": "service",
                "building:levels": "1"
            },
            {
                "building": "service",
                "building:levels": "1",
                "power": "substation",
                "substation": "minor_distribution"
            },
            {
                "power": "substation",
                "building": "service",
                "building:levels": "1"
            }
        ]
    }
}