{
    "bus_stop": {
        "count": 12,
        "detail": [
            {
                "bus": "yes",
                "name": "Пражская улица",
                "highway": "bus_stop",
                "shelter": "yes",
                "local_ref": "Автобусы 12,31,91,95. Троллейбусы 35,36(по будням)",
                "public_transport": "platform"
            },
            {
                "bench": "yes",
                "bus": "yes",
                "highway": "bus_stop",
                "local_ref": "Автобусы 12, 31, 91, 95",
                "name": "станция метро «Международная»",
                "public_transport": "platform",
                "shelter": "yes"
            },
            {
                "bench": "yes",
                "bus": "yes",
                "highway": "bus_stop",
                "local_ref": "Автобусы 57,76,116. Троллейбусы 36(по будням),43",
                "name": "улица Белы Куна",
                "public_transport": "platform",
                "share_taxi": "yes",
                "shelter": "yes",
                "tactile_paving": "no",
                "trolleybus": "yes"
            },
            {
                "bus": "yes",
                "name": "улица Белы Куна",
                "public_transport": "stop_position"
            },
            {
                "bus": "yes",
                "highway": "bus_stop",
                "local_ref": "Автобусы 5М(ночной), 5МБ(ночной),29,54,91",
                "name": "станция метро «Международная»",
                "public_transport": "platform",
                "shelter": "yes"
            },
            {
                "bus": "yes",
                "name": "станция метро «Международная»",
                "public_transport": "stop_position"
            },
            {
                "bus": "yes",
                "name": "Пражская улица",
                "public_transport": "stop_position",
                "trolleybus": "yes"
            },
            {
                "bus": "yes",
                "highway": "bus_stop",
                "local_ref": "Автобусы 57,76. Троллейбус 42",
                "name": "улица Белы Куна",
                "public_transport": "platform"
            },
            {
                "highway": "bus_stop",
                "name": "Станция метро «Международная»",
                "public_transport": "platform",
                "trolleybus": "yes"
            },
            {
                "name": "Станция метро «Международная»",
                "public_transport": "stop_position",
                "trolleybus": "yes"
            },
            {
                "bus": "yes",
                "name": "улица Белы Куна",
                "public_transport": "stop_position",
                "trolleybus": "yes"
            },
            {
                "bus": "yes",
                "name": "станция метро «Международная»",
                "public_transport": "stop_position"
            }
        ]
    },
    "residents": 6808,
    "books": {
        "count": 1,
        "detail": [
            {
                "brand": "Буквоед",
                "brand:wikidata": "Q4098549",
                "brand:wikipedia": "ru:Буквоед",
                "name": "Буквоед",
                "shop": "books"
            }
        ]
    },
    "supermarket": {
        "count": 1,
        "detail": [
            {
                "brand": "Магнит",
                "brand:en": "Magnit",
                "brand:wikidata": "Q940518",
                "brand:wikipedia": "ru:Магнит (сеть магазинов)",
                "name": "Магнит",
                "name:de": "Magnit",
                "name:en": "Magnit",
                "name:ru": "Магнит",
                "opening_hours": "Mo-Su 09:00-22:00",
                "phone": "+7 800 2009002",
                "shop": "supermarket",
                "website": "https://magnit-info.ru/"
            }
        ]
    },
    "pharmacy": {
        "count": 4,
        "detail": [
            {
                "amenity": "pharmacy",
                "healthcare": "pharmacy",
                "int_name": "Pervaya Pomosch",
                "name": "Первая Помощь",
                "opening_hours": "24/7"
            },
            {
                "addr:housenumber": "72 к1",
                "addr:street": "Бухарестская улица",
                "amenity": "pharmacy",
                "healthcare": "pharmacy",
                "name": "Озерки",
                "name:ru": "Озерки",
                "opening_hours": "24/7"
            },
            {
                "amenity": "pharmacy",
                "healthcare": "pharmacy",
                "name": "Парус",
                "name:ru": "Парус",
                "opening_hours": "24/7"
            },
            {
                "amenity": "pharmacy",
                "healthcare": "pharmacy",
                "opening_hours": "Mo-Su 09:00-21:00"
            }
        ]
    },
    "bank": {
        "count": 2,
        "detail": [
            {
                "amenity": "bank",
                "atm": "yes",
                "branch": "Северо-Западный банк",
                "brand": "Сбербанк",
                "brand:en": "Sberbank",
                "brand:ru": "Сбербанк",
                "brand:wikidata": "Q205012",
                "brand:wikipedia": "en:Sberbank of Russia",
                "contact:facebook": "https://www.facebook.com/sberbank",
                "contact:instagram": "https://instagram.com/sberbank",
                "contact:ok": "https://ok.ru/sberbank",
                "contact:phone": "+7 800 5555550",
                "contact:twitter": "https://twitter.com/sberbank/",
                "contact:vk": "https://vk.com/sberbank",
                "contact:website": "https://www.sberbank.ru/",
                "contact:youtube": "https://www.youtube.com/sberbank",
                "name": "Сбербанк",
                "name:en": "Sberbank",
                "name:ru": "Сбербанк",
                "opening_hours": "Mo-Fr 10:00-19:00; Sa 10:00-18:00",
                "operator": "ПАО Сбербанк",
                "operator:wikidata": "Q205012",
                "operator:wikipedia": "ru:Сбербанк России",
                "ref": "9055/0679",
                "wheelchair": "no"
            },
            {
                "amenity": "bank",
                "brand": "Альфа-Банк",
                "brand:en": "Alfa-Bank",
                "brand:ru": "Альфа-Банк",
                "brand:wikidata": "Q1377835",
                "brand:wikipedia": "ru:Альфа-банк",
                "contact:phone": "+7 495 7888878",
                "contact:website": "https://alfabank.ru",
                "name": "Альфа-Банк",
                "name:en": "Alfa-Bank",
                "name:ru": "Альфа-Банк",
                "opening_hours": "Mo-Fr 10:00-21:00; Sa 10:00-18:00; Su off",
                "operator": "АО \"Альфа-Банк\"",
                "ref": "0710"
            }
        ]
    },
    "toilets": {
        "count": 1,
        "detail": [
            {
                "fee": "yes",
                "amenity": "toilets",
                "website": "http://www.vodokanal.spb.ru/kanalizovanie/tualety/",
                "operator": "ГУП «Водоканал Санкт-Петербурга»",
                "opening_hours": "09:00-21:00"
            }
        ]
    },
    "convenience": {
        "count": 12,
        "detail": [
            {
                "name": "Продукты",
                "shop": "convenience",
                "opening_hours": "24/7"
            },
            {
                "name": "Продукты",
                "shop": "convenience",
                "owner": "ИП Тарихова",
                "opening_hours": "24/7"
            },
            {
                "name": "Продукты",
                "shop": "convenience",
                "name:ru": "Продукты",
                "opening_hours": "24/7"
            },
            {
                "name": "Продукты",
                "shop": "convenience",
                "owner": "ООО Сава",
                "name:ru": "Продукты",
                "opening_hours": "24/7"
            },
            {
                "name": "Продукты",
                "shop": "convenience",
                "opening_hours": "24/7"
            },
            {
                "name": "Продукты",
                "shop": "convenience",
                "name:ru": "Продукты",
                "operator": "ИП Алиев",
                "opening_hours": "24/7"
            },
            {
                "name": "Продукты",
                "shop": "convenience",
                "name:ru": "Продукты",
                "opening_hours": "24/7"
            },
            {
                "name": "Продукты",
                "shop": "convenience",
                "owner": "ИП Лускова",
                "name:ru": "Продукты"
            },
            {
                "name": "Продукты",
                "shop": "convenience",
                "owner": "ООО Скиф",
                "name:ru": "Продукты",
                "opening_hours": "Mo-Su 08:00-22:00"
            },
            {
                "name": "Продукты",
                "shop": "convenience",
                "name:ru": "Продукты",
                "opening_hours": "24/7"
            },
            {
                "name": "Ермолино",
                "shop": "convenience",
                "opening_hours": "Mo-Su 08:00-22:00"
            },
            {
                "building": "yes",
                "building:levels": "1",
                "description": "Мясо и молочные продукты",
                "name": "Колхоз",
                "name:ru": "Колхоз",
                "shop": "convenience"
            }
        ]
    },
    "greengrocer": {
        "count": 3,
        "detail": [
            {
                "name": "Фрукты-овощи",
                "shop": "greengrocer"
            },
            {
                "shop": "greengrocer"
            },
            {
                "shop": "greengrocer"
            }
        ]
    },
    "beauty": {
        "count": 1,
        "detail": [
            {
                "name": "Визит",
                "shop": "beauty"
            }
        ]
    },
    "police": {
        "count": 2,
        "detail": [
            {
                "name": "Участковый пункт полиции №40",
                "amenity": "police"
            },
            {
                "name": "Участковый пункт полиции",
                "amenity": "police"
            }
        ]
    },
    "bar": {
        "count": 3,
        "detail": [
            {
                "name": "спорт-бар",
                "amenity": "bar"
            },
            {
                "name": "Скорпион",
                "amenity": "bar"
            },
            {
                "amenity": "bar",
                "name:en": "Resto disco bar"
            }
        ]
    },
    "pawnbroker": {
        "count": 1,
        "detail": [
            {
                "name": "Ломбард",
                "shop": "pawnbroker",
                "opening_hours": "24/7"
            }
        ]
    },
    "pub": {
        "count": 1,
        "detail": [
            {
                "amenity": "pub",
                "name": "У Гоши"
            }
        ]
    },
    "post_box": {
        "count": 2,
        "detail": [
            {
                "ref": "411",
                "amenity": "post_box",
                "operator": "Почта России",
                "design:year": "2010",
                "drive_through": "no",
                "post_box:type": "wall",
                "post_box:design": "ЯПНМ-II-С",
                "collection_times": "Mo-Fr 04:55,17:55; Sa-Su 17:55"
            },
            {
                "ref": "392",
                "indoor": "yes",
                "amenity": "post_box",
                "operator": "Почта России",
                "drive_through": "no",
                "opening_hours": "Mo-Fr 08:00-20:00; Sa 09:00-13:00,14:00-18:00; Su off",
                "post_box:type": "pillar",
                "collection_times": "Mo-Sa 08:20"
            }
        ]
    },
    "cafe": {
        "count": 4,
        "detail": [
            {
                "name": "Лорд бургер",
                "amenity": "cafe",
                "cuisine": "cake;burger;local;coffee_shop;tea",
                "opening_hours": "Mo-Su 10:00-21:00"
            },
            {
                "amenity": "cafe",
                "cuisine": "cake;tea",
                "internet_access": "wlan",
                "name": "Чайникофф",
                "opening_hours": "24/7"
            },
            {
                "name": "Стряпуха",
                "amenity": "cafe",
                "opening_hours": "Mo-Fr 08:00-21:00; Sa-Su 09:00-21:00"
            },
            {
                "addr:city": "Санкт-Петербург",
                "addr:housenumber": "72",
                "addr:street": "Бухарестская улица",
                "amenity": "cafe",
                "brand": "Coffee Like",
                "brand:wikidata": "Q55662627",
                "brand:wikipedia": "ru:Coffee Like",
                "cuisine": "coffee_shop",
                "name": "Coffee Like",
                "opening_hours": "Mo-Fr 07:00-21:00; Sa-Su 08:00-21:00",
                "phone": "+7 341 2908292;+7 800 3334130",
                "takeaway": "yes",
                "website": "https://coffee-like.com"
            }
        ]
    },
    "chemist": {
        "count": 1,
        "detail": [
            {
                "name": "Улыбка Радуги",
                "shop": "chemist"
            }
        ]
    },
    "veterinary": {
        "count": 1,
        "detail": [
            {
                "name": "Векта",
                "amenity": "veterinary",
                "name:ru": "Векта"
            }
        ]
    },
    "fast_food": {
        "count": 1,
        "detail": [
            {
                "amenity": "fast_food",
                "brand": "Subway",
                "brand:wikidata": "Q244457",
                "brand:wikipedia": "en:Subway (restaurant)",
                "cuisine": "sandwich",
                "drive_through": "no",
                "name": "Subway",
                "name:en": "Subway",
                "name:ru": "Subway",
                "opening_hours": "Mo-Fr 08:00-23:00; Sa-Su 10:00-23:00",
                "takeaway": "yes"
            }
        ]
    },
    "atm": {
        "count": 1,
        "detail": [
            {
                "amenity": "atm",
                "operator": "Альфа-Банк",
                "opening_hours": "24/7"
            }
        ]
    },
    "florist": {
        "count": 2,
        "detail": [
            {
                "name": "Цветы",
                "shop": "florist",
                "name:ru": "Цветы",
                "opening_hours": "24/7"
            },
            {
                "name": "Цветы",
                "shop": "florist"
            }
        ]
    },
    "mobile_phone": {
        "count": 1,
        "detail": [
            {
                "brand": "Tele2",
                "brand:wikidata": "Q309865",
                "brand:wikipedia": "en:Tele2",
                "name": "Tele2",
                "shop": "mobile_phone"
            }
        ]
    },
    "bakery": {
        "count": 1,
        "detail": [
            {
                "name": "Лавка Пекаря",
                "shop": "bakery"
            }
        ]
    },
    "bureau_de_change": {
        "count": 1,
        "detail": [
            {
                "name": "Заубер Банк",
                "amenity": "bureau_de_change",
                "opening_hours": "Mo-Su 09:30-20:30"
            }
        ]
    },
    "waste_disposal": {
        "count": 1,
        "detail": [
            {
                "amenity": "waste_disposal"
            }
        ]
    },
    "wine": {
        "count": 1,
        "detail": [
            {
                "name": "Ароматный мир",
                "shop": "wine",
                "opening_hours": "Mo-Su 10:00-22:00"
            }
        ]
    },
    "cosmetics": {
        "count": 2,
        "detail": [
            {
                "shop": "cosmetics",
                "name:en": "Citrus",
                "opening_hours": "Mo-Su 10:00-21:00"
            },
            {
                "shop": "cosmetics",
                "opening_hours": "Mo-Su 10:00-22:00"
            }
        ]
    },
    "medical_supply": {
        "count": 2,
        "detail": [
            {
                "brand": "Ортека",
                "brand:wikidata": "Q62393660",
                "contact:email": "info@orteka.ru",
                "contact:facebook": "https://www.facebook.com/orteka.rus",
                "contact:instagram": "https://www.instagram.com/orteka_rus/",
                "contact:phone": "+7 800 3333112",
                "contact:vk": "https://vk.com/orteka_ru",
                "contact:website": "https://orteka.ru/salon/orteka-mezhdunarodnaya.php",
                "name": "Ортека",
                "opening_hours": "Mo-Su 10:00-21:00",
                "operator": "НИКАМЕД",
                "shop": "medical_supply"
            },
            {
                "contact:email": "spbnugabest@mail.ru",
                "contact:phone": "+7 812 4492560;+7 939 0040895",
                "contact:website": "https://nugabest.ru/",
                "name": "Нуга Бест",
                "opening_hours": "Tu-Sa 09:00-14:00,15:00-18:00",
                "operator": "Нуга Бест",
                "shop": "medical_supply"
            }
        ]
    },
    "pet": {
        "count": 1,
        "detail": [
            {
                "name": "Паучок",
                "shop": "pet",
                "email": "perscat@mail.ru",
                "phone": "+7 952 2695750",
                "amenity": "veterinary",
                "name:ru": "Паучок",
                "website": "http://zoopauchok.ru/",
                "opening_hours": "Mo-Sa 10:00-21:00; Su 11:00-21:00"
            }
        ]
    },
    "variety_store": {
        "count": 1,
        "detail": [
            {
                "brand": "Fix Price",
                "brand:wikidata": "Q4038791",
                "brand:wikipedia": "ru:Fix Price (сеть магазинов)",
                "level": "1",
                "name": "Fix Price",
                "shop": "variety_store",
                "website": "https://fix-price.ru/"
            }
        ]
    },
    "hairdresser": {
        "count": 1,
        "detail": [
            {
                "name": "Леди",
                "opening_hours": "Mo-Su 10:00-22:00",
                "phone": "+7 812 7063545",
                "shop": "hairdresser",
                "website": "https://lady-rf.ru/salony/bely-kuna-ul-13/"
            }
        ]
    },
    "kindergarten": {
        "count": 4,
        "detail": [
            {
                "height": "8",
                "building": "kindergarten",
                "addr:city": "Санкт-Петербург",
                "design:ref": "2С-04-3",
                "addr:street": "улица Белы Куна",
                "addr:country": "RU",
                "building:levels": "2",
                "addr:housenumber": "9 к2",
                "building:cladding": "panel"
            },
            {
                "height": "8",
                "building": "kindergarten",
                "addr:city": "Санкт-Петербург",
                "design:ref": "2С-04-3",
                "addr:street": "улица Белы Куна",
                "addr:country": "RU",
                "building:levels": "2",
                "addr:housenumber": "20 к4",
                "building:cladding": "panel"
            },
            {
                "building": "kindergarten",
                "addr:street": "Бухарестская улица",
                "building:levels": "2",
                "design:code:SPb": "ДС-20",
                "addr:housenumber": "68 к3",
                "source:building:levels": "serial features"
            },
            {
                "height": "8",
                "building": "kindergarten",
                "design:ref": "2С-04-3",
                "addr:street": "Бухарестская улица",
                "building:levels": "2",
                "addr:housenumber": "72 к3",
                "building:cladding": "panel"
            }
        ]
    },
    "mall": {
        "count": 2,
        "detail": [
            {
                "name": "ТК \"Международный\"",
                "shop": "mall",
                "building": "store",
                "design:ref": "2-528К-М",
                "addr:letter": "А",
                "addr:street": "Бухарестская улица",
                "building:levels": "2",
                "internet_access": "wlan",
                "addr:housenumber": "74"
            },
            {
                "name": "ТК \"Международный\"",
                "shop": "mall",
                "building": "yes",
                "addr:letter": "А",
                "addr:street": "Бухарестская улица",
                "opening_hours": "Mo-Su 10:00-21:00",
                "building:levels": "3",
                "addr:housenumber": "74 к3"
            }
        ]
    },
    "commercial": {
        "count": 3,
        "detail": [
            {
                "addr:housenumber": "16 литГ",
                "addr:street": "улица Белы Куна",
                "building": "commercial",
                "building:levels": "2"
            },
            {
                "building": "commercial",
                "addr:street": "улица Белы Куна",
                "building:levels": "2",
                "addr:housenumber": "16 к4 литБ"
            },
            {
                "building": "commercial",
                "addr:street": "улица Белы Куна",
                "building:levels": "2",
                "addr:housenumber": "16 к4 литА"
            }
        ]
    },
    "service": {
        "count": 6,
        "detail": [
            {
                "power": "substation",
                "building": "service"
            },
            {
                "power": "substation",
                "building": "service"
            },
            {
                "power": "substation",
                "building": "service",
                "building:levels": "1"
            },
            {
                "building": "service",
                "building:levels": "1"
            },
            {
                "power": "substation",
                "building": "service"
            },
            {
                "building": "service"
            }
        ]
    }
}