{
    "residents": 7938,
    "waste_disposal": {
        "count": 7,
        "detail": [
            {
                "amenity": "waste_disposal"
            },
            {
                "amenity": "waste_disposal"
            },
            {
                "amenity": "waste_disposal"
            },
            {
                "amenity": "waste_disposal"
            },
            {
                "waste": "trash",
                "amenity": "waste_disposal"
            },
            {
                "amenity": "waste_disposal"
            },
            {
                "amenity": "waste_disposal"
            }
        ]
    },
    "supermarket": {
        "count": 4,
        "detail": [
            {
                "name": "Бриз",
                "shop": "supermarket",
                "opening_hours": "24/7"
            },
            {
                "brand": "Дикси",
                "brand:en": "Dixy",
                "brand:wikidata": "Q4161561",
                "brand:wikipedia": "ru:Дикси (сеть магазинов)",
                "contact:phone": "+7 800 3330201",
                "contact:vk": "https://vk.com/dixyclub",
                "contact:youtube": "https://www.youtube.com/user/DixyChannel",
                "name": "Дикси",
                "name:ru": "Дикси",
                "opening_hours": "09:00-23:00",
                "shop": "supermarket",
                "website": "https://dixy.ru/"
            },
            {
                "brand": "Дикси",
                "brand:en": "Dixy",
                "brand:wikidata": "Q4161561",
                "brand:wikipedia": "ru:Дикси (сеть магазинов)",
                "contact:phone": "+7 800 3330201",
                "contact:vk": "https://vk.com/dixyclub",
                "contact:youtube": "https://www.youtube.com/user/DixyChannel",
                "name": "Дикси",
                "name:ru": "Дикси",
                "opening_hours": "24/7",
                "shop": "supermarket",
                "website": "https://dixy.ru/"
            },
            {
                "brand": "Дикси",
                "brand:en": "Dixy",
                "brand:wikidata": "Q4161561",
                "brand:wikipedia": "ru:Дикси (сеть магазинов)",
                "contact:phone": "+7 800 3330201",
                "contact:vk": "https://vk.com/dixyclub",
                "contact:youtube": "https://www.youtube.com/user/DixyChannel",
                "name": "Дикси",
                "name:ru": "Дикси",
                "opening_hours": "09:00-23:00",
                "shop": "supermarket",
                "website": "https://dixy.ru/"
            }
        ]
    },
    "bicycle": {
        "count": 2,
        "detail": [
            {
                "bicycle": "no",
                "email": "info@velo-avtovo.ru",
                "name": "Велоцентр Автово",
                "name:ru": "Велоцентр Автово",
                "opening_hours": "Mo-Su 11:00-19:00",
                "operator": "ИП Иванов Николай Владимирович",
                "phone": "+7 812 3097865",
                "shop": "bicycle",
                "website": "https://xn--b1agaxleqp7a.xn--p1ai/",
                "wheelchair": "no"
            },
            {
                "name": "Антошка",
                "shop": "bicycle",
                "description": "Детские велосипеды"
            }
        ]
    },
    "alcohol": {
        "count": 4,
        "detail": [
            {
                "name": "Норман",
                "shop": "alcohol",
                "opening_hours": "11:00-22:00"
            },
            {
                "brand": "Красное & Белое",
                "brand:en": "Red & White",
                "brand:wikidata": "Q24933790",
                "brand:wikipedia": "en:Krasnoe & Beloe",
                "name": "Красное & Белое",
                "name:en": "Red & White",
                "name:ru": "Красное & Белое",
                "opening_hours": "Mo-Su 09:00-22:05",
                "shop": "alcohol"
            },
            {
                "name": "Винлаб",
                "shop": "alcohol",
                "opening_hours": "Mo-Su 10:00-22:00"
            },
            {
                "brand": "Красное & Белое",
                "brand:en": "Red & White",
                "brand:wikidata": "Q24933790",
                "brand:wikipedia": "en:Krasnoe & Beloe",
                "name": "Красное & Белое",
                "name:en": "Red & White",
                "opening_hours": "Mo-Su 09:00-22:05",
                "shop": "alcohol"
            }
        ]
    },
    "cafe": {
        "count": 2,
        "detail": [
            {
                "name": "I love kebab",
                "amenity": "cafe",
                "addr:city": "Санкт-Петербург",
                "addr:street": "Краснопутиловская улица",
                "addr:postcode": "198152",
                "opening_hours": "24/7",
                "addr:housenumber": "21"
            },
            {
                "name": "Sofa & Par",
                "phone": "+7 812 9266367",
                "amenity": "cafe",
                "cuisine": "regional;steak;pasta;japanese;sushi;kebab",
                "website": "http://sofapar.ru",
                "delivery": "yes",
                "opening_hours": "Su-Fr 12:30-03:00; Fr-Sa, PH 12:30-04:00"
            }
        ]
    },
    "hairdresser": {
        "count": 2,
        "detail": [
            {
                "name": "Лио",
                "shop": "hairdresser",
                "opening_hours": "Mo-Su 10:00-20:00"
            },
            {
                "shop": "hairdresser"
            }
        ]
    },
    "tyres": {
        "count": 1,
        "detail": [
            {
                "name": "Невашинторг",
                "shop": "tyres"
            }
        ]
    },
    "pharmacy": {
        "count": 1,
        "detail": [
            {
                "amenity": "pharmacy",
                "healthcare": "pharmacy",
                "name": "Рецепт здоровья",
                "opening_hours": "24/7"
            }
        ]
    },
    "outdoor": {
        "count": 1,
        "detail": [
            {
                "name": "Рыболов",
                "shop": "outdoor",
                "leisure": "fishing",
                "wheelchair": "no",
                "opening_hours": "Mo-Sa 10:00-20:00, Su 10:00-17:00"
            }
        ]
    },
    "convenience": {
        "count": 3,
        "detail": [
            {
                "name": "Фруктовый рай",
                "shop": "convenience",
                "opening_hours": "24/7"
            },
            {
                "name": "Продукты",
                "shop": "convenience",
                "opening_hours": "08:00-24:00"
            },
            {
                "name": "Продукты",
                "shop": "convenience",
                "opening_hours": "24/7"
            }
        ]
    },
    "bus_stop": {
        "count": 14,
        "detail": [
            {
                "bus": "yes",
                "highway": "bus_stop",
                "local_ref": "66;72;111",
                "name": "Улица Зенитчиков",
                "public_transport": "platform"
            },
            {
                "bus": "yes",
                "highway": "bus_stop",
                "local_ref": "66;72",
                "name": "Улица Зайцева",
                "public_transport": "platform"
            },
            {
                "bus": "yes",
                "highway": "bus_stop",
                "local_ref": "66;72",
                "name": "Улица Зенитчиков",
                "public_transport": "platform"
            },
            {
                "bus": "yes",
                "name": "Улица Зенитчиков",
                "public_transport": "stop_position"
            },
            {
                "bus": "yes",
                "name": "Улица Зайцевых",
                "public_transport": "stop_position"
            },
            {
                "bus": "yes",
                "highway": "bus_stop",
                "local_ref": "66;72",
                "name": "Улица Зайцева",
                "public_transport": "platform"
            },
            {
                "bus": "yes",
                "name": "Улица Зенитчиков",
                "public_transport": "stop_position"
            },
            {
                "bus": "yes",
                "name": "Улица Зайцева",
                "public_transport": "stop_position"
            },
            {
                "bench": "yes",
                "bin": "yes",
                "bus": "yes",
                "highway": "bus_stop",
                "local_ref": "72",
                "name": "Автовская улица",
                "public_transport": "platform",
                "shelter": "yes"
            },
            {
                "bus": "yes",
                "name": "Автовская улица",
                "public_transport": "stop_position"
            },
            {
                "bus": "yes",
                "highway": "bus_stop",
                "local_ref": "73",
                "name": "Краснопутиловская улица",
                "public_transport": "platform"
            },
            {
                "bus": "yes",
                "name": "Краснопутиловская улица",
                "public_transport": "stop_position"
            },
            {
                "bench": "yes",
                "bus": "yes",
                "highway": "bus_stop",
                "local_ref": "73",
                "name": "Краснопутиловская улица",
                "public_transport": "platform",
                "shelter": "yes"
            },
            {
                "bus": "yes",
                "name": "Краснопутиловская улица",
                "public_transport": "stop_position"
            }
        ]
    },
    "motorcycle": {
        "count": 1,
        "detail": [
            {
                "name": "Скутерман",
                "shop": "motorcycle",
                "phone": "+7 812 9284048"
            }
        ]
    },
    "florist": {
        "count": 2,
        "detail": [
            {
                "name": "L flowers",
                "shop": "florist"
            },
            {
                "name": "Цветоптторг",
                "shop": "florist",
                "name:ru": "Цветоптторг"
            }
        ]
    },
    "restaurant": {
        "count": 1,
        "detail": [
            {
                "name": "Ретрохолл",
                "amenity": "restaurant"
            }
        ]
    },
    "car_parts": {
        "count": 1,
        "detail": [
            {
                "shop": "car_parts"
            }
        ]
    },
    "library": {
        "count": 1,
        "detail": [
            {
                "name": "Библиотека №2 Централизованной библиотечной системы Кировского района",
                "amenity": "library",
                "opening_hours": "Mo-Fr 10:00-20:00; Su 10:00-18:00; Sa off"
            }
        ]
    },
    "beauty": {
        "count": 1,
        "detail": [
            {
                "shop": "beauty"
            }
        ]
    },
    "measuring_equipment;radiotechnics": {
        "count": 1,
        "detail": [
            {
                "name": "Радиоизмерительные приборы",
                "shop": "measuring_equipment;radiotechnics",
                "email": "info@radar1.ru",
                "phone": "+7 812 6004889",
                "website": "http://radar1.ru",
                "operator": "ЗАО \"Радар\"",
                "opening_hours": "Mo-Fr 9:15-18:00; Fr 9:15-15:30"
            }
        ]
    },
    "pet": {
        "count": 1,
        "detail": [
            {
                "name": "Ёжкин Кот",
                "shop": "pet",
                "phone": "+7 812 7831739",
                "website": "https://yokot.ru/",
                "opening_hours": "Mo-Fr 10:00 - 21:00; Sa-Su 10:00-20:00"
            }
        ]
    },
    "community_centre": {
        "count": 1,
        "detail": [
            {
                "name": "Подростковый клуб \"Заря\"",
                "amenity": "community_centre"
            }
        ]
    },
    "hardware": {
        "count": 1,
        "detail": [
            {
                "shop": "hardware"
            }
        ]
    },
    "theatre": {
        "count": 1,
        "detail": [
            {
                "amenity": "theatre",
                "email": "children-ballet@yandex.ru",
                "name": "Театр детского балета",
                "opening_hours": "Mo-Fr 10:00-18:00",
                "operator": "СПбГБУ «Театр детского балета»",
                "phone": "+7 812 7846203",
                "ref:mkrf_theaters": "13006",
                "website": "http://www.children-ballet.ru/"
            }
        ]
    },
    "scooter": {
        "count": 1,
        "detail": [
            {
                "name": "Самокат СПб",
                "opening_hours": "11:00-20:00",
                "shop": "scooter",
                "website": "https://samokat-spb.ru/"
            }
        ]
    },
    "vending_machine": {
        "count": 1,
        "detail": [
            {
                "amenity": "vending_machine",
                "contact:phone": "+7 800 7753553",
                "contact:website": "http://omnicdek.com/",
                "name": "ОмниСДЭК",
                "opening_hours": "Mo-Su 10:00-22:00",
                "ref": "6235",
                "vending": "parcel_pickup"
            }
        ]
    },
    "sauna": {
        "count": 1,
        "detail": [
            {
                "name": "Бани №69 Кировского района",
                "leisure": "sauna",
                "building": "yes",
                "addr:street": "улица Зайцева",
                "building:levels": "5",
                "addr:housenumber": "15"
            }
        ]
    },
    "school": {
        "count": 1,
        "detail": [
            {
                "name": "Школа №386",
                "amenity": "school",
                "building": "school",
                "addr:street": "улица Зайцева",
                "building:levels": "4",
                "design:code:SPb": "Шк-10",
                "addr:housenumber": "14",
                "building:architecture": "stalinist neoclassicism"
            }
        ]
    },
    "kindergarten": {
        "count": 3,
        "detail": [
            {
                "building": "kindergarten",
                "addr:street": "улица Зайцева",
                "building:levels": "2",
                "design:code:SPb": "ДС-15",
                "addr:housenumber": "7 к2"
            },
            {
                "building": "kindergarten",
                "addr:street": "Краснопутиловская улица",
                "building:levels": "2",
                "design:code:SPb": "ДС-10",
                "addr:housenumber": "17"
            },
            {
                "building": "kindergarten",
                "addr:city": "Санкт-Петербург",
                "addr:street": "проспект Стачек",
                "addr:country": "RU",
                "addr:postcode": "198096",
                "building:levels": "2",
                "design:code:SPb": "ДС-33",
                "addr:housenumber": "82 к2",
                "building:architecture": "constructivism"
            }
        ]
    },
    "service": {
        "count": 1,
        "detail": [
            {
                "building": "service"
            }
        ]
    }
}