{
    "residents": 6298,
    "bar": {
        "count": 9,
        "detail": [
            {
                "amenity": "bar",
                "contact:vk": "https://vk.com/barspb_official",
                "name": "SПБ",
                "opening_hours": "Su-Th 12:00-01:00, Fr-Sa 12:00-05:00",
                "phone": "+7 812 3353316",
                "website": "http://www.barspb.ru/"
            },
            {
                "amenity": "bar",
                "contact:vk": "https://vk.com/vtd_spb",
                "internet_access": "wlan",
                "name": "Все твои друзья"
            },
            {
                "amenity": "bar",
                "name": "Craft Beer Shop"
            },
            {
                "amenity": "bar",
                "contact:vk": "https://vk.com/everydogbar",
                "name": "Every Dog Bar"
            },
            {
                "alt_name": "КиллФиш",
                "amenity": "bar",
                "contact:vk": "https://vk.com/killfishbar",
                "cuisine": "sushi",
                "name": "KillFish",
                "opening_hours": "Mo-Su 12:00-03:00",
                "operator": "ООО «НГБ Ваян»",
                "phone": "+7 812 4480800",
                "website": "https://killfish.ru/"
            },
            {
                "amenity": "bar",
                "contact:vk": "https://vk.com/koraduba_bar",
                "name": "KoraDuba",
                "opening_hours": "Mo-Fr 11:00-23:00, Sa-Su,PH 12:00-01:00",
                "website": "http://koraduba.com/"
            },
            {
                "name": "Вознесенский 13",
                "amenity": "bar",
                "website": "http://bar-voznesenskiy.ru/",
                "operator": "ООО \"Карле\"",
                "contact:vk": "https://vk.com/voznesenskiy13",
                "opening_hours": "Su-Th 11:00-01:00, Fr-Sa 11:00-03:00"
            },
            {
                "name": "Мясная лавка",
                "amenity": "bar",
                "website": "https://m-lvk.ru/",
                "contact:vk": "https://vk.com/m_lavka"
            },
            {
                "addr:housenumber": "16/4",
                "addr:street": "Столярный переулок",
                "amenity": "bar",
                "cuisine": "russian",
                "email": "pechorinbar@gagara.biz",
                "internet_access": "wlan",
                "name": "Петербургский бар «Печоринъ»",
                "name:en": "St.Petersburg bar Pechorin",
                "opening_hours": "We-Su 18:00-01:00",
                "phone": "+78129643040",
                "website": "http://pechorinbar.ru"
            }
        ]
    },
    "restaurant": {
        "count": 19,
        "detail": [
            {
                "amenity": "restaurant",
                "contact:vk": "https://vk.com/iloverim",
                "level": "-0.5",
                "name": "Рим",
                "website": "http://www.restorimspb.ru/",
                "wheelchair": "no"
            },
            {
                "name": "1913 год",
                "amenity": "restaurant",
                "website": "http://www.restaurant-1913.spb.ru/",
                "opening_hours": "Su-Th 12:00-24:00, Fr-Sa 12:00-01:00"
            },
            {
                "name": "Тесто",
                "amenity": "restaurant",
                "cuisine": "italian",
                "website": "http://www.testogastronomica.ru/",
                "operator": "ООО \"Дендр\"",
                "opening_hours": "12:00-24:00"
            },
            {
                "amenity": "restaurant",
                "name": "Апшерон",
                "opening_hours": "24/7",
                "operator": "ООО \"Вога\"",
                "website": "http://apsheron-kafe.ru/"
            },
            {
                "amenity": "restaurant",
                "cuisine": "chinese",
                "name": "Цзао Ван",
                "name:zh": "灶王餐館",
                "note": "скорее всего не относится к chinacook.ru",
                "opening_hours": "Mo-Su 12:00-24:00",
                "operator": "徐敏菊",
                "phone": "+7 812 5716921"
            },
            {
                "addr:housenumber": "39/41",
                "addr:street": "Садовая улица",
                "amenity": "restaurant",
                "contact:facebook": "https://www.facebook.com/hochuharcho",
                "cuisine": "georgian",
                "internet_access": "wlan",
                "name": "Хочу харчо",
                "name:en": "Hochu Harcho",
                "name:ru": "Хочу харчо",
                "opening_hours": "24/7",
                "outdoor_seating": "no",
                "phone": "+7 812 6401616",
                "website": "https://ginza.ru/spb/restaurant/hochu_harcho"
            },
            {
                "amenity": "restaurant",
                "contact:vk": "https://vk.com/severyanin_project",
                "cuisine": "russian",
                "email": "9516396@gmail.com",
                "internet_access": "wlan",
                "name": "Северянин",
                "phone": "+7 921 9516396",
                "website": "https://www.severyanin.me/"
            },
            {
                "amenity": "restaurant",
                "contact:vk": "https://vk.com/toscanagrill",
                "cuisine": "italian",
                "name": "Toscana grill",
                "opening_hours": "12:00-24:00",
                "website": "http://toscanagrill.ru/"
            },
            {
                "alt_name": "Чуань сян",
                "amenity": "restaurant",
                "name": "Чуансян",
                "opening_hours": "11:00-23:00"
            },
            {
                "name": "Аллегро",
                "phone": "+7 812 3159445",
                "phone2": "+7 964 3847170",
                "phone3": "+7 812 3149960",
                "amenity": "restaurant",
                "website": "http://allegrorest.ru/",
                "contact:vk": "https://vk.com/banketsol",
                "opening_hours": "Mo-Su,PH 11:30-22:30 open; 22:30-23:30 open \"bar only\""
            },
            {
                "alt_name": "Едимруками",
                "amenity": "restaurant",
                "contact:vk": "https://vk.com/edimrukami",
                "name": "Едим руками",
                "note": "возможно не работает",
                "opening_hours": "12:00-01:00",
                "website": "http://ginza.ru/spb/restaurant/edimrukami"
            },
            {
                "addr:housenumber": "54",
                "addr:street": "набережная канала Грибоедова",
                "amenity": "restaurant",
                "name": "Charlie",
                "opening_hours": "Mo-Th 09:00-23:00; Fr 09:00-02:00; Sa 10:00-02:00; Su 10:00-23:00",
                "phone": "+7 911 9260012",
                "website": "https://www.charlie-charlie.ru/"
            },
            {
                "amenity": "restaurant",
                "contact:vk": "https://vk.com/hochushashlik",
                "cuisine": "kebab",
                "name": "Хочу шашлык"
            },
            {
                "amenity": "restaurant",
                "internet_access": "wlan",
                "name": "Laboratoria Distilita"
            },
            {
                "amenity": "restaurant",
                "contact:vk": "https://vk.com/ukusno",
                "cuisine": "balkan",
                "internet_access": "wlan",
                "name": "Ukusno",
                "opening_hours": "Su-Th 12:00-23:00; Fr-Sa 12:00-01:00",
                "phone": "+7 931 5857179",
                "website": "https://vk.com/ukusno"
            },
            {
                "amenity": "restaurant",
                "name:en": "Juno"
            },
            {
                "amenity": "restaurant",
                "cuisine": "italian_pizza",
                "name:en": "oversize pizza",
                "website": "https://oversize.pizza/"
            },
            {
                "addr:city": "Санкт-Петербург",
                "addr:housenumber": "15",
                "addr:street": "Вознесенский проспект",
                "amenity": "restaurant",
                "cuisine": "Корейская",
                "name": "Сонг-Хак",
                "opening_hours": "Mo-Su 11:00-22:00",
                "phone": "+79313975947",
                "website": "https://www.instagram.com/songhak_koreanfood"
            },
            {
                "amenity": "restaurant",
                "contact:instagram": "https://instagram.com/ezogroup",
                "contact:phone": "+7 812 9113411",
                "name": "Ezo",
                "opening_hours": "Mo-Su 12:00-23:00",
                "operator": "Ezo"
            }
        ]
    },
    "fast_food": {
        "count": 11,
        "detail": [
            {
                "amenity": "fast_food",
                "brand": "Hesburger",
                "brand:wikidata": "Q1276832",
                "brand:wikipedia": "en:Hesburger",
                "contact:vk": "https://vk.com/hesburger_russia",
                "cuisine": "burger",
                "email": "sn.spb@hesburger.org",
                "internet_access": "wlan",
                "int_name": "Hesburger",
                "name": "Хесбургер",
                "name:en": "Hesburger",
                "opening_hours": "Su-Th 08:00-23:00, Fr-Sa 08:00-04:00",
                "operator": "ИП Кучеренко О.В.",
                "payment:cash": "yes",
                "payment:mastercard": "yes",
                "payment:visa": "yes",
                "phone": "+7 812 6779609",
                "takeaway": "yes",
                "website": "https://www.hesburger.ru/260?tid=1230"
            },
            {
                "amenity": "fast_food",
                "contact:vk": "https://vk.com/ollisclub",
                "cuisine": "pizza",
                "name": "Ollis Club",
                "opening_hours": "11:00-23:00",
                "website": "https://www.ollis.ru/restaurants/kazanskaya"
            },
            {
                "amenity": "fast_food",
                "fast_food": "cafeteria",
                "name": "Ложка",
                "opening_hours": "Mo-Su 09:00-21:00",
                "operator": "ООО \"Ярко\"",
                "wheelchair": "no"
            },
            {
                "name": "Уют",
                "amenity": "fast_food",
                "fast_food": "cafeteria",
                "opening_hours": "10:00-20:00"
            },
            {
                "amenity": "fast_food",
                "contact:vk": "https://vk.com/taiyakicafe",
                "cuisine": "japanese",
                "name": "Тайяки",
                "name:en": "Taiyaki",
                "name:ja": "たいやき",
                "opening_hours": "Su-Th 11:00-21:00; Fr-Sa 11:00-22:00",
                "website": "http://taiyakicafe.ru/"
            },
            {
                "amenity": "fast_food",
                "contact:vk": "https://vk.com/leoncoffeespb",
                "cuisine": "coffee_shop",
                "level": "-1",
                "name": "Leon Coffee"
            },
            {
                "amenity": "fast_food",
                "contact:vk": "https://vk.com/jolywoo",
                "cuisine": "vietnamese; noodle",
                "delivery": "yes",
                "diet:vegetarian": "yes",
                "internet_access": "wlan",
                "level": "0",
                "name": "Joly Woo",
                "opening_hours": "11:00-23:00",
                "operator": "ООО «Джоли Ву Садовая»",
                "takeaway": "yes",
                "toilets": "yes",
                "website": "https://jolywoo.com/",
                "wheelchair": "no"
            },
            {
                "amenity": "fast_food",
                "brand": "Subway",
                "brand:wikidata": "Q244457",
                "brand:wikipedia": "en:Subway (restaurant)",
                "contact:email": "subway@subway.ru",
                "contact:vk": "https://vk.com/subwayrussia",
                "contact:website": "http://subway.ru/",
                "cuisine": "sandwich",
                "name": "Subway",
                "name:en": "Subway",
                "opening_hours": "24/7",
                "takeaway": "yes"
            },
            {
                "amenity": "fast_food",
                "cuisine": "pita",
                "name": "питас бург"
            },
            {
                "amenity": "fast_food",
                "contact:vk": "https://vk.com/coffeetherapists",
                "cuisine": "coffee_shop",
                "name": "Coffee Therapy",
                "website": "http://coffeetherapy.ru/"
            },
            {
                "amenity": "fast_food",
                "cuisine": "gyros",
                "name": "Sparta gyros"
            }
        ]
    },
    "cafe": {
        "count": 40,
        "detail": [
            {
                "amenity": "cafe",
                "brand": "Starbucks",
                "brand:wikidata": "Q37158",
                "brand:wikipedia": "en:Starbucks",
                "contact:vk": "https://vk.com/starbucks",
                "cuisine": "coffee_shop",
                "internet_access": "wlan",
                "level": "0",
                "name": "Starbucks",
                "official_name": "Starbucks Coffee",
                "opening_hours": "Mo-Fr 07:30-22:00; Sa-Su 08:30-22:00",
                "operator": "ООО «Кофе Сирена»",
                "takeaway": "yes",
                "toilets:wheelchair": "yes",
                "website": "https://www.starbucks.ru/store/1023954",
                "wheelchair": "no"
            },
            {
                "amenity": "cafe",
                "contact:vk": "https://vk.com/schumli",
                "int_name": "Schumli",
                "name": "Шумли",
                "website": "https://www.schumli.ru/"
            },
            {
                "amenity": "cafe",
                "name": "Allegro",
                "note": "возможно вместе с рестораном",
                "opening_hours": "11:00-23:00",
                "operator": "ООО «Карина»"
            },
            {
                "amenity": "cafe",
                "contact:vk": "https://vk.com/pashtetfoodandwine",
                "cuisine": "mediterranean;deli;international",
                "name": "Паштет",
                "opening_hours": "Su-Th 11:30-23:30, Fr-Sa 11:30-01:00",
                "website": "http://pashtetspb.ru/"
            },
            {
                "amenity": "cafe",
                "name": "Обед-сервис"
            },
            {
                "amenity": "cafe",
                "name": "Алазани",
                "website": "http://alazani-spb.ru/"
            },
            {
                "amenity": "cafe",
                "contact:instagram": "https://www.instagram.com/coffitspb/",
                "contact:vk": "https://vk.com/coffitspb",
                "name": "Coffit",
                "opening_hours": "08:00-23:00",
                "operator": "ООО «Коффит-1»",
                "website": "http://www.coffit.spb.ru/"
            },
            {
                "amenity": "cafe",
                "name": "Stolov-ka",
                "opening_hours": "Mo-Fr 08:00-23:00; Sa-Su 09:00-23:00",
                "wheelchair": "no"
            },
            {
                "name": "Столовая Ложка",
                "amenity": "cafe"
            },
            {
                "amenity": "cafe",
                "name": "Шаверма Хаус"
            },
            {
                "amenity": "cafe",
                "name": "Аъло",
                "website": "http://alo-halol.ru/"
            },
            {
                "amenity": "cafe",
                "contact:vk": "https://vk.com/teaumii",
                "name": "TeaUmii",
                "website": "https://teaumii.business.site/"
            },
            {
                "amenity": "cafe",
                "name": "Пирогоф",
                "website": "http://www.pirogof.com/"
            },
            {
                "name": "Check Point",
                "amenity": "cafe",
                "cuisine": "coffee_shop",
                "contact:vk": "https://vk.com/checkpointcafe"
            },
            {
                "name": "Фергана",
                "amenity": "cafe",
                "toilets": "yes"
            },
            {
                "amenity": "cafe",
                "contact:instagram": "https://www.instagram.com/ferma.cafe.sadovaya/",
                "contact:vk": "https://vk.com/fermacafe",
                "cuisine": "cake",
                "level": "0",
                "name": "FermA",
                "opening_hours": "10:00-23:00",
                "operator": "ООО «М-Промо»",
                "phone": "+7 812 6430400",
                "website": "https://white-group.ru/restaurants/view/konditerskaya-ferma/",
                "wheelchair": "no"
            },
            {
                "name": "Плюшкин дом",
                "phone": "+7 812 5701496",
                "amenity": "cafe",
                "website": "http://www.plushkin-dom.ru/",
                "contact:vk": "https://vk.com/club45456896",
                "opening_hours": "Mo-Fr 08:00-20:00; Sa 09:00-20:00; Su 10:00-20:00"
            },
            {
                "amenity": "cafe",
                "name": "Невская столовая"
            },
            {
                "amenity": "cafe",
                "name": "1848",
                "opening_hours": "11:00-23:00"
            },
            {
                "amenity": "cafe",
                "contact:vk": "https://vk.com/buuzaroom",
                "cuisine": "asian",
                "name": "Buuza Room",
                "opening_hours": "11:00-23:00",
                "operator": "ИП Будуев Д.Д."
            },
            {
                "name": "Пышечка",
                "amenity": "cafe",
                "website": "https://ginza.ru/spb/restaurant/pyshechka",
                "contact:vk": "https://vk.com/ginzapyshechka",
                "opening_hours": "Mo-Fr 09:00-21:00; Sa-Su 10:00-21:00"
            },
            {
                "amenity": "cafe",
                "contact:facebook": "https://www.facebook.com/bunkercoffeepiter/",
                "name": "Bunker",
                "website": "https://www.bunker-coffee.ru/"
            },
            {
                "amenity": "cafe",
                "contact:vk": "https://vk.com/barvegan",
                "int_name": "Prana Bar",
                "name": "Прана бар",
                "opening_hours": "Mo-Fr 11:00-23:00; Sa-Su 12:00-23:00",
                "website": "https://pranabar.ru/"
            },
            {
                "addr:housenumber": "54",
                "addr:street": "набережная канала Грибоедова",
                "amenity": "cafe",
                "contact:facebook": "https://facebook.com/coffeewayspb",
                "contact:instagram": "https://instagram.com/coffeeway_spb",
                "contact:phone": "+7 906 2728759",
                "contact:vk": "https://vk.com/coffeeway_spb_sennaya",
                "contact:website": "https://www.instagram.com/coffeeway_spb",
                "internet_access": "wlan",
                "name": "Coffee Way",
                "opening_hours": "Mo-Fr 08:00-21:00; Sa-Su 09:00-21:00",
                "operator": "Coffee Way"
            },
            {
                "amenity": "cafe",
                "name": "Маковый Jam"
            },
            {
                "amenity": "cafe",
                "breakfast": "09:00-14:00",
                "contact:vk": "https://vk.com/jcbistro",
                "dinner": "14:00-23:30",
                "lunch": "12:00-17:00",
                "name": "Julia Child",
                "opening_hours": "Mo-Fr 09:00-23:30; Sa-Su 10:00-23:30",
                "phone": "+7 812 9290797",
                "takeaway": "yes"
            },
            {
                "name": "#Кофейня №1",
                "amenity": "cafe",
                "website": "http://delmar-spb.ru/restaurants/koff-sadovaya/",
                "alt_name": "Кофейня №1",
                "contact:vk": "https://vk.com/coffeen1",
                "opening_hours": "24/7"
            },
            {
                "amenity": "cafe",
                "contact:vk": "https://vk.com/kafeagnia",
                "name": "Агния",
                "opening_hours": "11:00-23:00",
                "operator": "ООО «3 Обезьяны»",
                "website": "http://kafe-agnija.mozello.ru/"
            },
            {
                "amenity": "cafe",
                "contact:facebook": "https://www.facebook.com/horns.hooves18/",
                "name": "Рога и копыта",
                "name:en": "Horns & Hooves",
                "name:ru": "Рога и копыта",
                "opening_hours": "12:00+",
                "website": "https://horns.tastetoeat.ru/"
            },
            {
                "amenity": "cafe",
                "name": "Шаурма"
            },
            {
                "name": "Шаурма",
                "level": "-1",
                "amenity": "cafe",
                "opening_hours": "24/7"
            },
            {
                "amenity": "cafe",
                "contact:vk": "https://vk.com/moomoo_burgers",
                "cuisine": "burger",
                "delivery": "yes",
                "diet:vegan": "yes",
                "diet:vegetarian": "yes",
                "level": "0",
                "name": "Moo Moo",
                "opening_hours": "Su-Th 08:00-23:30, Fr-Sa 08:00-01:30",
                "operator": "ООО «Природа»",
                "phone": "+7 812 9552288",
                "takeaway": "yes",
                "website": "https://www.moomooburgers.ru/",
                "wheelchair": "no"
            },
            {
                "amenity": "cafe",
                "level": "-1",
                "name": "Gunners",
                "wheelchair": "no"
            },
            {
                "amenity": "cafe",
                "level": "-1",
                "name": "Кебаб Хаус"
            },
            {
                "addr:city": "Санкт-Петербург",
                "addr:housenumber": "13-15",
                "addr:postcode": "190031",
                "addr:street": "Гражданская улица",
                "amenity": "cafe",
                "contact:vk": "https://vk.com/seizetheimpress",
                "cuisine": "coffee_shop;regional",
                "delivery": "yes",
                "description": "Кофейня с завтраками. У нас 10 видов сырников и specialty-кофе. Также в меню боулы, сендвичи, тосты, каши и блюда из яиц. У нас небольшое пространство, но от того еще более уютное. А еще, мы находимся в творческом кластере Бертголь Центр и здесь много дви",
                "internet_access": "wlan",
                "internet_access:fee": "no",
                "level": "1",
                "name": "STIM Coffee",
                "opening_hours": "9:00-20:00",
                "outdoor_seating": "yes",
                "takeaway": "yes",
                "website": "https://www.instagram.com/stimcoffeehome"
            },
            {
                "amenity": "cafe",
                "contact:vk": "https://vk.com/pastelariabica",
                "level": "0",
                "name": "Bica",
                "wheelchair": "no"
            },
            {
                "amenity": "cafe",
                "contact:vk": "https://vk.com/pastamuka",
                "level": "0",
                "name": "Мука",
                "wheelchair": "limited"
            },
            {
                "amenity": "cafe",
                "contact:email": "info@bagginscoffee.ru",
                "contact:phone": "+7 800 6007015;+7 905 2504412",
                "contact:vk": "https://vk.com/bagginscoffee",
                "contact:website": "http://bagginscoffee.ru/",
                "name": "Baggins Coffee",
                "note": "возможно не работает",
                "opening_hours": "Mo-Fr 08:00-21:00;Sa-Su 09:00-21:00",
                "operator": "ИП Павлов Андрей Петрович"
            },
            {
                "amenity": "cafe",
                "cuisine": "coffee_shop",
                "name": "КУЛЬТУРА - vinyl store & brew bar"
            },
            {
                "amenity": "cafe",
                "cafe": "time_cafe",
                "cuisine": "coffee_shop;snackbar",
                "internet_access": "wlan",
                "internet_access:fee": "no",
                "name": "Каледонский лес",
                "opening_hours": "Mo-We 14:00-22:00; Th-Fr 14:00-23:00; Sa 13:00-23:00; Su 13:00-22:30",
                "outdoor_seating": "no",
                "phone": "+7 921 3356010",
                "website": "https://vk.com/klles"
            }
        ]
    },
    "pharmacy": {
        "count": 12,
        "detail": [
            {
                "amenity": "pharmacy",
                "dispensing": "yes",
                "healthcare": "pharmacy",
                "name": "Народная аптека",
                "opening_hours": "24/7",
                "wheelchair": "no"
            },
            {
                "amenity": "pharmacy",
                "healthcare": "pharmacy",
                "name": "Сити-Фарм",
                "opening_hours": "Mo-Fr 08:00-22:30; Sa-Su 09:00-21:00",
                "operator": "ИП Родин В.В.",
                "phone": "+7 812 3101324"
            },
            {
                "amenity": "pharmacy",
                "contact:vk": "https://vk.com/aptekaaloea",
                "healthcare": "pharmacy",
                "name": "Алоэ",
                "opening_hours": "Mo-Fr 09:00-22:00; Sa-Su 09:00-21:00",
                "website": "https://aloeapteka.ru/"
            },
            {
                "amenity": "pharmacy",
                "healthcare": "pharmacy",
                "name": "Зелёная линия",
                "opening_hours": "Mo-Fr 09:00-21:00; Sa-Su 10:00-20:00",
                "phone": "+7 812 3125725"
            },
            {
                "amenity": "pharmacy",
                "contact:vk": "https://vk.com/club102971985",
                "healthcare": "pharmacy",
                "name": "Мелодия здоровья",
                "opening_hours": "Mo-Fr 08:00-21:00; Sa-Su 09:00-21:00",
                "operator": "ООО «Этна»",
                "website": "http://spb.melzdrav.ru/"
            },
            {
                "amenity": "pharmacy",
                "contact:facebook": "http://facebook.com/aptekivita",
                "contact:instagram": "https://www.instagram.com/vita_express/",
                "contact:phone": "+7 800 7550003",
                "contact:vk": "https://vk.com/aptekivita",
                "contact:website": "https://vitaexpress.ru/",
                "healthcare": "pharmacy",
                "name": "Вита Экспресс",
                "opening_hours": "Mo-Sa 08:00-23:00;Su 09:00-23:00",
                "operator": "ООО «Нептун»"
            },
            {
                "amenity": "pharmacy",
                "healthcare": "pharmacy",
                "opening_hours": "09:00-20:00",
                "operator": "ООО «ГераФарм»"
            },
            {
                "amenity": "pharmacy",
                "healthcare": "pharmacy",
                "name": "Здоровая жизнь",
                "opening_hours": "09:00-21:00"
            },
            {
                "amenity": "pharmacy",
                "healthcare": "pharmacy",
                "name": "Балтика-Мед",
                "name:en": "Baltika-Med",
                "opening_hours": "09:00-22:00",
                "website": "http://baltikamed.ru/"
            },
            {
                "amenity": "pharmacy",
                "contact:vk": "https://vk.com/planeta_zdorovo",
                "healthcare": "pharmacy",
                "name": "Планета здоровья",
                "opening_hours": "24/7",
                "website": "https://planetazdorovo.ru/"
            },
            {
                "amenity": "pharmacy",
                "healthcare": "pharmacy",
                "name": "Фармап",
                "opening_hours": "09:00-21:00"
            },
            {
                "amenity": "pharmacy",
                "contact:facebook": "http://facebook.com/aptekivita",
                "contact:instagram": "https://www.instagram.com/vita_express/",
                "contact:phone": "+7 800 7550003",
                "contact:vk": "https://vk.com/aptekivita",
                "contact:website": "https://vitaexpress.ru/",
                "healthcare": "pharmacy",
                "name": "Вита Центральная",
                "opening_hours": "Mo-Sa 08:00-23:00;Su 09:00-23:00"
            }
        ]
    },
    "bakery": {
        "count": 5,
        "detail": [
            {
                "brand": "Булочные Ф. Вольчека",
                "contact:email": "info@fvolchek.ru",
                "contact:phone": "+7 812 6420638",
                "contact:vk": "f.volchek",
                "contact:website": "http://fvolchek.ru/",
                "inscription": "Булочная № 74",
                "name": "Булочная Ф. Вольчека",
                "name:ru": "Булочная Ф. Вольчека",
                "opening_hours": "Mo-Su 08:00-22:00",
                "ref": "74",
                "shop": "bakery"
            },
            {
                "brand": "Булочные Ф. Вольчека",
                "contact:email": "info@fvolchek.ru",
                "contact:phone": "+7 812 6420638",
                "contact:vk": "f.volchek",
                "contact:website": "http://fvolchek.ru/",
                "drink:coffee": "served",
                "drink:mors": "served",
                "drink:tea": "served",
                "inscription": "Булочная № 26",
                "name": "Булочная Ф. Вольчека",
                "name:ru": "Булочная Ф. Вольчека",
                "opening_hours": "Mo-Su 08:00-22:00",
                "operator": "Булочные Ф.Вольчека",
                "payment:cash": "yes",
                "payment:maestro": "yes",
                "payment:mastercard": "yes",
                "payment:visa": "yes",
                "payment:visa_debit": "yes",
                "payment:visa_electron": "yes",
                "ref": "26",
                "shop": "bakery",
                "takeaway": "yes",
                "wheelchair": "no"
            },
            {
                "amenity": "cafe",
                "contact:email": "info@tseh85.ru",
                "contact:instagram": "instagram.com/tseh85",
                "contact:phone": "+7 812 7757785",
                "contact:vk": "https://vk.com/tseh85",
                "contact:website": "http://tseh85.ru/",
                "delivery": "yes",
                "name": "Цех 85",
                "opening_hours": "Mo-Fr 08:00-21:00;Sa-Su 09:00-21:00",
                "operator": "Доценко",
                "shop": "bakery"
            },
            {
                "brand": "Булочные Ф. Вольчека",
                "contact:email": "info@fvolchek.ru",
                "contact:phone": "+7 812 6420638",
                "contact:vk": "f.volchek",
                "contact:website": "http://fvolchek.ru/",
                "drink:coffee": "served",
                "drink:mors": "served",
                "drink:tea": "served",
                "inscription": "Булочная № 28",
                "name": "Булочная Ф. Вольчека",
                "name:ru": "Булочная Ф. Вольчека",
                "opening_hours": "Mo-Su 08:00-22:00",
                "payment:cash": "yes",
                "payment:maestro": "yes",
                "payment:mastercard": "yes",
                "payment:visa": "yes",
                "payment:visa_debit": "yes",
                "payment:visa_electron": "yes",
                "ref": "28",
                "shop": "bakery",
                "takeaway": "yes"
            },
            {
                "amenity": "cafe",
                "contact:email": "info@tseh85.ru",
                "contact:instagram": "instagram.com/tseh85",
                "contact:phone": "+7 812 7757785",
                "contact:vk": "https://vk.com/tseh85",
                "contact:website": "http://tseh85.ru/",
                "diet:vegetarian": "yes",
                "name": "ЦЕХ85",
                "opening_hours": "Mo-Fr 08:00-21:00;Sa-Su 09:00-21:00",
                "operator": "Андреева",
                "payment:credit_cards": "yes",
                "payment:debit_cards": "yes",
                "shop": "bakery",
                "toilets": "yes"
            }
        ]
    },
    "antiques": {
        "count": 1,
        "detail": [
            {
                "name": "Old Story",
                "opening_hours": "14:00-20:00",
                "shop": "antiques"
            }
        ]
    },
    "supermarket": {
        "count": 6,
        "detail": [
            {
                "alt_name": "Перекресток",
                "brand": "Перекрёсток",
                "brand:en": "Perekryostok",
                "brand:wikidata": "Q1684639",
                "brand:wikipedia": "en:Perekrestok (supermarket chain)",
                "contact:facebook": "https://www.facebook.com/perekrestok",
                "contact:instagram": "https://www.instagram.com/perekrestok/",
                "contact:ok": "https://ok.ru/perekrestok.shop",
                "contact:phone": "+7 800 2009555;+7 812 4483010",
                "contact:twitter": "https://twitter.com/perekrestok",
                "contact:vk": "https://vk.com/perekrestok_shop",
                "contact:website": "https://www.perekrestok.ru/",
                "name": "Перекрёсток",
                "opening_hours": "08:00-23:00",
                "shop": "supermarket"
            },
            {
                "brand": "Дикси",
                "brand:en": "Dixy",
                "brand:wikidata": "Q4161561",
                "brand:wikipedia": "ru:Дикси (сеть магазинов)",
                "contact:phone": "+7 800 3330201",
                "contact:vk": "https://vk.com/dixyclub",
                "contact:youtube": "https://www.youtube.com/user/DixyChannel",
                "name": "Дикси",
                "name:ru": "Дикси",
                "opening_hours": "24/7",
                "shop": "supermarket",
                "website": "https://dixy.ru/"
            },
            {
                "brand": "Магнит",
                "brand:en": "Magnit",
                "brand:wikidata": "Q940518",
                "brand:wikipedia": "ru:Магнит (сеть магазинов)",
                "contact:facebook": "https://www.facebook.com/magnitretail",
                "contact:ok": "https://ok.ru/magnitinfo",
                "contact:twitter": "https://twitter.com/magnitretail",
                "contact:vk": "https://vk.com/magnitretail",
                "contact:youtube": "https://www.youtube.com/channel/UCoWX1GhHlSJGwKpCEJitsoA/",
                "name": "Магнит у дома",
                "opening_hours": "08:00-23:00",
                "operator": "АО «Тандер»",
                "phone": "+7 800 2009002",
                "shop": "supermarket",
                "website": "https://magnit.ru/shops/49685/"
            },
            {
                "alt_name": "7 Шагов",
                "brand": "Семишагофф",
                "brand:wikidata": "Q58003374",
                "contact:vk": "https://vk.com/7shagoff",
                "name": "Семишагофф",
                "name:en": "Semishagoff",
                "name:ru": "Семишагофф",
                "opening_hours": "Mo-Su 09:00-23:00",
                "operator": "ООО «ТК Прогресс»",
                "phone": "+7 812 6485000",
                "shop": "supermarket",
                "website": "https://semishagoff.org/"
            },
            {
                "brand": "Дикси",
                "brand:en": "Dixy",
                "brand:wikidata": "Q4161561",
                "brand:wikipedia": "ru:Дикси (сеть магазинов)",
                "contact:phone": "+7 800 3330201",
                "contact:vk": "https://vk.com/dixyclub",
                "contact:youtube": "https://www.youtube.com/user/DixyChannel",
                "name": "Дикси",
                "name:ru": "Дикси",
                "opening_hours": "24/7",
                "operator": "АО «Дикси Юг»",
                "shop": "supermarket",
                "website": "https://dixy.ru/"
            },
            {
                "brand": "Пятёрочка",
                "brand:en": "Pyaterochka",
                "brand:wikidata": "Q1768969",
                "brand:wikipedia": "ru:Пятёрочка",
                "contact:vk": "https://vk.com/pyaterochka_shop",
                "name": "Пятёрочка",
                "name:en": "Pyaterochka",
                "opening_hours": "08:00-23:00",
                "operator": "ООО «Агроторг»",
                "shop": "supermarket",
                "website": "https://5ka.ru/"
            }
        ]
    },
    "convenience": {
        "count": 8,
        "detail": [
            {
                "brand": "ВкусВилл",
                "brand:wikidata": "Q57271676",
                "brand:wikipedia": "ru:Вкусвилл",
                "contact:phone": "+7 921 5543996",
                "contact:vk": "https://vk.com/vkusvill_ru",
                "contact:website": "https://vkusvill.ru",
                "name": "ВкусВилл",
                "opening_hours": "Mo-Su 08:00-21:00",
                "operator": "ООО «Вкусвилл»",
                "shop": "convenience"
            },
            {
                "level": "-1",
                "name": "Продукты",
                "opening_hours": "24/7",
                "shop": "convenience",
                "wheelchair": "no"
            },
            {
                "name": "Продукты",
                "shop": "convenience",
                "opening_hours": "24/7"
            },
            {
                "name": "Гастроном и Ко",
                "opening_hours": "24/7",
                "shop": "convenience"
            },
            {
                "name": "Food маркет",
                "opening_hours": "24/7",
                "shop": "convenience"
            },
            {
                "contact:vk": "all_for_sushi",
                "email": "reddragon-spb@mail.ru",
                "entrance": "yes",
                "level": "-0.5",
                "name": "Красный дракон",
                "opening_hours": "10:00-21:00",
                "shop": "convenience",
                "website": "https://reddragon-spb.ru/",
                "wheelchair": "no"
            },
            {
                "name": "Продукты",
                "opening_hours": "24/7",
                "shop": "convenience"
            },
            {
                "name": "Продукты",
                "opening_hours": "24/7",
                "shop": "convenience"
            }
        ]
    },
    "fountain": {
        "count": 1,
        "detail": [
            {
                "name": "«Нептун»",
                "amenity": "fountain"
            }
        ]
    },
    "hardware": {
        "count": 2,
        "detail": [
            {
                "contact:vk": "https://vk.com/clubmaterovoy",
                "name": "Мастеровой",
                "opening_hours": "Mo-Fr 10:00-20:00; Sa 10:00-19:00; Su 11:00-18:00",
                "operator": "ООО «Маркет Торг»",
                "shop": "hardware",
                "website": "https://masterovoy-spb.ru/"
            },
            {
                "name": "ГК Альянс",
                "shop": "hardware",
                "email": "info@prof-krepezh.ru",
                "phone": "+7 812 9121515",
                "website": "https://prof-krepezh.ru",
                "addr:city": "Санкт-Петербург",
                "addr:street": "Садовая улица",
                "description": "Строительный крепеж оптом: анкеры, метизы, строительная химия и другое",
                "addr:postcode": "190031",
                "opening_hours": "Mo-Fr 09:00-18:00",
                "addr:housenumber": "42"
            }
        ]
    },
    "kindergarten": {
        "count": 3,
        "detail": [
            {
                "amenity": "kindergarten",
                "contact:email": "admiral-gdou16@mail.ru",
                "contact:phone": "+7 812 3142454;+7 812 3141888;+7 812 3140150",
                "contact:website": "https://ds16spb.nubex.ru",
                "name": "Детский сад № 16",
                "official_name": "Государственное бюджетное дошкольное образовательное учреждение детский сад комбинированного вида № 16 Адмиралтейского района",
                "ref": "16"
            },
            {
                "amenity": "kindergarten",
                "contact:phone": "+7 812 3140558",
                "contact:website": "https://ds32spb.nubex.ru",
                "name": "Детский сад № 32",
                "official_name": "Государственное бюджетное дошкольное образовательное учреждение детский сад № 32 общеразвивающего вида с приоритетным осуществлением деятельности по художественно-эстетическому развитию детей Адмиралтейского района Санкт-Петербурга",
                "ref": "32"
            },
            {
                "addr:housenumber": "34",
                "addr:letter": "Б",
                "addr:street": "Вознесенский проспект",
                "building": "kindergarten",
                "building:levels": "2"
            }
        ]
    },
    "hairdresser": {
        "count": 13,
        "detail": [
            {
                "name": "V&A studio",
                "shop": "hairdresser",
                "website": "http://v-a-group.ru/VA-Studio-na-Kazanskoy-29/",
                "contact:vk": "https://vk.com/vastudiooo",
                "opening_hours": "10:00-21:00"
            },
            {
                "contact:vk": "https://vk.com/club62033994",
                "internet_access": "wlan",
                "name": "Пудра",
                "opening_hours": "Mo-Sa 10:00-21:00; Su 11:00-21:00",
                "phone": "+7 812 4074605",
                "shop": "hairdresser",
                "website": "http://www.pudra2.ru/"
            },
            {
                "contact:vk": "https://vk.com/vertuali",
                "name": "Vertuali",
                "shop": "hairdresser"
            },
            {
                "opening_hours": "10:00-21:00",
                "shop": "hairdresser"
            },
            {
                "name": "Домино",
                "shop": "hairdresser",
                "website": "http://dominospb.com/"
            },
            {
                "contact:vk": "https://vk.com/firma_piter",
                "name": "Firma",
                "opening_hours": "10:00-21:00",
                "shop": "hairdresser",
                "website": "http://spb.barberfirma.ru/1-4/"
            },
            {
                "contact:vk": "https://vk.com/hannibalbs",
                "description": "Мастерская мужских стрижек",
                "int_name": "Hannibal",
                "name": "Ганнибал",
                "opening_hours": "10:00-22:00",
                "operator": "ИП Бутенков Ю.И.",
                "shop": "hairdresser",
                "website": "https://hannibalbs.ru/"
            },
            {
                "contact:vk": "https://vk.com/strizhkagorodru",
                "name": "Adel",
                "shop": "hairdresser",
                "website": "https://www.strizhka-gorod.ru/"
            },
            {
                "contact:vk": "https://vk.com/club77310027",
                "shop": "hairdresser"
            },
            {
                "contact:vk": "https://vk.com/studio42spb",
                "level": "-1",
                "name": "Studio42",
                "opening_hours": "10:00-21:00",
                "shop": "hairdresser",
                "website": "https://www.studio42spb.com/"
            },
            {
                "contact:vk": "https://vk.com/pokrasstudio",
                "level": "1",
                "name": "Покрас",
                "shop": "hairdresser",
                "website": "http://pokrasstudio.com/"
            },
            {
                "contact:vk": "https://vk.com/velardi1",
                "name": "Velardi",
                "opening_hours": "09:00-21:00",
                "shop": "hairdresser",
                "website": "http://velardi.ru/"
            },
            {
                "contact:email": "lastetico@gmail.com",
                "contact:instagram": "https://instagram.com/lastetico_spb",
                "contact:phone": "+7 953 7955666",
                "contact:vk": "https://vk.com/lastetico",
                "contact:website": "https://gladko.ru/",
                "name": "Lastetico",
                "opening_hours": "Mo-Su 10:00-21:00",
                "operator": "Lastetico",
                "shop": "hairdresser"
            }
        ]
    },
    "furniture": {
        "count": 3,
        "detail": [
            {
                "name": "Argento",
                "opening_hours": "11:00-21:00",
                "shop": "furniture",
                "website": "http://www.excellence-interiors.ru/"
            },
            {
                "int_name": "Borghese Classic",
                "name": "Боргезе классик",
                "opening_hours": "11:00-21:00",
                "shop": "furniture",
                "website": "http://www.excellence-interiors.ru/"
            },
            {
                "name": "Ateliér interiors",
                "opening_hours": "11:00-21:00",
                "operator": "ООО Модерн",
                "shop": "furniture",
                "website": "http://www.excellence-interiors.ru/"
            }
        ]
    },
    "optician": {
        "count": 5,
        "detail": [
            {
                "name": "Оникс",
                "shop": "optician",
                "website": "http://www.onix-optik.ru/",
                "contact:vk": "https://vk.com/onixoptik1",
                "opening_hours": "Mo-Fr 10:00-20:00; Sa-Su 11:00-18:00"
            },
            {
                "contact:vk": "https://vk.com/spbzu",
                "name": "Зайди — увидишь",
                "opening_hours": "Mo-Sa 10:00-21:00; Su 11:00-20:00",
                "shop": "optician",
                "website": "https://zaidiuvidish.ru/nashi-salonyi/grivtsova-per-d1311"
            },
            {
                "name": "Катти Сарк",
                "opening_hours": "10:00-20:00",
                "operator": "ООО «ЭйчДи Оптика»",
                "shop": "optician",
                "website": "http://www.cuttys.ru/salons/7/"
            },
            {
                "contact:email": "otzyv@happylook.ru",
                "contact:facebook": "https://www.facebook.com/happylook.ru/",
                "contact:instagram": "https://www.instagram.com/happylook.ru/",
                "contact:phone": "+7 812 3170003 ext. 0057",
                "contact:vk": "https://vk.com/happylook_ru",
                "contact:website": "https://happylook.ru/stores/moskovskiy_pr_d_12_lit_a/",
                "contact:youtube": "https://www.youtube.com/channel/UCY1OkGBHKrWjswV7MRxtEXQ",
                "name": "Счастливый взгляд",
                "opening_hours": "Mo-Su 10:00-20:00",
                "operator": "Оптик Комфорт",
                "shop": "optician",
                "wheelchair": "no"
            },
            {
                "name": "Хорошая оптика",
                "opening_hours": "Mo-Fr 11:00-20:00; Sa 11:00-19:00",
                "operator": "ИП Корабельников",
                "shop": "optician"
            }
        ]
    },
    "bus_stop": {
        "count": 9,
        "detail": [
            {
                "bus": "yes",
                "highway": "bus_stop",
                "local_ref": "10;70",
                "name": "Казанская улица",
                "public_transport": "platform"
            },
            {
                "bus": "yes",
                "highway": "bus_stop",
                "local_ref": "49;50;70;181",
                "name": "Сенная площадь",
                "public_transport": "platform",
                "shelter": "yes",
                "tactile_paving": "no"
            },
            {
                "bus": "yes",
                "name": "Казанская улица",
                "public_transport": "stop_position"
            },
            {
                "bus": "yes",
                "highway": "bus_stop",
                "local_ref": "49;50;71;181",
                "name": "Сенная площадь",
                "public_transport": "platform",
                "shelter": "no",
                "tactile_paving": "no"
            },
            {
                "bench": "no",
                "bus": "yes",
                "highway": "bus_stop",
                "local_ref": "10;70",
                "name": "Казанская улица",
                "public_transport": "platform",
                "shelter": "no",
                "tactile_paving": "no"
            },
            {
                "bus": "yes",
                "name": "Сенная площадь",
                "public_transport": "stop_position"
            },
            {
                "bus": "yes",
                "name": "Казанская улица",
                "public_transport": "stop_position"
            },
            {
                "bus": "yes",
                "name": "Сенная площадь",
                "public_transport": "stop_position"
            },
            {
                "bus": "yes",
                "highway": "bus_stop",
                "public_transport": "platform",
                "route_ref": "К-1;К-19",
                "share_taxi": "yes"
            }
        ]
    },
    "mobile_phone": {
        "count": 6,
        "detail": [
            {
                "brand": "МТС",
                "brand:en": "MTS",
                "brand:wikidata": "Q1368919",
                "brand:wikipedia": "en:MTS (network provider)",
                "contact:vk": "https://vk.com/mts",
                "name": "МТС",
                "name:en": "MTS",
                "opening_hours": "09:00-21:00",
                "shop": "mobile_phone",
                "website": "https://spb.mts.ru/"
            },
            {
                "name": "Moba",
                "opening_hours": "09:30-19:30",
                "shop": "mobile_phone",
                "website": "https://moba.ru/"
            },
            {
                "contact:vk": "https://vk.com/jpegstore",
                "description": "чехлы для телефонов",
                "level": "2",
                "name": "JpegStore",
                "shop": "mobile_phone",
                "website": "https://jpegstore.ru/"
            },
            {
                "brand": "Tele2",
                "brand:wikidata": "Q309865",
                "brand:wikipedia": "en:Tele2",
                "contact:vk": "https://vk.com/tele2",
                "layer": "-1",
                "location": "underground",
                "name": "Tele2",
                "shop": "mobile_phone",
                "website": "https://spb.tele2.ru/"
            },
            {
                "brand": "Мегафон",
                "brand:en": "MegaFon",
                "brand:wikidata": "Q1720713",
                "brand:wikipedia": "en:MegaFon",
                "contact:vk": "https://vk.com/megafon",
                "layer": "-1",
                "location": "underground",
                "name": "Мегафон",
                "name:en": "MegaFon",
                "shop": "mobile_phone",
                "website": "https://spb.megafon.ru/"
            },
            {
                "brand": "Билайн",
                "brand:en": "Beeline",
                "brand:wikidata": "Q402880",
                "brand:wikipedia": "en:Beeline (brand)",
                "contact:vk": "https://vk.com/beeline",
                "layer": "-1",
                "location": "underground",
                "name": "Билайн",
                "name:en": "Beeline",
                "shop": "mobile_phone",
                "website": "https://spb.beeline.ru/"
            }
        ]
    },
    "clothes": {
        "count": 32,
        "detail": [
            {
                "contact:vk": "https://vk.com/club32574646",
                "name": "Vertigo",
                "opening_hours": "Mo-Fr 11:00-20:00; Sa-Su 11:00-19:00",
                "operator": "ИП Петрова А.И.",
                "shop": "clothes",
                "website": "http://www.vertigo-spb.ru/"
            },
            {
                "contact:vk": "https://vk.com/imperiaplatya",
                "name": "Империя платья",
                "opening_hours": "09:00-21:00",
                "shop": "clothes",
                "website": "http://империяплатья.рф/"
            },
            {
                "contact:vk": "https://vk.com/stilnaya_odegda_spb",
                "name": "Сундук",
                "opening_hours": "Mo-Fr 11:00-20:00; Sa-Su 12:00-19:00",
                "shop": "clothes"
            },
            {
                "name": "Павловопосадские платки",
                "opening_hours": "10:00-21:00",
                "shop": "clothes",
                "website": "https://platki.ru/"
            },
            {
                "name": "Для тебя",
                "shop": "clothes",
                "operator": "ИП Порфирова В.А.",
                "opening_hours": "Mo-Fr 10:00-20:00; Sa-Su 12:00-18:00"
            },
            {
                "name": "Makki",
                "shop": "clothes",
                "website": "http://makki.ru/"
            },
            {
                "contact:vk": "https://vk.com/lyyk_store",
                "level": "-1",
                "name": "Луук",
                "opening_hours": "11:00-23:00",
                "shop": "clothes",
                "website": "http://www.lyyk.ru/",
                "wheelchair": "no"
            },
            {
                "clothes": "workwear",
                "contact:vk": "https://vk.com/4doctors_spb",
                "name": "4Doctors",
                "opening_hours": "10:00-20:00",
                "shop": "clothes",
                "website": "https://4doctors.ru/where-to-buy/spb/m-sadovaya-spasskaya-sennaya-ploshchad-voznesenskiy-prospekt-21/"
            },
            {
                "name": "Ассортимент",
                "opening_hours": "Mo-Su 10:00-22:00",
                "shop": "clothes",
                "wheelchair": "no"
            },
            {
                "name": "Art-T-Shok",
                "shop": "clothes",
                "website": "http://www.art-t-shok.ru/",
                "contact:vk": "https://vk.com/art_t_shok",
                "opening_hours": "11:00-20:00"
            },
            {
                "name": "Ареола",
                "note": "нет на https://www.areolarus.ru/",
                "opening_hours": "10:00-19:00",
                "shop": "clothes"
            },
            {
                "clothes": "women",
                "contact:vk": "https://vk.com/evagraffova",
                "name": "Eva Graffova",
                "opening_hours": "10:00-21:00",
                "shop": "clothes",
                "website": "https://spb.evagraffova.ru/"
            },
            {
                "contact:instagram": "https://www.instagram.com/modus_fashion_spb____/",
                "name": "Modus Fashion",
                "shop": "clothes"
            },
            {
                "alt_name": "Carnaby",
                "contact:vk": "https://vk.com/welovetjcollection",
                "name": "TJ Collection",
                "opening_hours": "10:00-22:00",
                "operator": "ООО «КЛ Групп»",
                "shop": "clothes",
                "website": "https://tjcollection.ru/",
                "wheelchair": "no"
            },
            {
                "clothes": "wedding",
                "contact:vk": "https://vk.com/m.l.salon",
                "name": "Пудра",
                "opening_hours": "11:00-20:00",
                "shop": "clothes"
            },
            {
                "clothes": "women",
                "opening_hours": "10:00-21:00",
                "shop": "clothes"
            },
            {
                "clothes": "children",
                "name": "Островок",
                "shop": "clothes"
            },
            {
                "clothes": "women",
                "contact:instagram": "https://www.instagram.com/karmanstock/",
                "name": "Карман",
                "shop": "clothes"
            },
            {
                "clothes": "women",
                "contact:instagram": "https://www.instagram.com/showroom_mzia/",
                "shop": "clothes"
            },
            {
                "clothes": "women",
                "name": "Collette.ru",
                "note": "находится во дворе, за воротами с домофоном",
                "shop": "clothes",
                "website": "http://collette.ru/"
            },
            {
                "clothes": "wedding",
                "name": "Барбарис",
                "shop": "clothes",
                "website": "http://barbariswed.ru/"
            },
            {
                "clothes": "workwear",
                "contact:vk": "https://vk.com/spb_elit",
                "name": "Elit",
                "opening_hours": "10:00-20:00",
                "shop": "clothes",
                "website": "http://tdelit.ru/"
            },
            {
                "name": "Шапки",
                "shop": "clothes",
                "level": "0",
                "clothes": "hats",
                "opening_hours": "10:00-21:00"
            },
            {
                "contact:vk": "https://vk.com/volchoksaintp",
                "level": "0",
                "name": "Волчок",
                "opening_hours": "12:00-21:00",
                "shop": "clothes",
                "website": "https://volchok.ru/"
            },
            {
                "contact:vk": "https://vk.com/fjordcloth",
                "level": "2",
                "name": "FjordCloth",
                "shop": "clothes"
            },
            {
                "contact:vk": "https://vk.com/eversale",
                "level": "2",
                "name": "Eversale",
                "second_hand": "yes",
                "shop": "clothes"
            },
            {
                "clothes": "underwear",
                "contact:vk": "https://vk.com/damorelingerie",
                "name": "D'amore",
                "opening_hours": "Mo-Fr 09:00-18:00",
                "operator": "ООО \"СиО\"",
                "shop": "clothes",
                "website": "http://d-amore.ru/"
            },
            {
                "name": "Yudsher",
                "shop": "clothes",
                "website": "http://yudsher.ru/",
                "contact:vk": "https://vk.com/yudsher",
                "opening_hours": "Mo-Fr 12:00-20:00"
            },
            {
                "name": "Свой стиль",
                "opening_hours": "11:00-20:00",
                "operator": "ИП Козлова А.А.",
                "second_hand": "yes",
                "shop": "clothes"
            },
            {
                "contact:vk": "https://vk.com/castle_store",
                "name": "Castle Store",
                "shop": "clothes"
            },
            {
                "clothes": "underwear",
                "contact:instagram": "https://www.instagram.com/original_sin_spb/",
                "name": "Original Sin",
                "shop": "clothes"
            },
            {
                "contact:vk": "https://vk.com/m_termo",
                "level": "1",
                "name": "Магазин термобелья",
                "opening_hours": "10:00-21:00",
                "shop": "clothes",
                "website": "https://m-termo.ru/"
            }
        ]
    },
    "waste_disposal": {
        "count": 2,
        "detail": [
            {
                "amenity": "waste_disposal"
            },
            {
                "amenity": "waste_disposal"
            }
        ]
    },
    "kitchen": {
        "count": 1,
        "detail": [
            {
                "name": "Verona mobili",
                "shop": "kitchen",
                "website": "http://www.verona-mobili.ru/",
                "contact:vk": "https://vk.com/verona_mobili",
                "opening_hours": "11:00-20:00"
            }
        ]
    },
    "sewing": {
        "count": 1,
        "detail": [
            {
                "name": "Текстильторг",
                "shop": "sewing",
                "website": "https://www.textiletorg.ru/",
                "contact:vk": "https://vk.com/textile.torg",
                "opening_hours": "09:00-21:00"
            }
        ]
    },
    "alcohol": {
        "count": 5,
        "detail": [
            {
                "brand": "Красное & Белое",
                "brand:en": "Red & White",
                "brand:wikidata": "Q24933790",
                "brand:wikipedia": "en:Krasnoe & Beloe",
                "contact:vk": "https://vk.com/krasnoebeloe",
                "name": "Красное & Белое",
                "name:en": "Red & White",
                "opening_hours": "09:00-22:05",
                "shop": "alcohol",
                "website": "https://krasnoeibeloe.ru/"
            },
            {
                "name": "Ароматный мир",
                "opening_hours": "10:00-22:00",
                "operator": "ООО \"Объект Плюс\"",
                "shop": "alcohol",
                "website": "https://amwine.ru/"
            },
            {
                "brand": "Ароматный мир",
                "contact:facebook": "https://www.facebook.com/amwine.ru",
                "contact:instagram": "https://instagram.com/amwine.ru",
                "contact:twitter": "https://twitter.com/amwineru",
                "contact:vk": "https://vk.com/amwineru",
                "drink:beer": "bottled",
                "drink:cider": "bottled",
                "drink:cognac": "bottled",
                "drink:soft_drink": "bottled",
                "drink:sparkling_wine": "bottled",
                "drink:vodka": "bottled",
                "drink:whisky": "bottled",
                "drink:wine": "bottled",
                "name": "Ароматный мир",
                "name:ru": "Ароматный мир",
                "opening_hours": "Mo-Su 10:00-22:00",
                "shop": "alcohol",
                "website": "https://amwine.ru/customers/shops/detail/84802/",
                "wheelchair": "no"
            },
            {
                "brand": "Красное & Белое",
                "brand:en": "Red & White",
                "brand:wikidata": "Q24933790",
                "brand:wikipedia": "en:Krasnoe & Beloe",
                "contact:vk": "https://vk.com/krasnoebeloe",
                "name": "Красное & Белое",
                "name:en": "Red & White",
                "opening_hours": "09:00-22:05",
                "operator": "ООО «Альфа-М»",
                "phone": "+7 931 2568491",
                "shop": "alcohol",
                "website": "https://krasnoeibeloe.ru/"
            },
            {
                "name": "Мир виски",
                "shop": "alcohol",
                "website": "https://whiskyworld.ru/saint-petersburg",
                "operator": "ООО \"Академия Виски\"",
                "opening_hours": "11:00-22:00"
            }
        ]
    },
    "shoes": {
        "count": 3,
        "detail": [
            {
                "name": "Море обуви",
                "shop": "shoes"
            },
            {
                "name": "Cavaletto",
                "opening_hours": "Mo-Fr 11:00-20:00; Sa-Su 11:00-19:00",
                "shop": "shoes",
                "website": "http://www.cavaletto.ru/"
            },
            {
                "name": "Обувной дом",
                "shop": "shoes",
                "level": "0",
                "opening_hours": "10:00-21:00"
            }
        ]
    },
    "chemist": {
        "count": 1,
        "detail": [
            {
                "contact:vk": "https://vk.com/ulybka_radugi",
                "name": "Улыбка радуги",
                "opening_hours": "09:00-22:00",
                "shop": "chemist",
                "website": "https://www.r-ulybka.ru/"
            }
        ]
    },
    "beauty": {
        "count": 11,
        "detail": [
            {
                "contact:vk": "https://vk.com/salonsharlizspb",
                "name": "Шарлиз",
                "opening_hours": "Mo-Fr 09:00-21:00; Sa-Su 10:00-21:00",
                "operator": "ИП Кондрашкин Николай Сергеевич",
                "shop": "beauty",
                "website": "http://sharm-salons.ru/"
            },
            {
                "check_date": "2018-08-31",
                "name": "Невесомость",
                "opening_hours": "09:00-21:00",
                "phone": "+7 812 6605175;+7 960 2330012",
                "shop": "beauty",
                "wheelchair": "no"
            },
            {
                "contact:vk": "https://vk.com/club157277461",
                "name": "Soma",
                "opening_hours": "10:00-22:00",
                "shop": "beauty"
            },
            {
                "contact:vk": "https://vk.com/club7587637",
                "name": "Passion",
                "phone": "+7 812 3129626",
                "shop": "beauty"
            },
            {
                "contact:vk": "https://vk.com/viktoriabrand",
                "int_name": "Viktoriya Brand",
                "name": "Салон красоты Виктории Бранд",
                "shop": "beauty",
                "website": "http://viktoriyabrand.ru/"
            },
            {
                "contact:vk": "https://vk.com/boom.salon",
                "name": "ВооМ",
                "opening_hours": "10:00-21:00",
                "phone": "+7 812 5716527",
                "shop": "beauty"
            },
            {
                "name": "Анастасия",
                "shop": "beauty",
                "website": "http://anastasia-spb.ru/",
                "contact:vk": "https://vk.com/salon_anastasiya_spb",
                "opening_hours": "10:00-21:00"
            },
            {
                "contact:vk": "https://vk.com/frenchspbnail",
                "name": "Фрэнч",
                "opening_hours": "10:00-22:00",
                "shop": "beauty"
            },
            {
                "contact:facebook": "Litsaspb",
                "contact:instagram": "salon_litsa_spb",
                "contact:twitter": "SalonLitsa",
                "contact:vk": "litsa_spb",
                "name": "Лица",
                "opening_hours": "10:00-21:00",
                "operator": "ИП Салимова А.М.",
                "phone": "+7 812 5702831",
                "shop": "beauty",
                "website": "http://litsa-spb.ru/"
            },
            {
                "name": "ПиLки",
                "shop": "beauty",
                "level": "0",
                "website": "https://pilkinail.ru/",
                "alt_name": "Пилки",
                "operator": "ИП Сенин Владимир Юрьевич",
                "contact:vk": "https://vk.com/pilkinail",
                "opening_hours": "09:00-23:00"
            },
            {
                "beauty": "spa",
                "description": "Индийский традиционный центр здоровья",
                "name": "Аюрдара",
                "opening_hours": "Mo-Su 10:00-21:00",
                "phone": "+7 812 3266880;+7 911 2086162",
                "shop": "beauty",
                "website": "https://ayurdara.ru"
            }
        ]
    },
    "fabric": {
        "count": 4,
        "detail": [
            {
                "name": "Commode",
                "shop": "fabric"
            },
            {
                "contact:email": "auratessu@yandex.ru",
                "contact:facebook": "https://facebook.com/tkaniauratessu",
                "contact:instagram": "https://instagram.com/tkani_na_sennoispb",
                "contact:phone": "+7 812 5710298",
                "contact:vk": "https://vk.com/tkaniauratessu",
                "contact:website": "http://auratessu.ru/",
                "name": "Auratessu",
                "opening_hours": "Mo-Fr 10:00-20:00;Sa 11:00-20:00;Su 11:00-19:00",
                "operator": "Auratessu",
                "shop": "fabric"
            },
            {
                "contact:vk": "https://vk.com/ajourdesign",
                "craft": "tailor",
                "name": "Ajour Design",
                "shop": "fabric"
            },
            {
                "shop": "fabric"
            }
        ]
    },
    "frame": {
        "count": 1,
        "detail": [
            {
                "name": "АртЦентр",
                "opening_hours": "Mo-Sa 10:00-21:00; Su 11:00-20:00",
                "shop": "frame",
                "website": "http://www.acframe.ru/"
            }
        ]
    },
    "dentist": {
        "count": 6,
        "detail": [
            {
                "amenity": "dentist",
                "contact:vk": "https://vk.com/langeclinic",
                "healthcare": "dentist",
                "name": "Клиника доктора Ланге",
                "opening_hours": "Mo-Sa 09:00-21:00; Su 10:00-17:00",
                "website": "https://langeclinic.ru/"
            },
            {
                "addr:city": "Санкт-Петербург",
                "addr:housenumber": "13",
                "addr:street": "Вознесенский проспект",
                "amenity": "dentist",
                "healthcare": "dentist",
                "name": "Надежда",
                "opening_hours": "Mo-Fr 10:00-18:00"
            },
            {
                "amenity": "dentist",
                "contact:vk": "https://vk.com/intan",
                "healthcare": "dentist",
                "name": "Интан",
                "opening_hours": "Mo-Sa 09:00-22:00; Su 10:00-20:00",
                "website": "https://intan.ru/kontacty/voznesenskiy_25/"
            },
            {
                "amenity": "dentist",
                "healthcare": "dentist",
                "name": "Евродент Профи",
                "opening_hours": "Mo-Fr 10:00-21:00",
                "website": "http://www.evrodentprofi.ru/"
            },
            {
                "amenity": "dentist",
                "contact:vk": "https://vk.com/stomastudio32",
                "healthcare": "dentist",
                "name": "Cтудия 32",
                "opening_hours": "09:00-21:00",
                "website": "https://www.studio32spb.ru/"
            },
            {
                "amenity": "dentist",
                "healthcare": "dentist",
                "name": "Мой Зубной",
                "opening_hours": "09:00-21:00",
                "operator": "ООО \"Гамма\"",
                "website": "http://moyzubnoy.ru/stomatologiya_sennaya"
            }
        ]
    },
    "cosmetics": {
        "count": 2,
        "detail": [
            {
                "contact:vk": "https://vk.com/madeinseoul",
                "name": "Made in Seoul",
                "opening_hours": "Mo-Sa 11:00-21:00; Su 12:00-20:00",
                "shop": "cosmetics",
                "website": "https://madeinseoul.ru/"
            },
            {
                "contact:vk": "https://vk.com/madeinseoul",
                "email": "info@madeinseoul.ru",
                "name": "Made in Seoul",
                "opening_hours": "Mo-Sa 11:00-21:00; Su 12:00-20:00",
                "phone": "+7 906 2685603",
                "shop": "cosmetics",
                "website": "https://madeinseoul.ru/"
            }
        ]
    },
    "butcher": {
        "count": 2,
        "detail": [
            {
                "contact:vk": "https://vk.com/novbekon",
                "name": "Новгородский бекон",
                "opening_hours": "Mo-Fr 10:00-22:00; Sa 10:00-21:00; Su 10:00-19:00",
                "operator": "ООО «Новгородский бекон Плюс»",
                "ref": "14",
                "shop": "butcher",
                "website": "https://adept.ru/chastnym_pokupatelyam/"
            },
            {
                "name": "Калинка",
                "opening_hours": "09:00-21:00",
                "shop": "butcher"
            }
        ]
    },
    "tobacco": {
        "count": 4,
        "detail": [
            {
                "shop": "tobacco"
            },
            {
                "name": "Табакерка",
                "shop": "tobacco",
                "website": "http://www.tabakerka.biz/kazan/",
                "operator": "ООО «Омега»",
                "opening_hours": "10:00-21:00"
            },
            {
                "level": "-1",
                "shop": "tobacco"
            },
            {
                "name": "Pro табак",
                "shop": "tobacco"
            }
        ]
    },
    "interior_decoration": {
        "count": 2,
        "detail": [
            {
                "name": "Икстайл",
                "shop": "interior_decoration",
                "website": "http://www.xtile.ru/contacts/voznesenskiy/"
            },
            {
                "contact:vk": "https://vk.com/artefactum_decor_centre",
                "name": "Artefactum",
                "opening_hours": "Mo-Fr 10:00-20:00; Sa 11:00-19:00",
                "shop": "interior_decoration",
                "website": "http://www.artefactum-spb.ru/"
            }
        ]
    },
    "books": {
        "count": 1,
        "detail": [
            {
                "brand": "Буквоед",
                "brand:wikidata": "Q4098549",
                "brand:wikipedia": "ru:Буквоед",
                "contact:vk": "https://vk.com/bookvoed",
                "name": "Буквоед",
                "opening_hours": "Mo-Fr 09:00-22:00; Sa-Su 10:00-22:00",
                "shop": "books",
                "website": "https://www.bookvoed.ru/shop?id=19"
            }
        ]
    },
    "e-cigarette": {
        "count": 2,
        "detail": [
            {
                "contact:email": "sale@vardex.ru",
                "contact:facebook": "https://www.facebook.com/vardexRU",
                "contact:instagram": "http://instagram.com/vardex_ru",
                "contact:phone": "+7 812 3095198 ext. 1010",
                "contact:twitter": "https://twitter.com/Vardexru",
                "contact:vk": "https://vk.com/vardex_ru",
                "contact:website": "https://vardex.ru/",
                "name": "Vardex",
                "opening_hours": "Mo-Fr 09:00-21:00;Sa-Su 10:00-21:00",
                "operator": "«ВАРДЕКС ПЛЮС»",
                "shop": "e-cigarette"
            },
            {
                "name": "Babylon Литературный",
                "shop": "e-cigarette",
                "website": "http://babylonvape.ru/page/babylon-saint-p-sennoy",
                "contact:vk": "https://vk.com/babylonvape_saintp",
                "opening_hours": "11:00-23:00"
            }
        ]
    },
    "florist": {
        "count": 5,
        "detail": [
            {
                "contact:vk": "https://vk.com/gnezdosoroki",
                "name": "Гнездо сороки",
                "shop": "florist"
            },
            {
                "shop": "florist"
            },
            {
                "contact:vk": "https://vk.com/botanikalab",
                "name": "Ботаника Lab",
                "shop": "florist",
                "website": "http://botanikalab.ru/"
            },
            {
                "name": "Цветы",
                "note": "возможно https://vk.com/mondial_ru",
                "opening_hours": "24/7",
                "shop": "florist"
            },
            {
                "name": "Фантазия",
                "shop": "florist",
                "layer": "-1",
                "website": "https://eliteflower.ru/",
                "location": "underground",
                "contact:vk": "https://vk.com/eliteflower",
                "opening_hours": "08:00-22:00"
            }
        ]
    },
    "outdoor": {
        "count": 1,
        "detail": [
            {
                "addr:housenumber": "24",
                "addr:street": "переулок Гривцова",
                "contact:vk": "https://vk.com/sport_meloman",
                "name": "Спортивный меломан",
                "opening_hours": "10:00-21:00",
                "second_hand": "yes",
                "shop": "outdoor",
                "website": "http://komissionnyi-magazin.ru/"
            }
        ]
    },
    "playground": {
        "count": 5,
        "detail": [
            {
                "leisure": "playground"
            },
            {
                "leisure": "playground"
            },
            {
                "leisure": "playground"
            },
            {
                "leisure": "playground"
            },
            {
                "leisure": "playground"
            }
        ]
    },
    "confectionery": {
        "count": 5,
        "detail": [
            {
                "name": "Кодитерский магазин",
                "shop": "confectionery",
                "brand": "Фабрика им. Н.К. Крупской"
            },
            {
                "email": "rubigor@yandex.ru",
                "name": "RubisCookies",
                "name:en": "RubisCookies",
                "name:full": "Бюро сладкой архитектуры \"RubisCookies\"",
                "opening_hours": "Mo-Su 12:00-21:00",
                "phone": "+7 921 4181695",
                "shop": "confectionery",
                "website": "https://www.rubiscookies.ru/"
            },
            {
                "contact:vk": "https://vk.com/sladostidlradosti",
                "name": "Сладкий сувенир",
                "opening_hours": "09:00-21:00",
                "shop": "confectionery",
                "website": "http://sladostispb.ru/"
            },
            {
                "contact:vk": "https://vk.com/chocorus",
                "level": "0",
                "name": "Chocorus",
                "opening_hours": "Tu-Su 14:00-21:00",
                "shop": "confectionery"
            },
            {
                "contact:vk": "https://vk.com/sosweetco",
                "level": "0",
                "name": "So Sweet Co",
                "shop": "confectionery",
                "website": "https://sweet.so/"
            }
        ]
    },
    "tea": {
        "count": 2,
        "detail": [
            {
                "name": "SmackCoffee",
                "shop": "tea",
                "email": "zakaz@smackcoffee.ru",
                "phone": "+7 812 3748334;+7 981 9951667",
                "amenity": "cafe",
                "cuisine": "coffee_shop",
                "website": "https://smackcoffee.ru/",
                "operator": "Пекаторос Татьяна Валерьевна",
                "addr:street": "переулок Антоненко",
                "opening_hours": "Mo-Fr 08:00-20:00; Sa-Su 10:00-20:00",
                "addr:housenumber": "5"
            },
            {
                "name": "Унция",
                "shop": "tea",
                "website": "https://www.chay.info/",
                "contact:vk": "https://vk.com/teaounce",
                "opening_hours": "09:30-21:00"
            }
        ]
    },
    "erotic": {
        "count": 3,
        "detail": [
            {
                "name": "Extaz",
                "shop": "erotic",
                "website": "https://www.extazshop.ru/spb/3/",
                "contact:vk": "https://vk.com/extazshop",
                "opening_hours": "24/7"
            },
            {
                "name": "Эрос мания",
                "shop": "erotic",
                "operator": "ООО «Конус»",
                "opening_hours": "11:00-21:00"
            },
            {
                "contact:vk": "https://vk.com/tochkalubvi",
                "level": "-1",
                "name": "Точка любви",
                "opening_hours": "24/7",
                "shop": "erotic",
                "website": "https://www.tochka-lubvi.ru/"
            }
        ]
    },
    "recycling": {
        "count": 2,
        "detail": [
            {
                "name": "Экобокс",
                "fixme": "уточнить положение",
                "amenity": "recycling",
                "recycling_type": "container",
                "recycling:batteries": "yes",
                "recycling:hydrargyrum": "yes",
                "recycling:hazardous_waste": "yes",
                "recycling:low_energy_bulbs": "yes",
                "recycling:fluorescent_tubes": "yes"
            },
            {
                "name": "Экобокс",
                "fixme": "уточнить положение",
                "amenity": "recycling",
                "recycling_type": "container",
                "recycling:batteries": "yes",
                "recycling:hydrargyrum": "yes",
                "recycling:hazardous_waste": "yes",
                "recycling:low_energy_bulbs": "yes",
                "recycling:fluorescent_tubes": "yes"
            }
        ]
    },
    "copyshop": {
        "count": 2,
        "detail": [
            {
                "contact:vk": "https://vk.com/kopykanz",
                "level": "-1",
                "name": "КопиКанц",
                "opening_hours": "08:30-20:00",
                "shop": "copyshop",
                "website": "https://kopykanz.ru/"
            },
            {
                "contact:vk": "https://vk.com/copyspbru",
                "internet_access": "wlan",
                "name": "OQ Express",
                "opening_hours": "Mo-Su 09:00-21:00",
                "shop": "copyshop",
                "website": "https://copy.spb.ru/"
            }
        ]
    },
    "farm": {
        "count": 2,
        "detail": [
            {
                "name": "ecofamily",
                "shop": "farm",
                "phone": "+7 812 9603267",
                "organic": "only",
                "website": "http://www.ecofamily.ru/",
                "operator": "Рудакова Ж.А.",
                "contact:vk": "https://vk.com/ecoem",
                "payment:visa": "yes",
                "opening_hours": "10:00-21:00",
                "payment:maestro": "yes",
                "payment:mastercard": "yes",
                "payment:visa_electron": "yes"
            },
            {
                "contact:vk": "https://vk.com/ecomedved_spb",
                "name": "Медведь",
                "shop": "farm",
                "website": "http://medved-centr.ru/"
            }
        ]
    },
    "gift": {
        "count": 2,
        "detail": [
            {
                "contact:vk": "https://vk.com/lilkko",
                "name": "Lilkko",
                "opening_hours": "Mo-Su 10:00-22:00",
                "shop": "gift",
                "website": "https://www.lilkko.ru/"
            },
            {
                "contact:vk": "https://vk.com/rediskashop",
                "level": "0",
                "name": "Rediska Project",
                "note": "3 магазина",
                "opening_hours": "12:00-21:00",
                "shop": "gift",
                "website": "https://www.rediskaproject.ru/"
            }
        ]
    },
    "post_box": {
        "count": 3,
        "detail": [
            {
                "amenity": "post_box",
                "collection_times": "Mo-Th 16:20,23:45; Fr 16:20; Sa 08:30; Su 16:20,23:45",
                "design:year": "2010",
                "drive_through": "no",
                "operator": "Почта России",
                "post_box:design": "ЯПНМ-II-С",
                "post_box:type": "wall",
                "ref": "154"
            },
            {
                "amenity": "post_box",
                "collection_times": "Mo-Sa 07:15",
                "drive_through": "no",
                "indoor": "yes",
                "level": "2",
                "opening_hours": "Mo-Fr 08:00-14:00,15:00-20:00; Sa 09:00-14:00,15:00-18:00; Su off",
                "operator": "Почта России",
                "post_box:design": "custom",
                "post_box:type": "pillar",
                "ref": "247"
            },
            {
                "ref": "155",
                "amenity": "post_box",
                "operator": "Почта России",
                "design:year": "2010",
                "drive_through": "no",
                "post_box:type": "wall",
                "post_box:design": "ЯПНМ-II-С",
                "collection_times": "Mo-Th 16:25,23:50; Fr 16:25; Sa 08:35; Su 16:25,23:50"
            }
        ]
    },
    "telephone": {
        "count": 2,
        "detail": [
            {
                "amenity": "telephone",
                "payment:telephone_cards": "yes"
            },
            {
                "amenity": "telephone"
            }
        ]
    },
    "money_lender": {
        "count": 1,
        "detail": [
            {
                "name": "Миг кредит",
                "opening_hours": "Mo-Fr 09:00-20:00; Sa 09:00-18:00; Su 09:00-16:00",
                "shop": "money_lender",
                "website": "https://migcredit.ru/"
            }
        ]
    },
    "escape_game": {
        "count": 1,
        "detail": [
            {
                "name": "Нора кролика",
                "note": "\"Друзья на Сенной\" возможно вместо него, а возможно и рядом с ним",
                "leisure": "escape_game",
                "name:en": "Rabbit Hole",
                "name:ru": "Нора кролика",
                "website": "https://norakrolika.ru/",
                "contact:vk": "https://vk.com/holequest"
            }
        ]
    },
    "party": {
        "count": 1,
        "detail": [
            {
                "contact:vk": "https://vk.com/aeroburo_ru",
                "name": "Аэробюро",
                "shop": "party",
                "website": "https://www.aeroburo.ru/"
            }
        ]
    },
    "bank": {
        "count": 3,
        "detail": [
            {
                "amenity": "bank",
                "contact:vk": "https://vk.com/vostbankru",
                "name": "Восточный",
                "opening_hours": "10:00-19:00",
                "website": "https://www.vostbank.ru/"
            },
            {
                "amenity": "bank",
                "brand": "Совкомбанк",
                "brand:ru": "Совкомбанк",
                "brand:wikidata": "Q4426566",
                "brand:wikipedia": "ru:Совкомбанк",
                "contact:vk": "https://vk.com/sovcombank",
                "name": "Совкомбанк",
                "name:ru": "Совкомбанк",
                "opening_hours": "Mo-Fr 10:00-20:00; Sa-Su 10:00-17:00",
                "website": "https://sovcombank.ru/"
            },
            {
                "amenity": "bank",
                "name": "Консервативный коммерческий банк",
                "opening_hours": "Mo-Th 09:00-18:00; Fr 09:00-17:00",
                "short_name": "ККБ",
                "website": "https://kkb.ru/about-bank/kontakty-i-rekvizity-sankt-peterburg/"
            }
        ]
    },
    "social_facility": {
        "count": 2,
        "detail": [
            {
                "amenity": "social_facility",
                "entrance": "yes",
                "name": "Центр социальной помощи семье и детям Адмиралтейского района Санкт-Петербурга",
                "website": "http://cspsd.admiral.gov.spb.ru/"
            },
            {
                "amenity": "social_facility",
                "name": "Дом системы социального обслуживания населения",
                "social_facility": "assisted_living",
                "social_facility:for": "senior",
                "website": "https://www.gov.spb.ru/helper/social/soc_vet/drugoe/"
            }
        ]
    },
    "jewelry": {
        "count": 3,
        "detail": [
            {
                "contact:instagram": "https://www.instagram.com/jerusalembazar/",
                "name": "Jerusalembazar",
                "opening_hours": "10:00-22:00",
                "operator": "ИП Либерман",
                "shop": "jewelry",
                "website": "https://jerusalembazar.ru/"
            },
            {
                "name": "Серебро",
                "opening_hours": "Mo-Fr 10:00-21:00; Sa-Su 11:00-21:00",
                "shop": "jewelry",
                "website": "http://serebro-juvelir.com/"
            },
            {
                "contact:instagram": "https://www.instagram.com/mir_kamnei_spb/",
                "level": "0",
                "name": "Мир камней",
                "opening_hours": "10:30-21:00",
                "shop": "jewelry",
                "website": "https://миркамнейспб.рф/"
            }
        ]
    },
    "model": {
        "count": 1,
        "detail": [
            {
                "contact:vk": "https://vk.com/mirmodelej_spb",
                "name": "Мир моделей",
                "opening_hours": "12:00-20:00",
                "shop": "model",
                "website": "http://mirmodspb.ru/roznitsa"
            }
        ]
    },
    "craft": {
        "count": 1,
        "detail": [
            {
                "access": "yes",
                "addr:city": "Санкт-Петербург",
                "addr:housenumber": "12",
                "addr:street": "Гражданская улица",
                "contact:vk": "https://vk.com/artkvartal",
                "door": "yes",
                "entrance": "staircase",
                "name": "Арт-квартал",
                "opening_hours": "09:00-21:00",
                "shop": "craft",
                "website": "https://artkvartal.ru/retail?go=shops&view=352"
            }
        ]
    },
    "internet_cafe": {
        "count": 1,
        "detail": [
            {
                "amenity": "internet_cafe",
                "name": "Золотая середина",
                "note": "рядом должен быть одноимённый отель"
            }
        ]
    },
    "bathroom_furnishing": {
        "count": 1,
        "detail": [
            {
                "contact:vk": "https://vk.com/elsodom",
                "name": "ЭнергоДом",
                "opening_hours": "Mo-Fr 09:00-20:00; Sa 10:00-20:00; Su 10:00-19:00",
                "shop": "bathroom_furnishing",
                "website": "https://elsodom.ru/"
            }
        ]
    },
    "doctors": {
        "count": 3,
        "detail": [
            {
                "amenity": "doctors",
                "brand": "Инвитро",
                "brand:wikidata": "Q4200546",
                "contact:vk": "https://vk.com/invitro",
                "healthcare": "doctor",
                "name": "Инвитро",
                "opening_hours": "Mo-Fr 07:30-20:00; Sa 08:30-17:00; Su 09:00-15:00",
                "operator": "ООО «Инвитро СПб»",
                "website": "https://www.invitro.ru/offices/piter/clinic.php?ID=8359"
            },
            {
                "amenity": "doctors",
                "contact:vk": "https://vk.com/mc_odont",
                "healthcare": "doctor",
                "name": "Одонт",
                "opening_hours": "09:00-21:00",
                "website": "https://www.odont.ru/"
            },
            {
                "addr:housenumber": "54",
                "addr:street": "Казанская улица",
                "amenity": "doctors",
                "building": "yes",
                "building:levels": "4",
                "healthcare": "doctor",
                "name": "Поликлиника №81 «Максимилиановская»",
                "opening_hours": "Mo-Fr 08:00-20:00; Sa 09:00-15:00",
                "website": "http://maxi-med.spb.ru/"
            }
        ]
    },
    "medical_supply": {
        "count": 3,
        "detail": [
            {
                "brand": "Ортека",
                "brand:wikidata": "Q62393660",
                "contact:email": "info@orteka.ru",
                "contact:facebook": "https://www.facebook.com/orteka.rus",
                "contact:instagram": "https://www.instagram.com/orteka_rus/",
                "contact:phone": "+7 800 3333112",
                "contact:vk": "https://vk.com/orteka_ru",
                "contact:website": "https://orteka.ru/salons/spb/12134/",
                "medical_supply": "orthopedic",
                "name": "Ортека",
                "opening_hours": "Mo-Su 09:00-21:00",
                "operator": "ООО «Никамед»",
                "shop": "medical_supply"
            },
            {
                "name": "Медтехника",
                "shop": "medical_supply",
                "website": "https://www.med-europa.com/"
            },
            {
                "contact:vk": "https://vk.com/medmagazinru",
                "name": "Мед-Магазин.ру",
                "opening_hours": "10:00-20:00",
                "shop": "medical_supply",
                "website": "https://www.med-magazin.ru/"
            }
        ]
    },
    "ticket": {
        "count": 1,
        "detail": [
            {
                "contact:vk": "https://vk.com/bileter",
                "name": "Bileter",
                "opening_hours": "10:00-21:00; 14:00-15:00 off",
                "shop": "ticket",
                "tickets:theatre": "yes",
                "website": "https://www.bileter.ru/"
            }
        ]
    },
    "hookah_lounge": {
        "count": 1,
        "detail": [
            {
                "amenity": "hookah_lounge",
                "name": "Кальян Хочу!",
                "website": "http://kalyan-hochu.ru/"
            }
        ]
    },
    "hairdresser_supply": {
        "count": 2,
        "detail": [
            {
                "name": "ЕвропаПроф",
                "opening_hours": "10:00-21:00",
                "operator": "ИП «Зильвестр А.Р.»",
                "shop": "hairdresser_supply",
                "website": "https://europaprof.ru/"
            },
            {
                "opening_hours": "Mo-Fr 10:00-20:00; Sa-Su 11:00-19:00",
                "shop": "hairdresser_supply"
            }
        ]
    },
    "radiotechnics": {
        "count": 1,
        "detail": [
            {
                "name": "Профи",
                "opening_hours": "Mo-Fr 10:00-20:00; Sa-Su 10:00-19:00",
                "operator": "ООО «Нева-Стиль»",
                "shop": "radiotechnics",
                "website": "http://siriust.ru/"
            }
        ]
    },
    "spices": {
        "count": 1,
        "detail": [
            {
                "contact:vk": "https://vk.com/belkinolukoshko",
                "name": "Белкино лукошко",
                "opening_hours": "10:00-21:00",
                "shop": "spices"
            }
        ]
    },
    "stationery": {
        "count": 1,
        "detail": [
            {
                "brand": "Комус",
                "brand:en": "Komus",
                "brand:wikidata": "Q4230314",
                "brand:wikipedia": "en:Komus (company)",
                "contact:vk": "https://vk.com/komus_club",
                "name": "Комус",
                "name:en": "Komus",
                "opening_hours": "Mo-Fr 09:00-21:00; Sa-Su 10:00-20:00",
                "operator": "ООО «Комус-Петербург»",
                "shop": "stationery",
                "website": "https://www.komus.ru/store/sankt-peterburg/tts-sadovaya/s/143/"
            }
        ]
    },
    "bag": {
        "count": 2,
        "detail": [
            {
                "name": "h.o.p",
                "opening_hours": "11:00-21:00",
                "shop": "bag",
                "website": "http://www.hop.spb.ru/"
            },
            {
                "contact:vk": "https://vk.com/ffunction",
                "level": "1",
                "name": "Friend Function",
                "shop": "bag",
                "website": "https://friendfunction.ru/"
            }
        ]
    },
    "games": {
        "count": 1,
        "detail": [
            {
                "name": "Hobby Games",
                "shop": "games",
                "level": "0",
                "website": "https://hobbygames.ru/magazin_na_sennoy",
                "contact:vk": "https://vk.com/hobbygames_sp",
                "opening_hours": "10:00-21:00"
            }
        ]
    },
    "electronics": {
        "count": 1,
        "detail": [
            {
                "name": "Redmond",
                "shop": "electronics",
                "level": "0",
                "website": "https://multivarka.pro/shops/sankt_peterburg/000007691/",
                "operator": "ООО «Гравилат»",
                "contact:vk": "https://vk.com/multipro",
                "opening_hours": "10:00-22:00"
            }
        ]
    },
    "collector": {
        "count": 1,
        "detail": [
            {
                "name": "Марки",
                "shop": "collector",
                "website": "http://zagorsky-stamps.ru/"
            }
        ]
    },
    "travel_agency": {
        "count": 2,
        "detail": [
            {
                "contact:vk": "https://vk.com/spbetoile",
                "name": "Этуаль",
                "opening_hours": "Mo-Fr 10:00-19:00",
                "shop": "travel_agency",
                "website": "https://etoile.ru/"
            },
            {
                "name": "Фиеста Гранд Тур",
                "note": "вход за воротами арки",
                "shop": "travel_agency",
                "website": "http://fiestagt.ru/",
                "contact:vk": "https://vk.com/fiestagtt",
                "opening_hours": "Mo-Fr 11:00-19:00"
            }
        ]
    },
    "photo": {
        "count": 1,
        "detail": [
            {
                "contact:vk": "https://vk.com/momentography",
                "level": "0",
                "name": "Моментография",
                "opening_hours": "Mo-Fr 13:00-20:00; Sa 13:00-18:00",
                "shop": "photo"
            }
        ]
    },
    "studio": {
        "count": 1,
        "detail": [
            {
                "amenity": "studio",
                "contact:vk": "https://vk.com/therealopenstudio",
                "level": "3",
                "name": "Open Studio",
                "studio": "photography"
            }
        ]
    },
    "training": {
        "count": 3,
        "detail": [
            {
                "amenity": "training",
                "contact:vk": "https://vk.com/as.backstage",
                "description": "школа макияжа и причесок",
                "level": "2",
                "name": "Backstage",
                "website": "http://as-bs.ru/"
            },
            {
                "name": "ИнтЭгра",
                "amenity": "training",
                "website": "http://integraclub.com/",
                "contact:vk": "https://vk.com/integrapsy"
            },
            {
                "amenity": "training",
                "contact:vk": "https://vk.com/prestigekurs",
                "name": "Престиж",
                "opening_hours": "Mo-Fr 10:00-19:00; Sa-Su 10:00-16:00",
                "website": "http://prestige-kurs.ru/"
            }
        ]
    },
    "bicycle": {
        "count": 2,
        "detail": [
            {
                "contact:vk": "https://vk.com/itsmybike",
                "level": "1",
                "name": "It's my!bike",
                "opening_hours": "Mo-Fr 13:00-21:00; Sa-Su 13:00-20:00",
                "shop": "bicycle",
                "website": "https://itsmybike.ru/"
            },
            {
                "alt_name": "Мастерская у Антонио",
                "contact:vk": "https://vk.com/antonsworkshop",
                "name": "Anton's workshop",
                "phone": "+7 (967) 530-84-20",
                "service:bicycle:repair": "yes",
                "service:bicycle:retail": "no",
                "shop": "bicycle",
                "website": "https://vk.com/antonsworkshop"
            }
        ]
    },
    "dance": {
        "count": 2,
        "detail": [
            {
                "contact:vk": "https://vk.com/sdvigorg",
                "dance:teaching": "yes",
                "leisure": "dance",
                "level": "3",
                "name": "Сдвиг",
                "website": "http://sdvig.org/"
            },
            {
                "contact:vk": "https://vk.com/move_dance",
                "dance:teaching": "yes",
                "leisure": "dance",
                "name": "Movement",
                "website": "https://www.movement-spb.com/"
            }
        ]
    },
    "pet": {
        "count": 1,
        "detail": [
            {
                "shop": "pet"
            }
        ]
    },
    "greengrocer": {
        "count": 1,
        "detail": [
            {
                "name": "На грядке",
                "shop": "greengrocer"
            }
        ]
    },
    "place_of_worship": {
        "count": 2,
        "detail": [
            {
                "amenity": "place_of_worship",
                "denomination": "baptist",
                "name": "Краеугольный камень",
                "note": "http://baptist.org.ru/churches/church/people_organization/142055",
                "religion": "christian"
            },
            {
                "name": "Храм святителя Николая Чудотворца на Вознесенском проспекте",
                "amenity": "place_of_worship",
                "website": "http://nikola-hram.ru/",
                "building": "yes",
                "religion": "christian",
                "contact:vk": "https://vk.com/nikola_hram_ru",
                "addr:street": "Казанская улица",
                "denomination": "russian_orthodox",
                "opening_hours": "09:00-19:00",
                "building:levels": "1",
                "addr:housenumber": "37"
            }
        ]
    },
    "toys": {
        "count": 2,
        "detail": [
            {
                "opening_hours": "Mo-Sa 11:00-20:00; Su,PH 11:00-19:00",
                "operator": "ООО \"Панта\"",
                "shop": "toys"
            },
            {
                "contact:vk": "https://vk.com/siburka",
                "email": "info@sivka-burka.com",
                "level": "-0.5",
                "name": "Сивка-Бурка",
                "opening_hours": "Mo-Fr 10:00-20:00",
                "operator": "Захарова Александра Васильевна",
                "payment:cash": "yes",
                "payment:maestro": "yes",
                "payment:mastercard": "yes",
                "payment:visa": "yes",
                "payment:visa_electron": "yes",
                "phone": "+7 800 3015502;+7 911 8310614",
                "shop": "toys",
                "website": "http://sivka-burka.com/",
                "wheelchair": "no"
            }
        ]
    },
    "outpost": {
        "count": 1,
        "detail": [
            {
                "brand": "Wildberries",
                "brand:wikidata": "Q24933714",
                "brand:wikipedia": "ru:Wildberries",
                "contact:vk": "https://vk.com/club9695053",
                "name": "Wildberries",
                "opening_hours": "Su-Fr 11:00-19:00",
                "reservation": "required",
                "shop": "outpost",
                "website": "https://www.wildberries.ru/"
            }
        ]
    },
    "bookmaker": {
        "count": 1,
        "detail": [
            {
                "name": "Greenbet",
                "shop": "bookmaker",
                "opening_hours": "24/7"
            }
        ]
    },
    "second_hand": {
        "count": 1,
        "detail": [
            {
                "name": "Добро",
                "shop": "second_hand",
                "level": "1",
                "website": "http://piterkomok.ru/",
                "contact:vk": "https://vk.com/piterkomok",
                "opening_hours": "10:00-21:00"
            }
        ]
    },
    "bicycle_parking": {
        "count": 2,
        "detail": [
            {
                "amenity": "bicycle_parking",
                "bicycle_parking": "rack",
                "capacity": "13",
                "covered": "no"
            },
            {
                "amenity": "bicycle_parking",
                "bicycle_parking": "stands",
                "covered": "no"
            }
        ]
    },
    "sports": {
        "count": 1,
        "detail": [
            {
                "contact:vk": "https://vk.com/airwars",
                "name": "AWTactical",
                "opening_hours": "Mo-Fr 10:00-20:00; Sa-Su 11:00-19:00",
                "shop": "sports",
                "website": "http://air-wars.ru/"
            }
        ]
    },
    "bed": {
        "count": 1,
        "detail": [
            {
                "shop": "bed"
            }
        ]
    },
    "chemical": {
        "count": 1,
        "detail": [
            {
                "description": "Магазин химических реактивов",
                "name": "Химмаг-СПб",
                "opening_hours": "10:00-21:00",
                "operator": "ООО «Экспит»",
                "shop": "chemical",
                "website": "https://himmag-spb.ru/"
            }
        ]
    },
    "payment_terminal": {
        "count": 1,
        "detail": [
            {
                "amenity": "payment_terminal"
            }
        ]
    },
    "sauna": {
        "count": 1,
        "detail": [
            {
                "leisure": "sauna",
                "note": "https://saunapiter.ru/katalog/kazanskaya",
                "phone": "+7 812 6481230"
            }
        ]
    },
    "events_venue": {
        "count": 1,
        "detail": [
            {
                "amenity": "events_venue",
                "contact:vk": "https://vk.com/banketsapphire",
                "name": "Sapphire"
            }
        ]
    },
    "bench": {
        "count": 5,
        "detail": [
            {
                "amenity": "bench"
            },
            {
                "amenity": "bench"
            },
            {
                "amenity": "bench"
            },
            {
                "amenity": "bench"
            },
            {
                "amenity": "bench"
            }
        ]
    },
    "community_centre": {
        "count": 1,
        "detail": [
            {
                "amenity": "community_centre",
                "name": "Бергольц центр"
            }
        ]
    },
    "theatre": {
        "count": 1,
        "detail": [
            {
                "amenity": "theatre",
                "email": "aktivfotogroup@gmail.com",
                "name": "Театр-Проект «Музыка города»",
                "opening_hours": "We, Fr-Sa 13:00-20:00",
                "operator": "Театр-Проект «Музыка Города»",
                "phone": "+7 911 1396383",
                "ref:mkrf_theaters": "36931",
                "website": "http://музыкагорода.рф"
            }
        ]
    },
    "atm": {
        "count": 3,
        "detail": [
            {
                "amenity": "atm",
                "brand": "Санкт-Петербург",
                "contact:email": "cc@bspb.ru",
                "contact:facebook": "https://www.facebook.com/bspb/",
                "contact:instagram": "https://instagram.com/bank_spb",
                "contact:ok": "https://ok.ru/bspb",
                "contact:phone": "+7 800 2225050;+7 812 3295050",
                "contact:twitter": "https://twitter.com/bank_spb",
                "contact:vk": "https://vk.com/bspb",
                "contact:website": "https://www.bspb.ru/",
                "currency:RUB": "yes",
                "opening_hours": "Mo-Su 05:36-00:19",
                "operator": "ПАО Банк Санкт-Петербург",
                "telegram": "https://t.me/mybspb"
            },
            {
                "amenity": "atm",
                "brand": "Санкт-Петербург",
                "contact:email": "cc@bspb.ru",
                "contact:facebook": "https://www.facebook.com/bspb/",
                "contact:instagram": "https://instagram.com/bank_spb",
                "contact:ok": "https://ok.ru/bspb",
                "contact:phone": "+7 800 2225050;+7 812 3295050",
                "contact:twitter": "https://twitter.com/bank_spb",
                "contact:vk": "https://vk.com/bspb",
                "contact:website": "https://www.bspb.ru/",
                "currency:RUB": "yes",
                "opening_hours": "Mo-Sa 08:00-22:00",
                "operator": "ПАО Банк Санкт-Петербург",
                "telegram": "https://t.me/mybspb"
            },
            {
                "amenity": "atm",
                "brand": "Санкт-Петербург",
                "contact:email": "cc@bspb.ru",
                "contact:facebook": "https://www.facebook.com/bspb/",
                "contact:instagram": "https://instagram.com/bank_spb",
                "contact:ok": "https://ok.ru/bspb",
                "contact:phone": "+7 800 2225050;+7 812 3295050",
                "contact:twitter": "https://twitter.com/bank_spb",
                "contact:vk": "https://vk.com/bspb",
                "contact:website": "https://www.bspb.ru/",
                "currency:RUB": "yes",
                "opening_hours": "Mo-Fr 09:00-18:00",
                "operator": "ПАО Банк Санкт-Петербург",
                "telegram": "https://t.me/mybspb"
            }
        ]
    },
    "gym": {
        "count": 1,
        "detail": [
            {
                "amenity": "gym",
                "contact:email": "kazanskaya@ilove-sport.ru",
                "contact:instagram": "https://instagram.com/ils_challenge",
                "contact:phone": "+7 812 7791585",
                "contact:vk": "https://vk.com/m.challenge",
                "contact:website": "https://fitness.m-challenge.ru/",
                "name": "ILS Challenge",
                "opening_hours": "Mo-Fr 08:00-23:00;Sa-Su 09:00-22:00",
                "operator": "ILS Challenge"
            }
        ]
    },
    "school": {
        "count": 2,
        "detail": [
            {
                "addr:housenumber": "48",
                "addr:street": "Казанская улица",
                "building": "school",
                "building:levels": "4"
            },
            {
                "addr:housenumber": "76",
                "addr:letter": "П",
                "addr:street": "набережная канала Грибоедова",
                "amenity": "school",
                "building": "school",
                "building:levels": "4",
                "contact:email": "sc256.adm@obr.gov.spb.ru",
                "contact:phone": "+7 812 5739874",
                "contact:website": "http://sc.adm-edu.spb.ru/256/",
                "name": "Школа № 256",
                "official_name": "Государственное бюджетное общеобразовательное учреждение средняя общеобразовательная школа № 256 Адмиралтейского района Санкт-Петербурга",
                "ref": "256"
            }
        ]
    },
    "service": {
        "count": 3,
        "detail": [
            {
                "power": "substation",
                "building": "service",
                "building:levels": "1"
            },
            {
                "power": "substation",
                "building": "service",
                "addr:letter": "Б",
                "addr:street": "переулок Гривцова",
                "addr:housenumber": "20"
            },
            {
                "building": "service",
                "man_made": "mineshaft",
                "mineshaft_type": "air",
                "ref": "520"
            }
        ]
    }
}