{
    "residents": 8910,
    "bathroom_furnishing": {
        "count": 3,
        "detail": [
            {
                "name": "Стройторг",
                "shop": "bathroom_furnishing",
                "phone": "+7 812 5727510;+7 812 3149653",
                "website": "http://stroytorg97.ru/",
                "opening_hours": "Mo-Fr 10:00-19:00; Sa 10:00-18:00; Su 11:00-18:00"
            },
            {
                "contact:vk": "https://vk.com/akvalink",
                "name": "Аквалинк",
                "opening_hours": "Mo-Fr 10:00-19:00; Sa-Su 10:00-17:00",
                "shop": "bathroom_furnishing",
                "website": "https://akvalink.ru/"
            },
            {
                "name": "Метизы",
                "shop": "bathroom_furnishing"
            }
        ]
    },
    "dry_cleaning": {
        "count": 2,
        "detail": [
            {
                "name": "Дом быта",
                "shop": "dry_cleaning",
                "craft": "engraver;jeweller;key_cutter;shoemaker;tailor;watchmaker",
                "phone": "+7 911 9946972",
                "opening_hours": "Mo-Sa 11:00-20:00; Su 12:00-18:00"
            },
            {
                "craft": "tailor",
                "level": "-1",
                "shop": "dry_cleaning"
            }
        ]
    },
    "fast_food": {
        "count": 8,
        "detail": [
            {
                "amenity": "fast_food",
                "contact:vk": "https://vk.com/tarelka_life",
                "fast_food": "cafeteria",
                "name": "Тарелка",
                "opening_hours": "08:00-22:00",
                "operator": "ООО «Гермес»",
                "website": "http://tarelkas.ru/cafes/marata-56/",
                "wheelchair": "no"
            },
            {
                "amenity": "fast_food",
                "name": "Весёлый пекарь",
                "opening_hours": "10:00-20:00"
            },
            {
                "addr:city": "Санкт-Петербург",
                "addr:housenumber": "23",
                "addr:street": "Разъезжая улица",
                "amenity": "fast_food",
                "contact:instagram": "https://www.instagram.com/shaverma_s_lokot/",
                "name": "Шаверма с локоть",
                "opening_hours": "10:00-22:00",
                "website": "http://shaverma-s-lokot.ru/"
            },
            {
                "name": "Столовая",
                "amenity": "fast_food",
                "fast_food": "cafeteria",
                "wheelchair": "limited",
                "opening_hours": "Mo-Su 09:00-21:00"
            },
            {
                "name": "Тайяки",
                "amenity": "fast_food",
                "cuisine": "national",
                "name:en": "Taiyaki",
                "name:ja": "たいやき",
                "contact:vk": "https://vk.com/taiyakicafe",
                "opening_hours": "Su-Th 11:00-21:00; Fr-Sa 11:00-22:00"
            },
            {
                "amenity": "fast_food",
                "contact:vk": "https://vk.com/dozacafe",
                "cuisine": "coffee_shop",
                "name": "Doza",
                "opening_hours": "Mo-Fr 07:30-21:00; Sa-Su 09:00-21:00",
                "website": "https://doza.business.site/"
            },
            {
                "name": "Когда я ем...",
                "amenity": "fast_food",
                "fast_food": "cafeteria"
            },
            {
                "amenity": "fast_food",
                "contact:vk": "https://vk.com/stickercoffee",
                "cuisine": "coffee_shop",
                "name": "Sticker Coffee"
            }
        ]
    },
    "pastry": {
        "count": 1,
        "detail": [
            {
                "amenity": "cafe",
                "contact:vk": "https://vk.com/bushe.bakery",
                "name": "Буше",
                "opening_hours": "08:00-22:00",
                "operator": "ООО «ПКД «Венец»",
                "shop": "pastry",
                "website": "https://bushe.ru/"
            }
        ]
    },
    "cafe": {
        "count": 22,
        "detail": [
            {
                "name": "Анталия",
                "amenity": "cafe",
                "opening_hours": "Mo-Sa 10:00-19:00"
            },
            {
                "name": "Хинкали Хачапури",
                "phone": "+7 812 5756836",
                "amenity": "cafe",
                "cuisine": "georgian",
                "name:en": "Xinkali xachapuri",
                "name:ka": "ხინკალი ხაჭაპური",
                "wheelchair": "no",
                "opening_hours": "Mo-Su 10:00-23:00"
            },
            {
                "amenity": "cafe",
                "contact:vk": "https://vk.com/club45456896",
                "name": "Плюшкин дом",
                "smoking": "no",
                "website": "http://www.plushkin-dom.ru/"
            },
            {
                "name": "MFC Foods",
                "amenity": "cafe",
                "smoking": "no",
                "opening_hours": "Mo-Fr 8:30-19:00",
                "internet_access": "no"
            },
            {
                "amenity": "cafe",
                "contact:instagram": "https://www.instagram.com/more_insideyou/",
                "name": "Море внутри тебя"
            },
            {
                "name": "Отдых",
                "amenity": "cafe",
                "website": "http://otdyh-kafe.ru/"
            },
            {
                "name": "Бриз",
                "amenity": "cafe",
                "contact:vk": "https://vk.com/club21169581",
                "opening_hours": "11:00-19:00"
            },
            {
                "name": "Старый город",
                "email": "oldsitybar@gmail.com",
                "phone": "+7 812 5721960;+7 911 7991879",
                "amenity": "cafe",
                "website": "http://cafesg.ru",
                "operator": "ООО «Кедр»",
                "contact:vk": "https://vk.com/sgorod26",
                "opening_hours": "Mo-Fr 10:00-23:00; Sa, Su 11:00-23:00"
            },
            {
                "amenity": "cafe",
                "contact:instagram": "https://www.instagram.com/meg_obari/",
                "contact:vk": "https://vk.com/cafe_megobari",
                "name": "Megobari"
            },
            {
                "amenity": "cafe",
                "contact:vk": "https://vk.com/pirogovdvorik",
                "internet_access": "wlan",
                "name": "Пироговый дворик",
                "opening_hours": "Mo-Fr 08:30-22:00, Sa,Su 10:00-22:00",
                "website": "http://pirogov-dvorik.ru/contacts/pirogovyy-dvorik-ul-razezzhaya/"
            },
            {
                "amenity": "cafe",
                "contact:vk": "https://vk.com/falafel_king",
                "int_name": "Falafel King",
                "name": "Фалафель King",
                "opening_hours": "24/7",
                "payment:cash": "yes",
                "payment:credit_cards": "no",
                "payment:debit_cards": "no",
                "takeaway": "yes",
                "wheelchair": "no"
            },
            {
                "amenity": "cafe",
                "contact:vk": "https://vk.com/plovgotovspb",
                "name": "Плов готов",
                "opening_hours": "Mo-Su 11:00-24:00",
                "phone": "+7 812 9073436"
            },
            {
                "amenity": "cafe",
                "level": "-1",
                "name": "Шаверма-сити",
                "phone": "+7 950 0005042"
            },
            {
                "amenity": "cafe",
                "contact:instagram": "https://www.instagram.com/procoffee_piter/",
                "level": "-1",
                "name": "Pro Coffee",
                "opening_hours": "Mo-Fr 08:00-20:00; Sa-Su 10:00-19:00"
            },
            {
                "amenity": "cafe",
                "cuisine": "georgian",
                "diet:vegetarian": "yes",
                "level": "-1",
                "name": "Хинкальная",
                "payment:credit_cards": "yes",
                "payment:debit_cards": "yes",
                "wheelchair": "no"
            },
            {
                "amenity": "cafe",
                "name:ru": "Жаровня"
            },
            {
                "name": "Crumbs",
                "amenity": "cafe",
                "contact:vk": "https://vk.com/crumbs.cafe"
            },
            {
                "amenity": "cafe",
                "contact:vk": "https://vk.com/cafedym",
                "name": "Дым",
                "website": "https://cafedym.ru/"
            },
            {
                "amenity": "cafe",
                "contact:vk": "krolikbegi",
                "diet:vegan": "only",
                "name": "Кролик, беги",
                "name:en": "Krolik, begi",
                "opening_hours": "10:00-22:00",
                "operator": "Любарова София Данииловна",
                "payment:cash": "yes",
                "payment:maestro": "yes",
                "payment:mastercard": "yes",
                "payment:visa": "yes",
                "payment:visa_electron": "yes",
                "phone": "+7 960 2783921",
                "website": "https://krolikbegi.ru/",
                "wheelchair": "no"
            },
            {
                "addr:postcode": "191002",
                "amenity": "cafe",
                "cuisine": "coffee_shop",
                "name": "Порт-Брю",
                "name:en": "Port Brew",
                "opening_hours": "Mo-Fr 08:00-21:00;\nSa-Su 09:00-21:00"
            },
            {
                "amenity": "cafe",
                "contact:vk": "https://vk.com/healthy_conscience",
                "name": "Healthy Conscience",
                "note": "во дворе",
                "website": "https://healthy-conscience.ru/"
            },
            {
                "amenity": "cafe",
                "opening_hours": "24/7"
            }
        ]
    },
    "optics": {
        "count": 1,
        "detail": [
            {
                "name": "Четыре глаза",
                "shop": "optics",
                "website": "https://www.4glaza.ru/",
                "operator": "ООО «Четыре глаза»",
                "contact:vk": "https://vk.com/chetyreglaza",
                "opening_hours": "10:00-21:00"
            }
        ]
    },
    "supermarket": {
        "count": 5,
        "detail": [
            {
                "name": "Дикси",
                "shop": "supermarket",
                "brand": "Дикси",
                "name:ru": "Дикси",
                "website": "https://dixy.ru/",
                "contact:vk": "https://vk.com/dixyclub",
                "contact:phone": "+7 800 3330201",
                "opening_hours": "08:00-23:00",
                "brand:wikidata": "Q4161561",
                "brand:wikipedia": "ru:Дикси (сеть магазинов)",
                "contact:youtube": "https://www.youtube.com/user/DixyChannel"
            },
            {
                "contact:vk": "https://vk.com/real_svezhie_produkty",
                "name": "РеалЪ",
                "opening_hours": "08:00-23:00",
                "operator": "ООО «Торговый дом «Реалъ»",
                "shop": "supermarket",
                "website": "http://www.tdreal.spb.ru/?page=93"
            },
            {
                "alt_name": "7 Шагов",
                "brand": "Семишагофф",
                "brand:wikidata": "Q58003374",
                "contact:vk": "https://vk.com/7shagoff",
                "name": "Семишагофф",
                "name:en": "Semishagoff",
                "name:ru": "Семишагофф",
                "opening_hours": "Mo-Su 09:00-22:00",
                "operator": "ООО «ТК Прогресс»",
                "phone": "+7 812 6485000",
                "shop": "supermarket",
                "website": "https://semishagoff.org/"
            },
            {
                "addr:city": "Санкт-Петербург",
                "addr:housenumber": "23",
                "addr:street": "Разъезжая улица",
                "alt_name": "Пятерочка",
                "alt_name:ru": "Пятерочка",
                "brand": "Пятёрочка",
                "brand:en": "Pyaterochka",
                "brand:wikidata": "Q1768969",
                "brand:wikipedia": "ru:Пятёрочка",
                "contact:facebook": "https://www.facebook.com/pyaterochka/",
                "contact:instagram": "https://www.instagram.com/pyaterochka_official",
                "contact:ok": "https://ok.ru/pyaterochka",
                "contact:vk": "https://vk.com/pyaterochka_shop",
                "name": "Пятёрочка",
                "name:en": "Pyaterochka",
                "name:ru": "Пятёрочка",
                "opening_hours": "Mo-Su 08:00-23:00",
                "operator": "ООО «Агроторг»",
                "phone": "+7 800 5555505",
                "shop": "supermarket",
                "website": "https://5ka.ru/"
            },
            {
                "contact:vk": "https://vk.com/vernoinfo",
                "name": "Верный",
                "opening_hours": "Mo-Fr 08:00-22:00; Sa-Su 09:00-22:00",
                "operator": "ООО «Союз Св. Иоанна Воина»",
                "shop": "supermarket",
                "website": "https://www.verno-info.ru/"
            }
        ]
    },
    "bank": {
        "count": 9,
        "detail": [
            {
                "amenity": "bank",
                "atm": "yes",
                "branch": "Северо-Западный банк",
                "brand": "Сбербанк",
                "brand:en": "Sberbank",
                "brand:ru": "Сбербанк",
                "brand:wikidata": "Q205012",
                "brand:wikipedia": "en:Sberbank of Russia",
                "contact:phone": "+7 800 5555550",
                "contact:vk": "https://vk.com/sberbank",
                "contact:website": "https://www.sberbank.ru/",
                "name": "Сбербанк",
                "name:en": "Sberbank",
                "name:ru": "Сбербанк",
                "opening_hours": "Mo-Fr 10:00-19:00",
                "operator": "ПАО Сбербанк",
                "operator:wikidata": "Q205012",
                "operator:wikipedia": "ru:Сбербанк России",
                "ref": "9055/09",
                "wheelchair": "no"
            },
            {
                "amenity": "bank",
                "brand": "Союз",
                "brand:wikidata": "Q4430442",
                "name": "Союз",
                "opening_hours": "Mo-Fr 09:30-20:00; Sa 10:00-18:30",
                "operator": "Банк Союз (АО)",
                "operator:wikidata": "Q4430442",
                "website": "https://www.banksoyuz.ru/"
            },
            {
                "name": "Заубер Банк",
                "phone": "+7 812 6470606",
                "amenity": "bank",
                "website": "https://www.sauberbank.com/",
                "operator": "АО «Заубер Банк»",
                "contact:vk": "https://vk.com/sauber_bank",
                "description": "Дополнительный офис №1 АО \"Заубер Банк\"",
                "opening_hours": "Mo-Su 09:30-20:30"
            },
            {
                "amenity": "bank",
                "name": "Финам",
                "opening_hours": "Mo-Fr 10:00-20:30; Sa 11:00-16:00",
                "operator": "АО \"Банк ФИНАМ\"",
                "phone": "+7 812 6677777",
                "website": "https://finambank.ru/"
            },
            {
                "amenity": "bank",
                "brand": "Уральский банк реконструкции и развития",
                "brand:en": "Ural Bank for Reconstruction and Development",
                "brand:ru": "Уральский банк реконструкции и развития",
                "brand:wikidata": "Q4476745",
                "brand:wikipedia": "ru:Уральский банк реконструкции и развития",
                "contact:email": "bank@ubrr.ru",
                "contact:phone": "+7 800 1000200",
                "contact:vk": "https://vk.com/bank_ubrr",
                "contact:website": "https://spb.ubrr.ru/",
                "name": "Уральский банк реконструкции и развития",
                "name:en": "Ural Bank for Reconstruction and Development",
                "name:ru": "Уральский банк реконструкции и развития",
                "opening_hours": "Mo-Fr 09:30-20:00;Sa 11:00-17:00",
                "operator": "УБРиР",
                "short_name": "УБРиР",
                "short_name:ru": "УБРиР"
            },
            {
                "name": "Московский Нефтехимический банк",
                "amenity": "bank",
                "website": "http://www.mnhb.ru/about/bank_today/sankt-peterburgskiy-filial-banka/",
                "opening_hours": "Mo-Fr 09:00-20:00"
            },
            {
                "name": "Почта Банк",
                "brand": "Почта Банк",
                "amenity": "bank",
                "website": "https://www.pochtabank.ru/",
                "operator": "ПАО «Почта Банк»",
                "contact:vk": "https://vk.com/pochtabank",
                "opening_hours": "Mo-Fr 10:00-19:00",
                "brand:wikidata": "Q24930461",
                "operator:wikidata": "Q24930461"
            },
            {
                "atm": "yes",
                "name": "НС Банк",
                "branch": "Операционный офис\"Петербургский\"",
                "amenity": "bank",
                "website": "http://www.nsbank.ru/",
                "operator": "АО \"НС Банк\"",
                "opening_hours": "Mo-Sa 09:00-21:00; Su 10:00-19:00"
            },
            {
                "amenity": "bank",
                "brand": "Danske Bank",
                "brand:wikidata": "Q1636974",
                "brand:wikipedia": "en:Danske Bank",
                "name": "Danske Bank",
                "website": "https://danskebank.ru/"
            }
        ]
    },
    "hairdresser": {
        "count": 4,
        "detail": [
            {
                "note": "возможно http://www.salonmila.ru/",
                "shop": "hairdresser",
                "brand": "Estel Professional",
                "opening_hours": "Mo-Sa 09:00-21:00; Su 10:00-21:00"
            },
            {
                "name": "Паола",
                "shop": "hairdresser",
                "phone": "+7 812 7131709",
                "opening_hours": "09:30-21:00"
            },
            {
                "name": "Красотка",
                "shop": "hairdresser",
                "opening_hours": "10:00-21:00"
            },
            {
                "name": "Clinch",
                "shop": "hairdresser",
                "website": "https://barber-spb.su/",
                "contact:vk": "https://vk.com/clinch67",
                "opening_hours": "11:00-21:00"
            }
        ]
    },
    "furniture": {
        "count": 5,
        "detail": [
            {
                "name": "Мебельный остров",
                "shop": "furniture",
                "website": "http://www.m-ostrov.ru/",
                "contact:vk": "https://vk.com/club138858742"
            },
            {
                "name": "ДиКом",
                "shop": "furniture",
                "website": "https://www.dikom.ru/",
                "operator": "ООО «ДиКом»",
                "contact:vk": "https://vk.com/dikomfactory",
                "opening_hours": "Mo-Fr 10:00-18:00"
            },
            {
                "name": "DomGrand",
                "opening_hours": "Mo-Sa 11:00-20:00",
                "shop": "furniture",
                "website": "https://www.domgrand.com/"
            },
            {
                "contact:vk": "https://vk.com/elite_meb",
                "name": "Элит мебель",
                "shop": "furniture",
                "website": "https://elite-meb.ru/"
            },
            {
                "name": "Hard de Core",
                "shop": "furniture",
                "level": "-1",
                "website": "https://harddecore.ru/"
            }
        ]
    },
    "convenience": {
        "count": 12,
        "detail": [
            {
                "name": "Продукты",
                "shop": "convenience",
                "opening_hours": "24/7"
            },
            {
                "name": "Продукты",
                "opening_hours": "24/7",
                "shop": "convenience"
            },
            {
                "name": "Продукты",
                "shop": "convenience",
                "opening_hours": "24/7"
            },
            {
                "name": "Продукты",
                "shop": "convenience",
                "opening_hours": "24/7"
            },
            {
                "name": "Продукты",
                "shop": "convenience",
                "wheelchair": "no",
                "opening_hours": "24/7"
            },
            {
                "contact:vk": "https://vk.com/all_for_sushi",
                "name": "Красный дракон",
                "opening_hours": "Mo-Su 10:00-21:00",
                "origin": "chinese;korean",
                "shop": "convenience",
                "website": "http://reddragon-spb.ru/",
                "wheelchair": "no"
            },
            {
                "name": "Аркуда",
                "shop": "convenience",
                "opening_hours": "24/7"
            },
            {
                "name": "Лайт",
                "opening_hours": "24/7",
                "shop": "convenience"
            },
            {
                "name": "АлтынКум",
                "opening_hours": "Mo-Su 10:00-21:00",
                "origin": "kazakh",
                "shop": "convenience",
                "website": "http://altyn-kym.ru/"
            },
            {
                "contact:vk": "https://vk.com/public179894147",
                "name": "Народный фермер",
                "shop": "convenience"
            },
            {
                "name": "Финские продукты",
                "opening_hours": "10:00-21:00",
                "origin": "finnish",
                "shop": "convenience"
            },
            {
                "brand": "ВкусВилл",
                "brand:wikidata": "Q57271676",
                "brand:wikipedia": "ru:Вкусвилл",
                "contact:facebook": "https://www.facebook.com/vkusvill.ru",
                "contact:instagram": "https://www.instagram.com/vkusvill_ru/",
                "contact:phone": "+7 921 3342787",
                "contact:twitter": "https://twitter.com/we_are_vkusvill",
                "contact:vk": "https://vk.com/vkusvill_ru",
                "name": "ВкусВилл",
                "opening_hours": "Mo-Su 08:00-23:00",
                "shop": "convenience",
                "website": "https://spb.vkusvill.ru/shops/?shop_id=12473"
            }
        ]
    },
    "mobile_phone": {
        "count": 1,
        "detail": [
            {
                "contact:vk": "https://vk.com/mytechnics",
                "level": "0",
                "name": "My Technics",
                "shop": "mobile_phone",
                "website": "https://mytechnics.ru/"
            }
        ]
    },
    "dentist": {
        "count": 12,
        "detail": [
            {
                "name": "Серебряный век",
                "amenity": "dentist"
            },
            {
                "amenity": "dentist",
                "contact:vk": "https://vk.com/kisstom",
                "name": "Кисс",
                "opening_hours": "Mo-Sa 09:00-21:00",
                "website": "https://kisstom.ru/"
            },
            {
                "amenity": "dentist",
                "name": "Космодент",
                "opening_hours": "Mo-Sa 09:00-20:00",
                "website": "https://www.kosmodent.spb.ru/"
            },
            {
                "amenity": "dentist",
                "healthcare": "dentist",
                "name": "Все свои!",
                "opening_hours": "09:00-22:00",
                "website": "https://vse-svoi.ru/spb/adresa-stomatologiy/metro-ligovskiy-prospekt/"
            },
            {
                "amenity": "dentist",
                "contact:vk": "https://vk.com/mirstomatologii",
                "name": "Мир стоматологии",
                "opening_hours": "09:00-21:00",
                "phone": "+7 812 5755270",
                "website": "https://mirstomatologii.com/nashi-kliniki/klinika-na-marata/"
            },
            {
                "amenity": "dentist",
                "healthcare": "dentist",
                "name": "МПЦ Романовский"
            },
            {
                "amenity": "dentist",
                "contact:vk": "https://vk.com/archimedclinic",
                "healthcare": "dentist",
                "name": "АрхиМед",
                "opening_hours": "09:00-21:00",
                "website": "http://archimedclinic.com/"
            },
            {
                "amenity": "dentist",
                "contact:vk": "https://vk.com/idealzub",
                "healthcare": "dentist",
                "name": "Центр доктора Розанова",
                "opening_hours": "09:00-21:00",
                "website": "http://www.ideal-zub.ru/"
            },
            {
                "name": "Доступная стоматология",
                "amenity": "dentist",
                "website": "https://dostom.ru/",
                "operator": "ООО «Доступная стоматология»",
                "contact:vk": "https://vk.com/dostom_ru",
                "opening_hours": "09:00-21:00"
            },
            {
                "amenity": "dentist",
                "name": "Лутс",
                "phone": "+7 812 7644363"
            },
            {
                "amenity": "dentist",
                "healthcare": "dentist",
                "name": "Денти",
                "opening_hours": "Mo-Fr 09:00-21:00; Sa 10:00-18:00",
                "website": "http://www.denti.ru/"
            },
            {
                "amenity": "dentist",
                "contact:vk": "https://vk.com/moyzubnoyspb",
                "healthcare": "dentist",
                "name": "Мой зубной",
                "opening_hours": "09:00-21:00",
                "website": "http://moyzubnoy.ru/stomatologiya_ligovskiy",
                "wheelchair": "no"
            }
        ]
    },
    "pharmacy": {
        "count": 6,
        "detail": [
            {
                "name": "ФармShop",
                "amenity": "pharmacy",
                "website": "http://www.pharmshop.ru/",
                "opening_hours": "Mo-Fr 09:00-21:00; Sa-Su 10:00-20:00"
            },
            {
                "amenity": "pharmacy",
                "healthcare": "pharmacy",
                "name": "Балтфарм",
                "opening_hours": "Mo-Fr 08:00-22:00; Sa-Su 09:00-21:00",
                "operator": "ООО «Балтфарм»",
                "phone": "+7 812 5757459"
            },
            {
                "amenity": "pharmacy",
                "drive_through": "no",
                "healthcare": "pharmacy",
                "name": "РМК",
                "opening_hours": "09:00-21:00",
                "payment:cash": "yes",
                "phone": "+7 812 7125912"
            },
            {
                "amenity": "pharmacy",
                "healthcare": "pharmacy",
                "opening_hours": "Mo-Fr 08:00-21:00; Sa 10:00-20:00; Su 10:00-17:00",
                "operator": "ООО «Гомеофарм»",
                "website": "https://gomeofarm.ru/",
                "wheelchair": "no"
            },
            {
                "amenity": "pharmacy",
                "healthcare": "pharmacy",
                "opening_hours": "09:00-21:00",
                "operator": "ООО «Медикор»",
                "website": "http://apteka.marata41.ru/"
            },
            {
                "amenity": "pharmacy",
                "name": "Веда-Мед",
                "opening_hours": "09:00-22:00",
                "operator": "ООО «Веда-Мед»",
                "phone": "+7 812 6794403"
            }
        ]
    },
    "pub": {
        "count": 3,
        "detail": [
            {
                "name": "Dog's Nose",
                "amenity": "pub",
                "opening_hours": "Mo-Fr 00:00-01:00,17:00-24:00; Sa,Su 00:00-03:00,17:00-24:00",
                "contact:facebook": "https://www.facebook.com/DOGS-NOSE-PUB-1283843528308281/"
            },
            {
                "amenity": "pub",
                "contact:vk": "https://vk.com/oldfriendspub",
                "name": "Old Friends",
                "payment:credit_cards": "yes",
                "payment:debit_cards": "yes",
                "website": "http://oldfriends.pub/",
                "wheelchair": "no"
            },
            {
                "amenity": "pub",
                "contact:vk": "https://vk.com/drunkhappygastropub",
                "name": "Drunk & Happy",
                "opening_hours": "Mo-Th 12:00-24:00; Fr 12:00-02:00; Sa 13:00-02:00; Su 13:00-24:00",
                "operator": "ООО «Корнайс»",
                "phone": "+7 812 6556090"
            }
        ]
    },
    "restaurant": {
        "count": 19,
        "detail": [
            {
                "amenity": "restaurant",
                "cuisine": "georgian",
                "name": "Хижина"
            },
            {
                "amenity": "restaurant",
                "contact:facebook": "https://www.facebook.com/karaman.food/",
                "name": "Караман",
                "opening_hours": "Mo-Su 11:00-23:00"
            },
            {
                "amenity": "restaurant",
                "contact:vk": "https://vk.com/cafeliman",
                "name": "Liman",
                "opening_hours": "Mo-Fr 10:00-23:00; Sa-Su 11:00-23:00"
            },
            {
                "amenity": "restaurant",
                "contact:vk": "https://vk.com/barbaria_spb",
                "cuisine": "mediterranean",
                "int_name": "Barbaria",
                "name": "Барбария",
                "opening_hours": "Mo-Su 12:00-23:00",
                "phone": "+7 812 7647333",
                "smoking": "no",
                "website": "http://www.barbaria.ru/",
                "wheelchair": "limited"
            },
            {
                "name": "Хочу шашлык",
                "amenity": "restaurant",
                "cuisine": "kebab",
                "website": "http://xochu-shashlik.ru/hochu-shashlyik-na-razezzhey-33/",
                "contact:vk": "https://vk.com/xochu_shashlik"
            },
            {
                "amenity": "restaurant",
                "contact:vk": "https://vk.com/wotnosh",
                "name": "Высокие отношения",
                "website": "https://wotnosh.ru/"
            },
            {
                "amenity": "restaurant",
                "contact:instagram": "https://www.instagram.com/laperlaspb/",
                "contact:vk": "https://vk.com/laperlaspb",
                "name": "La Perla Fish House",
                "opening_hours": "12:00-00:00",
                "operator": "ООО «Жемчужина»",
                "website": "https://seafoodrestaurant.laperlarest.ru/"
            },
            {
                "amenity": "restaurant",
                "contact:vk": "https://vk.com/biscuitbanquet",
                "name": "Biscuit Banquet",
                "opening_hours": "10:00-23:00",
                "operator": "ООО «Бисквит Банкет»",
                "website": "http://biscuit-banquet.ru/"
            },
            {
                "amenity": "restaurant",
                "contact:vk": "https://vk.com/crabstoryspb",
                "cuisine": "regional;seafood;russian",
                "internet_access": "wlan",
                "name": "Crab Story",
                "opening_hours": "Mo-Su 12:00-23:00",
                "phone": "+7 921 9080288",
                "website": "https://crabstory.ru/"
            },
            {
                "addr:housenumber": "9",
                "addr:street": "улица Правды",
                "amenity": "restaurant",
                "contact:vk": "https://vk.com/hachapuriivino",
                "cuisine": "georgian",
                "email": "hpvino9@gmail.com",
                "internet_access": "wlan",
                "name": "Хачапури и вино",
                "name:en": "Hachapuri and Wine",
                "opening_hours": "Su-Th 11:30-24:00; Fr-Sa 11:30-01:00",
                "phone": "+7 952 2322543",
                "smoking": "outside",
                "website": "https://hachapuriivino.ru/"
            },
            {
                "alt_name": "Юми",
                "amenity": "restaurant",
                "contact:vk": "https://vk.com/yumichinese",
                "cuisine": "chinese",
                "name": "Ю-ми",
                "opening_hours": "Mo-Su 11:30-23:30",
                "website": "https://www.yumichinese.com/"
            },
            {
                "amenity": "restaurant",
                "contact:vk": "https://vk.com/pelmenya.rest",
                "name": "Пельмения",
                "opening_hours": "11:00-23:00",
                "website": "http://пельмения.рф/"
            },
            {
                "name": "Суп харчо",
                "amenity": "restaurant",
                "cuisine": "georgian",
                "contact:vk": "https://vk.com/public60487977",
                "opening_hours": "Mo-Su 11:00-23:00"
            },
            {
                "name": "Симпозиум",
                "amenity": "restaurant",
                "website": "http://www.symposium.rest/",
                "addr:floor": "2-3",
                "contact:vk": "https://vk.com/symposium.restaurant"
            },
            {
                "name": "Братья Карамазовы",
                "amenity": "restaurant",
                "website": "http://karamazovhotel.ru/restaurant/",
                "opening_hours": "07:30-23:30"
            },
            {
                "addr:street": "Боровая улица",
                "amenity": "restaurant",
                "contact:vk": "https://vk.com/umami_spb",
                "cuisine": "asian",
                "name": "Umami",
                "opening_hours": "11:00-23:00",
                "outdoor_seating": "yes",
                "phone": "+7 812 9257771",
                "website": "https://umamispb.ru/"
            },
            {
                "alt_name": "Хинкальная Сабатони",
                "amenity": "restaurant",
                "contact:facebook": "https://www.facebook.com/KafeSabatoni",
                "cuisine": "georgian;dumplings",
                "name": "Сабатони",
                "opening_hours": "Mo-Su 11:00-23:59",
                "phone": "+7 960 2674749",
                "website": "https://sabatoni.ru/"
            },
            {
                "amenity": "restaurant",
                "name": "Екатерина Великая",
                "website": "https://thehermitagehotel.ru/catherine-the-great-restaurant/"
            },
            {
                "amenity": "restaurant",
                "name": "Микеланджело",
                "website": "https://thehermitagehotel.ru/michelangelo-restaurant/"
            }
        ]
    },
    "pet": {
        "count": 3,
        "detail": [
            {
                "contact:vk": "https://vk.com/zoo_k9",
                "name": "K-9",
                "opening_hours": "10:00-20:00",
                "operator": "ИП Карташова И.В.",
                "shop": "pet"
            },
            {
                "name": "ЗооМир",
                "shop": "pet",
                "contact:vk": "https://vk.com/zoomirspb",
                "opening_hours": "Mo-Fr 11:00-20:00; Sa-Su 11:00-19:00"
            },
            {
                "level": "-1",
                "shop": "pet"
            }
        ]
    },
    "toys": {
        "count": 1,
        "detail": [
            {
                "contact:vk": "https://vk.com/razor_russia",
                "contact:vk2": "https://vk.com/ugearsrussia",
                "name": "Razor, Ugears",
                "opening_hours": "10:00-20:00",
                "shop": "toys",
                "website": "http://www.razor-russia.ru/spb",
                "website2": "http://ugears-russia.ru/spb-contacts/"
            }
        ]
    },
    "clothes": {
        "count": 20,
        "detail": [
            {
                "name": "Bride",
                "shop": "clothes",
                "clothes": "wedding",
                "website": "http://bride-salon.ru/",
                "contact:vk": "https://vk.com/bridbe",
                "opening_hours": "10:00-20:00"
            },
            {
                "contact:vk": "https://vk.com/merchoff",
                "name": "Merchoff",
                "shop": "clothes",
                "website": "https://merchoff.ru/"
            },
            {
                "clothes": "underwear",
                "contact:vk": "https://vk.com/krilonyshop",
                "name": "Крилони",
                "shop": "clothes",
                "website": "https://www.krilony.ru/"
            },
            {
                "clothes": "women",
                "contact:vk": "https://vk.com/sweetbrandsspb",
                "name": "Sweet Brands",
                "opening_hours": "Mo-Fr 11:00-21:00; Sa-Su 12:00-20:00",
                "shop": "clothes"
            },
            {
                "clothes": "women",
                "opening_hours": "Mo-Fr 10:00-20:00; Sa-Su 11:00-19:00",
                "operator": "ООО \"Классика\"",
                "shop": "clothes"
            },
            {
                "name": "Секонд-хенд",
                "opening_hours": "11:00-19:00",
                "second_hand": "yes",
                "shop": "clothes"
            },
            {
                "name": "Olsen",
                "shop": "clothes",
                "opening_hours": "Mo-Sa 11:00-20:00; Su 12:00-19:00"
            },
            {
                "shop": "clothes",
                "second_hand": "yes",
                "opening_hours": "Mo-Fr 11:00-20:00; Sa-Su 11:00-19:00"
            },
            {
                "shop": "clothes"
            },
            {
                "shop": "clothes",
                "clothes": "women",
                "opening_hours": "10:00-18:00"
            },
            {
                "brand": "Otto",
                "brand:wikidata": "Q466688",
                "name": "Отто",
                "opening_hours": "Mo-Fr 11:00-20:00; Sa 11:00-19:00",
                "shop": "clothes",
                "website": "http://www.otto-spb.ru/"
            },
            {
                "contact:vk": "https://vk.com/laserb",
                "name": "Laser B.",
                "opening_hours": "12:00-21:00",
                "shop": "clothes",
                "website": "https://laserb.ru/page/magazin-v-sankt-peterburge"
            },
            {
                "level": "-1",
                "shop": "clothes"
            },
            {
                "shop": "clothes"
            },
            {
                "level": "-1",
                "name": "Товары из Монголии",
                "shop": "clothes"
            },
            {
                "contact:vk": "https://vk.com/lilycharm",
                "name": "Lily Charm",
                "opening_hours": "11:00-21:00",
                "operator": "ИП Тимофеев Ю.В.",
                "shop": "clothes",
                "website": "https://lilycharm.ru/"
            },
            {
                "contact:instagram": "https://www.instagram.com/komiss_brands/",
                "name": "Komiss Brands",
                "note": "вход, видимо, во дворе; также салон красоты",
                "second_hand": "yes",
                "shop": "clothes"
            },
            {
                "contact:facebook": "https://www.facebook.com/404fashionbrand/",
                "name": "404 Not Found",
                "shop": "clothes",
                "website": "https://404notfound.ru/"
            },
            {
                "contact:vk": "https://vk.com/janjakpidjakstore",
                "name": "Jan-Jak Pidjak",
                "shop": "clothes"
            },
            {
                "contact:instagram": "https://www.instagram.com/magazin_tolstovok/",
                "contact:vk": "https://vk.com/magazin_tolstovok",
                "name": "Magazin-Tolstovok",
                "shop": "clothes",
                "website": "https://magazin-tolstovok.ru/"
            }
        ]
    },
    "bench": {
        "count": 6,
        "detail": [
            {
                "amenity": "bench"
            },
            {
                "amenity": "bench"
            },
            {
                "amenity": "bench"
            },
            {
                "amenity": "bench"
            },
            {
                "amenity": "bench"
            },
            {
                "amenity": "bench"
            }
        ]
    },
    "parking_entrance": {
        "count": 1,
        "detail": [
            {
                "access": "private",
                "amenity": "parking_entrance"
            }
        ]
    },
    "bicycle_parking": {
        "count": 4,
        "detail": [
            {
                "access": "private",
                "amenity": "bicycle_parking",
                "covered": "no",
                "bicycle_parking": "wall_loops"
            },
            {
                "amenity": "bicycle_parking"
            },
            {
                "amenity": "bicycle_parking",
                "bicycle_parking": "stands",
                "capacity": "3",
                "covered": "no",
                "operator": "Хачапури и вино"
            },
            {
                "amenity": "bicycle_parking",
                "bicycle_parking": "stands",
                "covered": "no"
            }
        ]
    },
    "school": {
        "count": 1,
        "detail": [
            {
                "amenity": "school",
                "contact:email": "dshi_serebr@mail.ru",
                "contact:phone": "+7 812 3150363;+7 812 7120009",
                "contact:website": "http://www.serebryakov-school.ru",
                "name": "Детская школа исскуств имени П. А. Серебрякова",
                "official_name": "Санкт-Петербургское государственное бюджетное учреждение дополнительного образования \"Санкт-Петербургская детская школа искусств имени Павла Алексеевича Серебрякова\"",
                "phone": "+7 812 7120009"
            }
        ]
    },
    "coworking_space": {
        "count": 1,
        "detail": [
            {
                "name": "МОО Наблюдатели Петербурга",
                "office": "ngo",
                "amenity": "coworking_space",
                "contact:email": "spbelect@gmail.com",
                "contact:website": "http://www.spbelect.org"
            }
        ]
    },
    "stationery": {
        "count": 1,
        "detail": [
            {
                "brand": "Комус",
                "brand:en": "Komus",
                "brand:wikidata": "Q4230314",
                "brand:wikipedia": "en:Komus (company)",
                "contact:vk": "https://vk.com/komus_club",
                "name": "Комус",
                "name:en": "Komus",
                "opening_hours": "Mo-Fr 09:00-21:00; Sa-Su 10:00-20:00",
                "operator": "ООО «Комус»",
                "shop": "stationery",
                "website": "https://www.komus.ru/store/sankt-peterburg/tts-vladimirskij/s/58/"
            }
        ]
    },
    "bar": {
        "count": 13,
        "detail": [
            {
                "name": "Don Kraft",
                "level": "0",
                "amenity": "bar",
                "contact:vk": "https://vk.com/dkbeer"
            },
            {
                "name": "Рюмочная",
                "amenity": "bar"
            },
            {
                "amenity": "bar",
                "contact:vk": "https://vk.com/sandiego001",
                "name": "SanDiego Lounge"
            },
            {
                "amenity": "bar",
                "contact:vk": "https://vk.com/electricity_vape",
                "name": "Electricity"
            },
            {
                "name": "Dion",
                "amenity": "bar",
                "contact:vk": "https://vk.com/dionloungebar"
            },
            {
                "amenity": "bar",
                "contact:vk": "https://vk.com/madlabbar",
                "name": "MadLabBar",
                "opening_hours": "Su-Th 12:00-00:00, Fr-Sa 12:00-05:00",
                "website": "http://www.madlab.bar/"
            },
            {
                "amenity": "bar",
                "name": "Black Crow",
                "website": "https://www.black-crow.ru/"
            },
            {
                "name": "White",
                "amenity": "bar",
                "contact:vk": "https://vk.com/white_bar01"
            },
            {
                "name": "Рюмочная на Боровой",
                "email": "barnaborovoy@gmail.com",
                "level": "-1",
                "phone": "+7 931 3481338",
                "amenity": "bar",
                "cuisine": "russian",
                "name:en": "Bar on Borovaya",
                "website": "https://vk.com/barnaborovoy",
                "addr:postcode": "191119",
                "opening_hours": "Tu-Su 14:00-23:00",
                "internet_access": "wlan"
            },
            {
                "amenity": "bar",
                "name:en": "ChesnoTesno",
                "opening_hours": "Fr-Su 12:00-04:00; Mo-Th 12:00-23:00"
            },
            {
                "alt_name": "Ленусь, я всё уберу!",
                "amenity": "bar",
                "contact:instagram": "https://www.instagram.com/tbpbar/",
                "contact:vk": "https://vk.com/tbpps",
                "level": "-1",
                "name": "Теория Большого Пива",
                "short_name": "ТБП"
            },
            {
                "amenity": "bar",
                "contact:instagram": "https://instagram.com/pravda7_spb",
                "contact:phone": "+7 921 3008446",
                "name": "Pravda7",
                "opening_hours": "Fr-Sa 15:00-05:00;Mo-Th,Su 15:00-03:00",
                "operator": "Pravda7"
            },
            {
                "amenity": "bar",
                "contact:instagram": "https://instagram.com/6_ygol",
                "contact:phone": "+7 908 3346666",
                "contact:vk": "https://vk.com/6ygol",
                "name": "6 уголъ",
                "opening_hours": "Mo-Su 14:00-06:00",
                "operator": "6 уголъ"
            }
        ]
    },
    "alcohol": {
        "count": 10,
        "detail": [
            {
                "name": "РосАл",
                "opening_hours": "11:00-22:00",
                "operator": "ООО «Актив»",
                "shop": "alcohol",
                "website": "http://www.rosal24.ru/"
            },
            {
                "contact:facebook": "https://www.facebook.com/amwine.ru/",
                "contact:instagram": "https://www.instagram.com/amwine.ru/",
                "contact:telegram": "https://t.me/amwineru",
                "contact:twitter": "https://twitter.com/amwineru",
                "contact:vk": "https://vk.com/amwineru",
                "name": "Ароматный мир",
                "opening_hours": "10:00-22:00",
                "operator": "ООО «АМ-2 СПб»",
                "shop": "alcohol",
                "website": "https://amwine.ru/customers/shops/detail/433845/"
            },
            {
                "name": "Ароматный мир",
                "shop": "alcohol",
                "website": "https://amwine.ru/customers/shops/detail/84658/",
                "contact:vk": "https://vk.com/amwineru",
                "drive_through": "no",
                "opening_hours": "10:00-22:00"
            },
            {
                "alt_name": "Калейдоскоп напитков мира",
                "contact:vk": "https://vk.com/napitkimiracom",
                "name": "Напитки мира",
                "opening_hours": "10:00-22:00",
                "operator": "ООО \"Калейдоскоп\"",
                "shop": "alcohol",
                "website": "https://www.napitkimira.com/magaziny/kaleydoskop-napitkov-na-pravdy-5/"
            },
            {
                "name": "Ароматный мир",
                "opening_hours": "10:00-22:00",
                "operator": "ООО \"АМ-3 СПб\"",
                "shop": "alcohol",
                "website": "https://amwine.ru/customers/shops/detail/181216/"
            },
            {
                "brand": "Красное & Белое",
                "brand:en": "Red&White",
                "brand:wikidata": "Q24933790",
                "brand:wikipedia": "en:Krasnoe & Beloe",
                "name": "Красное & Белое",
                "name:en": "Red&White",
                "opening_hours": "Mo-Su 09:00-22:05",
                "shop": "alcohol"
            },
            {
                "contact:email": "info@wine-room.ru",
                "contact:facebook": "https://facebook.com/club.wineroom",
                "contact:instagram": "https://instagram.com/wineroom_ru",
                "contact:phone": "+7 812 5724117",
                "contact:vk": "https://vk.com/club.wineroom",
                "contact:website": "https://wine-room.ru/",
                "name": "Wine Room",
                "opening_hours": "11:00-22:00",
                "operator": "Wine room",
                "shop": "alcohol"
            },
            {
                "contact:phone": "+7 812 9888891",
                "contact:vk": "https://vk.com/glavbeer",
                "contact:website": "https://glav-beer.ru/pub/magazin-na-razezzhey/",
                "name": "ГлавПиво",
                "opening_hours": "Mo-Su 10:00-21:00",
                "shop": "alcohol"
            },
            {
                "name": "Гранат Эко",
                "phone": "+7 (911) 929-54-41",
                "shop": "alcohol"
            },
            {
                "name": "Гранат Эко",
                "shop": "alcohol"
            }
        ]
    },
    "doityourself": {
        "count": 3,
        "detail": [
            {
                "name": "Строительный Магазин №1",
                "opening_hours": "Mo-Sa 10:00-19:00",
                "shop": "doityourself",
                "website": "https://baza98.ru/"
            },
            {
                "name": "Стройтовары",
                "opening_hours": "10:00-20:00",
                "shop": "doityourself"
            },
            {
                "opening_hours": "Mo-Fr 10:00-20:00; Sa-Su 10:00-19:00",
                "shop": "doityourself"
            }
        ]
    },
    "waste_basket": {
        "count": 4,
        "detail": [
            {
                "amenity": "waste_basket"
            },
            {
                "amenity": "waste_basket"
            },
            {
                "amenity": "waste_basket"
            },
            {
                "amenity": "waste_basket"
            }
        ]
    },
    "chemist": {
        "count": 2,
        "detail": [
            {
                "name": "Спектр",
                "shop": "chemist",
                "website": "https://watsons.com.ru/adresa-magazinov/razezzhaja-ul-d-36",
                "operator": "ООО «Спектр Групп»",
                "contact:vk": "https://vk.com/watsonsrussia",
                "opening_hours": "09:00-22:00"
            },
            {
                "contact:vk": "https://vk.com/dezarsenal",
                "name": "Dezarsenal.ru",
                "opening_hours": "Mo-Sa 10:00-20:00; Su 11:00-19:00; 15:00-16:00 off",
                "shop": "chemist",
                "website": "https://www.dezarsenal.ru/"
            }
        ]
    },
    "beauty": {
        "count": 14,
        "detail": [
            {
                "name": "Корица",
                "shop": "beauty",
                "website": "http://korizza.com/",
                "contact:vk": "https://vk.com/korizza7123661",
                "opening_hours": "10:00-22:00"
            },
            {
                "name": "Арабески",
                "shop": "beauty",
                "phone": "+7 812 9054025",
                "operator": "ИП Котова",
                "opening_hours": "Mo-Fr 11:00-21:00; Su 12:00-18:00"
            },
            {
                "name": "Стелла",
                "shop": "beauty"
            },
            {
                "alt_name": "Наталья Гончарова",
                "contact:vk": "https://vk.com/club24204188",
                "name": "GN",
                "opening_hours": "10:00-21:00",
                "shop": "beauty"
            },
            {
                "name": "New Stage",
                "shop": "beauty",
                "website": "http://newstagesalon.ru/",
                "contact:vk": "https://vk.com/salonnewstage",
                "opening_hours": "Mo-Sa 09:00-21:00; Su 11:00-20:00"
            },
            {
                "name": "LK",
                "shop": "beauty",
                "phone": "+7 812 7133924",
                "contact:vk": "https://vk.com/club51965718"
            },
            {
                "contact:vk": "https://vk.com/camobscuraru",
                "name": "Camera Obscura",
                "shop": "beauty",
                "website": "http://www.cam-obscura.ru/"
            },
            {
                "name": "Леди",
                "shop": "beauty",
                "website": "https://lady-rf.ru/salony/sotsialisticheskaya-ul-9/",
                "contact:vk": "https://vk.com/companylady"
            },
            {
                "contact:vk": "https://vk.com/salon_aris",
                "name": "Арис",
                "opening_hours": "09:30-22:00",
                "shop": "beauty"
            },
            {
                "contact:vk": "https://vk.com/salon5avenue",
                "name": "5th Avenue",
                "opening_hours": "Mo-Sa 10:00-21:00; Su 11:00-21:00",
                "shop": "beauty"
            },
            {
                "addr:postcode": "191002",
                "internet_access": "wlan",
                "name": "UNTOUCH Beauty Studio",
                "opening_hours": "Mo-Su 11:00-22:00",
                "phone": "+7 952 2702449",
                "shop": "beauty",
                "website": "https://instagram.com/untouch.beauty"
            },
            {
                "contact:vk": "https://vk.com/citystyle.salon",
                "name": "City Style",
                "opening_hours": "10:00-22:00",
                "shop": "beauty",
                "website": "https://saloncitystyle.ru/"
            },
            {
                "contact:vk": "https://vk.com/brilliant_spb_2017",
                "level": "0",
                "name": "Brilliant",
                "opening_hours": "09:00-21:00",
                "operator": "ООО «Бриллиант»",
                "shop": "beauty",
                "website": "https://brilliant.spb.ru/"
            },
            {
                "contact:email": "spb-akademia-krasoty@yandex.ru",
                "contact:facebook": "https://facebook.com/shibaevastudio",
                "contact:instagram": "https://instagram.com/akademia_krasoty_spb",
                "contact:phone": "+7 981 7569408;+7 999 2006008",
                "contact:vk": "https://vk.com/shibaeva_studio",
                "contact:website": "https://permanent-shibaeva.ru/",
                "name": "Shibaeva",
                "opening_hours": "Mo-Su 09:00-21:00",
                "operator": "Shibaeva",
                "shop": "beauty"
            }
        ]
    },
    "travel_agency": {
        "count": 5,
        "detail": [
            {
                "name": "AST",
                "opening_hours": "09:00-20:00",
                "operator": "ООО «АСТ-Санкт-Петербург»",
                "shop": "travel_agency",
                "website": "http://ast-travel.ru/"
            },
            {
                "name": "Восток-Запад",
                "shop": "travel_agency",
                "website": "http://www.clubvz.ru/",
                "opening_hours": "Mo-Fr 10:00-19:00; Sa 12:00-16:00"
            },
            {
                "contact:vk": "https://vk.com/pulkovo_etc",
                "name": "Pulkovo-ETC",
                "opening_hours": "Mo-Fr 10:00-19:00; Sa-Su 11:00-17:00",
                "operator": "ООО «Аэропорт сервис»",
                "shop": "travel_agency",
                "website": "http://pulkovo-etc.ru/"
            },
            {
                "contact:vk": "https://vk.com/planbtour",
                "name": "Бюро путешествий",
                "opening_hours": "10:00-20:00",
                "shop": "travel_agency"
            },
            {
                "contact:vk": "https://vk.com/hottours178",
                "level": "1",
                "name": "Слетать.ру",
                "shop": "travel_agency",
                "website": "http://hottours78.ru/"
            }
        ]
    },
    "sewing": {
        "count": 1,
        "detail": [
            {
                "contact:instagram": "https://www.instagram.com/rukodelie_shop.spb/",
                "name": "Рукоделие",
                "opening_hours": "Mo-Fr 11:00-20:00; Sa-Su 11:00-19:00",
                "operator": "ИП Маньков В.А.",
                "shop": "sewing"
            }
        ]
    },
    "clinic": {
        "count": 3,
        "detail": [
            {
                "addr:city": "Санкт-Петербург",
                "addr:housenumber": "48",
                "addr:street": "улица Марата",
                "alt_name": "21 век",
                "amenity": "clinic",
                "contact:vk": "https://vk.com/mc21vek",
                "healthcare": "clinic",
                "healthcare:speciality": "gynaecology;ophthalmology;paediatrics;orthopaedics;dermatology;otolaryngology;osteopathy;urology;surgery;cardiology;neurology",
                "name": "XXI век",
                "opening_hours": "08:00-22:00",
                "operator": "ООО «МЦ «XXI век»",
                "phone": "+7 812 3800238",
                "website": "https://www.mc21.ru"
            },
            {
                "amenity": "clinic",
                "contact:vk": "https://vk.com/unimed_unimed",
                "healthcare": "clinic",
                "name": "Unimed",
                "website": "http://unimedspb.ru/"
            },
            {
                "amenity": "clinic",
                "contact:vk": "https://vk.com/public27919233",
                "healthcare": "clinic",
                "name": "Противотуберкулезный диспансер № 17",
                "operator": "СПБ ГБУЗ «Противотуберкулезный диспансер № 17»",
                "phone": "+7 812 7647655",
                "website": "http://ptd-17.ru/"
            }
        ]
    },
    "massage": {
        "count": 2,
        "detail": [
            {
                "contact:vk": "https://vk.com/laorspb",
                "massage": "ayurvedic",
                "name": "Лаор",
                "operator": "ООО «Центр Лаор»",
                "shop": "massage",
                "website": "http://arpanaveda.com/"
            },
            {
                "name": "Thai Way",
                "shop": "massage"
            }
        ]
    },
    "shoes": {
        "count": 3,
        "detail": [
            {
                "name": "Shooza",
                "opening_hours": "11:00-20:00",
                "origin": "italian",
                "shop": "shoes"
            },
            {
                "name": "Biara",
                "opening_hours": "Mo-Su 10:00-21:00",
                "shop": "shoes"
            },
            {
                "name": "Rieker",
                "shop": "shoes",
                "brand": "Rieker",
                "operator": "ООО «Эридана»",
                "opening_hours": "10:00-20:00",
                "brand:wikidata": "Q2152193"
            }
        ]
    },
    "curtain": {
        "count": 1,
        "detail": [
            {
                "contact:vk": "https://vk.com/spbshtory",
                "name": "Одежда для окон",
                "opening_hours": "Mo-Fr 11:00-20:00; Sa-Su 11:00-19:00",
                "operator": "ИП Елизаров В.В.",
                "shop": "curtain",
                "website": "https://spb-shtori.ru/"
            }
        ]
    },
    "books": {
        "count": 3,
        "detail": [
            {
                "name": "Книги",
                "shop": "books"
            },
            {
                "name": "Старая книга",
                "shop": "books",
                "contact:vk": "https://vk.com/club25612901",
                "second_hand": "yes",
                "opening_hours": "Mo-Sa 11:00-20:00; Su 11:00-19:00"
            },
            {
                "name": "Мир Искусства",
                "shop": "books",
                "website": "http://staraya-kniga.ru/nashi-magazinyi/per-svechnoj-5.html",
                "opening_hours": "Mo-Sa 11:00-19:00"
            }
        ]
    },
    "doctors": {
        "count": 11,
        "detail": [
            {
                "amenity": "doctors",
                "contact:vk": "https://vk.com/artmedicaspb",
                "name": "АртМедика",
                "opening_hours": "10:00-20:00",
                "website": "http://артмедика.рф/"
            },
            {
                "amenity": "doctors",
                "contact:vk": "https://vk.com/club_eat2fit",
                "description": "Центр диетологии и правильного питания",
                "healthcare": "doctor",
                "name": "Eat2Fit",
                "opening_hours": "Mo-Sa 09:00-21:00; Su 10:00-19:00",
                "phone": "+7 812 6040264",
                "website": "http://eat2fit.ru/"
            },
            {
                "amenity": "doctors",
                "contact:vk": "https://vk.com/sokratik_ru",
                "name": "Сократик",
                "website": "http://www.sokratik.ru/"
            },
            {
                "amenity": "doctors",
                "contact:vk": "https://vk.com/allergomed",
                "healthcare": "doctor",
                "name": "Аллергомед",
                "note": "возможно переехала",
                "opening_hours": "Mo-Sa 09:00-21:00; Su 10:00-19:00",
                "website": "https://allergomed.ru/"
            },
            {
                "amenity": "doctors",
                "contact:vk": "https://vk.com/express_med_center",
                "healthcare": "doctor",
                "name": "Экспресс",
                "opening_hours": "Mo-Fr 08:00-20:00; Sa-Su 10:00-16:00",
                "website": "http://www.express-med.spb.ru/"
            },
            {
                "name": "Union Clinic",
                "amenity": "doctors"
            },
            {
                "name": "ЛабСтори",
                "amenity": "doctors",
                "website": "https://www.labstori.ru/",
                "contact:vk": "https://vk.com/labstori",
                "opening_hours": "Mo-Fr 08:00-17:00; Sa 09:00-15:00",
                "health_facility:type": "laboratory"
            },
            {
                "name": "Эко-безопасность",
                "amenity": "doctors",
                "website": "http://ecosafety.ru/ru/kontakty/ul-dostoevskogo-d-40-44/",
                "operator": "ООО «Медицинский центр Эко-безопасность»",
                "opening_hours": "08:00-21:00"
            },
            {
                "amenity": "doctors",
                "contact:vk": "https://vk.com/medicorspb",
                "healthcare": "doctor",
                "name": "Медикор",
                "opening_hours": "10:00-21:00",
                "operator": "ООО «Медикор»",
                "website": "http://medicorspb.ru/"
            },
            {
                "amenity": "doctors",
                "healthcare": "doctor",
                "name": "RV Medical",
                "website": "http://www.rv-medical.ru/"
            },
            {
                "amenity": "doctors",
                "contact:vk": "https://vk.com/citilabru",
                "health_facility:type": "laboratory",
                "name": "Ситилаб",
                "website": "https://citilab.ru/sankt-peterburg/sankt-peterburg/medcentr-ligovskij-prospekt.aspx"
            }
        ]
    },
    "florist": {
        "count": 2,
        "detail": [
            {
                "contact:vk": "https://vk.com/joyflowerplace",
                "email": "info9874841@yandex.ru",
                "name": "Joy",
                "note": "возможно переехал",
                "opening_hours": "24/7",
                "phone": "+7 812 9874841;+7 812 7121945",
                "shop": "florist",
                "shop:gift": "yes",
                "website": "https://joyflowerplace.ru/"
            },
            {
                "contact:instagram": "https://www.instagram.com/shishka.spb/",
                "name": "Шишка",
                "shop": "florist"
            }
        ]
    },
    "hairdresser_supply": {
        "count": 1,
        "detail": [
            {
                "name": "Копна",
                "shop": "hairdresser_supply",
                "website": "https://kopna-shop.ru/",
                "contact:vk": "https://vk.com/clubkopna",
                "opening_hours": "11:00-21:00"
            }
        ]
    },
    "music": {
        "count": 2,
        "detail": [
            {
                "name": "МузТорг",
                "shop": "music"
            },
            {
                "contact:vk": "https://vk.com/vinylbox",
                "name": "Vinylbox",
                "opening_hours": "12:00-21:00",
                "shop": "music",
                "website": "http://www.vinylbox.ru/"
            }
        ]
    },
    "interior_decoration": {
        "count": 2,
        "detail": [
            {
                "name": "Салон обоев",
                "shop": "interior_decoration"
            },
            {
                "name": "Soveren-Decor",
                "shop": "interior_decoration"
            }
        ]
    },
    "computer": {
        "count": 2,
        "detail": [
            {
                "name": "Заправка картриджей",
                "shop": "computer"
            },
            {
                "name": "Резидент",
                "shop": "computer",
                "email": "rezident-spb@ya.ru",
                "phone": "+7 812 3158945",
                "name:ru": "Резидент",
                "service": "only",
                "website": "http://rezidentprint.ru",
                "computer": "printer",
                "description": "заправка картриджей",
                "opening_hours": "Mo-Fr 10:00-19:00"
            }
        ]
    },
    "antiques": {
        "count": 3,
        "detail": [
            {
                "name": "Скупка антиквариата",
                "shop": "antiques"
            },
            {
                "name": "Старая лавка",
                "opening_hours": "Mo-Fr 11:00-15:00,16:00-20:00; Sa 12:00-15:00,16:00-19:00",
                "second_hand": "yes",
                "shop": "antiques"
            },
            {
                "shop": "antiques"
            }
        ]
    },
    "telecommunication": {
        "count": 1,
        "detail": [
            {
                "brand": "Ростелеком",
                "brand:wikidata": "Q1477012",
                "brand:wikipedia": "en:Rostelecom",
                "name": "Ростелеком",
                "shop": "telecommunication"
            }
        ]
    },
    "leather": {
        "count": 1,
        "detail": [
            {
                "clothes": "fur",
                "contact:email": "alpary@list.ru",
                "contact:facebook": "https://facebook.com/100015226474083",
                "contact:instagram": "https://instagram.com/alparyleather",
                "contact:phone": "+7 812 3157132;+7 812 7648766;+7 904 6186918;+7 911 1989296",
                "contact:vk": "https://vk.com/id64285542",
                "contact:website": "https://alpary-leather.ru/",
                "name": "Альпари-кожа",
                "opening_hours": "Mo-Fr 11:00-19:00;Sa 11:00-18:00",
                "operator": "Альпари-Кожа",
                "shop": "leather"
            }
        ]
    },
    "jewelry": {
        "count": 3,
        "detail": [
            {
                "name": "Стильное серебро",
                "shop": "jewelry",
                "website": "https://www.stilnoeserebro.ru/",
                "operator": "ИП Поленов Г.А.",
                "contact:vk": "https://vk.com/stilnoeserebro",
                "wheelchair": "no",
                "opening_hours": "Mo-Fr 10:00-21:00, Sa,Su 11:00-21:00"
            },
            {
                "contact:vk": "https://vk.com/magazin_samocvet",
                "name": "Самоцветы",
                "opening_hours": "Mo-Sa 11:00-20:00; Su 11:00-19:00",
                "shop": "jewelry",
                "website": "http://mandalalife.ru/magazin-samotsvety"
            },
            {
                "name": "Платина Кострома",
                "shop": "jewelry",
                "website": "https://platina-kostroma.com/",
                "contact:vk": "https://vk.com/platina_kostroma",
                "opening_hours": "10:00-21:00"
            }
        ]
    },
    "gift": {
        "count": 5,
        "detail": [
            {
                "contact:vk": "https://vk.com/fazanspb",
                "name": "Nagual",
                "opening_hours": "Mo-Fr 11:00-21:00, Sa,Su 12:00-20:00",
                "shop": "gift",
                "website": "https://fazanspb.ru/"
            },
            {
                "contact:vk": "https://vk.com/tabakpodarki_shop",
                "name": "tabakpodarki",
                "opening_hours": "10:00-21:00",
                "shop": "gift",
                "website": "https://tabakpodarki.ru/"
            },
            {
                "contact:vk": "https://vk.com/gangmag",
                "name": "Ганг",
                "opening_hours": "10:00-21:00",
                "origin": "indian",
                "shop": "gift",
                "website": "https://www.gangshop.spb.ru/"
            },
            {
                "contact:vk": "https://vk.com/holidaypost",
                "name": "Holiday Post",
                "shop": "gift"
            },
            {
                "addr:city": "Санкт-Петербург",
                "addr:housenumber": "53",
                "addr:postcode": "191002",
                "addr:street": "улица Марата",
                "email": "magic@anga-ra.ru",
                "name": "Анга-Ра Эзотерика",
                "name:en": "Anga-Ra Esoteric",
                "opening_hours": "Mo-Sa 11:00-20:00; Su 11:00-19:00",
                "phone": "+78126491716",
                "shop": "gift",
                "website": "http://anga-ra.ru"
            }
        ]
    },
    "post_box": {
        "count": 6,
        "detail": [
            {
                "amenity": "post_box",
                "collection_times": "Mo-Fr 05:10,13:45; Sa 09:20; Su 13:45",
                "design:year": "2010",
                "drive_through": "no",
                "operator": "Почта России",
                "post_box:design": "ЯПНМ-II-С",
                "post_box:type": "wall",
                "ref": "69"
            },
            {
                "ref": "68",
                "amenity": "post_box",
                "operator": "Почта России",
                "design:year": "2010",
                "drive_through": "no",
                "post_box:type": "wall",
                "post_box:design": "ЯПНМ-II-С",
                "collection_times": "Mo-Fr 05:05,13:40; Sa 09:15; Su 13:40"
            },
            {
                "ref": "74",
                "amenity": "post_box",
                "operator": "Почта России",
                "design:year": "2010",
                "drive_through": "no",
                "post_box:type": "wall",
                "post_box:design": "ЯПНМ-II-С",
                "collection_times": "Mo-Fr 05:35,14:10; Sa 09:45; Su 14:10"
            },
            {
                "ref": "67",
                "amenity": "post_box",
                "operator": "Почта России",
                "design:year": "2010",
                "drive_through": "no",
                "post_box:type": "wall",
                "post_box:design": "ЯПНМ-II-С",
                "collection_times": "Mo-Fr 05:00,13:35; Sa 09:10; Su 13:35"
            },
            {
                "ref": "329",
                "indoor": "yes",
                "amenity": "post_box",
                "operator": "Почта России",
                "drive_through": "no",
                "opening_hours": "Mo-Fr 08:00-20:00; Sa 09:00-14:00,15:00-18:00; Su off",
                "post_box:type": "pillar",
                "post_box:design": "grey_pillar",
                "collection_times": "Mo-Sa 07:50"
            },
            {
                "amenity": "post_box",
                "collection_times": "Mo-Fr 05:15,13:50; Sa 09:25; Su 13:50",
                "design:year": "2010",
                "drive_through": "no",
                "operator": "Почта России",
                "post_box:design": "ЯПНМ-II-С",
                "post_box:type": "wall",
                "ref": "70"
            }
        ]
    },
    "clock": {
        "count": 3,
        "detail": [
            {
                "amenity": "clock",
                "display": "analog",
                "support": "wall_mounted"
            },
            {
                "amenity": "clock",
                "display": "analog",
                "support": "wall_mounted"
            },
            {
                "amenity": "clock",
                "display": "analog",
                "support": "wall_mounted"
            }
        ]
    },
    "telephone": {
        "count": 1,
        "detail": [
            {
                "amenity": "telephone",
                "payment:telephone_cards": "yes"
            }
        ]
    },
    "cosmetics": {
        "count": 2,
        "detail": [
            {
                "contact:vk": "https://vk.com/nickol_spb",
                "level": "0",
                "name": "НикОль",
                "shop": "cosmetics",
                "website": "https://nickolspb.ru/"
            },
            {
                "level": "-1",
                "name": "Лавка Жизни",
                "shop": "cosmetics",
                "website": "http://lifeshop.ru/"
            }
        ]
    },
    "bed": {
        "count": 1,
        "detail": [
            {
                "name": "Дуэт",
                "shop": "bed",
                "linen": "yes",
                "description": "Постельное бельё, подушки, одеяла",
                "opening_hours": "Mo-Sa 11:00-19:00; Su 11:00-18:00"
            }
        ]
    },
    "car_wash": {
        "count": 1,
        "detail": [
            {
                "name": "F1",
                "amenity": "car_wash",
                "addr:city": "Санкт-Петербург",
                "addr:street": "Боровая улица",
                "addr:postcode": "191119",
                "addr:housenumber": "6"
            }
        ]
    },
    "houseware": {
        "count": 3,
        "detail": [
            {
                "brand": "KüchenLand",
                "contact:vk": "https://vk.com/kuchenland_official",
                "name": "Ножи-посуда",
                "opening_hours": "10:00-21:00",
                "phone": "+7 812 4046533;+7 800 7752071",
                "shop": "houseware",
                "website": "https://www.kuchenland.ru/shops/30807/"
            },
            {
                "contact:vk": "https://vk.com/predmetiru",
                "name": "Семь холмов",
                "opening_hours": "10:00-20:00",
                "shop": "houseware",
                "website": "http://www.predmeti.ru/"
            },
            {
                "level": "-1",
                "shop": "houseware"
            }
        ]
    },
    "copyshop": {
        "count": 2,
        "detail": [
            {
                "contact:vk": "https://vk.com/infinitiprint",
                "name": "Infiniti Print",
                "opening_hours": "06:00-03:00",
                "shop": "copyshop",
                "website": "https://infiniti-print.ru/"
            },
            {
                "craft": "photographer",
                "level": "-1",
                "shop": "copyshop"
            }
        ]
    },
    "clothes;houseware": {
        "count": 1,
        "detail": [
            {
                "craft": "key_cutter;shoemaker;tailor",
                "shop": "clothes;houseware"
            }
        ]
    },
    "tobacco": {
        "count": 2,
        "detail": [
            {
                "contact:vk": "https://vk.com/shisharfshop",
                "internet_access": "wlan",
                "name": "S2B",
                "opening_hours": "12:00-23:00",
                "phone": "+7 981 6844696",
                "shop": "tobacco",
                "website": "https://shisharf.ru/"
            },
            {
                "shop": "tobacco",
                "level": "0"
            }
        ]
    },
    "kindergarten": {
        "count": 5,
        "detail": [
            {
                "amenity": "kindergarten",
                "contact:email": "dou100.centr@obr.gov.spb.ru",
                "contact:phone": "+7 812 7646622",
                "contact:website": "http://www.gdouds100kvpokkofprvtsr.acentr.gov.spb.ru",
                "name": "Детский сад № 100",
                "official_name": "Государственное бюджетное дошкольное образовательное учреждение детский сад № 100 комбинированного вида Центрального района Санкт-Петербурга",
                "opening_hours": "Mo-Fr 07:00-19:00",
                "ref": "100"
            },
            {
                "name": "Золотая бусина",
                "amenity": "kindergarten",
                "website": "http://goldenbusina.ru/",
                "contact:vk": "https://vk.com/goldenbusina_montessori"
            },
            {
                "name": "Диво-город",
                "amenity": "kindergarten",
                "website": "https://www.дивогород.рф/",
                "contact:vk": "https://vk.com/divogorod"
            },
            {
                "amenity": "kindergarten",
                "contact:email": "dou20.centr@obr.gof.spb.ru",
                "contact:phone": "+7 812 7647611",
                "contact:website": "http://20doucenter.edusite.ru",
                "name": "Детский сад № 20",
                "official_name": "Государственное бюджетное дошкольное образовательное учреждение детский сад № 20 Центрального района Санкт-Петербурга",
                "ref": "20"
            },
            {
                "addr:city": "Санкт-Петербург",
                "addr:country": "RU",
                "addr:housenumber": "5",
                "addr:letter": "Б",
                "addr:street": "улица Правды",
                "amenity": "kindergarten",
                "building": "yes",
                "building:levels": "2",
                "design:code:SPb": "ДС-29",
                "name": "Детский сад №19",
                "roof:levels": "1",
                "roof:shape": "hipped",
                "source": "rgis.spb.ru"
            }
        ]
    },
    "sports_centre": {
        "count": 1,
        "detail": [
            {
                "name": "Монолит",
                "leisure": "sports_centre",
                "contact:vk": "https://vk.com/athleticclubmonolith"
            }
        ]
    },
    "butcher": {
        "count": 1,
        "detail": [
            {
                "name": "Фермерское мясо",
                "shop": "butcher",
                "opening_hours": "09:00-21:00"
            }
        ]
    },
    "language_school": {
        "count": 1,
        "detail": [
            {
                "amenity": "language_school",
                "contact:vk": "https://vk.com/bisenglish",
                "name": "BIS",
                "website": "https://bis-english.ru/"
            }
        ]
    },
    "yes": {
        "count": 1,
        "detail": [
            {
                "contact:vk": "https://vk.com/konfetti_kids",
                "description": "пространство для проведения детского праздника",
                "leisure": "yes",
                "name": "Конфетти",
                "note": "вход за воротами",
                "website": "http://konfetti-kids.ru/"
            }
        ]
    },
    "outdoor": {
        "count": 1,
        "detail": [
            {
                "contact:vk": "https://vk.com/avachaspbru",
                "name": "Nova Tour",
                "shop": "outdoor",
                "website": "http://www.avacha.spb.ru/"
            }
        ]
    },
    "courthouse": {
        "count": 1,
        "detail": [
            {
                "name": "Первое Арбитражное Учреждение",
                "amenity": "courthouse",
                "website": "http://treteiskiy-sud.ru/"
            }
        ]
    },
    "fabric": {
        "count": 2,
        "detail": [
            {
                "contact:vk": "https://vk.com/tkani_lenok",
                "name": "Ленок",
                "opening_hours": "Mo-Sa 11:00-20:00; Su 11:00-19:00",
                "shop": "fabric"
            },
            {
                "contact:vk": "https://vk.com/skiniya",
                "name": "Скиния",
                "opening_hours": "Mo-Fr 11:00-19:00; Sa 11:00-18:00",
                "shop": "fabric",
                "website": "http://www.skiniya.ru/"
            }
        ]
    },
    "internet_cafe": {
        "count": 1,
        "detail": [
            {
                "amenity": "internet_cafe",
                "contact:vk": "https://vk.com/gamecenter5957",
                "level": "1",
                "name": "Уголок",
                "opening_hours": "24/7"
            }
        ]
    },
    "bakery": {
        "count": 3,
        "detail": [
            {
                "name": "Булка хлеба",
                "shop": "bakery",
                "website": "http://bulkahleba.com/",
                "contact:vk": "https://vk.com/bulkakhleba",
                "opening_hours": "Mo-Fr 07:30-22:00; Sa-Su 10:00-21:00"
            },
            {
                "shop": "bakery",
                "opening_hours": "Mo-Fr 08:00-22:00; Sa 09:00-22:00; Su 09:00-21:00"
            },
            {
                "name": "Булочная Ф. Вольчека №27",
                "name:en": "Volchek's bakery №27",
                "opening_hours": "Mo-Su 08:00-22:00",
                "shop": "bakery"
            }
        ]
    },
    "hifi": {
        "count": 2,
        "detail": [
            {
                "name": "Loewe & Bose",
                "shop": "hifi",
                "website": "https://bosespb.ru/",
                "website2": "http://loewespb.ru/",
                "opening_hours": "Mo-Sa 10:00-20:00"
            },
            {
                "name": "Hi-Fi Аудиотехника",
                "shop": "hifi",
                "website": "http://vintageprof.ru/"
            }
        ]
    },
    "funeral_directors": {
        "count": 1,
        "detail": [
            {
                "name": "Военно-мемориальная компания",
                "shop": "funeral_directors",
                "website": "http://www.vmkros.ru/",
                "opening_hours": "Mo-Fr 10:00-19:00"
            }
        ]
    },
    "atm": {
        "count": 3,
        "detail": [
            {
                "amenity": "atm",
                "drive_through": "no"
            },
            {
                "amenity": "atm",
                "website": "http://www.nsbank.ru/",
                "operator": "АО \"НС Банк\"",
                "opening_hours": "24/7"
            },
            {
                "amenity": "atm",
                "brand": "Сбербанк",
                "covered": "no",
                "opening_hours": "24/7",
                "operator": "ПАО \"Сбербанк\""
            }
        ]
    },
    "waste_disposal": {
        "count": 2,
        "detail": [
            {
                "amenity": "waste_disposal"
            },
            {
                "amenity": "waste_disposal"
            }
        ]
    },
    "variety_store": {
        "count": 1,
        "detail": [
            {
                "shop": "variety_store"
            }
        ]
    },
    "recycling": {
        "count": 1,
        "detail": [
            {
                "name": "Экобокс",
                "amenity": "recycling",
                "recycling:batteries": "yes",
                "recycling:light_bulbs": "yes",
                "recycling:low_energy_bulbs": "yes"
            }
        ]
    },
    "escape_game": {
        "count": 2,
        "detail": [
            {
                "name": "Kvester",
                "leisure": "escape_game",
                "website": "http://kvester.com/",
                "contact:vk": "https://vk.com/kvesterspb"
            },
            {
                "contact:vk": "https://vk.com/ilockedru",
                "leisure": "escape_game",
                "name": "iLocked",
                "website": "https://ilocked.ru/"
            }
        ]
    },
    "hookah_lounge": {
        "count": 2,
        "detail": [
            {
                "name": "Эксперт",
                "amenity": "hookah_lounge",
                "int_name": "Expert",
                "contact:vk": "https://vk.com/expertbar"
            },
            {
                "amenity": "hookah_lounge",
                "contact:vk": "https://vk.com/black_and_white_burgers",
                "name": "Will Smoke"
            }
        ]
    },
    "social_facility": {
        "count": 1,
        "detail": [
            {
                "amenity": "social_facility",
                "contact:vk": "https://vk.com/csriidicrspb",
                "name": "Центр социальной реабилитации инвалидов и детей-инвалидов Центрального района",
                "social_facility": "ambulatory_care",
                "social_facility:for": "disabled",
                "website": "http://gutcsriditsr.acentr.gov.spb.ru/"
            }
        ]
    },
    "community_centre": {
        "count": 3,
        "detail": [
            {
                "amenity": "community_centre",
                "contact:facebook": "spbopenspace",
                "contact:twitter": "@spbopenspace",
                "contact:vk": "vk.com/spbopenspace",
                "contact:website": "https://ospace.org/spb",
                "email": "openspace.spb@gmail.com",
                "internet_access:type": "wlan",
                "name": "Открытое пространство"
            },
            {
                "amenity": "community_centre",
                "name": "Благодар",
                "name:en": "Blagodar"
            },
            {
                "addr:city": "Санкт-Петербург",
                "addr:housenumber": "8",
                "addr:letter": "Д",
                "addr:postcode": "190031",
                "addr:street": "улица Правды",
                "amenity": "community_centre",
                "building": "yes",
                "building:levels": "5",
                "community_centre": "youth_centre",
                "contact:email": "info@cvrcr.com",
                "contact:phone": "+7 812 577-12-06",
                "contact:vk": "https://vk.com/cvrcr",
                "contact:website": "https://cvrcr.com",
                "name": "Центр внешкольной работы с детьми, молодёжью и взрослыми",
                "official_name": "Государственное бюджетное учреждение дополнительного образования Центр внешкольной работы с детьми, молодёжью и взрослыми Центрального района Санкт-Петербурга"
            }
        ]
    },
    "musical_instrument": {
        "count": 1,
        "detail": [
            {
                "name": "MusicMag",
                "shop": "musical_instrument",
                "website": "https://mmag.ru/o-nas/nashi-kontakty/1072-muzykalnyj-magazin-v-sankt-peterburge.html",
                "operator": "ИП Жумир А.Н.",
                "contact:vk": "https://vk.com/mmagru",
                "opening_hours": "Mo-Fr 11:00-20:00; Sa-Su 12:00-18:00"
            }
        ]
    },
    "coffee": {
        "count": 1,
        "detail": [
            {
                "name": "Caffitaly",
                "shop": "coffee",
                "brand": "Caffitaly",
                "website": "https://caffitaly-shop.ru/",
                "contact:vk": "https://vk.com/caffitaly_shop_ru",
                "opening_hours": "09:00-21:00",
                "brand:wikidata": "Q1025537"
            }
        ]
    },
    "dairy": {
        "count": 1,
        "detail": [
            {
                "name": "Во!Молоко",
                "shop": "dairy",
                "website": "https://vomoloko.ru/",
                "contact:vk": "https://vk.com/vomoloko",
                "opening_hours": "09:00-21:00"
            }
        ]
    },
    "second_hand": {
        "count": 1,
        "detail": [
            {
                "shop": "second_hand",
                "level": "-1"
            }
        ]
    },
    "ticket": {
        "count": 1,
        "detail": [
            {
                "shop": "ticket",
                "opening_hours": "Mo-Fr 10:00-18:00",
                "tickets:theatre": "yes"
            }
        ]
    },
    "electronics": {
        "count": 1,
        "detail": [
            {
                "shop": "electronics"
            }
        ]
    },
    "bag": {
        "count": 1,
        "detail": [
            {
                "shop": "bag"
            }
        ]
    },
    "optician": {
        "count": 1,
        "detail": [
            {
                "shop": "optician",
                "opening_hours": "Mo-Fr 11:00-19:30; Sa 11:00-18:00"
            }
        ]
    },
    "fitness_centre": {
        "count": 1,
        "detail": [
            {
                "email": "info@vforme-spb.ru",
                "leisure": "fitness_centre",
                "name": "Клуб Здорового образа жизни Гербалайф",
                "name:en": "Herbalife",
                "opening_hours": "24/7",
                "phone": "+7 921 7874594",
                "website": "https://vforme-spb.ru/"
            }
        ]
    },
    "music_school": {
        "count": 1,
        "detail": [
            {
                "amenity": "music_school",
                "contact:vk": "https://vk.com/decantoschool",
                "name": "DЭcanto",
                "opening_hours": "Mo-Fr 10:00-21:00; Sa-Su 11:00-21:00"
            }
        ]
    },
    "police": {
        "count": 1,
        "detail": [
            {
                "amenity": "police",
                "police": "private_security"
            }
        ]
    },
    "greengrocer": {
        "count": 1,
        "detail": [
            {
                "opening_hours": "10:00-22:00",
                "shop": "greengrocer"
            }
        ]
    },
    "confectionery": {
        "count": 1,
        "detail": [
            {
                "brand": "Фабрика имени Крупской",
                "brand:wikidata": "Q4480319",
                "level": "-1",
                "name": "Магазин фабрики имени Крупской",
                "shop": "confectionery",
                "website": "https://krypskaja-shop.ru/"
            }
        ]
    },
    "bicycle": {
        "count": 1,
        "detail": [
            {
                "contact:instagram": "https://www.instagram.com/4130_shop/",
                "contact:vk": "https://vk.com/shop_4130",
                "name": "4130 Shop",
                "opening_hours": "12:00-20:00",
                "shop": "bicycle",
                "website": "https://4130shop.ru/"
            }
        ]
    },
    "service": {
        "count": 12,
        "detail": [
            {
                "addr:housenumber": "39",
                "addr:postcode": "191119",
                "addr:street": "Коломенская улица",
                "building": "service",
                "note": "раньше с правой стороны был номер 41 к2, сейчас его нет",
                "power": "substation",
                "source": "rgis.spb.ru",
                "substation": "minor_distribution"
            },
            {
                "addr:housenumber": "28 литМ",
                "addr:letter": "М",
                "addr:street": "улица Достоевского",
                "building": "service",
                "building:levels": "1",
                "power": "substation",
                "substation": "minor_distribution"
            },
            {
                "ref": "23",
                "source": "rgis.spb.ru",
                "building": "service",
                "man_made": "mineshaft",
                "operator": "Петербургский метрополитен",
                "mineshaft_type": "air",
                "building:levels": "1"
            },
            {
                "building": "service",
                "building:levels": "1",
                "height": "6",
                "man_made": "mineshaft",
                "mineshaft_type": "air",
                "operator": "ГУП \"Петербургский метрополитен\""
            },
            {
                "building": "service",
                "addr:city": "Санкт-Петербург",
                "addr:letter": "В",
                "addr:street": "улица Марата",
                "addr:country": "RU",
                "addr:postcode": "191126",
                "building:levels": "1",
                "addr:housenumber": "66/22"
            },
            {
                "addr:city": "Санкт-Петербург",
                "addr:country": "RU",
                "addr:housenumber": "8",
                "addr:letter": "Д",
                "addr:street": "Социалистическая улица",
                "building": "service",
                "power": "substation"
            },
            {
                "amenity": "parking",
                "parking": "underground",
                "building": "service",
                "building:levels": "1"
            },
            {
                "police": "private_security",
                "amenity": "police",
                "building": "service"
            },
            {
                "addr:city": "Санкт-Петербург",
                "addr:country": "RU",
                "addr:housenumber": "8 к2",
                "addr:letter": "Б",
                "addr:street": "Социалистическая улица",
                "building": "service",
                "building:levels": "1",
                "generator:method": "combustion",
                "generator:output:hot_water": "yes",
                "power": "generator"
            },
            {
                "building": "service",
                "power": "substation",
                "substation": "minor_distribution"
            },
            {
                "building": "service"
            },
            {
                "building": "service",
                "building:levels": "1",
                "power": "substation"
            }
        ]
    },
    "commercial": {
        "count": 3,
        "detail": [
            {
                "source": "rgis.spb.ru",
                "building": "commercial",
                "addr:street": "улица Марата",
                "addr:postcode": "191126",
                "building:levels": "7",
                "addr:housenumber": "69-71"
            },
            {
                "source": "rgis.spb.ru",
                "building": "commercial",
                "addr:street": "улица Марата",
                "addr:postcode": "191126",
                "addr:housenumber": "69-71"
            },
            {
                "source": "rgis.spb.ru",
                "building": "commercial",
                "addr:street": "улица Марата",
                "addr:postcode": "191126",
                "addr:housenumber": "69-71"
            }
        ]
    },
    "sauna": {
        "count": 1,
        "detail": [
            {
                "access": "yes",
                "addr:country": "RU",
                "addr:housenumber": "75",
                "addr:letter": "Б",
                "addr:postcode": "191126",
                "addr:street": "улица Марата",
                "building": "yes",
                "building:levels": "2",
                "fee": "yes",
                "leisure": "sauna",
                "name": "Барские бани",
                "opening_hours": "24/7",
                "operator": "Барские бани",
                "phone": "+7 812 5727633",
                "roof:shape": "pyramidal",
                "source": "survey",
                "website": "http://www.barin-club.com/"
            }
        ]
    },
    "playground": {
        "count": 1,
        "detail": [
            {
                "building": "yes",
                "leisure": "playground"
            }
        ]
    }
}