{
    "residents": 3708,
    "cinema": {
        "count": 4,
        "detail": [
            {
                "amenity": "cinema",
                "name": "Дом кино",
                "website": "http://domkinospb.com/",
                "wheelchair": "no"
            },
            {
                "amenity": "cinema",
                "contact:vk": "https://vk.com/kinorodinasp",
                "name": "Родина",
                "operator": "СПб ГБУК Петербург-кино",
                "payment:mastercard": "yes",
                "payment:visa": "yes",
                "phone": "+7 812 3142827",
                "website": "http://rodinakino.ru/",
                "wheelchair": "yes"
            },
            {
                "amenity": "cinema",
                "name:en": "Grand Palace"
            },
            {
                "addr:city": "Санкт-Петербург",
                "addr:country": "RU",
                "addr:housenumber": "60",
                "addr:letter": "И",
                "addr:street": "Невский проспект",
                "amenity": "cinema",
                "building": "public",
                "contact:vk": "https://vk.com/avrora_cinema_spb",
                "name": "Аврора",
                "operator": "Кинотеатр \"Аврора\"",
                "payment:cash": "yes",
                "payment:maestro": "yes",
                "payment:mastercard": "yes",
                "payment:visa": "yes",
                "payment:visa_electron": "yes",
                "screen": "2",
                "website": "http://www.avrora.spb.ru/",
                "wheelchair": "no",
                "wikidata": "Q43114359"
            }
        ]
    },
    "florist": {
        "count": 4,
        "detail": [
            {
                "contact:vk": "https://vk.com/ginzaflowerhouse",
                "entrance": "yes",
                "name": "Цветочный домик",
                "opening_hours": "24/7",
                "operator": "Ginza Project",
                "phone": "+7 812 6401616",
                "shop": "florist",
                "website": "https://ginza.ru/spb/project/cvetochnij_domik",
                "wheelchair": "yes"
            },
            {
                "shop": "florist"
            },
            {
                "name": "Оранж",
                "opening_hours": "Mo-Su 08:00-23:00",
                "operator": "ПК Оранж",
                "payment:cash": "yes",
                "payment:maestro": "yes",
                "payment:mastercard": "yes",
                "payment:visa": "yes",
                "payment:visa_electron": "yes",
                "shop": "florist",
                "wheelchair": "yes"
            },
            {
                "contact:facebook": "eliteflower",
                "contact:instagram": "fantasy_elite",
                "contact:ok": "553715013742",
                "contact:twitter": "eliteflower1",
                "contact:vk": "club4592176",
                "email": "info@eliteflower.ru; eliteflower@mail.ru",
                "name": "Фантазия",
                "opening_hours": "Mo-Su 08:00-22:00",
                "operator": "Фантазия-2",
                "payment:cash": "yes",
                "payment:maestro": "yes",
                "payment:mastercard": "yes",
                "payment:visa": "yes",
                "payment:visa_electron": "yes",
                "phone": "+7 812 7779200; +7 800 7759290",
                "shop": "florist",
                "website": "https://eliteflower.ru/",
                "wheelchair": "no"
            }
        ]
    },
    "bar": {
        "count": 11,
        "detail": [
            {
                "name": "SПБ",
                "amenity": "bar",
                "website": "http://www.barspb.ru/",
                "contact:vk": "https://vk.com/barspb_official",
                "opening_hours": "Su-Th 12:00-02:00, Fr-Sa 12:00-05:00"
            },
            {
                "name": "Бюро",
                "amenity": "bar",
                "website": "http://www.barbureau.ru/%D0%B1%D1%8E%D1%80%D0%BE4-%D1%81%D0%B0%D0%B4%D0%BE%D0%B2%D0%B0%D1%8F-13.html",
                "contact:vk": "https://vk.com/bureaubar"
            },
            {
                "name": "Бегемот",
                "amenity": "bar",
                "website": "https://ginza.ru/spb/restaurant/begemoth_is_back",
                "contact:vk": "https://vk.com/begemotisback",
                "opening_hours": "Th 21:00-05:00; Fr-Sa 21:00-06:00"
            },
            {
                "name": "Jack and Chan",
                "phone": "+7 812 9820535",
                "amenity": "bar",
                "website": "http://jack-and-chan.com/",
                "addr:street": "Инженерная улица",
                "internet_access": "wlan",
                "addr:housenumber": "7"
            },
            {
                "amenity": "bar",
                "name": "Jasmin",
                "name:ru": "Жасмин",
                "opening_hours": "24/7",
                "website": "http://jasmine-cafe.ru/",
                "wheelchair": "no"
            },
            {
                "amenity": "bar",
                "internet_access": "wlan",
                "level": "-1",
                "name": "Prostovino",
                "opening_hours": "Su-Th 12:00-24:00, Fr-Sa 12:00-02:00",
                "phone": "+7 931 2760871"
            },
            {
                "name": "Salute!",
                "amenity": "bar"
            },
            {
                "name": "Куба Либре",
                "amenity": "bar",
                "website": "http://spb.barcubalibre.ru/",
                "int_name": "Cuba Libre",
                "contact:vk": "https://vk.com/cubalibrespb",
                "opening_hours": "24/7"
            },
            {
                "amenity": "bar",
                "name": "FS",
                "note": "возможно \"Fresh Smoke Bar\""
            },
            {
                "amenity": "bar",
                "name:en": "Bacchus bar&shop",
                "website": "http://bacchusbarshop.ru/"
            },
            {
                "amenity": "bar",
                "email": "bacchusbarshop@gmail.com",
                "name": "Bacchus",
                "opening_hours": "Mo-Th 13:00-00:00; Fr-Sa 13:00-01:00; Su 12:00-00:00",
                "phone": "+7 (991) 026-79-73",
                "website": "http://bacchusbarshop.ru"
            }
        ]
    },
    "fast_food": {
        "count": 10,
        "detail": [
            {
                "alt_name": "Kentucky Fried Chicken",
                "amenity": "fast_food",
                "brand": "KFC",
                "brand:wikidata": "Q524757",
                "brand:wikipedia": "en:KFC",
                "contact:vk": "https://vk.com/kfcrussia",
                "cuisine": "chicken",
                "internet_access:wlan": "yes",
                "name": "KFC",
                "name:en": "KFC",
                "name:ru": "КФЦ",
                "opening_hours": "24/7",
                "operator": "ООО «АмРест»",
                "takeaway": "yes",
                "website": "https://www.kfc.ru/restaurants/1033",
                "wheelchair": "no"
            },
            {
                "amenity": "fast_food",
                "fast_food": "cafeteria",
                "opening_hours": "Mo-Fr 09:00-22:00; Sa-Su 10:00-22:00",
                "wheelchair": "no"
            },
            {
                "name": "Столовая",
                "amenity": "fast_food",
                "fast_food": "cafeteria"
            },
            {
                "addr:postcode": "191011",
                "amenity": "fast_food",
                "brand": "Теремок",
                "brand:en": "Teremok",
                "brand:ru": "Теремок",
                "brand:wikidata": "Q4455593",
                "brand:wikipedia": "ru:Теремок (сеть быстрого питания)",
                "building": "kiosk",
                "contact:facebook": "teremok",
                "contact:instagram": "teremok_ru",
                "contact:twitter": "teremok_ru",
                "contact:vk": "teremok",
                "cuisine": "crepe;russian",
                "diet:vegetarian": "yes",
                "name": "Манеж",
                "name:ru": "Манеж",
                "opening_hours": "Mo-Su 09:00-22:00",
                "operator": "Русские блины Северо-Запад",
                "payment:cash": "yes",
                "payment:girocard": "yes",
                "payment:maestro": "yes",
                "payment:mastercard": "yes",
                "payment:visa": "yes",
                "payment:visa_electron": "yes",
                "phone": "+7 812 3632332",
                "takeaway": "yes",
                "website": "https://teremok.ru/"
            },
            {
                "amenity": "fast_food",
                "brand": "Теремок",
                "contact:vk": "https://vk.com/teremok",
                "cuisine": "pancake",
                "name": "Невский 60",
                "opening_hours": "Mo-Su 07:30-23:00",
                "operator": "ООО «Теремок — Кондитерская»",
                "payment:mastercard": "yes",
                "payment:visa": "yes",
                "phone": "+7 911 7770308",
                "website": "http://www.teremok.ru/",
                "wheelchair": "no"
            },
            {
                "amenity": "fast_food",
                "contact:vk": "https://vk.com/club12879930",
                "fast_food": "cafeteria",
                "level": "-1",
                "name": "Столовая №1",
                "opening_hours": "24/7",
                "website": "https://st1.one/",
                "wheelchair": "no"
            },
            {
                "amenity": "fast_food",
                "brand": "Суши Wok",
                "brand:en": "Sushi Wok",
                "brand:ru": "Суши Wok",
                "brand:wikidata": "Q25444754",
                "brand:wikipedia": "uk:Суши Wok (мережа магазинів)",
                "contact:vk": "https://vk.com/woksushi",
                "cuisine": "asian",
                "name": "Суши Wok",
                "name:en": "Sushi Wok",
                "name:ru": "Суши Wok",
                "opening_hours": "10:00-23:00",
                "operator": "ИП Аббасова Т.А.",
                "takeaway": "yes",
                "website": "https://sushiwok.ru/spb/"
            },
            {
                "name": "4 Cups",
                "amenity": "fast_food",
                "cuisine": "coffee_shop",
                "contact:vk": "https://vk.com/4cups_coffee_to_go"
            },
            {
                "amenity": "fast_food"
            },
            {
                "amenity": "fast_food",
                "contact:vk": "https://vk.com/lobbycoffeespb",
                "cuisine": "coffee_shop",
                "level": "0",
                "name": "Lobby Coffee",
                "outdoor_seating": "no",
                "payment:cash": "yes",
                "payment:visa": "yes",
                "website": "http://lobbycoffee.ru/"
            }
        ]
    },
    "restaurant": {
        "count": 33,
        "detail": [
            {
                "name": "Баку",
                "amenity": "restaurant",
                "website": "http://restoran-baku.ru/",
                "int_name": "Baku",
                "contact:vk": "https://vk.com/restoran_baku"
            },
            {
                "amenity": "restaurant",
                "contact:vk": "https://vk.com/cafemadagascar",
                "name": "Madagascar",
                "name:ru": "Бар Мадагаскар",
                "opening_hours": "24/7",
                "website": "http://delmar-spb.ru/restaurants/barmadagascar/"
            },
            {
                "amenity": "restaurant",
                "cuisine": "ukrainian",
                "name": "Водограй",
                "opening_hours": "11:00-23:00",
                "operator": "ООО «Махаон»",
                "website": "https://vodograi.info/",
                "wheelchair": "no"
            },
            {
                "amenity": "restaurant",
                "contact:vk": "https://vk.com/kavkazbarspb",
                "cuisine": "georgian",
                "email": "kavkaz-bar@mail.ru",
                "internet_access": "wlan",
                "internet_access:fee": "no",
                "name": "Кавказ бар",
                "opening_hours": "11:00-01:00",
                "operator": "ООО «Сити»",
                "payment:mastercard": "yes",
                "payment:visa": "yes",
                "phone": "+7 812 3121665",
                "website": "http://kavkaz-bar.ru/",
                "wheelchair": "yes"
            },
            {
                "amenity": "restaurant",
                "contact:email": "ooo_kosta@inbox.ru",
                "contact:instagram": "https://instagram.com/tamar_rest",
                "contact:phone": "+7 812 6791119",
                "contact:vk": "https://vk.com/restorannegoruj",
                "contact:website": "https://tamarspb.ru/",
                "cuisine": "caucasian",
                "name": "Тамар",
                "opening_hours": "Mo-Su 11:00-23:00",
                "operator": "Тамар",
                "outdoor_seating": "no"
            },
            {
                "amenity": "restaurant",
                "contact:vk": "https://vk.com/mamaroma_official",
                "cuisine": "italian",
                "name": "Mama Roma",
                "name:ru": "Мама Рома",
                "phone": "+7 812 3140347",
                "website": "https://www.mamaroma.ru/restaurants/karavannaya"
            },
            {
                "amenity": "restaurant",
                "description": "Ресторан сыроедной кухни The Ogorod",
                "diet:raw": "only",
                "diet:vegetarian": "only",
                "fixme": "location",
                "name": "The Ogorod",
                "name:en": "The Ogorod",
                "name:ru": "The Ogorod",
                "phone": "+7 921 8703030",
                "website": "https://theogorod.ru/index.php/spb"
            },
            {
                "name": "Gräs x Madbaren",
                "phone": "+7 812 9281818",
                "amenity": "restaurant",
                "website": "http://grasmadbaren.com/",
                "contact:vk": "https://vk.com/gras.madbaren",
                "opening_hours": "Su-Th 13:00-23:00; Fr-Sa 13:00-01:00"
            },
            {
                "amenity": "restaurant",
                "contact:vk": "https://vk.com/club10958821",
                "cuisine": "japanese;sushi",
                "name": "Токио-City",
                "name:en": "Tokyo-City",
                "name:ru": "Токио-Сити",
                "opening_hours": "Su-Th 11:00-03:00, Fr-Sa 11:00-06:00",
                "payment:credit_cards": "yes",
                "payment:debit_cards": "yes",
                "payment:mastercard": "yes",
                "payment:visa": "yes",
                "phone": "+7 812 6122490",
                "website": "https://www.tokyo-city.ru/",
                "wheelchair": "no"
            },
            {
                "amenity": "restaurant",
                "contact:vk": "https://vk.com/odessa_mama_spb",
                "name": "Одесса-мама",
                "opening_hours": "Mo-Th 12:00-24:00; Fr-Su 12:00-02:00",
                "phone": "+7 812 3121136;+7 962 7189817",
                "website": "http://www.odessa-mama.ru/"
            },
            {
                "amenity": "restaurant",
                "contact:vk": "https://vk.com/delmar_official",
                "name": "Del Mar",
                "opening_hours": "24/7",
                "website": "http://delmar-spb.ru/restaurants/nevsky/",
                "wheelchair": "yes"
            },
            {
                "amenity": "restaurant",
                "contact:email": "ads@evrasia.spb.ru",
                "contact:phone": "+7 812 2447059",
                "contact:vk": "https://vk.com/evrasiaspb",
                "contact:website": "https://evrasia.spb.ru/",
                "cuisine": "japanese",
                "name": "Евразия",
                "opening_hours": "Mo-Su 12:00-23:00",
                "operator": "А8-Итальянская",
                "takeaway": "yes"
            },
            {
                "amenity": "restaurant",
                "contact:email": "ads@evrasia.spb.ru",
                "contact:phone": "+7 812 3107566",
                "contact:vk": "https://vk.com/evrasiaspb",
                "contact:website": "https://evrasia.spb.ru/",
                "cuisine": "sushi",
                "name": "Евразия",
                "opening_hours": "Fr-Sa 11:00-24:00;Mo,Tu,We,Th,Su 11:00-23:00",
                "operator": "Брига",
                "wheelchair": "limited"
            },
            {
                "amenity": "restaurant",
                "contact:vk": "https://vk.com/traktirm",
                "name": "Маша и Медведь",
                "name:en": "Masha and Bear",
                "name:ru": "Маша и Медведь",
                "opening_hours": "11:00-23:00",
                "website": "https://www.traktirmashaandbear.spb.ru/",
                "wheelchair": "no"
            },
            {
                "amenity": "restaurant",
                "contact:vk": "https://vk.com/italytrattoria",
                "internet_access": "wlan",
                "name": "Little Italy",
                "opening_hours": "Mo-Su 11:00-24:00",
                "operator": "ООО «Аморе мио»",
                "phone": "+7 812 5712350",
                "website": "http://littleitalytrattoria.ru/"
            },
            {
                "amenity": "restaurant",
                "contact:instagram": "https://www.instagram.com/gogi.spb/",
                "level": "-1",
                "name": "Gogi",
                "opening_hours": "Fr-Sa 12:00-01:00, Su-Th 11:00-24:00",
                "operator": "ООО «Альбатрос»",
                "website": "https://khinkalnayagogi.com/"
            },
            {
                "addr:city": "Санкт-Петербург",
                "addr:housenumber": "14",
                "addr:postcode": "191023",
                "addr:street": "Караванная улица",
                "amenity": "restaurant",
                "contact:vk": "https://vk.com/ki_do",
                "cuisine": "sushi",
                "internet_access": "wlan",
                "name": "КИDO",
                "opening_hours": "Mo-Fr 12:00-24:00; Sa-Su 13:00-24:00",
                "operator": "ООО «Караванная 16»",
                "phone": "+7 812 5612588",
                "website": "https://spb.kido.ru/places/karavannaya.html",
                "wheelchair": "no"
            },
            {
                "amenity": "restaurant",
                "contact:vk": "https://vk.com/restorantarkhun",
                "level": "-0.5",
                "name": "Тархун",
                "website": "http://www.restorantarkhun.ru/"
            },
            {
                "name": "Shana",
                "amenity": "restaurant",
                "cuisine": "mediterranean",
                "contact:instagram": "https://www.instagram.com/shana_restaurant/"
            },
            {
                "name": "Царь",
                "phone": "+7 812 6401616",
                "amenity": "restaurant",
                "cuisine": "russian",
                "website": "http://www.tsar-project.ru",
                "int_name": "Tsar",
                "contact:vk": "https://vk.com/tsar",
                "internet_access": "wlan"
            },
            {
                "name": "Хинкальная на Неве",
                "amenity": "restaurant",
                "cuisine": "georgian",
                "website": "http://hinkaly.ru/",
                "contact:vk": "https://vk.com/hinkalnayananeve"
            },
            {
                "alt_name": "Безумный Max",
                "amenity": "restaurant",
                "contact:facebook": "craftmadm",
                "contact:instagram": "madmaxrest",
                "contact:vk": "https://vk.com/spbmadmax",
                "email": "sadovaya@maxbier.ru",
                "name": "Безумный Макс",
                "name:en": "Mad Max",
                "name:ru": "Безумный Макс",
                "opening_hours": "Su-Th 12:00-24:00; Fr-Sa 12:00-06:00",
                "operator": "Камбуз",
                "outdoor_seating": "yes",
                "payment:cash": "yes",
                "payment:maestro": "yes",
                "payment:mastercard": "yes",
                "payment:visa": "yes",
                "payment:visa_electron": "yes",
                "phone": "+7 812 9009012",
                "website": "http://mad-m.ru/",
                "wheelchair": "no"
            },
            {
                "name": "Четыре сыра",
                "amenity": "restaurant"
            },
            {
                "name": "Двордзен",
                "amenity": "restaurant",
                "contact:vk": "https://vk.com/dvordzen"
            },
            {
                "amenity": "restaurant",
                "contact:facebook": "catrest",
                "contact:instagram": "cat_restaurant",
                "contact:vk": "https://vk.com/catrestoran",
                "cuisine": "georgian",
                "int_name": "Cat",
                "level": "-1",
                "name": "Кэт",
                "opening_hours": "12:00-24:00",
                "operator": "Фирма \"Приютино\"",
                "payment:mastercard": "yes",
                "payment:visa": "yes",
                "phone": "+7 812 3153800",
                "website": "https://cat-restoran.ru/",
                "wheelchair": "no"
            },
            {
                "name": "Менуа",
                "amenity": "restaurant",
                "contact:vk": "https://vk.com/menua.restaurant",
                "contact:phone": "+7 812 5954042",
                "opening_hours": "Su-Th 12:00-23:00; Fr-Sa 12:00-24:00",
                "contact:website": "http://menua.spb.ru"
            },
            {
                "amenity": "restaurant",
                "level": "0",
                "name": "Josh",
                "name:en": "Josh",
                "outdoor_seating": "yes"
            },
            {
                "amenity": "restaurant",
                "name:en": "kriek",
                "wheelchair": "limited"
            },
            {
                "amenity": "restaurant",
                "name:en": "Zbiten"
            },
            {
                "amenity": "restaurant",
                "name": "Luce"
            },
            {
                "amenity": "restaurant",
                "name:en": "Paloma Mexican Cantina"
            },
            {
                "amenity": "restaurant",
                "name": "Giulietta"
            },
            {
                "amenity": "restaurant",
                "name": "Счастье на Итальянской",
                "name:en": "Schastie"
            }
        ]
    },
    "cafe": {
        "count": 36,
        "detail": [
            {
                "name": "Пышечная фабрика",
                "amenity": "cafe",
                "website": "http://pishechnaya-fabrika.com/"
            },
            {
                "amenity": "cafe",
                "brand": "Штолле",
                "brand:en": "Stolle",
                "brand:wikidata": "Q62502236",
                "contact:vk": "https://vk.com/stollerussia",
                "cuisine": "coffee_shop",
                "microbrewery": "no",
                "name": "Штолле",
                "name:en": "Stolle",
                "opening_hours": "Su-Sa 09:00-21:00",
                "operator": "ООО \"Столовая № 67\"",
                "outdoor_seating": "no",
                "phone": "+7 812 3398767",
                "smoking": "no",
                "takeaway": "yes",
                "website": "https://spb.stolle.ru/addresses/ul-sadovaya-8"
            },
            {
                "amenity": "cafe",
                "contact:vk": "https://vk.com/bushe.bakery",
                "name": "Буше",
                "name:ru": "Буше",
                "opening_hours": "08:00-23:00",
                "operator": "ООО «ПКД «Венец»",
                "payment:cash": "yes",
                "payment:maestro": "yes",
                "payment:mastercard": "yes",
                "payment:visa": "yes",
                "payment:visa_electron": "yes",
                "phone": "+7 812 6405151 ext. 501",
                "takeaway": "yes",
                "website": "http://bushe.ru/",
                "wheelchair": "no"
            },
            {
                "amenity": "cafe",
                "contact:vk": "kosulya_est",
                "diet:vegetarian": "yes",
                "name": "Косуля",
                "opening_hours": "Mo-Su 12:00-01:00",
                "operator": "Космос",
                "outdoor_seating": "no",
                "payment:cash": "yes",
                "payment:maestro": "yes",
                "payment:mastercard": "yes",
                "payment:visa": "yes",
                "payment:visa_electron": "yes",
                "phone": "+7 921 8928265",
                "wheelchair": "no"
            },
            {
                "amenity": "cafe",
                "name": "Русская кухня",
                "name:en": "Russian Cuisine",
                "opening_hours": "08:00-23:00",
                "wheelchair": "no"
            },
            {
                "name": "Магриб",
                "amenity": "cafe",
                "contact:vk": "https://vk.com/magrib335"
            },
            {
                "addr:city": "Санкт-Петербург",
                "addr:housenumber": "50",
                "addr:street": "Невский проспект",
                "amenity": "cafe",
                "contact:phone": "+7 812 9444490;+7 812 4956713",
                "contact:website": "https://cafebrynza.ru/",
                "cuisine": "russian",
                "internet_access": "wlan",
                "internet_access:fee": "no",
                "internet_access:ssid": "Brynza_Free",
                "name": "Брынза",
                "name:en": "Brynza",
                "opening_hours": "24/7",
                "operator": "ООО «Кардигардии»",
                "outdoor_seating": "no",
                "smoking": "no",
                "toilets": "yes",
                "wheelchair": "yes"
            },
            {
                "amenity": "cafe",
                "contact:phone": "+7 812 9444490;+7 812 3477149",
                "cuisine": "cheburek; russian; asian",
                "diet:vegetarian": "yes",
                "name": "Брынза",
                "opening_hours": "10:00-23:00",
                "operator": "ООО «Союз»",
                "website": "https://cafebrynza.ru/",
                "wheelchair": "no"
            },
            {
                "amenity": "cafe",
                "contact:vk": "https://vk.com/mashita_info",
                "cuisine": "ramen",
                "level": "-0.5",
                "name": "Mashita",
                "opening_hours": "Mo-Su 11:00-23:00",
                "website": "http://mashita-ramen.ru/",
                "wheelchair": "no"
            },
            {
                "name": "11 Cafe",
                "amenity": "cafe"
            },
            {
                "addr:city": "Санкт-Петербург",
                "addr:housenumber": "3/54",
                "addr:street": "Малая Садовая улица",
                "amenity": "cafe",
                "contact:vk": "https://vk.com/hachapuri__spb",
                "name": "Хачапури тетушки Марико",
                "opening_hours": "Mo-Th, Su 12:00-24:00; Fr-Sa 12:00-02:00",
                "operator": "ООО «Проспект»",
                "phone": "+7 911 9207290",
                "website": "https://vhachapuri.ru/spb"
            },
            {
                "amenity": "cafe",
                "contact:vk": "mdali4",
                "name": "Mustache Dali",
                "opening_hours": "24/7",
                "phone": "+7 960 2514644",
                "wheelchair": "no"
            },
            {
                "amenity": "cafe",
                "brand": "Starbucks",
                "contact:facebook": "StarbucksRussia",
                "contact:instagram": "starbucksrussia",
                "contact:twitter": "StarbucksRussia",
                "contact:vk": "starbucks",
                "cuisine": "coffee_shop",
                "email": "csd@alshaya.com",
                "opening_hours": "24/7",
                "operator": "Кофе Сирена",
                "payment:cash": "yes",
                "payment:maestro": "yes",
                "payment:mastercard": "yes",
                "payment:visa": "yes",
                "payment:visa_electron": "yes",
                "phone": "+7 499 2704040",
                "takeaway": "yes",
                "website": "http://www.starbucks.ru/",
                "wheelchair": "no"
            },
            {
                "amenity": "cafe",
                "contact:vk": "https://vk.com/coffeebreakfast",
                "cuisine": "coffee_shop",
                "name": "The Coffee & Breakfast",
                "opening_hours": "24/7",
                "payment:mastercard": "yes",
                "payment:visa": "yes",
                "website": "https://www.coffee-breakfast.ru/",
                "wheelchair": "yes"
            },
            {
                "amenity": "cafe",
                "contact:vk": "https://vk.com/pososedski",
                "cuisine": "regional;russian",
                "internet_access": "wlan",
                "internet_access:fee": "no",
                "level": "-1",
                "name": "Квартирка",
                "opening_hours": "12:00-01:00",
                "phone": "+7 812 9006550",
                "toilets": "yes",
                "toilets:wheelchair": "no",
                "website": "http://reca.rest/restaurants/Kvartirkasadovaya",
                "wheelchair": "no"
            },
            {
                "name": "Coffeeshop Company",
                "email": "info@coffeeset.ru",
                "phone": "+7 981 8316543",
                "amenity": "cafe",
                "cuisine": "sandwich;russian;international;breakfast;coffee_shop",
                "name:en": "Coffeeshop Company",
                "name:ru": "Coffeeshop Company",
                "website": "http://coffeeshopcompany.ru",
                "opening_hours": "Mo-Sa 10:00-21:00, Su 11:00-21:00",
                "internet_access": "wlan"
            },
            {
                "name": "чайка",
                "amenity": "cafe",
                "opening_hours": "Su-Th 12:00-01:00; Fr-Sa 12:00-02:00"
            },
            {
                "amenity": "cafe",
                "contact:phone": "+7 965 0076776; +7 905 2056776",
                "contact:vk": "berezaibazilik",
                "contact:website": "https://berezaibazilik.com/",
                "cuisine": "pizza",
                "delivery": "yes",
                "name": "Берёза и базилик",
                "opening_hours": "Mo-Su 10:00-22:00"
            },
            {
                "amenity": "cafe",
                "contact:facebook": "sailorsong.ru",
                "contact:instagram": "pesnmoryaka",
                "contact:vk": "sailorsongcafe",
                "cuisine": "fish",
                "email": "info@sailorsong.ru",
                "level": "-0.5",
                "name": "Песнь моряка",
                "opening_hours": "Mo-Su 11:00-23:00",
                "operator": "Моряк на Неве",
                "phone": "+7 812 6797872",
                "website": "http://spb.sailorsong.ru/",
                "wheelchair": "no"
            },
            {
                "name": "Шаверма",
                "amenity": "cafe",
                "opening_hours": "24/7"
            },
            {
                "amenity": "cafe",
                "contact:email": "info@bagginscoffee.ru",
                "contact:phone": "+7 931 3077244;+7 800 6007015",
                "contact:vk": "https://vk.com/bagginscoffee",
                "contact:website": "https://bagginscoffee.ru/",
                "name": "Baggins Coffee",
                "opening_hours": "Mo-Fr 08:00-21:00; Sa-Su 09:00-21:00",
                "operator": "ИП Сауров Артем Эдуардович"
            },
            {
                "amenity": "cafe",
                "contact:vk": "https://vk.com/caffecentrale",
                "name": "Чентрале",
                "name:en": "Centrale",
                "name:ru": "Чентрале",
                "operator": "Удача",
                "outdoor_seating": "yes",
                "payment:cash": "yes",
                "payment:maestro": "yes",
                "payment:mastercard": "yes",
                "payment:visa": "yes",
                "payment:visa_electron": "yes",
                "phone": "+7 812 9971237"
            },
            {
                "name": "Caffetteria",
                "amenity": "cafe",
                "contact:vk": "https://vk.com/club70851064"
            },
            {
                "amenity": "cafe",
                "name": "Кофетерий",
                "wheelchair": "limited"
            },
            {
                "alt_name": "Кофейня №1",
                "amenity": "cafe",
                "contact:vk": "https://vk.com/coffeen1",
                "internet_access": "wlan",
                "name": "#Кофейня №1",
                "opening_hours": "24/7",
                "phone": "+7 812 9989855",
                "website": "http://delmar-spb.ru/restaurants/kofeynya-1-na-nevskom/",
                "wheelchair": "no"
            },
            {
                "amenity": "cafe",
                "brand": "Coffee Like",
                "brand:wikidata": "Q55662627",
                "brand:wikipedia": "ru:Coffee Like",
                "contact:email": "hotline@coffee-like.com",
                "contact:phone": "+7 341 2908292;+7 800 3334130",
                "contact:vk": "https://vk.com/coffeelike78",
                "contact:website": "https://coffee-like.com/",
                "cuisine": "coffee_shop",
                "name": "Coffee Like",
                "opening_hours": "Mo-Su 09:00-22:00",
                "operator": "Семенов Сергей Владимирович",
                "takeaway": "yes",
                "wheelchair": "no"
            },
            {
                "name": "Бизе",
                "amenity": "cafe",
                "website": "http://bize.spb.ru/",
                "contact:vk": "https://vk.com/bize_spb",
                "opening_hours": "Mo-Fr 08:30-23:00; Sa-Su 10:00-23:00"
            },
            {
                "name": "Tiger Lily",
                "level": "1",
                "amenity": "cafe",
                "cuisine": "chinese;asian",
                "opening_hours": "Su-Th 12:00-00:00; Fr-Sa 12:00-02:00"
            },
            {
                "amenity": "cafe",
                "name:en": "Opera"
            },
            {
                "name": "Josh Cafe",
                "amenity": "cafe"
            },
            {
                "amenity": "cafe"
            },
            {
                "name": "Stories",
                "amenity": "cafe",
                "website": "http://stories.ru.com/",
                "contact:vk": "https://vk.com/spb_stories"
            },
            {
                "name": "Check Point",
                "amenity": "cafe",
                "contact:vk": "https://vk.com/checkpointcafe",
                "opening_hours": "11:00-22:00"
            },
            {
                "amenity": "cafe",
                "name": "Буфет",
                "payment:cash": "yes",
                "payment:maestro": "yes",
                "payment:mastercard": "yes",
                "payment:visa": "yes",
                "payment:visa_electron": "yes",
                "phone": "+7 812 3142601",
                "wheelchair": "no"
            },
            {
                "amenity": "cafe",
                "brand": "Coffee Like",
                "brand:wikidata": "Q55662627",
                "brand:wikipedia": "ru:Coffee Like",
                "contact:instagram": "https://www.instagram.com/ilovemousetail/",
                "contact:vk": "https://vk.com/mousetail",
                "cuisine": "coffee_shop",
                "name": "Coffee Like",
                "name:en": "Mouse Tail",
                "name:ru": "Mouse Tail",
                "opening_hours": "Mo-Su 08:00-22:00",
                "outdoor_seating": "no",
                "takeaway": "yes",
                "website": "https://mousetail.ru/"
            },
            {
                "addr:city": "Санкт-Петербург",
                "addr:country": "RU",
                "addr:housenumber": "17",
                "addr:street": "набережная реки Фонтанки",
                "amenity": "cafe",
                "building": "yes",
                "source": "rgis"
            }
        ]
    },
    "language_school": {
        "count": 6,
        "detail": [
            {
                "name": "Liden & Denz",
                "level": "1",
                "phone": "+7 812 3340788",
                "amenity": "language_school",
                "website": "https://fola.lidenz.ru/",
                "contact:vk": "https://vk.com/liden_denz"
            },
            {
                "name": "Аделанте",
                "email": "info@centroadelante.ru",
                "level": "1",
                "phone": "+7 812 4016730",
                "amenity": "language_school",
                "name:en": "Adelante",
                "name:es": "Adelante",
                "website": "http://www.centroadelante.ru",
                "contact:vk": "https://vk.com/centroadelante",
                "addr:street": "Невский проспект",
                "addr:postcode": "191023",
                "opening_hours": "Mo-Fr 09:00-22:00; Sa 10:00-18:00",
                "addr:housenumber": "54"
            },
            {
                "name": "Момидзи",
                "amenity": "language_school",
                "website": "http://spb.momijischool.ru/",
                "contact:vk": "https://vk.com/momijischool",
                "language:ja": "main"
            },
            {
                "name": "English First",
                "brand": "EF Education First",
                "amenity": "language_school",
                "website": "https://www.ef.ru/englishfirst/kids/school/stpetersburg/nevsky44",
                "contact:vk": "https://vk.com/englishfirst_teens",
                "language:en": "main",
                "brand:wikidata": "Q661869"
            },
            {
                "name": "SkillSet",
                "amenity": "language_school",
                "website": "http://skillset.ru/",
                "contact:vk": "https://vk.com/skillsetspb"
            },
            {
                "name": "Italica",
                "amenity": "language_school",
                "website": "http://www.centroitalica.ru/",
                "contact:vk": "https://vk.com/centro_italica"
            }
        ]
    },
    "bank": {
        "count": 5,
        "detail": [
            {
                "amenity": "bank",
                "brand": "Уралсиб",
                "brand:en": "Uralsib Bank",
                "brand:ru": "Уралсиб",
                "brand:wikidata": "Q4476693",
                "brand:wikipedia": "ru:Уралсиб (банк)",
                "contact:vk": "https://vk.com/bankuralsib",
                "name": "Уралсиб",
                "name:en": "Uralsib Bank",
                "name:ru": "Уралсиб",
                "opening_hours": "Mo-Fr 09:00-18:00",
                "website": "https://www.uralsib.ru/bank/offices/office.wbp?id=9"
            },
            {
                "name": "Энергомашбанк",
                "phone": "+7 812 3038941;+7 812 3038944",
                "branch": "Центральное",
                "amenity": "bank",
                "website": "https://www.energomashbank.ru/main/bank/offices/cantralnoe",
                "contact:vk": "https://vk.com/embclub",
                "opening_hours": "Mo-Th 09:30-18:00; Fr 09:30-17:00"
            },
            {
                "name": "Открытие Private Banking",
                "brand": "Открытие",
                "amenity": "bank",
                "website": "https://pb.open.ru/",
                "operator": "ПАО Банк «ФК Открытие»",
                "contact:vk": "https://vk.com/otkritiecorp",
                "opening_hours": "Mo-Fr 09:30-17:45",
                "brand:wikidata": "Q4327204",
                "operator:wikidata": "Q4327204"
            },
            {
                "amenity": "bank",
                "contact:phone": "+78002005434",
                "contact:vk": "https://vk.com/rosbank_dom",
                "contact:website": "https://rosbank-dom.ru/",
                "name": "Росбанк Дом",
                "name:en": "Rosbank Home",
                "name:ru": "Росбанк Дом",
                "operator": "Росбанк",
                "wheelchair": "yes"
            },
            {
                "amenity": "bank",
                "brand": "Открытие",
                "brand:wikidata": "Q4327204",
                "brand:wikipedia": "ru:Банк «Финансовая корпорация Открытие»",
                "contact:vk": "https://vk.com/otkritiecorp",
                "name": "Открытие",
                "opening_hours": "Mo-Sa 09:00-16:00",
                "operator": "ПАО Банк «ФК Открытие»",
                "operator:wikidata": "Q4327204",
                "website": "https://www.open.ru/"
            }
        ]
    },
    "perfumery": {
        "count": 1,
        "detail": [
            {
                "name": "Element",
                "shop": "perfumery",
                "website": "https://www.element-spb.com/",
                "contact:vk": "https://vk.com/elementhomeparfume"
            }
        ]
    },
    "clothes": {
        "count": 13,
        "detail": [
            {
                "shop": "clothes"
            },
            {
                "name": "Маска",
                "shop": "clothes",
                "clothes": "costumes",
                "operator": "ИП Сокольская А.А.",
                "opening_hours": "Mo-Sa 11:00-20:00; Su 11:00-19:00"
            },
            {
                "name": "Юность",
                "shop": "clothes",
                "operator": "ООО «Акрус»",
                "contact:vk": "https://vk.com/youthstore_spb",
                "opening_hours": "Su-Fr 12:00-21:00; Sa 11:00-21:00",
                "contact:website": "https://youthstore.ru/"
            },
            {
                "brand": "United Colors of Benetton",
                "brand:wikidata": "Q817139",
                "brand:wikipedia": "en:Benetton Group",
                "name": "United Colors of Benetton",
                "opening_hours": "Mo-Su 10:00-23:00",
                "shop": "clothes",
                "short_name": "Benetton",
                "website": "https://ru.benetton.com/",
                "wheelchair": "limited"
            },
            {
                "clothes": "women",
                "fixme": "disused:",
                "name": "Meldes",
                "opening_hours": "11:00-22:00",
                "shop": "clothes",
                "website": "http://meldes.ru/"
            },
            {
                "clothes": "fur",
                "contact:vk": "https://vk.com/shubishapki",
                "level": "-1",
                "name": "Норка",
                "opening_hours": "10:00-21:00",
                "operator": "ООО «Таисия»",
                "shop": "clothes",
                "website": "http://шубы-шапки.рф/",
                "wheelchair": "no"
            },
            {
                "name": "Femme Etoile",
                "shop": "clothes",
                "website": "http://femme-etoile.com/",
                "contact:vk": "https://vk.com/femme_etoile"
            },
            {
                "name": "Ekaterina Smolina",
                "shop": "clothes",
                "website": "http://ekaterinasmolina.ru/sankt-peterburg",
                "contact:vk": "https://vk.com/ekaterina.smolina",
                "opening_hours": "11:00-21:00"
            },
            {
                "name": "Fred Perry",
                "shop": "clothes",
                "website": "https://www.fredperry.com/",
                "contact:vk": "https://vk.com/fredperrystpetersburg",
                "opening_hours": "12:00-21:00"
            },
            {
                "name": "Франснюанс",
                "shop": "clothes",
                "clothes": "women",
                "opening_hours": "11:00-21:00"
            },
            {
                "contact:instagram": "https://www.instagram.com/eve.spb/",
                "contact:vk": "https://vk.com/evebyeve",
                "name": "Ив",
                "name:en": "Eve",
                "name:ru": "Ив",
                "opening_hours": "11:00-22:00",
                "phone": "+7 812 9500407",
                "shop": "clothes"
            },
            {
                "fixme": "disused:",
                "name": "Павловопосадские платки",
                "shop": "clothes",
                "website": "http://platki.ru/"
            },
            {
                "name": "Shinshil.lа",
                "shop": "clothes",
                "website": "https://www.shinshil.la/",
                "contact:vk": "https://vk.com/shinshillashop"
            }
        ]
    },
    "pub": {
        "count": 9,
        "detail": [
            {
                "amenity": "pub",
                "email": "9667910@mail.ru",
                "name": "Сибирская корона",
                "name:en": "Siberian Crown",
                "phone": "+7 812 9667910;+7 812 3105522",
                "website": "http://vk.com/pubsk",
                "wheelchair": "limited"
            },
            {
                "name": "Молли Шелтер",
                "level": "-1",
                "phone": "+7 812 3154754;+7 812 7777966",
                "amenity": "pub",
                "website": "http://molly.su/shelter/",
                "alt_name": "Шелтер",
                "int_name": "Molly Shelter",
                "operator": "Mollie's Group",
                "contact:vk": "https://vk.com/moll_shelter",
                "wheelchair": "no",
                "opening_hours": "Mo-Th 12:00-02:00; Fr-Sa 12:00-03:00; Su 12:00-01:00"
            },
            {
                "name": "Irish House",
                "amenity": "pub",
                "contact:vk": "https://vk.com/irishhousepub"
            },
            {
                "addr:city": "Санкт-Петербург",
                "addr:housenumber": "64",
                "addr:street": "Невский проспект",
                "amenity": "pub",
                "contact:vk": "https://vk.com/gastropub_ivandamaria",
                "name": "Иван да Марья",
                "name:en": "Ivan & Maria",
                "name:ru": "Иван да Марья",
                "opening_hours": "Mo-Su 11:00-01:00; Fr-Sa 11:00-02:30",
                "phone": "+7 812 6111110",
                "website": "http://ivandamaria.bar/",
                "wheelchair": "limited"
            },
            {
                "amenity": "pub",
                "contact:vk": "https://vk.com/karlovypivovary",
                "int_name": "Karlovy Pivovary",
                "name": "Карловы пивовары",
                "opening_hours": "Su-Th 11:30-01:00, Fr-Sa 11:30-02:30",
                "website": "http://karlovypivovary.ru/",
                "wheelchair": "no"
            },
            {
                "amenity": "pub",
                "contact:phone": "+7 812 6111110;+7 812 4182425",
                "contact:website": "http://www.kriek.ru/contacts/restoran-na-nevskom-64/",
                "level": "2",
                "name": "Kriek",
                "name:en": "Kriek",
                "name:ru": "Крик",
                "opening_hours": "Mo-Th,Su 12:00-01:00, Fr-Sa 12:00-02:30",
                "wheelchair": "no"
            },
            {
                "amenity": "pub",
                "brewery": "yes",
                "contact:vk": "https://vk.com/beerhousebar",
                "internet_access": "wlan",
                "name": "Beer House",
                "opening_hours": "Mo-Su 12:00-06:00",
                "phone": "+7 812 5012164",
                "website": "http://beerhousebar.ru/"
            },
            {
                "name": "Kriek",
                "level": "-1",
                "amenity": "pub",
                "website": "http://www.kriek.ru/contacts/restoran-na-italianskoy-17/",
                "contact:vk": "https://vk.com/kriek",
                "contact:phone": "+7 812 6111110;+7 812 5954153;+7 921 8870313",
                "opening_hours": "Su-Th 11:00-01:00, Fr-Sa 11:00-02:30",
                "contact:tripadvisor": "https://www.tripadvisor.ru/Restaurant_Review-g298507-d3358789-Reviews-Brasserie_Kriek-St_Petersburg_Northwestern_District.html"
            },
            {
                "name": "O'Hooligans",
                "amenity": "pub",
                "smoking": "no",
                "website": "http://sad.ohooligans.ru/",
                "contact:vk": "https://vk.com/ohooligans"
            }
        ]
    },
    "atm": {
        "count": 13,
        "detail": [
            {
                "amenity": "atm",
                "opening_hours": "10:00-20:00",
                "operator": "Газпромбанк",
                "website": "https://www.gazprombank.ru/"
            },
            {
                "amenity": "atm",
                "website": "https://raiffeisen.ru/",
                "operator": "Райффайзен"
            },
            {
                "amenity": "atm",
                "operator": "Сбербанк"
            },
            {
                "amenity": "atm",
                "brand": "Сбербанк",
                "operator": "Сбербанк России",
                "ref": "551187",
                "wheelchair": "yes"
            },
            {
                "amenity": "atm",
                "operator": "ВТБ",
                "wheelchair": "yes"
            },
            {
                "ref": "10028322",
                "brand": "Сбербанк",
                "amenity": "atm",
                "operator": "Сбербанк России",
                "wheelchair": "yes"
            },
            {
                "amenity": "atm",
                "brand": "Сбербанк",
                "operator": "Сбербанк России",
                "ref": "10333552",
                "wheelchair": "yes"
            },
            {
                "amenity": "atm",
                "brand": "Сбербанк",
                "operator": "Сбербанк России",
                "wheelchair": "yes"
            },
            {
                "amenity": "atm",
                "brand": "Сбербанк",
                "level": "-1",
                "operator": "Сбербанк России",
                "ref": "11796210",
                "wheelchair": "no"
            },
            {
                "amenity": "atm",
                "contact:email": "info@psbank.ru",
                "contact:phone": "+7 495 7873333;+7 800 3330303",
                "contact:website": "https://psbank.ru/",
                "opening_hours": "Mo-Su 06:00-24:00",
                "operator": "Промсвязьбанк"
            },
            {
                "amenity": "atm",
                "brand": "Санкт-Петербург",
                "contact:email": "cc@bspb.ru",
                "contact:facebook": "https://www.facebook.com/bspb/",
                "contact:instagram": "https://instagram.com/bank_spb",
                "contact:ok": "https://ok.ru/bspb",
                "contact:phone": "+7 800 2225050;+7 812 3295050",
                "contact:twitter": "https://twitter.com/bank_spb",
                "contact:vk": "https://vk.com/bspb",
                "contact:website": "https://www.bspb.ru/",
                "currency:RUB": "yes",
                "opening_hours": "Mo-Fr 07:00-19:00",
                "operator": "ПАО Банк Санкт-Петербург",
                "telegram": "https://t.me/mybspb"
            },
            {
                "amenity": "atm",
                "brand": "Банк Санкт-Петербург",
                "operator": "Банк Санкт-Петербург",
                "ref": "AC090497",
                "wheelchair": "yes"
            },
            {
                "amenity": "atm",
                "brand": "ВТБ",
                "operator": "ВТБ",
                "wheelchair": "yes"
            }
        ]
    },
    "bus_stop": {
        "count": 20,
        "detail": [
            {
                "bus": "yes",
                "highway": "bus_stop",
                "local_ref": "49",
                "name": "Инженерная улица",
                "public_transport": "platform"
            },
            {
                "bus": "yes",
                "highway": "bus_stop",
                "local_ref": "49",
                "name": "Невский проспект",
                "name:ru": "Невский проспект",
                "public_transport": "platform"
            },
            {
                "bus": "yes",
                "highway": "bus_stop",
                "local_ref": "49;181",
                "name": "Невский проспект",
                "name:ru": "Невский проспект",
                "public_transport": "platform"
            },
            {
                "bench": "yes",
                "bin": "yes",
                "bus": "yes",
                "highway": "bus_stop",
                "name": "станция метро «Гостиный двор»",
                "passenger_information_display": "yes",
                "public_transport": "platform",
                "shelter": "yes",
                "tactile_paving": "no",
                "wheelchair": "yes"
            },
            {
                "bus": "yes",
                "highway": "bus_stop",
                "local_ref": "49",
                "name": "Инженерная улица",
                "public_transport": "platform"
            },
            {
                "bench": "yes",
                "bin": "yes",
                "bus": "yes",
                "highway": "bus_stop",
                "name": "станция метро «Гостиный двор»",
                "public_transport": "platform",
                "shelter": "yes",
                "tactile_paving": "no",
                "wheelchair": "yes"
            },
            {
                "highway": "bus_stop",
                "name": "станция метро «Гостиный двор»",
                "public_transport": "platform",
                "shelter": "yes",
                "trolleybus": "yes"
            },
            {
                "highway": "bus_stop",
                "name": "станция метро «Гостиный двор»",
                "public_transport": "platform",
                "shelter": "yes",
                "trolleybus": "yes"
            },
            {
                "bus": "yes",
                "name": "станция метро «Гостиный двор»",
                "operator": "СПб ГУП \"Пассажиравтотранс\"",
                "public_transport": "stop_position",
                "ref": "3;7;22;24;27;191",
                "tactile_paving": "no",
                "trolleybus": "no"
            },
            {
                "name": "станция метро «Гостиный двор»",
                "public_transport": "stop_position",
                "trolleybus": "yes"
            },
            {
                "name": "станция метро «Гостиный двор»",
                "public_transport": "stop_position",
                "trolleybus": "yes"
            },
            {
                "bus": "yes",
                "name": "станция метро «Гостиный двор»",
                "operator": "СПб ГУП \"Организатор перевозок\"",
                "public_transport": "stop_position",
                "tactile_paving": "no",
                "trolleybus": "no"
            },
            {
                "bus": "yes",
                "name": "Невский проспект",
                "name:ru": "Невский проспект",
                "public_transport": "stop_position"
            },
            {
                "bus": "yes",
                "name": "Инженерная улица",
                "public_transport": "stop_position"
            },
            {
                "bus": "yes",
                "name": "Инженерная улица",
                "public_transport": "stop_position"
            },
            {
                "bus": "yes",
                "name": "Невский проспект",
                "name:ru": "Невский проспект",
                "public_transport": "stop_position"
            },
            {
                "bench": "yes",
                "bin": "yes",
                "highway": "bus_stop",
                "name": "Дворец творчества юных",
                "passenger_information_display": "yes",
                "public_transport": "platform",
                "shelter": "yes",
                "trolleybus": "yes"
            },
            {
                "name": "Дворец творчества юных",
                "public_transport": "stop_position",
                "trolleybus": "yes"
            },
            {
                "bench": "yes",
                "bin": "yes",
                "bus": "yes",
                "highway": "bus_stop",
                "name": "Дворец творчества юных",
                "public_transport": "platform",
                "shelter": "yes",
                "tactile_paving": "no",
                "wheelchair": "yes"
            },
            {
                "bus": "yes",
                "name": "Дворец творчества юных",
                "operator": "СПб ГУП \"Организатор перевозок\"",
                "public_transport": "stop_position",
                "ref": "3;7;22;24;27;181;191",
                "tactile_paving": "no",
                "trolleybus": "no"
            }
        ]
    },
    "convenience": {
        "count": 3,
        "detail": [
            {
                "alt_name": "Елисеевский",
                "contact:vk": "https://vk.com/club64259150",
                "name": "Магазин купцов Елисеевых",
                "name:en": "Kupetz Eliseevs Shop",
                "name:fr": "Magasin Elisseïev",
                "name:ru": "Магазин купцов Елисеевых",
                "opening_hours": "10:00-23:00",
                "phone": "+7 812 4566666",
                "shop": "convenience",
                "website": "https://www.kupetzeliseevs.ru/",
                "wheelchair": "limited",
                "wikidata": "Q968295",
                "wikipedia": "ru:Дом торгового товарищества «Братья Елисеевы»"
            },
            {
                "name": "Продукты",
                "shop": "convenience",
                "opening_hours": "24/7"
            },
            {
                "name": "Лето",
                "shop": "convenience",
                "opening_hours": "24/7"
            }
        ]
    },
    "fountain": {
        "count": 1,
        "detail": [
            {
                "name": "Вращающийся шар",
                "amenity": "fountain"
            }
        ]
    },
    "gift": {
        "count": 5,
        "detail": [
            {
                "level": "-1",
                "name": "1+1",
                "operator": "Орбита",
                "payment:cash": "yes",
                "payment:maestro": "yes",
                "payment:mastercard": "yes",
                "payment:visa": "yes",
                "payment:visa_electron": "yes",
                "shop": "gift",
                "wheelchair": "no"
            },
            {
                "contact:vk": "https://vk.com/lilkko",
                "email": "info@lilkko.ru",
                "name": "Lilkko",
                "old_name": "Zakka",
                "opening_hours": "Mo-Su 10:00-22:00",
                "phone": "+7 800 5058964",
                "shop": "gift",
                "website": "https://www.lilkko.ru/"
            },
            {
                "alt_name": "Подарки и сувениры",
                "name": "Taste of Russia",
                "opening_hours": "10:00-22:00",
                "operator": "ООО \"ТФ \"Сувенир\"",
                "shop": "gift",
                "website": "http://spb-souvenirs.ru",
                "wheelchair": "no"
            },
            {
                "name": "Russian Amber",
                "name:en": "Russian Amber",
                "name:ru": "Русский янтарь",
                "opening_hours": "09:00-22:00",
                "operator": "ИП Наливкина Н.В.",
                "phone": "+7 812 4244328",
                "shop": "gift",
                "website": "http://souvenirboutique.com",
                "wheelchair": "no"
            },
            {
                "name": "Невский символ",
                "opening_hours": "09:00-21:00",
                "operator": "Лочаков",
                "shop": "gift",
                "wheelchair": "yes"
            }
        ]
    },
    "telephone": {
        "count": 7,
        "detail": [
            {
                "amenity": "telephone"
            },
            {
                "phone": "+7 812 3142773",
                "amenity": "telephone"
            },
            {
                "amenity": "telephone"
            },
            {
                "phone": "+7 812 5713115",
                "amenity": "telephone"
            },
            {
                "phone": "+7 812 5717922",
                "amenity": "telephone"
            },
            {
                "phone": "+7 812 3147697",
                "amenity": "telephone"
            },
            {
                "amenity": "telephone"
            }
        ]
    },
    "post_office": {
        "count": 2,
        "detail": [
            {
                "ref": "191069",
                "name": "Санкт-Петербург 191069",
                "fixme": "Расположение примерное. Необходима проверка на местности.",
                "phone": "+7 812 3100187",
                "amenity": "post_office",
                "website": "https://www.pochta.ru",
                "operator": "Почта России",
                "opening_hours": "Mo-Fr 09:00-12:00,12:30-17:00; Sa-Su off"
            },
            {
                "amenity": "post_office",
                "brand": "DHL Express",
                "opening_hours": "Mo-Fr: 09:00-20:00; Sa 10:00-16:00; Su off",
                "phone": "+7 812 3266400",
                "website": "https://express.dhl.ru/",
                "wheelchair": "no"
            }
        ]
    },
    "books": {
        "count": 2,
        "detail": [
            {
                "name": "28ой",
                "shop": "books",
                "level": "0",
                "website": "https://www.spb.28oi.ru/",
                "alt_name": "Двадцать восьмой",
                "contact:vk": "https://vk.com/spb28oi",
                "opening_hours": "12:00-21:00"
            },
            {
                "alt_name": "Парк культуры и чтения",
                "brand": "Буквоед",
                "brand:wikidata": "Q4098549",
                "brand:wikipedia": "ru:Буквоед",
                "contact:vk": "https://vk.com/bookvoed",
                "name": "Буквоед",
                "opening_hours": "08:00-24:00",
                "phone": "+7 812 2449652;+7 812 2449653;+7 812 2449654",
                "shop": "books",
                "website": "https://www.bookvoed.ru/shop?id=67",
                "wheelchair": "no"
            }
        ]
    },
    "stripclub": {
        "count": 3,
        "detail": [
            {
                "name": "Zависть",
                "amenity": "stripclub",
                "website": "http://zavistbar.ru/cabaret-bar/",
                "contact:vk": "https://vk.com/zavistbar"
            },
            {
                "amenity": "stripclub",
                "contact:vk": "https://vk.com/goldendollsspb",
                "name": "Golden Dolls",
                "opening_hours": "21:00-06:00",
                "website": "https://golden-dolls.ru/",
                "wheelchair": "no"
            },
            {
                "name": "Playgirls",
                "note": "на сайте указан другой адрес",
                "amenity": "stripclub",
                "website": "https://playgirls.spb.ru/",
                "alt_name": "PG",
                "operator": "ООО «1/6 часть Суши»",
                "contact:vk": "https://vk.com/playgirls_spb"
            }
        ]
    },
    "theatre": {
        "count": 5,
        "detail": [
            {
                "addr:housenumber": "52",
                "addr:street": "Невский проспект",
                "amenity": "theatre",
                "contact:vk": "https://vk.com/club2091370",
                "name": "Театр марионеток им. Е. С. Деммени",
                "website": "https://www.demmeni.ru/",
                "wheelchair": "no"
            },
            {
                "amenity": "theatre",
                "contact:vk": "https://vk.com/teatrvfk",
                "email": "teatr@teatrvfk.ru",
                "name": "Академический драматический театр имени В. Ф. Комиссаржевской",
                "opening_hours": "Mo-Su 11:00-23:00",
                "operator": "Санкт-Петербургский Государственный Академический Драматический Театр В.Ф. Комиссаржевской",
                "phone": "+7 812 3155355",
                "ref:mkrf_theaters": "11322",
                "website": "http://www.teatrvfk.ru/",
                "wikidata": "Q4059176"
            },
            {
                "name": "Большой Санкт-Петербургский государственный цирк",
                "amenity": "theatre",
                "name:de": "Großer Sankt Petersburger Circus Ciniselli",
                "name:en": "The Bolshoi State Saint-Petersburg Circus",
                "website": "http://circus.spb.ru/",
                "alt_name": "Цирк Чинизелли",
                "building": "public",
                "loc_name": "Цирк на Фонтанке",
                "wikidata": "Q268839",
                "wikipedia": "ru:Большой Санкт-Петербургский государственный цирк",
                "contact:vk": "https://vk.com/circusciniselli",
                "addr:street": "набережная реки Фонтанки",
                "theatre:genre": "circus",
                "building:levels": "3",
                "addr:housenumber": "3"
            },
            {
                "addr:city": "Санкт-Петербург",
                "addr:country": "RU",
                "addr:housenumber": "56",
                "addr:postcode": "191023",
                "addr:street": "Невский проспект",
                "amenity": "theatre",
                "building": "yes",
                "building:levels": "5",
                "contact:vk": "https://vk.com/club83542",
                "email": "teatr@akimovkomedia.ru",
                "name": "Театр комедии имени Н. П. Акимова",
                "opening_hours": "Mo-Su 11:30-23:00",
                "operator": "СПбГБУК «Академический театр Комедии им.Н.П. Акимова»",
                "phone": "+7 812 3124555",
                "ref:mkrf_theaters": "15840",
                "website": "http://akimovkomedia.ru/",
                "wheelchair": "no",
                "wikidata": "Q4407688",
                "wikipedia": "ru:Санкт-Петербургский академический театр комедии имени Н. П. Акимова"
            },
            {
                "addr:city": "Санкт-Петербург",
                "addr:country": "RU",
                "addr:housenumber": "13",
                "addr:street": "Итальянская улица",
                "amenity": "theatre",
                "building": "yes",
                "building:levels": "2",
                "contact:vk": "https://vk.com/spb_muzcomedy",
                "email": "teatr@muzcomedy.spb.ru",
                "name": "Театр музыкальной комедии",
                "name:en": "Theatre of Musical Comedy",
                "name:fr": "Théâtre de comédie musicale",
                "name:zh": "音乐喜剧大剧院",
                "opening_hours": "Mo-Su 11:00-21:00",
                "phone": "+7 812 5705316",
                "ref:mkrf_theaters": "14398",
                "website": "http://www.muzcomedy.ru/",
                "wikidata": "Q4407739"
            }
        ]
    },
    "bakery": {
        "count": 4,
        "detail": [
            {
                "contact:vk": "https://vk.com/zhanrua",
                "name": "Жан Руа",
                "opening_hours": "Mo-Fr 08:00-23:00; Sa-Su 09:00-23:00",
                "operator": "ИП Гирса И.Н.",
                "shop": "bakery",
                "website": "https://zhanrua.ru/"
            },
            {
                "amenity": "cafe",
                "entrance": "yes",
                "name": "Central",
                "opening_hours": "Mo-Fr 08:30-22:00; Sa-Su 09:00-22:00",
                "shop": "bakery",
                "wheelchair": "yes"
            },
            {
                "contact:vk": "https://vk.com/wolkonskyspb",
                "name": "Волконский",
                "opening_hours": "09:00-23:00",
                "shop": "bakery",
                "website": "http://wolkonsky.com/spb"
            },
            {
                "brand": "Булочные Ф. Вольчека",
                "contact:email": "info@fvolchek.ru",
                "contact:phone": "+7 812 6420638",
                "contact:vk": "f.volchek",
                "contact:website": "http://fvolchek.ru",
                "inscription": "Булочная № 90",
                "name": "Булочная Ф. Вольчека",
                "opening_hours": "Mo-Su 08:00-22:00",
                "ref": "90",
                "shop": "bakery"
            }
        ]
    },
    "veterinary": {
        "count": 1,
        "detail": [
            {
                "name": "Ветеринарный госпиталь",
                "amenity": "veterinary",
                "contact:email": "vet-hospital@mail.ru",
                "contact:phone": "+7 812 5705659",
                "opening_hours": "Mo-Su 10:00-21:00",
                "contact:website": "https://vethospital78.ru/"
            }
        ]
    },
    "hairdresser": {
        "count": 6,
        "detail": [
            {
                "name": "Estel",
                "shop": "hairdresser",
                "website": "http://salon.estel.pro/",
                "contact:vk": "https://vk.com/estelsalon",
                "opening_hours": "Mo-Sa 10:00-21:00; Su 11:00-20:00"
            },
            {
                "level": "0",
                "male": "yes",
                "name": "All in",
                "opening_hours": "10:00-22:00",
                "operator": "Щагин Андрей Владимирович",
                "shop": "hairdresser",
                "wheelchair": "no"
            },
            {
                "contact:vk": "https://vk.com/buklya_me",
                "name": "Букля",
                "opening_hours": "10:00-22:00",
                "phone": "+7 812 9889595",
                "shop": "hairdresser",
                "website": "http://www.buklya.me/",
                "wheelchair": "yes"
            },
            {
                "contact:vk": "https://vk.com/hairshopspb",
                "name": "Hairshop",
                "shop": "hairdresser",
                "website": "https://www.hairshop.ru/salons/piter/na-sadovoy/"
            },
            {
                "contact:vk": "https://vk.com/odisodis",
                "name": "Осипов",
                "name:en": "Osipov",
                "shop": "hairdresser",
                "website": "http://denis-osipov.ru/",
                "wheelchair": "no"
            },
            {
                "name": "Vmesto",
                "shop": "hairdresser",
                "website": "https://vmesto.studio/",
                "contact:vk": "https://vk.com/vmestostudio",
                "opening_hours": "12:00-21:00"
            }
        ]
    },
    "bicycle_parking": {
        "count": 5,
        "detail": [
            {
                "fee": "no",
                "amenity": "bicycle_parking",
                "covered": "no",
                "capacity": "4",
                "bicycle_parking": "rack"
            },
            {
                "fee": "no",
                "amenity": "bicycle_parking",
                "covered": "no",
                "capacity": "7",
                "bicycle_parking": "rack"
            },
            {
                "amenity": "bicycle_parking",
                "bicycle_parking": "rack",
                "capacity": "9",
                "covered": "no"
            },
            {
                "amenity": "bicycle_parking",
                "bicycle_parking": "stands",
                "capacity": "4",
                "covered": "no",
                "fee": "no"
            },
            {
                "amenity": "bicycle_parking",
                "bicycle_parking": "wall_loops",
                "capacity": "5",
                "covered": "no",
                "operator": "Столовая 1"
            }
        ]
    },
    "recycling": {
        "count": 3,
        "detail": [
            {
                "name": "Экобокс",
                "fixme": "уточнить положение(в комитете по здравоохранению, Малая Садовая 1)",
                "amenity": "recycling",
                "recycling_type": "container",
                "recycling:batteries": "yes",
                "recycling:hydrargyrum": "yes",
                "recycling:hazardous_waste": "yes",
                "recycling:low_energy_bulbs": "yes",
                "recycling:fluorescent_tubes": "yes"
            },
            {
                "name": "Экобокс",
                "fixme": "уточнить положение(в комитете по тарифам)",
                "amenity": "recycling",
                "recycling_type": "container",
                "recycling:batteries": "yes",
                "recycling:hydrargyrum": "yes",
                "recycling:hazardous_waste": "yes",
                "recycling:low_energy_bulbs": "yes",
                "recycling:fluorescent_tubes": "yes"
            },
            {
                "name": "Экобокс",
                "fixme": "уточнить положение",
                "amenity": "recycling",
                "recycling_type": "container",
                "recycling:batteries": "yes",
                "recycling:hydrargyrum": "yes",
                "recycling:hazardous_waste": "yes",
                "recycling:low_energy_bulbs": "yes",
                "recycling:fluorescent_tubes": "yes"
            }
        ]
    },
    "clock": {
        "count": 1,
        "detail": [
            {
                "amenity": "clock",
                "display": "analog",
                "support": "wall_mounted"
            }
        ]
    },
    "supermarket": {
        "count": 3,
        "detail": [
            {
                "brand": "Дикси",
                "brand:en": "Dixy",
                "brand:wikidata": "Q4161561",
                "brand:wikipedia": "ru:Дикси (сеть магазинов)",
                "contact:phone": "+7 800 3330201",
                "contact:vk": "https://vk.com/dixyclub",
                "contact:youtube": "https://www.youtube.com/user/DixyChannel",
                "level": "-1",
                "name": "Дикси",
                "name:ru": "Дикси",
                "opening_hours": "Mo-Su 08:00-23:00",
                "operator": "АО «Дикси Юг»",
                "shop": "supermarket",
                "website": "https://dixy.ru/",
                "wheelchair": "no"
            },
            {
                "alt_name": "Пятерочка",
                "alt_name:ru": "Пятерочка",
                "brand": "Пятёрочка",
                "brand:en": "Pyaterochka",
                "brand:wikidata": "Q1768969",
                "brand:wikipedia": "ru:Пятёрочка",
                "contact:vk": "https://vk.com/pyaterochka_shop",
                "name": "Пятёрочка",
                "name:en": "Pyaterochka",
                "name:ru": "Пятёрочка",
                "opening_hours": "Mo-Su 08:00-23:00",
                "operator": "ООО «Агроторг»",
                "phone": "+7 800 5555505",
                "shop": "supermarket",
                "website": "https://5ka.ru/",
                "wheelchair": "limited"
            },
            {
                "brand": "Eurospar",
                "brand:wikidata": "Q12309283",
                "brand:wikipedia": "da:Eurospar",
                "name": "EuroSpar",
                "opening_hours": "24/7",
                "shop": "supermarket"
            }
        ]
    },
    "cosmetics": {
        "count": 2,
        "detail": [
            {
                "brand": "Л'Этуаль",
                "brand:wikidata": "Q18400706",
                "brand:wikipedia": "ru:Л’Этуаль",
                "contact:vk": "https://vk.com/letoile_official",
                "name": "Л'Этуаль",
                "opening_hours": "10:00-22:00",
                "phone": "+7 800 3337711 (доб. 32476, 32477)",
                "shop": "cosmetics",
                "website": "https://www.letu.ru/"
            },
            {
                "level": "0;1",
                "name": "Рив Гош",
                "name:en": "Rive Gauche",
                "name:ru": "Рив Гош",
                "opening_hours": "Mo-Sa 10:00-21:00; Su 11:00-21:00",
                "payment:cash": "yes",
                "payment:maestro": "yes",
                "payment:mastercard": "yes",
                "payment:visa": "yes",
                "payment:visa_electron": "yes",
                "phone": "+7 812 5705791; +7 800 3332020",
                "shop": "cosmetics",
                "website": "http://www.rivegauche.ru/"
            }
        ]
    },
    "confectionery": {
        "count": 2,
        "detail": [
            {
                "name": "Музей шоколада",
                "name:en": "Chocolates Museum",
                "phone": "+7 812 3141656",
                "shop": "confectionery",
                "website": "http://www.spb.muzeyshokolada.ru/"
            },
            {
                "name": "Сладкий сувенир",
                "shop": "confectionery",
                "brand": "Фабрика имени Крупской",
                "contact:vk": "https://vk.com/sladkysuvenir",
                "opening_hours": "09:00-21:00",
                "brand:wikidata": "Q4480319"
            }
        ]
    },
    "bench": {
        "count": 28,
        "detail": [
            {
                "amenity": "bench"
            },
            {
                "amenity": "bench"
            },
            {
                "amenity": "bench"
            },
            {
                "amenity": "bench"
            },
            {
                "amenity": "bench",
                "backrest": "yes",
                "material": "wood"
            },
            {
                "amenity": "bench",
                "backrest": "yes",
                "material": "wood"
            },
            {
                "amenity": "bench",
                "backrest": "yes",
                "material": "wood"
            },
            {
                "amenity": "bench",
                "backrest": "yes",
                "material": "wood"
            },
            {
                "amenity": "bench",
                "backrest": "yes",
                "material": "wood"
            },
            {
                "amenity": "bench",
                "backrest": "yes",
                "material": "wood"
            },
            {
                "amenity": "bench",
                "backrest": "yes"
            },
            {
                "amenity": "bench",
                "backrest": "yes"
            },
            {
                "amenity": "bench",
                "backrest": "yes"
            },
            {
                "amenity": "bench",
                "backrest": "yes"
            },
            {
                "amenity": "bench",
                "backrest": "yes"
            },
            {
                "amenity": "bench",
                "backrest": "yes"
            },
            {
                "amenity": "bench",
                "backrest": "yes"
            },
            {
                "amenity": "bench",
                "backrest": "yes"
            },
            {
                "amenity": "bench",
                "backrest": "yes"
            },
            {
                "amenity": "bench",
                "backrest": "yes"
            },
            {
                "amenity": "bench",
                "backrest": "yes"
            },
            {
                "amenity": "bench"
            },
            {
                "amenity": "bench"
            },
            {
                "amenity": "bench"
            },
            {
                "amenity": "bench",
                "backrest": "yes"
            },
            {
                "amenity": "bench"
            },
            {
                "amenity": "bench"
            },
            {
                "amenity": "bench"
            }
        ]
    },
    "pharmacy": {
        "count": 3,
        "detail": [
            {
                "amenity": "pharmacy",
                "healthcare": "pharmacy",
                "level": "1",
                "name": "Петербургские аптеки",
                "opening_hours": "08:00-23:00",
                "phone": "+7 812 7000303",
                "ref": "98",
                "website": "https://papteki.ru/",
                "wheelchair": "yes"
            },
            {
                "amenity": "pharmacy",
                "contact:vk": "https://vk.com/apteka_mega",
                "name": "А-Мега",
                "website": "https://www.aptekamega.ru/",
                "wheelchair": "limited"
            },
            {
                "name": "Неофарм",
                "level": "0",
                "amenity": "pharmacy",
                "website": "http://neopharm.ru/stores/632/",
                "operator": "ООО «Неофарм Северо-Запад»",
                "contact:vk": "https://vk.com/neopharm_official",
                "opening_hours": "24/7"
            }
        ]
    },
    "toilets": {
        "count": 2,
        "detail": [
            {
                "fee": "yes",
                "amenity": "toilets",
                "website": "http://www.vodokanal.spb.ru/kanalizovanie/tualety/",
                "operator": "ГУП «Водоканал Санкт-Петербурга»",
                "opening_hours": "09:00-21:00"
            },
            {
                "fee": "no",
                "level": "2",
                "amenity": "toilets"
            }
        ]
    },
    "photo": {
        "count": 2,
        "detail": [
            {
                "note": "скорее всего в музее Карла Буллы",
                "shop": "photo"
            },
            {
                "name": "812photo.ru",
                "shop": "photo",
                "website": "https://812photo.ru/contacts/stores/101/",
                "contact:vk": "https://vk.com/shopphoto"
            }
        ]
    },
    "library": {
        "count": 1,
        "detail": [
            {
                "name": "Медицинская библиотека",
                "amenity": "library",
                "website": "http://gcmp.ru/library/",
                "opening_hours": "Mo-Fr 11:00-19:30; Sa 11:00-18:00; Fr[-1] off"
            }
        ]
    },
    "doctors": {
        "count": 6,
        "detail": [
            {
                "amenity": "doctors",
                "email": "gcmedprof@zdrav.spb.ru",
                "fixme": "healthcare",
                "healthcare": "doctor",
                "name": "Центр медицинской профилактики",
                "phone": "+7 812 5958909",
                "website": "http://gcmp.ru/"
            },
            {
                "amenity": "doctors",
                "healthcare": "doctor",
                "name": "Консультативно-диагностическая поликлиника 442 военного клинического госпиталя"
            },
            {
                "amenity": "doctors",
                "contact:vk": "https://vk.com/medclinic_center",
                "healthcare": "doctor",
                "name": "МедКлиник",
                "opening_hours": "Mo-Sa 09:00-21:00",
                "operator": "ООО «МедКлиник»",
                "website": "https://medclinic.center/"
            },
            {
                "amenity": "doctors",
                "contact:vk": "https://vk.com/terapeuticum",
                "healthcare": "doctor",
                "name": "Терапевтикум",
                "website": "http://www.terapeuticum.ru/"
            },
            {
                "amenity": "doctors",
                "contact:vk": "https://vk.com/salusmedical",
                "healthcare": "doctor",
                "name": "Salus-Medical",
                "website": "https://salus-medical.ru/"
            },
            {
                "amenity": "doctors",
                "healthcare": "doctor",
                "name": "442 военный клинический госпиталь, Консультативно-диагностическая поликлиника"
            }
        ]
    },
    "post_box": {
        "count": 3,
        "detail": [
            {
                "ref": "61",
                "amenity": "post_box",
                "operator": "Почта России",
                "design:year": "2010",
                "drive_through": "no",
                "post_box:type": "wall",
                "post_box:design": "ЯПНМ-II-С",
                "collection_times": "Mo-Fr 04:30,12:50; Sa 08:30; Su 12:50"
            },
            {
                "ref": "7",
                "amenity": "post_box",
                "operator": "Почта России",
                "design:year": "2010",
                "drive_through": "no",
                "post_box:type": "wall",
                "post_box:design": "ЯПНМ-II-С",
                "collection_times": "Mo-Fr 06:05,17:15; Sa 08:20; Su 17:15"
            },
            {
                "ref": "11",
                "amenity": "post_box",
                "operator": "Почта России",
                "design:year": "2010",
                "drive_through": "no",
                "post_box:type": "wall",
                "post_box:design": "ЯПНМ-II-С",
                "collection_times": "Mo-Fr 05:55,17:05; Sa 08:10; Su 17:05"
            }
        ]
    },
    "vending_machine": {
        "count": 7,
        "detail": [
            {
                "name": "Линзы Тут",
                "phone": "+7 812 6490039",
                "amenity": "vending_machine",
                "vending": "contact_lenses",
                "website": "http://www.linzi-tut.ru/"
            },
            {
                "name": "Кофе",
                "amenity": "vending_machine",
                "vending": "drinks"
            },
            {
                "ref": "303085",
                "amenity": "vending_machine",
                "vending": "subway_tokens",
                "operator": "Петербургский метрополитен",
                "payment:cash": "yes",
                "payment:visa": "yes",
                "payment:maestro": "yes",
                "payment:mastercard": "yes",
                "payment:visa_electron": "yes"
            },
            {
                "ref": "30311",
                "amenity": "vending_machine",
                "vending": "public_transport_tickets",
                "operator": "Петербургский метрополитен",
                "payment:cash": "yes",
                "payment:visa": "yes",
                "payment:maestro": "yes",
                "payment:mastercard": "yes",
                "payment:visa_electron": "yes"
            },
            {
                "amenity": "vending_machine",
                "vending": "public_transport_tickets",
                "operator": "Петербургский метрополитен",
                "payment:cash": "only"
            },
            {
                "ref": "30310",
                "amenity": "vending_machine",
                "vending": "public_transport_tickets",
                "operator": "Петербургский метрополитен",
                "payment:cash": "yes",
                "payment:visa": "yes",
                "payment:maestro": "yes",
                "payment:mastercard": "yes",
                "payment:visa_electron": "yes"
            },
            {
                "amenity": "vending_machine",
                "indoor": "yes",
                "operator": "Петербургский метрополитен",
                "payment:cash": "yes",
                "payment:maestro": "yes",
                "payment:mastercard": "yes",
                "payment:visa": "yes",
                "payment:visa_electron": "yes",
                "vending": "subway_tokens"
            }
        ]
    },
    "newsagent": {
        "count": 2,
        "detail": [
            {
                "name": "Ежедневник",
                "shop": "newsagent"
            },
            {
                "brand": "Первая полоса",
                "brand:wikidata": "Q62736412",
                "name": "Первая полоса",
                "payment:cash": "yes",
                "payment:maestro": "yes",
                "payment:mastercard": "yes",
                "payment:visa": "yes",
                "payment:visa_electron": "yes",
                "ref": "19",
                "shop": "newsagent",
                "wheelchair": "yes"
            }
        ]
    },
    "antiques": {
        "count": 2,
        "detail": [
            {
                "name": "Петербург",
                "shop": "antiques",
                "website": "http://www.salon-petersburg.ru/",
                "opening_hours": "11:00-21:00"
            },
            {
                "name": "Русский стиль",
                "note": "возможно не работает",
                "shop": "antiques",
                "phone": "+7 812 5711553",
                "operator": "ООО «Русский стиль»",
                "opening_hours": "Tu-Sa 12:00-19:00"
            }
        ]
    },
    "mobile_phone": {
        "count": 2,
        "detail": [
            {
                "brand": "Евросеть",
                "brand:en": "Euroset",
                "brand:wikidata": "Q65310",
                "brand:wikipedia": "en:Euroset",
                "contact:vk": "https://vk.com/euroset_club",
                "fixme": "disused:",
                "name": "Евросеть",
                "name:en": "Euroset",
                "phone": "+7 800 7000010",
                "ref": "S963",
                "shop": "mobile_phone",
                "website": "https://euroset.ru/sankt-peterburg/shops/13417508/"
            },
            {
                "contact:email": "pro-service.spb.ru@yandex.ru",
                "contact:instagram": "https://instagram.com/pro_service_spb",
                "contact:phone": "+7 953 3441699;+7 960 2269696",
                "contact:vk": "https://vk.com/pro_service_spb",
                "contact:website": "https://pro-service.spb.ru/",
                "name": "Pro:Service",
                "opening_hours": "Mo-Su 10:00-20:00",
                "operator": "Pro:Service",
                "shop": "mobile_phone"
            }
        ]
    },
    "bureau_de_change": {
        "count": 1,
        "detail": [
            {
                "amenity": "bureau_de_change",
                "brand": "Юнистрим",
                "brand:wikidata": "Q4534572",
                "contact:vk": "https://vk.com/unistreambank",
                "level": "0",
                "name": "Юнистрим",
                "opening_hours": "24/7",
                "website": "https://unistream.ru/"
            }
        ]
    },
    "optician": {
        "count": 1,
        "detail": [
            {
                "level": "-1",
                "name": "Точка зрения",
                "opening_hours": "10:00-22:00",
                "phone": "+7 812 3122460",
                "shop": "optician",
                "website": "http://www.optica-tz.ru/",
                "wheelchair": "no"
            }
        ]
    },
    "music": {
        "count": 1,
        "detail": [
            {
                "name": "Play",
                "shop": "music",
                "email": "playstore.spb@gmail.com",
                "level": "1",
                "phone": "+7 812 3101715;+7 962 7215254",
                "website": "http://www.playrecordstore.ru/",
                "contact:vk": "https://vk.com/club1526718",
                "wheelchair": "no",
                "opening_hours": "11:00-22:30"
            }
        ]
    },
    "houseware": {
        "count": 1,
        "detail": [
            {
                "name": "Императорский фарфор",
                "shop": "houseware",
                "website": "http://www.ipm.ru/shops/shops_15/",
                "contact:vk": "https://vk.com/club21814086"
            }
        ]
    },
    "credit_union": {
        "count": 1,
        "detail": [
            {
                "alt_name": "Сберъкнижка",
                "amenity": "credit_union",
                "contact:vk": "https://vk.com/sberknru",
                "name": "Глобал Финанс",
                "website": "https://gfkpk.ru/"
            }
        ]
    },
    "playground": {
        "count": 2,
        "detail": [
            {
                "leisure": "playground"
            },
            {
                "leisure": "playground"
            }
        ]
    },
    "jewelry": {
        "count": 3,
        "detail": [
            {
                "name": "Серебро",
                "opening_hours": "Mo-Fr 10:00-21:00; Sa-Su 11:00-21:00",
                "shop": "jewelry",
                "website": "http://serebro-juvelir.com/",
                "wheelchair": "no"
            },
            {
                "name": "Роскошь золота",
                "shop": "jewelry",
                "website": "http://rzol.ru/",
                "contact:vk": "https://vk.com/roskosh_zolota",
                "opening_hours": "10:00-21:00"
            },
            {
                "name": "69 Level",
                "shop": "jewelry",
                "website": "https://69level.com/",
                "contact:vk": "https://vk.com/69level",
                "opening_hours": "12:00-21:00"
            }
        ]
    },
    "beauty": {
        "count": 10,
        "detail": [
            {
                "name": "Backstage",
                "shop": "beauty",
                "website": "http://www.salonbackstage.ru/",
                "contact:vk": "https://vk.com/backstagespb"
            },
            {
                "name": "Lenaville",
                "shop": "beauty",
                "website": "http://наращиваниересницспб.рф/",
                "contact:vk": "https://vk.com/lenavillebc"
            },
            {
                "name": "К ногтю!",
                "shop": "beauty",
                "website": "http://www.k-nogtu.ru/",
                "contact:vk": "https://vk.com/knogtu"
            },
            {
                "name": "Kiehl’s",
                "shop": "beauty"
            },
            {
                "name": "Планета Красоты",
                "shop": "beauty",
                "website": "http://www.planetakrasoty.ru/",
                "contact:vk": "https://vk.com/public55414259"
            },
            {
                "name": "Studio 33",
                "shop": "beauty",
                "level": "0",
                "contact:vk": "https://vk.com/studio33spb"
            },
            {
                "name": "Nice",
                "opening_hours": "10:00-22:00",
                "shop": "beauty",
                "website": "http://www.salonspb.com/",
                "wheelchair": "limited"
            },
            {
                "name": "Rogneda",
                "shop": "beauty",
                "website": "http://studiorogneda.ru/",
                "contact:vk": "https://vk.com/rognedaspb"
            },
            {
                "name": "You New",
                "shop": "beauty",
                "website": "http://you-new-salon.ru/",
                "contact:vk": "https://vk.com/younew_beauty",
                "opening_hours": "10:00-22:00"
            },
            {
                "name": "Студия Василия Захарова",
                "shop": "beauty",
                "contact:vk": "https://vk.com/salon_vz",
                "opening_hours": "09:00-21:00"
            }
        ]
    },
    "training": {
        "count": 7,
        "detail": [
            {
                "name": "Академия парикмахерского искусства ESTEL",
                "amenity": "training",
                "website": "http://estel.pro/training/akademiya-estel/akademiya-estel-sankt-peterburg",
                "contact:vk": "https://vk.com/estelacademyspb",
                "opening_hours": "09:00-21:00"
            },
            {
                "amenity": "training",
                "contact:vk": "https://vk.com/artschoolmaste",
                "description": "лекции по истории изобразительного искусства, кино, литературе, музыке, декоративному искусству",
                "name": "Masters",
                "website": "https://masters-project.ru/"
            },
            {
                "amenity": "training",
                "contact:vk": "https://vk.com/londongates",
                "name": "London Gates Education Group",
                "website": "https://londongates.org/"
            },
            {
                "amenity": "training",
                "contact:email": "info@5iz5.ru",
                "contact:instagram": "https://instagram.com/centr5iz5",
                "contact:phone": "+7 812 3855558;+7 962 7232793",
                "contact:vk": "https://vk.com/centr5iz5spb",
                "contact:website": "https://www.5iz5.ru/",
                "description": "Подготовка к ЕГЭ",
                "name": "Пять из пяти",
                "opening_hours": "Mo-Sa 12:00-22:00;Su 11:00-21:00",
                "operator": "ООО Пять из пяти"
            },
            {
                "name": "Юниум",
                "amenity": "training",
                "website": "https://unium.ru/contacts/nevskiy-prospekt/",
                "contact:vk": "https://vk.com/spb_unium",
                "description": "курсы для школьников"
            },
            {
                "name": "Открытая Школа Бизнеса",
                "amenity": "training",
                "website": "https://www.obs.ru/",
                "contact:vk": "https://vk.com/obsch"
            },
            {
                "name": "МирадаМед",
                "amenity": "training",
                "website": "http://mirada-med.ru/",
                "contact:vk": "https://vk.com/miradamed",
                "description": "Обучение аппаратному педикюру и маникюру"
            }
        ]
    },
    "travel_agency": {
        "count": 14,
        "detail": [
            {
                "name": "Чиптрип",
                "shop": "travel_agency",
                "contact:vk": "https://vk.com/cheaptrip_spb"
            },
            {
                "name": "Эклектика",
                "shop": "travel_agency",
                "website": "https://eclectica.ru/",
                "contact:vk": "https://vk.com/eclectica.tour"
            },
            {
                "name": "XXI век",
                "note": "возможно нет",
                "shop": "travel_agency",
                "website": "http://ta21.ru/",
                "wheelchair": "no"
            },
            {
                "name": "SolomonTours",
                "shop": "travel_agency",
                "website": "https://solomontours.ru/",
                "contact:vk": "https://vk.com/solomontours"
            },
            {
                "name": "Кандагар",
                "shop": "travel_agency",
                "website": "http://www.kandagar.com/",
                "wheelchair": "no"
            },
            {
                "name": "Авентура",
                "shop": "travel_agency",
                "contact:vk": "https://vk.com/club45773887",
                "opening_hours": "Mo-Fr 11:00-19:00; Sa 12:00-17:00"
            },
            {
                "name": "Inflot",
                "shop": "travel_agency",
                "website": "https://www.inflottravel.ru/content/company/contacts_spb.html",
                "contact:vk": "https://vk.com/public17952934",
                "opening_hours": "Mo-Fr 09:00-19:00; Sa 11:00-17:00"
            },
            {
                "name": "Натали Турс",
                "shop": "travel_agency",
                "website": "https://www.natalie-tours.ru/",
                "contact:vk": "https://vk.com/natalitours"
            },
            {
                "contact:vk": "https://vk.com/swisshouse_ru",
                "level": "1",
                "name": "Швейцарский Дом Путешествий",
                "shop": "travel_agency",
                "website": "https://www.swisshouse.ru/"
            },
            {
                "name": "Swiss Travel Club",
                "shop": "travel_agency",
                "level": "0",
                "website": "http://swisstravelclub.ru/",
                "operator": "ООО «Свисс Трэвел Клуб»",
                "contact:vk": "https://vk.com/swisstravelclub",
                "opening_hours": "10:00-19:00"
            },
            {
                "name": "Интертрансавиа",
                "shop": "travel_agency",
                "level": "3",
                "website": "https://www.intertransavia.ru/"
            },
            {
                "name": "Петербургский туристический центр",
                "shop": "travel_agency",
                "website": "http://tourisme-centre.ru/",
                "contact:vk": "https://vk.com/club58521264"
            },
            {
                "name": "Sunmar",
                "shop": "travel_agency",
                "website": "https://www.sunmar.ru/offices/sunmar-fresh-tourizm-s-petersburg",
                "operator": "ООО «Фреш туризм»",
                "contact:vk": "https://vk.com/sunmar_turoperator",
                "opening_hours": "Mo-Fr 10:00-20:00; Sa-Su 12:00-17:00"
            },
            {
                "name": "Фантазия",
                "shop": "travel_agency",
                "website": "https://fantaziya.spb.ru/",
                "contact:vk": "https://vk.com/fantaziyatour"
            }
        ]
    },
    "arts_centre": {
        "count": 2,
        "detail": [
            {
                "amenity": "arts_centre",
                "contact:vk": "https://vk.com/tessart.place",
                "name": "Тессарт",
                "opening_hours": "11:00-22:00",
                "website": "http://tessart.place/",
                "wheelchair": "yes"
            },
            {
                "name": "Фонд художника Михаила Шемякина",
                "amenity": "arts_centre",
                "website": "http://mihfond.ru/",
                "contact:vk": "https://vk.com/chemiakincentre"
            }
        ]
    },
    "dentist": {
        "count": 3,
        "detail": [
            {
                "amenity": "dentist",
                "healthcare": "dentist",
                "name": "Городская стоматологическая поликлиника № 1",
                "note": "вход под аркой",
                "opening_hours": "Mo-Fr 08:00-14:00,15:00-21:00",
                "website": "http://gsp-1.ru/",
                "wheelchair": "yes"
            },
            {
                "amenity": "dentist",
                "contact:vk": "https://vk.com/mediclinics",
                "healthcare": "dentist",
                "name": "Меди на Итальянской",
                "opening_hours": "08:00-21:30",
                "website": "https://medi.spb.ru/stomatologiya/kliniki/italianskaya"
            },
            {
                "name": "Эсте",
                "amenity": "dentist",
                "contact:vk": "https://vk.com/estespb",
                "healthcare": "clinic",
                "contact:phone": "+7 812 5705005",
                "opening_hours": "Mo-Su 09:00-21:00",
                "contact:website": "https://www.este-centre.ru",
                "healthcare:speciality": "orthodontics"
            }
        ]
    },
    "coworking_space": {
        "count": 1,
        "detail": [
            {
                "name": "Welcome",
                "amenity": "coworking_space",
                "website": "http://www.welcomeproject.ru/",
                "contact:vk": "https://vk.com/welcome_spb"
            }
        ]
    },
    "courthouse": {
        "count": 1,
        "detail": [
            {
                "addr:postcode": "191023",
                "amenity": "courthouse",
                "email": "kuybyshevskiy@usuddep.spb.ru",
                "name": "Куйбышевский районный суд города Санкт-Петербурга",
                "opening_hours": "Mo-Th 09:00-13:00, 14:00-18:00; Fr 09:00-13:00, 14:00-17:00",
                "phone": "+7 812 3147136",
                "website": "http://kbs.spb.sudrf.ru",
                "wheelchair": "no"
            }
        ]
    },
    "waste_basket": {
        "count": 22,
        "detail": [
            {
                "amenity": "waste_basket"
            },
            {
                "amenity": "waste_basket"
            },
            {
                "amenity": "waste_basket"
            },
            {
                "amenity": "waste_basket"
            },
            {
                "amenity": "waste_basket"
            },
            {
                "amenity": "waste_basket"
            },
            {
                "amenity": "waste_basket"
            },
            {
                "amenity": "waste_basket"
            },
            {
                "amenity": "waste_basket"
            },
            {
                "amenity": "waste_basket"
            },
            {
                "amenity": "waste_basket"
            },
            {
                "amenity": "waste_basket"
            },
            {
                "amenity": "waste_basket"
            },
            {
                "amenity": "waste_basket"
            },
            {
                "amenity": "waste_basket"
            },
            {
                "amenity": "waste_basket"
            },
            {
                "amenity": "waste_basket"
            },
            {
                "amenity": "waste_basket"
            },
            {
                "amenity": "waste_basket"
            },
            {
                "amenity": "waste_basket"
            },
            {
                "amenity": "waste_basket"
            },
            {
                "amenity": "waste_basket"
            }
        ]
    },
    "bathroom_furnishing": {
        "count": 1,
        "detail": [
            {
                "name": "Арт-Рум Север",
                "name:en": "Art Room North",
                "opening_hours": "Mo-Fr 10:00-19:00; Sa 11:00-19:00",
                "shop": "bathroom_furnishing",
                "website": "https://art-rum.ru/"
            }
        ]
    },
    "ticket": {
        "count": 7,
        "detail": [
            {
                "name": "Билетовед",
                "shop": "ticket",
                "website": "https://biletoved.com/",
                "contact:vk": "https://vk.com/biletoved"
            },
            {
                "name": "Kassir.ru",
                "opening_hours": "Mo-Su 09:00-13:00, 14:00-21:00",
                "phone": "+7 812 7034040",
                "shop": "ticket",
                "website": "https://www.kassir.ru/"
            },
            {
                "name": "Софит",
                "opening_hours": "Mo-Su 09:00-14:00, 15:00-21:00",
                "phone": "+7 812 3277400",
                "shop": "ticket",
                "website": "https://www.biletsofit.ru/"
            },
            {
                "name": "Tiketland",
                "shop": "ticket",
                "phone": "+7 812 3202160",
                "opening_hours": "Mo-Su 10:00-13:00, 14:00-20:00"
            },
            {
                "name": "Русский музей",
                "name:en": "Russian museum",
                "opening_hours": "Mo 10:00-20:00; We, Fr-Su 10:00-18:00; Th 13:00-21:00",
                "shop": "ticket",
                "website": "http://www.rumuseum.ru",
                "wheelchair": "no"
            },
            {
                "email": "bilet@bileter.ru",
                "name": "Дирекция театрально-зрелищных касс",
                "opening_hours": "09:00-12:00,12:30-16:30,17:00-21:00",
                "phone": "+7 812 3808050; +7 800 3338051",
                "ref": "13",
                "shop": "ticket",
                "short_name": "ДТЗК",
                "website": "https://www.bileter.ru/",
                "wheelchair": "yes"
            },
            {
                "building": "yes",
                "contact:vk": "https://vk.com/bileter",
                "name": "Bileter",
                "opening_hours": "Mo-Su 10:00-14:00,15:00-21:00",
                "shop": "ticket",
                "tickets:theatre": "yes",
                "website": "https://www.bileter.ru/",
                "wheelchair": "yes"
            }
        ]
    },
    "university": {
        "count": 2,
        "detail": [
            {
                "amenity": "university",
                "contact:phone": "+7 812 5705576",
                "contact:vk": "https://vk.com/ibispb",
                "contact:website": "http://www.ibispb.ru",
                "name": "Международный банковский институт имени Анатолия Собчака",
                "name:en": "International Banking Institute",
                "name:ru": "Международный банковский институт имени Анатолия Собчака",
                "official_name": "Автономная некоммерческая организация высшего образования «Международный банковский институт имени Анатолия Собчака»"
            },
            {
                "amenity": "university",
                "contact:vk": "https://vk.com/ibispb",
                "name": "Международный банковский институт",
                "name:en": "International Banking Institute",
                "name:ru": "Международный банковский институт",
                "website": "http://www.ibispb.ru/",
                "wheelchair": "limited"
            }
        ]
    },
    "school": {
        "count": 2,
        "detail": [
            {
                "amenity": "school",
                "contact:email": "info@liceum.su",
                "contact:phone": "+7 812 5705550",
                "contact:website": "http://lyceum.ibi.mba",
                "name": "Экономический лицей Международного Банковского Института",
                "official_name": "Экономический лицей Автономной некоммерческой организации высшего образования «Международный банковский институт»",
                "old_name": "Экономический лицей им. Ю.Д. Деревянко"
            },
            {
                "source": "Yahoo",
                "building": "school",
                "addr:city": "Санкт-Петербург",
                "addr:street": "площадь Искусств",
                "addr:country": "RU",
                "addr:postcode": "191011",
                "building:levels": "3",
                "addr:housenumber": "2"
            }
        ]
    },
    "massage": {
        "count": 2,
        "detail": [
            {
                "massage": "sexual",
                "name": "BaLi",
                "shop": "massage",
                "website": "http://balimassage.ru/",
                "wheelchair": "no"
            },
            {
                "name": "E.studio",
                "shop": "massage",
                "massage": "sexual",
                "website": "http://eva-massag.ru/",
                "contact:vk": "https://vk.com/evamassagspb",
                "opening_hours": "24/7"
            }
        ]
    },
    "waste_disposal": {
        "count": 3,
        "detail": [
            {
                "amenity": "waste_disposal"
            },
            {
                "amenity": "waste_disposal"
            },
            {
                "amenity": "waste_disposal"
            }
        ]
    },
    "tea": {
        "count": 1,
        "detail": [
            {
                "name": "Geotea",
                "shop": "tea",
                "website": "http://geotea.ru/",
                "alt_name": "География чая",
                "contact:vk": "https://vk.com/geotea"
            }
        ]
    },
    "art": {
        "count": 1,
        "detail": [
            {
                "name": "RuKartina",
                "shop": "art",
                "website": "http://spb.rukartina.ru/"
            }
        ]
    },
    "pastry": {
        "count": 1,
        "detail": [
            {
                "name": "Кондитерская хорошего настроения",
                "shop": "pastry",
                "phone": "+7 911 7770308",
                "amenity": "cafe",
                "cuisine": "coffee_shop",
                "website": "http://teremok.ru/",
                "operator": "Теремок - кондитерская",
                "payment:visa": "yes",
                "opening_hours": "07:30-23:00",
                "payment:mastercard": "yes"
            }
        ]
    },
    "parking": {
        "count": 1,
        "detail": [
            {
                "access": "yes",
                "amenity": "parking",
                "capacity": "10",
                "fee": "no",
                "parking": "surface"
            }
        ]
    },
    "tattoo": {
        "count": 1,
        "detail": [
            {
                "contact:vk": "https://vk.com/goodlucktattoospb",
                "name": "Good Luck",
                "opening_hours": "12:00-20:00",
                "shop": "tattoo",
                "website": "https://www.gltattoo.ru/"
            }
        ]
    },
    "hookah_lounge": {
        "count": 2,
        "detail": [
            {
                "name": "У Фрейда",
                "amenity": "hookah_lounge",
                "website": "http://freudlounge.ru/",
                "contact:vk": "https://vk.com/freud_lounge"
            },
            {
                "addr:housenumber": "13-15/50",
                "addr:street": "Садовая улица",
                "amenity": "hookah_lounge",
                "cafe": "time-cafe",
                "contact:instagram": "terra13lounge",
                "contact:vk": "terra_13lounge",
                "internet_access": "wlan",
                "internet_access:fee": "customers",
                "name": "Terra 13",
                "opening_hours": "Mo-Su 13:00-06:00",
                "phone": "+7 963 305-58-82",
                "website": "https://terra-13-lounge.ru/"
            }
        ]
    },
    "police": {
        "count": 1,
        "detail": [
            {
                "name": "Участковый пункт полиции",
                "amenity": "police",
                "opening_hours": "Tu,Th 18:00-20:00; Sa[2],Su[4] 12:00-14:00"
            }
        ]
    },
    "kindergarten": {
        "count": 4,
        "detail": [
            {
                "amenity": "kindergarten",
                "contact:website": "http://www.gymgrm.ru",
                "name": "Дошкольное отделение Российской гимназии при Государственном Русском музее"
            },
            {
                "amenity": "kindergarten",
                "contact:email": "dou83.centr@obr.gov.spb.ru",
                "contact:phone": "+7 812 5713217;+7 812 3146182",
                "contact:website": "http://gbdoy83spb.ucoz.net",
                "name": "Детский сад № 83",
                "official_name": "Государственное бюджетное дошкольное образовательное учреждение детский сад № 83 комбинированного вида Центрального района Санкт-Петербурга",
                "ref": "83"
            },
            {
                "amenity": "kindergarten",
                "contact:email": "dou83.centr@obr.gov.spb.ru",
                "contact:phone": "+7 812 3144154",
                "contact:website": "http://gbdoy83spb.ucoz.net",
                "name": "Детский сад № 83",
                "official_name": "Государственное бюджетное дошкольное образовательное учреждение детский сад № 83 комбинированного вида Центрального района Санкт-Петербурга",
                "ref": "83"
            },
            {
                "amenity": "kindergarten",
                "contact:email": "dou83.centr@obr.gov.spb.ru",
                "contact:phone": "+7 812 5714556",
                "contact:website": "http://gbdoy83spb.ucoz.net",
                "name": "Детский сад № 83",
                "official_name": "Государственное бюджетное дошкольное образовательное учреждение детский сад № 83 комбинированного вида Центрального района Санкт-Петербурга",
                "ref": "83"
            }
        ]
    },
    "alcohol": {
        "count": 1,
        "detail": [
            {
                "contact:vk": "https://vk.com/intendantsalon",
                "name": "ИнтендантЪ",
                "opening_hours": "11:00-22:00",
                "operator": "ООО «Бест»",
                "shop": "alcohol",
                "website": "http://intendant-salon.ru/",
                "wheelchair": "limited"
            }
        ]
    },
    "bicycle_rental": {
        "count": 1,
        "detail": [
            {
                "phone": "+7 911 0800101",
                "amenity": "bicycle_rental",
                "network": "ScooterWalk",
                "website": "https://scooterwalk.business.site",
                "capacity": "7",
                "contact:vk": "https://vk.com/scooterwalk",
                "start_date": "2017-05-17",
                "description": "прокат электросамокатов",
                "reservation": "required",
                "payment:cash": "yes",
                "contact:phone": "+7 952 2850398",
                "opening_hours": "Su-Fr 12:00-21:00; Sa 11:00-21:00"
            }
        ]
    },
    "community_centre": {
        "count": 1,
        "detail": [
            {
                "amenity": "community_centre",
                "contact:vk": "https://vk.com/mediaspb24",
                "name": "Медиацентр Правительства Санкт-Петербурга",
                "website": "https://www.gov.spb.ru/gov/otrasl/press/mediacentr-pravitelstva-sankt-peterburga/"
            }
        ]
    },
    "sports_centre": {
        "count": 2,
        "detail": [
            {
                "name": "Зимний стадион",
                "sport": "athletics",
                "leisure": "sports_centre",
                "website": "https://alaspb05.wixsite.com/ala2005",
                "operator": "ГБОУ ДОД СДЮСШОР «Академия легкой атлетики Санкт-Петербурга»"
            },
            {
                "addr:city": "Санкт-Петербург",
                "addr:country": "RU",
                "addr:housenumber": "13",
                "addr:street": "Инженерная улица",
                "building": "yes",
                "building:levels": "2",
                "leisure": "sports_centre",
                "name": "Спортивный комплекс ЦСКА «Инженерная»",
                "source": "rgis",
                "website": "http://cska.ru/objects/46",
                "wheelchair": "no"
            }
        ]
    },
    "escape_game": {
        "count": 1,
        "detail": [
            {
                "contact:facebook": "https://www.facebook.com/ilockedspb",
                "contact:instagram": "https://www.instagram.com/ilockedru",
                "contact:vk": "https://vk.com/ilockedru",
                "contact:youtube": "https://www.youtube.com/iLockedru",
                "email": "ilocked@ilocked.ru",
                "leisure": "escape_game",
                "name": "iLocked",
                "phone": "+7 812 4486894",
                "website": "http://ilocked.ru"
            }
        ]
    },
    "stationery": {
        "count": 1,
        "detail": [
            {
                "name:en": "Lilkko",
                "shop": "stationery"
            }
        ]
    },
    "carpet": {
        "count": 1,
        "detail": [
            {
                "addr:city": "Санкт-Петербург",
                "addr:housenumber": "35",
                "addr:street": "Невский проспект",
                "name": "Правильные Ковры",
                "opening_hours": "Mo-Su 10:00-22:00",
                "phone": "+7 812 4459876",
                "shop": "carpet"
            }
        ]
    },
    "electronics": {
        "count": 2,
        "detail": [
            {
                "contact:phone": "+7 800 7707999",
                "contact:website": "http://dns-shop.ru/",
                "name": "DNS",
                "opening_hours": "Mo-Su 10:00-23:00",
                "operator": "ДНС Ритейл",
                "shop": "electronics"
            },
            {
                "name": "DNS",
                "shop": "electronics"
            }
        ]
    },
    "commercial": {
        "count": 1,
        "detail": [
            {
                "building": "commercial",
                "addr:city": "Санкт-Петербург",
                "addr:street": "Невский проспект",
                "addr:country": "RU",
                "building:levels": "4",
                "addr:housenumber": "58"
            }
        ]
    },
    "mall": {
        "count": 1,
        "detail": [
            {
                "addr:city": "Санкт-Петербург",
                "addr:country": "RU",
                "addr:housenumber": "48",
                "addr:street": "Невский проспект",
                "building": "retail",
                "building:levels": "4",
                "contact:vk": "https://vk.com/passagespb",
                "int_name": "Passage",
                "name": "Пассаж",
                "opening_hours": "10:00-21:00; Su 11:00-21:00",
                "shop": "mall",
                "website": "http://passage.spb.ru/",
                "wheelchair": "yes",
                "wikidata": "Q2495087"
            }
        ]
    },
    "service": {
        "count": 2,
        "detail": [
            {
                "power": "substation",
                "building": "service",
                "addr:letter": "Г",
                "addr:street": "Малая Садовая улица",
                "addr2:street": "Невский проспект",
                "addr:housenumber": "3/54 литГ",
                "addr2:housenumber": "54"
            },
            {
                "power": "substation",
                "building": "service",
                "building:levels": "1"
            }
        ]
    }
}