{
    "pharmacy": {
        "count": 5,
        "detail": [
            {
                "amenity": "pharmacy",
                "contact:vk": "https://vk.com/aptekayteatra",
                "healthcare": "pharmacy",
                "name": "У театра",
                "opening_hours": "24/7"
            },
            {
                "amenity": "pharmacy",
                "healthcare": "pharmacy",
                "name": "Витал",
                "opening_hours": "Mo-Fr 09:00-21:00; Sa-Su 10:00-20:00",
                "operator": "ЗАО «Аптека-Витал»"
            },
            {
                "amenity": "pharmacy",
                "healthcare": "pharmacy",
                "name": "Брегор-Фарм",
                "opening_hours": "Mo-Fr 09:00-21:00; Sa, Su 10:00-21:00",
                "operator": "ООО «Брегор-Фарм»"
            },
            {
                "amenity": "pharmacy",
                "contact:vk": "https://vk.com/aptekaaloea",
                "healthcare": "pharmacy",
                "name": "Алоэ",
                "opening_hours": "Mo-Fr 09:00-22:00; Sa, Su 09:00-21:00",
                "ref": "032-78",
                "website": "https://aloeapteka.ru/",
                "wheelchair": "limited"
            },
            {
                "name": "ЛенОблФарм",
                "amenity": "pharmacy",
                "website": "https://lenoblpharm.ru/",
                "operator": "ООО «Аптека «Семейная-2»",
                "opening_hours": "09:00-21:00"
            }
        ]
    },
    "atm": {
        "count": 2,
        "detail": [
            {
                "amenity": "atm",
                "operator": "ПАО Сбербанк",
                "contact:website": "https://www.sberbank.ru"
            },
            {
                "amenity": "atm",
                "brand": "ВТБ",
                "brand:wikidata": "Q1549389",
                "operator": "ВТБ"
            }
        ]
    },
    "residents": 14596,
    "bus_stop": {
        "count": 6,
        "detail": [
            {
                "bench": "yes",
                "bin": "yes",
                "bus": "yes",
                "highway": "bus_stop",
                "name": "Улица Декабристов",
                "passenger_information_display": "yes",
                "public_transport": "platform",
                "shelter": "yes",
                "tactile_paving": "no",
                "wheelchair": "limited"
            },
            {
                "bench": "no",
                "bin": "yes",
                "bus": "yes",
                "highway": "bus_stop",
                "name": "Аларчин мост",
                "public_transport": "platform",
                "shelter": "no",
                "tactile_paving": "no",
                "wheelchair": "limited"
            },
            {
                "bus": "yes",
                "highway": "bus_stop",
                "local_ref": "2;6;22;71",
                "name": "Английский проспект",
                "name:ru": "Английский проспект",
                "public_transport": "platform",
                "tactile_paving": "no"
            },
            {
                "bus": "yes",
                "ref": "2;6;22;71",
                "name": "Английский проспект",
                "name:ru": "Английский проспект",
                "operator": "СПб ГУП \"Организатор перевозок\"",
                "share_taxi": "yes",
                "tactile_paving": "no",
                "public_transport": "stop_position"
            },
            {
                "bus": "yes",
                "ref": "2;6;22;70",
                "name": "Аларчин мост",
                "operator": "СПб ГУП \"Организатор перевозок\"",
                "share_taxi": "yes",
                "tactile_paving": "no",
                "public_transport": "stop_position"
            },
            {
                "bus": "yes",
                "ref": "2;6;22;70",
                "name": "Улица Декабристов",
                "operator": "СПб ГУП \"Организатор перевозок\"",
                "share_taxi": "yes",
                "tactile_paving": "no",
                "public_transport": "stop_position"
            }
        ]
    },
    "supermarket": {
        "count": 4,
        "detail": [
            {
                "brand": "Дикси",
                "brand:en": "Dixy",
                "brand:wikidata": "Q4161561",
                "brand:wikipedia": "ru:Дикси (сеть магазинов)",
                "contact:phone": "+7 800 3330201",
                "contact:vk": "https://vk.com/dixyclub",
                "contact:youtube": "https://www.youtube.com/user/DixyChannel",
                "name": "Дикси",
                "name:ru": "Дикси",
                "opening_hours": "24/7",
                "operator": "АО «Дикси Юг»",
                "shop": "supermarket",
                "website": "https://dixy.ru/",
                "wheelchair": "no"
            },
            {
                "alt_name": "Пятерочка",
                "alt_name:ru": "Пятерочка",
                "brand": "Пятёрочка",
                "brand:en": "Pyaterochka",
                "brand:wikidata": "Q1768969",
                "brand:wikipedia": "ru:Пятёрочка",
                "contact:email": "vopros@5ka.ru",
                "contact:facebook": "https://www.facebook.com/pyaterochka",
                "contact:instagram": "https://www.instagram.com/pyaterochka_official",
                "contact:ok": "https://ok.ru/pyaterochka",
                "contact:phone": "+7 800 5555505",
                "contact:vk": "https://vk.com/pyaterochka_shop",
                "name": "Пятёрочка",
                "name:en": "Pyaterochka",
                "name:ru": "Пятёрочка",
                "opening_hours": "09:00-23:00",
                "operator": "ООО «Агроторг»",
                "shop": "supermarket",
                "website": "https://5ka.ru/"
            },
            {
                "brand": "Дикси",
                "brand:en": "Dixy",
                "brand:wikidata": "Q4161561",
                "brand:wikipedia": "ru:Дикси (сеть магазинов)",
                "contact:phone": "+7 800 3330201",
                "contact:vk": "https://vk.com/dixyclub",
                "contact:youtube": "https://www.youtube.com/user/DixyChannel",
                "name": "Дикси",
                "name:ru": "Дикси",
                "opening_hours": "24/7",
                "operator": "АО «Дикси Юг»",
                "shop": "supermarket",
                "website": "https://dixy.ru/"
            },
            {
                "brand": "Пятёрочка",
                "brand:en": "Pyaterochka",
                "brand:wikidata": "Q1768969",
                "brand:wikipedia": "ru:Пятёрочка",
                "contact:instagram": "https://www.instagram.com/pyaterochka_official",
                "contact:ok": "https://ok.ru/pyaterochka",
                "contact:vk": "https://vk.com/pyaterochka_shop",
                "name": "Пятёрочка",
                "name:en": "Pyaterochka",
                "opening_hours": "Mo-Su 10:00-22:00",
                "shop": "supermarket",
                "website": "https://5ka.ru/"
            }
        ]
    },
    "pet": {
        "count": 1,
        "detail": [
            {
                "contact:phone": "+7 812 7141924",
                "contact:vk": "https://vk.com/zooexpress",
                "contact:website": "https://zooexpress.ru/informacija/zoomarkety/adresa_magazinov/dekabristov_ul_58",
                "name": "Zoo Express",
                "opening_hours": "10:00-21:00",
                "shop": "pet"
            }
        ]
    },
    "waste_disposal": {
        "count": 6,
        "detail": [
            {
                "amenity": "waste_disposal"
            },
            {
                "amenity": "waste_disposal"
            },
            {
                "amenity": "waste_disposal"
            },
            {
                "amenity": "waste_disposal"
            },
            {
                "amenity": "waste_disposal"
            },
            {
                "amenity": "waste_disposal"
            }
        ]
    },
    "convenience": {
        "count": 9,
        "detail": [
            {
                "name": "Вкусный",
                "opening_hours": "10:00-22:00",
                "operator": "ИП Коваленко Ю.А.",
                "shop": "convenience"
            },
            {
                "note": "сейчас \"Продукты\" не написано",
                "shop": "convenience"
            },
            {
                "name": "То, что надо!",
                "shop": "convenience"
            },
            {
                "name": "Продукты",
                "shop": "convenience",
                "floor": "0",
                "opening_hours": "24/7"
            },
            {
                "name": "Продукты",
                "shop": "convenience",
                "level": "-1",
                "opening_hours": "24/7"
            },
            {
                "name": "Продукты",
                "shop": "convenience",
                "opening_hours": "24/7"
            },
            {
                "name": "Аджей",
                "shop": "convenience",
                "opening_hours": "10:00-21:00"
            },
            {
                "name": "Студенческий магазин",
                "shop": "convenience",
                "opening_hours": "24/7"
            },
            {
                "name": "Аэро",
                "opening_hours": "24/7",
                "shop": "convenience"
            }
        ]
    },
    "clothes": {
        "count": 5,
        "detail": [
            {
                "shop": "clothes"
            },
            {
                "shop": "clothes",
                "clothes": "women",
                "opening_hours": "Mo-Fr 11:00-20:00; Sa 11:00-19:00; Su 11:00-18:00"
            },
            {
                "name": "Секонд хэнд",
                "shop": "clothes",
                "second_hand": "yes"
            },
            {
                "name": "Second Hand Люкс",
                "second_hand": "yes",
                "shop": "clothes"
            },
            {
                "name": "Le Gutti Jeans",
                "opening_hours": "09:00-21:00",
                "operator": "Юсубов Алим Нурали оглы",
                "shop": "clothes"
            }
        ]
    },
    "cafe": {
        "count": 9,
        "detail": [
            {
                "name": "СССР",
                "amenity": "cafe"
            },
            {
                "amenity": "cafe",
                "cuisine": "indian; doner",
                "email": "TandoorGrillSpb@gmail.com",
                "name": "Tandoor & grill",
                "opening_hours": "24/7",
                "phone": "+7 812 9211038",
                "takeaway": "yes"
            },
            {
                "name": "Своя комната",
                "amenity": "cafe",
                "contact:vk": "https://vk.com/svoya_komnata",
                "opening_hours": "10:00-20:00"
            },
            {
                "name": "Север-Метрополь",
                "note": "нет на сайте",
                "amenity": "cafe",
                "website": "http://sever.spb.su/",
                "opening_hours": "09:00-21:00"
            },
            {
                "name": "Ju Ju's",
                "amenity": "cafe",
                "cuisine": "georgian",
                "alt_name": "Дома у Натии",
                "contact:vk": "https://vk.com/cafejujus",
                "opening_hours": "11:00-23:00"
            },
            {
                "level": "1",
                "amenity": "cafe"
            },
            {
                "level": "1",
                "amenity": "cafe"
            },
            {
                "level": "2",
                "amenity": "cafe"
            },
            {
                "amenity": "cafe",
                "contact:instagram": "https://www.instagram.com/rid_coffee/",
                "cuisine": "coffee_shop",
                "name": "Рид",
                "opening_hours": "Mo-Su 09:00-21:00",
                "takeaway": "yes",
                "wheelchair": "no"
            }
        ]
    },
    "social_facility": {
        "count": 1,
        "detail": [
            {
                "name": "Центр социальной помощи семье и детям",
                "amenity": "social_facility",
                "website": "http://cspsd.admiral.gov.spb.ru/",
                "contact:vk": "https://vk.com/spsid",
                "social_facility": "outreach"
            }
        ]
    },
    "greengrocer": {
        "count": 2,
        "detail": [
            {
                "opening_hours": "10:00-21:00",
                "shop": "greengrocer"
            },
            {
                "shop": "greengrocer"
            }
        ]
    },
    "bakery": {
        "count": 4,
        "detail": [
            {
                "contact:vk": "https://vk.com/f.volchek",
                "inscription": "Булочная № 92",
                "name": "Булочная Ф. Вольчека",
                "opening_hours": "08:00-22:00",
                "phone": "+7 812 6420638",
                "ref": "92",
                "shop": "bakery",
                "website": "http://fvolchek.ru/"
            },
            {
                "amenity": "cafe",
                "contact:email": "info@tseh85.ru",
                "contact:instagram": "instagram.com/tseh85",
                "contact:phone": "+7 812 7757785",
                "contact:vk": "https://vk.com/tseh85",
                "contact:website": "http://tseh85.ru/",
                "name": "Цех 85",
                "opening_hours": "Mo-Fr 08:00-22:00;Sa-Su 09:00-22:00",
                "operator": "Гайдай",
                "shop": "bakery"
            },
            {
                "name": "Хлебушек",
                "shop": "bakery",
                "opening_hours": "Mo-Fr 08:00-22:00; Sa-Su 10:00-22:00"
            },
            {
                "name": "Тёплое место",
                "shop": "bakery",
                "website": "http://pekarnitm.ru/",
                "contact:vk": "https://vk.com/pekarnitm",
                "opening_hours": "07:30-21:30"
            }
        ]
    },
    "butcher": {
        "count": 2,
        "detail": [
            {
                "brand": "Великолукский мясокомбинат",
                "brand:wikidata": "Q18401767",
                "name": "Великолукский мясокомбинат",
                "opening_hours": "Mo-Sa 09:00-21:00; Su 09:00-20:00",
                "operator": "ООО «Аркада»",
                "shop": "butcher"
            },
            {
                "brand": "Великолукский мясокомбинат",
                "brand:wikidata": "Q18401767",
                "brand:wikipedia": "ru:Великолукский мясокомбинат",
                "name": "Великолукский мясокомбинат",
                "opening_hours": "Mo-Sa 09:00-21:00; Su 09:00-20:00",
                "operator": "ООО «Аркада»",
                "shop": "butcher"
            }
        ]
    },
    "sports_centre": {
        "count": 1,
        "detail": [
            {
                "name": "Арс",
                "leisure": "sports_centre"
            }
        ]
    },
    "florist": {
        "count": 2,
        "detail": [
            {
                "contact:instagram": "https://www.instagram.com/vosaduli.spb/",
                "contact:vk": "https://vk.com/vosadyli",
                "name": "Восадули",
                "opening_hours": "09:00-21:00",
                "operator": "ИП Буланова А.С.",
                "shop": "florist"
            },
            {
                "contact:vk": "https://vk.com/tsvetock",
                "name": "Цветок",
                "note": "на сайте уже другой адрес",
                "opening_hours": "10:00-20:00",
                "operator": "ЧП Кононова Г.И.",
                "shop": "florist",
                "website": "https://www.masterskaya8.com/"
            }
        ]
    },
    "fast_food": {
        "count": 4,
        "detail": [
            {
                "amenity": "fast_food",
                "name": "Фалафель",
                "name:en": "Falafel",
                "opening_hours": "24/7"
            },
            {
                "name": "Street",
                "amenity": "fast_food",
                "website": "http://stolovayastreet.ru/",
                "operator": "ИП Фатуллаев",
                "fast_food": "cafeteria",
                "opening_hours": "09:00-22:00"
            },
            {
                "amenity": "fast_food",
                "fast_food": "cafeteria",
                "name": "Наша Столовая",
                "short_name": "НС"
            },
            {
                "amenity": "fast_food",
                "contact:instagram": "https://www.instagram.com/mm_coffeetogo/",
                "cuisine": "coffee_shop",
                "name": "mm",
                "opening_hours": "08:00-22:00",
                "takeaway": "only"
            }
        ]
    },
    "newsagent": {
        "count": 2,
        "detail": [
            {
                "brand": "Союзпечать",
                "brand:wikidata": "Q4430611",
                "brand:wikipedia": "ru:Союзпечать",
                "name": "Союзпечать",
                "shop": "newsagent"
            },
            {
                "shop": "newsagent"
            }
        ]
    },
    "hairdresser": {
        "count": 7,
        "detail": [
            {
                "name": "Miroir",
                "shop": "hairdresser",
                "website": "http://miroir.spb.ru/",
                "operator": "ИП Макарчук Ю.В.",
                "contact:vk": "https://vk.com/miroir_studio",
                "opening_hours": "09:00-22:00"
            },
            {
                "name": "Русская школа парикмахерского искусства",
                "shop": "hairdresser",
                "amenity": "training",
                "contact:vk": "https://vk.com/rshpi"
            },
            {
                "name": "ВОскресенье",
                "shop": "hairdresser",
                "level": "-1",
                "phone": "+7 812 7147862",
                "website": "https://barber-shop-1173.business.site/",
                "opening_hours": "Mo-Sa 10:00-21:00; Su 10:00-20:00"
            },
            {
                "shop": "hairdresser",
                "level": "-1",
                "opening_hours": "Mo-Fr 10:00-20:00; Sa-Su 11:00-19:00"
            },
            {
                "name": "Serenity",
                "shop": "hairdresser",
                "contact:vk": "https://vk.com/salon_serenity"
            },
            {
                "name": "Клевер",
                "shop": "hairdresser",
                "contact:vk": "https://vk.com/klever_parikmaherskaia_salon",
                "opening_hours": "Mo-Fr 10:00-21:00; Sa-Su 10:30-21:00"
            },
            {
                "contact:vk": "https://vk.com/miroir_studio",
                "name": "Miroir",
                "note": "рядом с ещё одной на Декабристов 58: https://vk.com/wall-76206152_256",
                "opening_hours": "09:00-22:00",
                "operator": "ИП Макарчук Ю.В.",
                "shop": "hairdresser",
                "website": "http://miroir.spb.ru/"
            }
        ]
    },
    "confectionery": {
        "count": 1,
        "detail": [
            {
                "contact:instagram": "https://www.instagram.com/konfetillaspb/",
                "contact:vk": "https://vk.com/konfetillaspb",
                "name": "Конфетилла",
                "opening_hours": "09:00-21:00",
                "operator": "ИП Аринина Н.М.",
                "shop": "confectionery"
            }
        ]
    },
    "chemist": {
        "count": 1,
        "detail": [
            {
                "brand": "Watsons",
                "brand:wikidata": "Q7974785",
                "brand:wikipedia": "en:Watsons",
                "contact:vk": "https://vk.com/watsonsrussia",
                "name": "Watsons",
                "opening_hours": "09:00-22:00",
                "operator": "ООО «Спектр Групп»",
                "shop": "chemist",
                "website": "https://www.watsons.com.ru/"
            }
        ]
    },
    "toys": {
        "count": 1,
        "detail": [
            {
                "name": "Миша",
                "shop": "toys",
                "opening_hours": "Mo-Fr 10:00-20:00; Sa-Su 11:00-20:00"
            }
        ]
    },
    "dairy": {
        "count": 1,
        "detail": [
            {
                "name": "Вологодское масло",
                "opening_hours": "10:00-20:00",
                "shop": "dairy"
            }
        ]
    },
    "dry_cleaning": {
        "count": 1,
        "detail": [
            {
                "craft": "tailor",
                "opening_hours": "Mo-Fr 11:00-18:00",
                "shop": "dry_cleaning"
            }
        ]
    },
    "dentist": {
        "count": 2,
        "detail": [
            {
                "amenity": "dentist",
                "healthcare": "dentist",
                "name": "Эстедент"
            },
            {
                "amenity": "dentist",
                "contact:vk": "https://vk.com/stomasofia",
                "healthcare": "dentist",
                "name": "София",
                "opening_hours": "Mo-Tu 14:00-20:00; Fr 14:00-20:00; Sa 11:00-17:00",
                "phone": "+7 812 9727676"
            }
        ]
    },
    "arts_centre": {
        "count": 1,
        "detail": [
            {
                "name": "Центр эстетического воспитания «В Коломне»",
                "amenity": "arts_centre",
                "website": "http://ddtvm.ru/?page_id=8639",
                "contact:vk": "https://vk.com/tsevvkolomne",
                "official_name": "Государственное образовательное учреждение дополнительного образования детей Дворец детского творчества «У Вознесенского моста» Центр эстетического воспитания «В Коломне»"
            }
        ]
    },
    "alcohol": {
        "count": 2,
        "detail": [
            {
                "name": "РосАл",
                "opening_hours": "09:00-22:00",
                "operator": "ООО «Рона»",
                "shop": "alcohol",
                "website": "http://www.rosal24.ru/"
            },
            {
                "brand": "Красное & Белое",
                "brand:en": "Red&White",
                "brand:wikidata": "Q24933790",
                "brand:wikipedia": "en:Krasnoe & Beloe",
                "name": "Красное & Белое",
                "name:en": "Red&White",
                "opening_hours": "Mo-Su 09:00-22:05",
                "shop": "alcohol"
            }
        ]
    },
    "playground": {
        "count": 2,
        "detail": [
            {
                "leisure": "playground"
            },
            {
                "leisure": "playground"
            }
        ]
    },
    "hunting": {
        "count": 2,
        "detail": [
            {
                "name": "Охота и рыбалка",
                "shop": "hunting",
                "website": "http://www.hunting-fishing.spb.ru/",
                "opening_hours": "Mo-Sa 10:00-19:00"
            },
            {
                "contact:vk": "https://vk.com/club19809317",
                "name": "Тульское оружие",
                "opening_hours": "Mo-Fr 10:00-18:30; Sa 10:00-16:00",
                "operator": "ООО «Хантер»",
                "shop": "hunting",
                "website": "https://www.hunter-guns.ru/"
            }
        ]
    },
    "bar": {
        "count": 1,
        "detail": [
            {
                "name": "Закусочная",
                "amenity": "bar",
                "operator": "ООО \"Успех\"",
                "opening_hours": "10:00-22:00"
            }
        ]
    },
    "public_service": {
        "count": 1,
        "detail": [
            {
                "alt_name": "Многофункциональный центр",
                "amenity": "public_service",
                "brand": "Мои документы",
                "government": "public_service",
                "name": "Сектор 1 МФЦ Адмиралтейского района",
                "office": "government",
                "official_name": "Сектор 1 Многофункционального центра предоставления государственных и муниципальных услуг Адмиралтейского района",
                "opening_hours": "09:00-21:00",
                "operator": "СПб ГКУ «Многофункциональный центр предоставления государственных и муниципальных услуг»",
                "phone": "+7 812 5739000",
                "short_name": "МФЦ",
                "website": "https://gu.spb.ru/mfc/list/66371/"
            }
        ]
    },
    "doctors": {
        "count": 2,
        "detail": [
            {
                "amenity": "doctors",
                "contact:vk": "https://vk.com/degaclinic",
                "healthcare": "doctor",
                "int_name": "DEGA",
                "name": "ДЕГА",
                "opening_hours": "09:00-21:00",
                "website": "http://dega-clinic.com/"
            },
            {
                "amenity": "doctors",
                "contact:vk": "https://vk.com/volkovabeauty",
                "healthcare": "doctor",
                "name": "Центр медицинской косметологии Оксаны Волковой",
                "opening_hours": "10:00-20:00",
                "website": "http://volkovabeauty.ru/"
            }
        ]
    },
    "bicycle_rental": {
        "count": 1,
        "detail": [
            {
                "amenity": "bicycle_rental"
            }
        ]
    },
    "post_box": {
        "count": 2,
        "detail": [
            {
                "ref": "330",
                "indoor": "yes",
                "amenity": "post_box",
                "operator": "Почта России",
                "design:year": "2006",
                "drive_through": "no",
                "opening_hours": "Mo-Fr 08:00-20:00; Sa 10:00-16:00; Su off",
                "post_box:type": "wall",
                "post_box:design": "ЯПВ-Н-П",
                "collection_times": "Mo-Sa 09:55"
            },
            {
                "ref": "161",
                "amenity": "post_box",
                "operator": "Почта России",
                "design:year": "2010",
                "drive_through": "no",
                "post_box:type": "wall",
                "post_box:design": "ЯПНМ-II-С",
                "collection_times": "Mo-Fr 00:20,16:55; Sa 09:05; Su 16:55"
            }
        ]
    },
    "clinic": {
        "count": 1,
        "detail": [
            {
                "name": "Многопрофильная клиника здоровья семьи",
                "phone": "+7 812 4565885",
                "amenity": "clinic",
                "website": "http://www.mkzs.ru/",
                "healthcare": "clinic",
                "opening_hours": "Mo-Fr 08:00-21:00; Sa-Su 10:00-20:00",
                "health_facility:type": "clinic"
            }
        ]
    },
    "second_hand": {
        "count": 1,
        "detail": [
            {
                "shop": "second_hand"
            }
        ]
    },
    "tattoo": {
        "count": 1,
        "detail": [
            {
                "shop": "tattoo"
            }
        ]
    },
    "honey": {
        "count": 1,
        "detail": [
            {
                "name": "Пчеловодство",
                "shop": "honey",
                "opening_hours": "Mo-Fr 10:00-20:00; Sa-Su 11:00-19:00"
            }
        ]
    },
    "fabric": {
        "count": 2,
        "detail": [
            {
                "name": "Текстиль для дома",
                "shop": "fabric",
                "opening_hours": "Mo-Sa 11:00-20:00; Su 11:00-19:00"
            },
            {
                "contact:phone": "+7 963 3016898",
                "name": "Ткани",
                "opening_hours": "Mo-Fr 10:00-20:00; Sa 11:00-19:00; Su 11:00-18:00",
                "shop": "fabric"
            }
        ]
    },
    "baby_goods": {
        "count": 1,
        "detail": [
            {
                "name": "ВотОнЯ",
                "shop": "baby_goods",
                "website": "https://www.votonia.ru/adresa-magazinov/angliyskiy/",
                "operator": "ООО «Вотоня»",
                "contact:vk": "https://vk.com/votonia",
                "opening_hours": "09:00-21:00"
            }
        ]
    },
    "car_parts": {
        "count": 1,
        "detail": [
            {
                "name": "Автозапчасти",
                "shop": "car_parts",
                "opening_hours": "Mo-Sa 10:00-19:30"
            }
        ]
    },
    "car_repair": {
        "count": 2,
        "detail": [
            {
                "name": "ЮВС",
                "shop": "car_repair",
                "service": "tyres"
            },
            {
                "name": "У Сергея",
                "shop": "car_repair",
                "service": "tyres"
            }
        ]
    },
    "vehicle_inspection": {
        "count": 1,
        "detail": [
            {
                "phone": "+7 812 7140903",
                "amenity": "vehicle_inspection"
            }
        ]
    },
    "restaurant": {
        "count": 2,
        "detail": [
            {
                "amenity": "restaurant",
                "description": "кулинарная студия",
                "email": "i@live-tasty.ru",
                "internet_access": "wlan",
                "name": "Живи вкусно",
                "name:en": "Live tasty",
                "opening_hours": "Mo-Su 12:00-24:00",
                "phone": "+7 812 4081983",
                "website": "http://live-tasty.ru/"
            },
            {
                "amenity": "restaurant",
                "contact:vk": "https://vk.com/restoraniris",
                "name": "Ирис",
                "website": "https://r-iris.ru/",
                "wheelchair": "no"
            }
        ]
    },
    "recycling": {
        "count": 1,
        "detail": [
            {
                "level": "-1",
                "amenity": "recycling",
                "operator": "ИП Булов С.А.",
                "opening_hours": "Mo-Fr 09:00-20:00; Sa-Su 10:00-18:00",
                "recycling:PET": "yes",
                "recycling_type": "centre",
                "recycling:glass": "yes",
                "recycling:paper": "yes",
                "recycling:aluminium": "yes",
                "recycling:cardboard": "yes",
                "recycling:scrap_metal": "yes"
            }
        ]
    },
    "outpost": {
        "count": 1,
        "detail": [
            {
                "brand": "Ozon.ru",
                "brand:wikidata": "Q2365235",
                "contact:facebook": "https://www.facebook.com/ozon.ru/",
                "contact:instagram": "https://www.instagram.com/ozonru/",
                "contact:twitter": "https://twitter.com/Ozon_ru/",
                "contact:vk": "https://vk.com/ozon",
                "name": "Ozon",
                "opening_hours": "10:00-21:00",
                "shop": "outpost",
                "website": "https://www.ozon.ru/"
            }
        ]
    },
    "pub": {
        "count": 2,
        "detail": [
            {
                "name": "Red Morrison",
                "level": "-1",
                "amenity": "pub",
                "contact:vk": "https://vk.com/club87801058"
            },
            {
                "addr:city": "Санкт-Петербург",
                "addr:housenumber": "39",
                "addr:street": "Английский проспект",
                "amenity": "pub",
                "brewery": "yes",
                "internet_access": "wlan",
                "name": "Beer House",
                "opening_hours": "Mo-Su 12:00-06:00",
                "phone": "+7 812 5012164",
                "website": "http://beerhousebar.ru/"
            }
        ]
    },
    "dance": {
        "count": 1,
        "detail": [
            {
                "name": "Пируэт",
                "leisure": "dance",
                "website": "http://piruet-spb.ru/",
                "dance:teaching": "yes"
            }
        ]
    },
    "toilets": {
        "count": 10,
        "detail": [
            {
                "male": "yes",
                "level": "0",
                "amenity": "toilets"
            },
            {
                "level": "0",
                "female": "yes",
                "amenity": "toilets"
            },
            {
                "level": "1",
                "female": "yes",
                "amenity": "toilets"
            },
            {
                "level": "3",
                "female": "yes",
                "amenity": "toilets",
                "wheelchair": "yes"
            },
            {
                "male": "yes",
                "level": "3",
                "amenity": "toilets",
                "wheelchair": "yes"
            },
            {
                "male": "yes",
                "level": "4",
                "amenity": "toilets"
            },
            {
                "level": "4",
                "female": "yes",
                "amenity": "toilets"
            },
            {
                "male": "yes",
                "level": "1",
                "amenity": "toilets"
            },
            {
                "level": "2",
                "female": "yes",
                "amenity": "toilets"
            },
            {
                "male": "yes",
                "level": "2",
                "amenity": "toilets"
            }
        ]
    },
    "gift": {
        "count": 1,
        "detail": [
            {
                "shop": "gift",
                "level": "1"
            }
        ]
    },
    "ticket": {
        "count": 1,
        "detail": [
            {
                "shop": "ticket",
                "level": "0"
            }
        ]
    },
    "spices": {
        "count": 1,
        "detail": [
            {
                "shop": "spices",
                "operator": "ИП Комилов Х.О.",
                "opening_hours": "11:00-22:00"
            }
        ]
    },
    "houseware": {
        "count": 1,
        "detail": [
            {
                "shop": "houseware",
                "opening_hours": "Mo-Fr 10:00-21:00; Sa 11:00-19:00; Su 11:00-18:00"
            }
        ]
    },
    "bicycle_parking": {
        "count": 4,
        "detail": [
            {
                "amenity": "bicycle_parking",
                "bicycle_parking": "wall_loops",
                "capacity": "10",
                "covered": "no"
            },
            {
                "amenity": "bicycle_parking",
                "bicycle_parking": "stands",
                "capacity": "6",
                "covered": "no"
            },
            {
                "amenity": "bicycle_parking",
                "bicycle_parking": "rack",
                "capacity": "5",
                "covered": "no"
            },
            {
                "amenity": "bicycle_parking",
                "bicycle_parking": "rack",
                "covered": "no"
            }
        ]
    },
    "fuel": {
        "count": 2,
        "detail": [
            {
                "amenity": "fuel",
                "brand": "Energi gas",
                "currency:RUB": "yes",
                "fuel:lpg": "yes",
                "payment:cash": "yes",
                "payment:credit_cards": "yes",
                "payment:debit_cards": "yes"
            },
            {
                "addr:housenumber": "7А",
                "addr:street": "набережная реки Пряжки",
                "amenity": "fuel",
                "brand": "Аэро",
                "building": "yes",
                "building:levels": "1",
                "fuel:diesel": "yes",
                "fuel:octane_95": "yes",
                "fuel:octane_98": "yes",
                "int_name": "Aero",
                "name": "Аэро",
                "opening_hours": "24/7"
            }
        ]
    },
    "optician": {
        "count": 1,
        "detail": [
            {
                "contact:vk": "https://vk.com/glavglaz",
                "name": "ГлавГлаз",
                "opening_hours": "10:00-20:00",
                "operator": "ИП Коваль О.В.",
                "shop": "optician"
            }
        ]
    },
    "copyshop": {
        "count": 1,
        "detail": [
            {
                "shop": "copyshop"
            }
        ]
    },
    "cosmetics": {
        "count": 1,
        "detail": [
            {
                "name": "Петербургская косметика",
                "opening_hours": "10:00-20:00",
                "shop": "cosmetics",
                "website": "https://cosmetics-store-3863.business.site/"
            }
        ]
    },
    "theatre": {
        "count": 1,
        "detail": [
            {
                "addr:city": "Санкт-Петербург",
                "addr:country": "RU",
                "addr:housenumber": "20",
                "addr:postcode": "190121",
                "addr:street": "улица Писарева",
                "amenity": "theatre",
                "building": "yes",
                "building:levels": "5",
                "name": "Концертный зал Мариинского театра",
                "name:de": "Konzertsaal des Mariinski-Theaters",
                "name:en": "Mariinsky Theatre Concert hall",
                "name:ru": "Концертный зал Мариинского театра",
                "phone": "+7 812 3264141",
                "website": "https://www.mariinsky.ru/",
                "wikidata": "Q4231897",
                "wikipedia": "ru:Концертный зал Мариинского театра"
            }
        ]
    },
    "place_of_worship": {
        "count": 2,
        "detail": [
            {
                "name": "Эстонская церковь Святого Иоанна",
                "amenity": "place_of_worship",
                "name:et": "Peterburi Jaani kirik",
                "building": "yes",
                "religion": "christian",
                "wikidata": "Q2000180",
                "wikipedia": "ru:Церковь Святого Апостола Иоанна (Санкт-Петербург)",
                "addr:street": "улица Декабристов",
                "denomination": "lutheran",
                "building:part": "base",
                "building:levels": "3",
                "addr:housenumber": "54"
            },
            {
                "name": "Храм Святого Станислава",
                "amenity": "place_of_worship",
                "website": "http://stan-mta.ru/",
                "building": "yes",
                "religion": "christian",
                "wikidata": "Q3584490",
                "wikipedia": "ru:Храм Святого Станислава (Санкт-Петербург)",
                "addr:street": "улица Союза Печатников",
                "denomination": "roman_catholic",
                "building:part": "base",
                "building:levels": "2",
                "addr:housenumber": "22"
            }
        ]
    },
    "kindergarten": {
        "count": 1,
        "detail": [
            {
                "addr:housenumber": "16",
                "addr:postcode": "190121",
                "addr:street": "улица Писарева",
                "amenity": "kindergarten",
                "building": "kindergarten",
                "contact:email": "dou53@adm-edu.spb.ru",
                "contact:phone": "+7 812 7140184",
                "contact:website": "http://planeta53.ru",
                "max_age": "7",
                "min_age": "3",
                "name": "Детский сад № 53",
                "official_name": "Государственное бюджетное дошкольное образовательное учреждение детский сад комбинированного вида № 53 Адмиралтейского района Санкт-Петербурга",
                "ref": "53"
            }
        ]
    },
    "community_centre": {
        "count": 1,
        "detail": [
            {
                "addr:housenumber": "24",
                "addr:street": "улица Союза Печатников",
                "amenity": "community_centre",
                "building": "yes",
                "building:levels": "3",
                "community_centre": "cultural_centre",
                "name": "Еврейский религиозный общинный центр «Бейт-Хабад»"
            }
        ]
    },
    "school": {
        "count": 1,
        "detail": [
            {
                "addr:housenumber": "26",
                "addr:street": "улица Союза Печатников",
                "amenity": "school",
                "building": "school",
                "building:levels": "4",
                "contact:email": "sc245.adm@obr.gov.spb.ru",
                "contact:phone": "+7 812 4173623",
                "contact:website": "http://www.245school.ru",
                "name": "Школа № 245 имени Ю. В. Пасторова",
                "official_name": "Государственное бюджетное общеобразовательное учреждение средняя общеобразовательная школа № 245 имени Героя Советского Союза Ю. В. Пасторова Адмиралтейского района Санкт-Петербурга",
                "ref": "245"
            }
        ]
    },
    "service": {
        "count": 8,
        "detail": [
            {
                "power": "substation",
                "building": "service",
                "substation": "minor_distribution",
                "addr:street": "набережная реки Пряжки",
                "building:levels": "1",
                "addr:housenumber": "32"
            },
            {
                "power": "substation",
                "building": "service",
                "substation": "minor_distribution",
                "addr:letter": "Я",
                "addr:street": "набережная реки Пряжки",
                "building:levels": "1",
                "addr:housenumber": "5"
            },
            {
                "power": "substation",
                "building": "service",
                "substation": "minor_distribution",
                "addr:street": "Английский проспект",
                "building:levels": "1",
                "addr:housenumber": "25"
            },
            {
                "power": "substation",
                "building": "service",
                "substation": "minor_distribution",
                "addr:street": "Английский проспект",
                "building:levels": "1",
                "addr:housenumber": "21/60"
            },
            {
                "power": "substation",
                "building": "service",
                "substation": "minor_distribution",
                "building:levels": "1"
            },
            {
                "power": "substation",
                "building": "service",
                "substation": "minor_distribution",
                "building:levels": "1"
            },
            {
                "power": "substation",
                "building": "service",
                "substation": "minor_distribution",
                "building:levels": "1"
            },
            {
                "power": "substation",
                "building": "service",
                "substation": "minor_distribution",
                "building:levels": "1"
            }
        ]
    }
}