{
    "residents": 6076,
    "doityourself": {
        "count": 1,
        "detail": [
            {
                "shop": "doityourself"
            }
        ]
    },
    "florist": {
        "count": 2,
        "detail": [
            {
                "name": "Цветоптторг",
                "opening_hours": "24/7",
                "shop": "florist"
            },
            {
                "addr:postcode": "195027",
                "email": "elizavetanateygolenko@gmail.com",
                "name": "Pink",
                "opening_hours": "Mo-Su 11:00-21:00",
                "phone": "+7 967 5707050",
                "shop": "florist",
                "website": "https://instagram.com/pink_spb"
            }
        ]
    },
    "waste_disposal": {
        "count": 3,
        "detail": [
            {
                "amenity": "waste_disposal"
            },
            {
                "amenity": "waste_disposal"
            },
            {
                "amenity": "waste_disposal"
            }
        ]
    },
    "dentist": {
        "count": 1,
        "detail": [
            {
                "amenity": "dentist",
                "healthcare": "dentist",
                "name": "Cтоматологическая поликлиника № 8 Красногвардейского района"
            }
        ]
    },
    "bus_stop": {
        "count": 4,
        "detail": [
            {
                "bus": "yes",
                "highway": "bus_stop",
                "local_ref": "22;105",
                "name": "Большая Пороховская улица",
                "public_transport": "platform",
                "shelter": "no"
            },
            {
                "bus": "yes",
                "name": "Большая Пороховская улица",
                "public_transport": "stop_position"
            },
            {
                "bus": "yes",
                "name": "Большая Пороховская улица",
                "public_transport": "stop_position"
            },
            {
                "bench": "yes",
                "bin": "yes",
                "bus": "yes",
                "highway": "bus_stop",
                "name": "Большая Пороховская улица",
                "public_transport": "platform",
                "shelter": "yes"
            }
        ]
    },
    "hairdresser": {
        "count": 2,
        "detail": [
            {
                "shop": "hairdresser"
            },
            {
                "opening_hours": "Mo-Su 10:00-20:00",
                "shop": "hairdresser"
            }
        ]
    },
    "convenience": {
        "count": 5,
        "detail": [
            {
                "name": "Продукты",
                "shop": "convenience"
            },
            {
                "name": "Продукты",
                "shop": "convenience"
            },
            {
                "name": "Продукты",
                "shop": "convenience",
                "opening_hours": "24/7"
            },
            {
                "name": "Продукты",
                "shop": "convenience",
                "level": "0"
            },
            {
                "name": "Минимаркет",
                "opening_hours": "24/7",
                "operator": "Лукойл",
                "shop": "convenience"
            }
        ]
    },
    "pet": {
        "count": 2,
        "detail": [
            {
                "name": "Зверолаш",
                "shop": "pet"
            },
            {
                "name": "Ежкин Кот",
                "shop": "pet"
            }
        ]
    },
    "pharmacy": {
        "count": 2,
        "detail": [
            {
                "amenity": "pharmacy",
                "healthcare": "pharmacy",
                "name": "Лекопторг"
            },
            {
                "amenity": "pharmacy",
                "drive_through": "no",
                "healthcare": "pharmacy",
                "name": "Для бережливых",
                "opening_hours": "Mo-Fr 09:00-21:00; Sa-Su 10:00-21:00",
                "operator": "ООО \"Континент\""
            }
        ]
    },
    "department_store": {
        "count": 1,
        "detail": [
            {
                "name": "Охта",
                "shop": "department_store"
            }
        ]
    },
    "cafe": {
        "count": 3,
        "detail": [
            {
                "name": "Палома",
                "amenity": "cafe"
            },
            {
                "amenity": "cafe"
            },
            {
                "name": "Кофестория",
                "amenity": "cafe",
                "smoking": "no"
            }
        ]
    },
    "jewelry": {
        "count": 1,
        "detail": [
            {
                "shop": "jewelry"
            }
        ]
    },
    "bench": {
        "count": 11,
        "detail": [
            {
                "amenity": "bench"
            },
            {
                "seats": "3",
                "colour": "gray",
                "amenity": "bench",
                "backrest": "yes",
                "material": "wood"
            },
            {
                "seats": "3",
                "colour": "gray",
                "amenity": "bench",
                "backrest": "yes",
                "material": "wood"
            },
            {
                "seats": "3",
                "colour": "gray",
                "amenity": "bench",
                "backrest": "yes",
                "material": "wood"
            },
            {
                "seats": "3",
                "colour": "gray",
                "amenity": "bench",
                "backrest": "yes",
                "material": "wood"
            },
            {
                "amenity": "bench",
                "backrest": "yes"
            },
            {
                "amenity": "bench",
                "backrest": "yes"
            },
            {
                "amenity": "bench",
                "backrest": "yes"
            },
            {
                "amenity": "bench",
                "backrest": "yes"
            },
            {
                "amenity": "bench",
                "backrest": "yes"
            },
            {
                "amenity": "bench",
                "backrest": "yes"
            }
        ]
    },
    "doctors": {
        "count": 1,
        "detail": [
            {
                "amenity": "doctors",
                "healthcare": "doctor",
                "name": "Женская консультация №9"
            }
        ]
    },
    "waste_basket": {
        "count": 1,
        "detail": [
            {
                "amenity": "waste_basket"
            }
        ]
    },
    "supermarket": {
        "count": 3,
        "detail": [
            {
                "addr:city": "Санкт-Петербург",
                "addr:housenumber": "60",
                "addr:postcode": "195027",
                "addr:street": "Свердловская набережная",
                "brand": "Перекрёсток",
                "brand:en": "Perekryostok",
                "brand:wikidata": "Q1684639",
                "brand:wikipedia": "en:Perekrestok (supermarket chain)",
                "contact:phone": "+7 812 4483010",
                "contact:website": "https://www.perekrestok.ru/",
                "level": "1",
                "name": "Перекрёсток",
                "opening_hours": "Mo-Su 08:00-23:00",
                "operator": "Торговый дом \"ПЕРЕКРЁСТОК\"",
                "phone": "+7 800 2009555",
                "shop": "supermarket",
                "wheelchair": "yes"
            },
            {
                "name": "Магнит у дома",
                "shop": "supermarket",
                "opening_hours": "Mo-Su 09:30-22:30"
            },
            {
                "brand": "Пятёрочка",
                "brand:en": "Pyaterochka",
                "brand:wikidata": "Q1768969",
                "brand:wikipedia": "ru:Пятёрочка",
                "name": "Пятёрочка",
                "name:en": "Pyaterochka",
                "name:ru": "Пятёрочка",
                "opening_hours": "Mo-Su 08:00-23:00",
                "shop": "supermarket",
                "website": "http://pyaterochka.ru/"
            }
        ]
    },
    "bank": {
        "count": 1,
        "detail": [
            {
                "amenity": "bank"
            }
        ]
    },
    "restaurant": {
        "count": 2,
        "detail": [
            {
                "name": "Банкетный зал \"Небесный\"",
                "phone": "+7 812 3896714",
                "amenity": "restaurant",
                "website": "https://zalnebesniy.ru/"
            },
            {
                "amenity": "restaurant",
                "cuisine": "georgian",
                "name": "Зазходи генацвале",
                "name:ru": "Заходи генацвале",
                "phone": "+7 953 1480736"
            }
        ]
    },
    "pub": {
        "count": 2,
        "detail": [
            {
                "name": "Jager Haus",
                "phone": "+7 812 3375895;+7 812 6111110",
                "amenity": "pub",
                "cuisine": "german",
                "smoking": "no",
                "website": "http://www.jagerhaus.ru/",
                "payment:cash": "yes",
                "payment:visa": "yes",
                "opening_hours": "Su-Tu 11:00-01:00; Fr-Sa 11:00-02:30",
                "internet_access": "wlan",
                "payment:maestro": "yes",
                "payment:mastercard": "yes",
                "payment:visa_debit": "yes",
                "internet_access:fee": "no",
                "payment:visa_electron": "yes"
            },
            {
                "name": "Beer & Cakes",
                "amenity": "pub",
                "brewery": "various",
                "addr:city": "Санкт-Петербург",
                "addr:street": "Краснодонская улица",
                "opening_hours": "Fr-Sa 18:00-02:00, Su-Th 18:00-00:00",
                "addr:housenumber": "4"
            }
        ]
    },
    "car_parts": {
        "count": 1,
        "detail": [
            {
                "name": "Альфа АКБ",
                "name:en": "Alfa AKB",
                "name:ru": "Альфа АКБ",
                "opening_hours": "Mo-Fr 10:00-19:00; Sa 10:00-16:00",
                "phone": "+7 812 3195579",
                "shop": "car_parts",
                "website": "https://www.alfaakb.ru/"
            }
        ]
    },
    "furniture": {
        "count": 1,
        "detail": [
            {
                "name": "Wooddi",
                "shop": "furniture",
                "email": "info@wooddi.com",
                "phone": "+7 800 5557727",
                "name:en": "Wooddi Design",
                "name:ru": "Wooddi Design",
                "website": "https://wooddi.com",
                "addr:postcode": "195027",
                "opening_hours": "Mo-Fr 11:00-20:00; Sa 12:00-19:00",
                "internet_access": "wlan"
            }
        ]
    },
    "alcohol": {
        "count": 1,
        "detail": [
            {
                "brand": "Красное & Белое",
                "brand:en": "Red & White",
                "brand:wikidata": "Q24933790",
                "brand:wikipedia": "en:Krasnoe & Beloe",
                "name": "Красное & Белое",
                "name:en": "Red & White",
                "opening_hours": "Mo-Su 09:00-22:05",
                "shop": "alcohol"
            }
        ]
    },
    "parking_entrance": {
        "count": 2,
        "detail": [
            {
                "amenity": "parking_entrance"
            },
            {
                "amenity": "parking_entrance"
            }
        ]
    },
    "toilets": {
        "count": 2,
        "detail": [
            {
                "amenity": "toilets",
                "opening_hours": "24/7",
                "operator": "Лукойл"
            },
            {
                "fee": "yes",
                "amenity": "toilets",
                "website": "http://www.vodokanal.spb.ru/kanalizovanie/tualety/",
                "building": "yes",
                "operator": "ГУП «Водоканал Санкт-Петербурга»",
                "addr:street": "Большая Пороховская улица",
                "opening_hours": "09:00-21:00",
                "building:colour": "#6E7A77",
                "building:levels": "1",
                "addr:housenumber": "13 к2"
            }
        ]
    },
    "sauna": {
        "count": 1,
        "detail": [
            {
                "addr:city": "Санкт-Петербург",
                "addr:country": "RU",
                "addr:housenumber": "36",
                "addr:postcode": "195027",
                "addr:street": "Среднеохтинский проспект",
                "building": "yes",
                "building:colour": "#532B33",
                "building:levels": "2",
                "building:material": "brick",
                "leisure": "sauna",
                "roof:colour": "silver",
                "roof:shape": "hipped",
                "sauna": "russian"
            }
        ]
    },
    "school": {
        "count": 1,
        "detail": [
            {
                "addr:housenumber": "18 к1",
                "addr:postcode": "195027",
                "addr:street": "Большеохтинский проспект",
                "building": "school",
                "building:architecture": "stalinist neoclassicism",
                "building:colour": "#85836B",
                "building:levels": "3",
                "design:code:SPb": "Шк-25",
                "website": "http://school140.3dn.ru/"
            }
        ]
    },
    "fuel": {
        "count": 1,
        "detail": [
            {
                "addr:city": "Санкт-Петербург",
                "addr:housenumber": "58 к4",
                "addr:street": "Свердловская набережная",
                "amenity": "fuel",
                "brand": "Лукойл",
                "brand:wikidata": "Q329347",
                "brand:wikipedia": "ru:Лукойл",
                "building": "roof",
                "building:levels": "1",
                "fuel:diesel": "yes",
                "fuel:lpg": "no",
                "fuel:octane_92": "yes",
                "fuel:octane_95": "yes",
                "fuel:octane_98": "yes",
                "name": "Лукойл",
                "opening_hours": "24/7",
                "operator": "ООО \"ЛУКОЙЛ-Северо-Западнефтепродукт\"",
                "phone": "+7 812 4591596",
                "ref": "96",
                "roof:colour": "#93A5B3",
                "source": "survey",
                "website": "http://www.lukoil.ru/"
            }
        ]
    },
    "service": {
        "count": 2,
        "detail": [
            {
                "power": "substation",
                "building": "service",
                "roof:shape": "flat",
                "roof:colour": "#797880",
                "building:levels": "1",
                "building:architecture": "stalinist neoclassicism"
            },
            {
                "building": "service",
                "power": "substation",
                "substation": "minor_distribution"
            }
        ]
    }
}