{
    "residents": 5920,
    "bar": {
        "count": 10,
        "detail": [
            {
                "amenity": "bar",
                "contact:vk": "https://vk.com/barspb_official",
                "name": "SПБ",
                "opening_hours": "Su-Th 12:00-01:00, Fr-Sa 12:00-05:00",
                "phone": "+7 812 3353316",
                "website": "http://www.barspb.ru/"
            },
            {
                "amenity": "bar",
                "contact:vk": "https://vk.com/vtd_spb",
                "internet_access": "wlan",
                "name": "Все твои друзья"
            },
            {
                "amenity": "bar",
                "name": "Craft Beer Shop"
            },
            {
                "amenity": "bar",
                "contact:vk": "https://vk.com/everydogbar",
                "name": "Every Dog Bar"
            },
            {
                "alt_name": "КиллФиш",
                "amenity": "bar",
                "contact:vk": "https://vk.com/killfishbar",
                "cuisine": "sushi",
                "name": "KillFish",
                "opening_hours": "Mo-Su 12:00-03:00",
                "operator": "ООО «НГБ Ваян»",
                "phone": "+7 812 4480800",
                "website": "https://killfish.ru/"
            },
            {
                "amenity": "bar",
                "name": "Luxor",
                "website": "http://luxorbar.ru/"
            },
            {
                "amenity": "bar",
                "contact:vk": "https://vk.com/koraduba_bar",
                "name": "KoraDuba",
                "opening_hours": "Mo-Fr 11:00-23:00, Sa-Su,PH 12:00-01:00",
                "website": "http://koraduba.com/"
            },
            {
                "alt_name": "Рюмочная",
                "amenity": "bar",
                "contact:vk": "https://vk.com/dobroemest",
                "name": "Закусочная",
                "opening_hours": "07:00-23:00",
                "operator": "ООО «Сатурн»"
            },
            {
                "amenity": "bar",
                "contact:instagram": "https://www.instagram.com/moonlightbar_official/",
                "contact:vk": "https://vk.com/moonlightbar_official",
                "name": "Moonlight"
            },
            {
                "addr:housenumber": "16/4",
                "addr:street": "Столярный переулок",
                "amenity": "bar",
                "cuisine": "russian",
                "email": "pechorinbar@gagara.biz",
                "internet_access": "wlan",
                "name": "Петербургский бар «Печоринъ»",
                "name:en": "St.Petersburg bar Pechorin",
                "opening_hours": "We-Su 18:00-01:00",
                "phone": "+78129643040",
                "website": "http://pechorinbar.ru"
            }
        ]
    },
    "restaurant": {
        "count": 18,
        "detail": [
            {
                "amenity": "restaurant",
                "contact:vk": "https://vk.com/iloverim",
                "level": "-0.5",
                "name": "Рим",
                "website": "http://www.restorimspb.ru/",
                "wheelchair": "no"
            },
            {
                "amenity": "restaurant",
                "name": "Апшерон",
                "opening_hours": "24/7",
                "operator": "ООО \"Вога\"",
                "website": "http://apsheron-kafe.ru/"
            },
            {
                "amenity": "restaurant",
                "cuisine": "chinese",
                "name": "Цзао Ван",
                "name:zh": "灶王餐館",
                "note": "скорее всего не относится к chinacook.ru",
                "opening_hours": "Mo-Su 12:00-24:00",
                "operator": "徐敏菊",
                "phone": "+7 812 5716921"
            },
            {
                "addr:housenumber": "39/41",
                "addr:street": "Садовая улица",
                "amenity": "restaurant",
                "contact:facebook": "https://www.facebook.com/hochuharcho",
                "cuisine": "georgian",
                "internet_access": "wlan",
                "name": "Хочу харчо",
                "name:en": "Hochu Harcho",
                "name:ru": "Хочу харчо",
                "opening_hours": "24/7",
                "outdoor_seating": "no",
                "phone": "+7 812 6401616",
                "website": "https://ginza.ru/spb/restaurant/hochu_harcho"
            },
            {
                "amenity": "restaurant",
                "contact:vk": "https://vk.com/severyanin_project",
                "cuisine": "russian",
                "email": "9516396@gmail.com",
                "internet_access": "wlan",
                "name": "Северянин",
                "phone": "+7 921 9516396",
                "website": "https://www.severyanin.me/"
            },
            {
                "amenity": "restaurant",
                "cuisine": "georgian",
                "name": "Азалия"
            },
            {
                "amenity": "restaurant",
                "contact:vk": "https://vk.com/toscanagrill",
                "cuisine": "italian",
                "name": "Toscana grill",
                "opening_hours": "12:00-24:00",
                "website": "http://toscanagrill.ru/"
            },
            {
                "amenity": "restaurant",
                "contact:vk": "https://vk.com/club_tokyocity",
                "cuisine": "japanese;sushi",
                "name": "Токио-City",
                "name:en": "Tokyo-City",
                "name:ru": "Токио-Сити",
                "opening_hours": "Su-Th 11:00-01:00, Fr-Sa 11:00-03:00",
                "payment:credit_cards": "yes",
                "payment:debit_cards": "yes",
                "payment:mastercard": "yes",
                "payment:visa": "yes",
                "website": "https://www.tokyo-city.ru/"
            },
            {
                "amenity": "restaurant",
                "contact:vk": "https://vk.com/club165020651",
                "name": "Perbacco",
                "opening_hours": "11:30-23:00",
                "operator": "ООО «Триколоре»",
                "website": "https://www.perbacco.ru/"
            },
            {
                "alt_name": "Едимруками",
                "amenity": "restaurant",
                "contact:vk": "https://vk.com/edimrukami",
                "name": "Едим руками",
                "note": "возможно не работает",
                "opening_hours": "12:00-01:00",
                "website": "http://ginza.ru/spb/restaurant/edimrukami"
            },
            {
                "addr:housenumber": "54",
                "addr:street": "набережная канала Грибоедова",
                "amenity": "restaurant",
                "name": "Charlie",
                "opening_hours": "Mo-Th 09:00-23:00; Fr 09:00-02:00; Sa 10:00-02:00; Su 10:00-23:00",
                "phone": "+7 911 9260012",
                "website": "https://www.charlie-charlie.ru/"
            },
            {
                "amenity": "restaurant",
                "contact:vk": "https://vk.com/hochushashlik",
                "cuisine": "kebab",
                "name": "Хочу шашлык"
            },
            {
                "addr:city": "Санкт-Петербург",
                "addr:housenumber": "5",
                "addr:street": "Сенная площадь",
                "amenity": "restaurant",
                "contact:vk": "https://vk.com/hachapuri__spb",
                "level": "1",
                "name": "Хачапури тетушки Марико",
                "opening_hours": "Mo-Th, Su 12:00-24:00; Fr-Sa 12:00-02:00",
                "phone": "+7 911 9205989",
                "website": "https://vhachapuri.ru/spb"
            },
            {
                "amenity": "restaurant",
                "internet_access": "wlan",
                "name": "Laboratoria Distilita"
            },
            {
                "amenity": "restaurant",
                "contact:vk": "https://vk.com/ukusno",
                "cuisine": "balkan",
                "internet_access": "wlan",
                "name": "Ukusno",
                "opening_hours": "Su-Th 12:00-23:00; Fr-Sa 12:00-01:00",
                "phone": "+7 931 5857179",
                "website": "https://vk.com/ukusno"
            },
            {
                "amenity": "restaurant",
                "name:en": "Juno"
            },
            {
                "amenity": "restaurant",
                "cuisine": "italian_pizza",
                "name:en": "oversize pizza",
                "website": "https://oversize.pizza/"
            },
            {
                "amenity": "restaurant",
                "contact:instagram": "https://instagram.com/ezogroup",
                "contact:phone": "+7 812 9113411",
                "name": "Ezo",
                "opening_hours": "Mo-Su 12:00-23:00",
                "operator": "Ezo"
            }
        ]
    },
    "fast_food": {
        "count": 17,
        "detail": [
            {
                "amenity": "fast_food",
                "brand": "Hesburger",
                "brand:wikidata": "Q1276832",
                "brand:wikipedia": "en:Hesburger",
                "contact:vk": "https://vk.com/hesburger_russia",
                "cuisine": "burger",
                "email": "sn.spb@hesburger.org",
                "internet_access": "wlan",
                "int_name": "Hesburger",
                "name": "Хесбургер",
                "name:en": "Hesburger",
                "opening_hours": "Su-Th 08:00-23:00, Fr-Sa 08:00-04:00",
                "operator": "ИП Кучеренко О.В.",
                "payment:cash": "yes",
                "payment:mastercard": "yes",
                "payment:visa": "yes",
                "phone": "+7 812 6779609",
                "takeaway": "yes",
                "website": "https://www.hesburger.ru/260?tid=1230"
            },
            {
                "amenity": "fast_food",
                "fast_food": "cafeteria",
                "name": "Ложка",
                "opening_hours": "Mo-Su 09:00-21:00",
                "operator": "ООО \"Ярко\"",
                "wheelchair": "no"
            },
            {
                "amenity": "fast_food",
                "brand": "Теремок",
                "brand:en": "Teremok",
                "brand:ru": "Теремок",
                "brand:wikidata": "Q4455593",
                "brand:wikipedia": "ru:Теремок (сеть быстрого питания)",
                "contact:email": "office@teremok.ru",
                "contact:facebook": "https://www.facebook.com/teremok",
                "contact:instagram": "https://instagram.com/teremok_ru",
                "contact:line": "http://line.me/ti/p/%40teremok",
                "contact:phone": "+7 495 9562730",
                "contact:twitter": "https://twitter.com/teremok_ru",
                "contact:vk": "https://vk.com/teremok",
                "contact:website": "https://teremok.ru/places/r_moskovskiy_6/",
                "cuisine": "crepe;russian",
                "diet:vegetarian": "yes",
                "level": "0",
                "name": "Теремок",
                "name:en": "Teremok",
                "name:ru": "Теремок",
                "opening_hours": "Mo-Fr 08:00-22:00; Sa-Su 09:00-22:00",
                "takeaway": "yes"
            },
            {
                "amenity": "fast_food",
                "fast_food": "cafeteria",
                "name": "Столовая №5",
                "note": "возможно https://www.instagram.com/stolovaya.5/"
            },
            {
                "amenity": "fast_food",
                "fast_food": "cafeteria",
                "name": "Домашний вкус",
                "opening_hours": "09:00-21:00"
            },
            {
                "amenity": "fast_food",
                "contact:vk": "https://vk.com/dodospb",
                "cuisine": "pizza",
                "delivery": "yes",
                "name": "Додо Пицца",
                "opening_hours": "10:00-23:00",
                "takeaway": "yes",
                "website": "https://dodopizza.ru/peterburg/sadovaya49/contacts",
                "wheelchair": "no"
            },
            {
                "amenity": "fast_food",
                "contact:vk": "https://vk.com/taiyakicafe",
                "cuisine": "japanese",
                "name": "Тайяки",
                "name:en": "Taiyaki",
                "name:ja": "たいやき",
                "opening_hours": "Su-Th 11:00-21:00; Fr-Sa 11:00-22:00",
                "website": "http://taiyakicafe.ru/"
            },
            {
                "amenity": "fast_food",
                "contact:vk": "https://vk.com/leoncoffeespb",
                "cuisine": "coffee_shop",
                "level": "-1",
                "name": "Leon Coffee"
            },
            {
                "amenity": "fast_food",
                "contact:vk": "https://vk.com/etloncoffee",
                "cuisine": "coffee_shop",
                "name": "Etlon Coffee",
                "website": "https://etloncoffee.ru/"
            },
            {
                "amenity": "fast_food",
                "contact:instagram": "https://www.instagram.com/veg.pyramid/",
                "contact:vk": "https://vk.com/veganpyramid",
                "cuisine": "falafel",
                "diet:vegan": "yes",
                "name": "Веган Пирамида",
                "opening_hours": "24/7"
            },
            {
                "name": "Столовая № 1",
                "level": "0",
                "amenity": "fast_food",
                "website": "https://st1.one/",
                "operator": "ООО «Большая Медведица»",
                "fast_food": "cafeteria",
                "contact:vk": "https://vk.com/club12879930",
                "wheelchair": "no",
                "payment:cash": "only",
                "opening_hours": "24/7",
                "diet:vegetarian": "yes",
                "internet_access": "wlan"
            },
            {
                "name": "Новая столовая",
                "level": "-1",
                "amenity": "fast_food",
                "operator": "ООО «Рестоман»",
                "fast_food": "cafeteria",
                "opening_hours": "08:00-22:00"
            },
            {
                "amenity": "fast_food",
                "contact:instagram": "https://www.instagram.com/prostovasya24/",
                "contact:vk": "https://vk.com/prostovasya24",
                "name": "Просто Вася",
                "opening_hours": "24/7",
                "operator": "ИП Соколов С.С.",
                "website": "http://prostovasya.ru/"
            },
            {
                "amenity": "fast_food",
                "contact:vk": "https://vk.com/jolywoo",
                "cuisine": "vietnamese; noodle",
                "delivery": "yes",
                "diet:vegetarian": "yes",
                "internet_access": "wlan",
                "level": "0",
                "name": "Joly Woo",
                "opening_hours": "11:00-23:00",
                "operator": "ООО «Джоли Ву Садовая»",
                "takeaway": "yes",
                "toilets": "yes",
                "website": "https://jolywoo.com/",
                "wheelchair": "no"
            },
            {
                "name": "Leon Coffee",
                "level": "-1",
                "amenity": "fast_food",
                "cuisine": "coffee_shop",
                "contact:vk": "https://vk.com/leoncoffeespb"
            },
            {
                "amenity": "fast_food",
                "cuisine": "coffee_shop",
                "diet:vegan": "yes",
                "diet:vegetarian": "yes",
                "level": "0",
                "name": "One Price Coffee",
                "opening_hours": "09:00-22:00",
                "payment:credit_cards": "yes",
                "payment:debit_cards": "yes",
                "takeaway": "yes",
                "wheelchair": "no"
            },
            {
                "amenity": "fast_food",
                "contact:vk": "https://vk.com/coffeetherapists",
                "cuisine": "coffee_shop",
                "name": "Coffee Therapy",
                "website": "http://coffeetherapy.ru/"
            }
        ]
    },
    "cafe": {
        "count": 38,
        "detail": [
            {
                "amenity": "cafe",
                "brand": "Starbucks",
                "brand:wikidata": "Q37158",
                "brand:wikipedia": "en:Starbucks",
                "contact:vk": "https://vk.com/starbucks",
                "cuisine": "coffee_shop",
                "internet_access": "wlan",
                "level": "0",
                "name": "Starbucks",
                "official_name": "Starbucks Coffee",
                "opening_hours": "Mo-Fr 07:30-22:00; Sa-Su 08:30-22:00",
                "operator": "ООО «Кофе Сирена»",
                "takeaway": "yes",
                "toilets:wheelchair": "yes",
                "website": "https://www.starbucks.ru/store/1023954",
                "wheelchair": "no"
            },
            {
                "amenity": "cafe",
                "contact:vk": "https://vk.com/chainikoff_cafe",
                "name": "Чайникофф",
                "opening_hours": "24/7",
                "operator": "ООО «Кофейня 24»",
                "website": "https://chainikoff.ru/"
            },
            {
                "amenity": "cafe",
                "contact:vk": "https://vk.com/pashtetfoodandwine",
                "cuisine": "mediterranean;deli;international",
                "name": "Паштет",
                "opening_hours": "Su-Th 11:30-23:30, Fr-Sa 11:30-01:00",
                "website": "http://pashtetspb.ru/"
            },
            {
                "amenity": "cafe",
                "contact:instagram": "https://www.instagram.com/coffitspb/",
                "contact:vk": "https://vk.com/coffitspb",
                "name": "Coffit",
                "opening_hours": "08:00-23:00",
                "operator": "ООО «Коффит-1»",
                "website": "http://www.coffit.spb.ru/"
            },
            {
                "amenity": "cafe",
                "name": "Stolov-ka",
                "opening_hours": "Mo-Fr 08:00-23:00; Sa-Su 09:00-23:00",
                "wheelchair": "no"
            },
            {
                "amenity": "cafe",
                "name": "Шаверма Хаус"
            },
            {
                "amenity": "cafe",
                "name": "Аъло",
                "website": "http://alo-halol.ru/"
            },
            {
                "amenity": "cafe",
                "contact:vk": "https://vk.com/teaumii",
                "name": "TeaUmii",
                "website": "https://teaumii.business.site/"
            },
            {
                "amenity": "cafe",
                "name": "Пирогоф",
                "website": "http://www.pirogof.com/"
            },
            {
                "amenity": "cafe",
                "contact:vk": "https://vk.com/cafe_lindfors",
                "name": "Линдфорс",
                "opening_hours": "Mo-Fr 08:00-21:00; Sa-Su 09:00-21:00",
                "operator": "ООО «Московский проспект»",
                "website": "https://spb.lindfors.ru/restorany/moskovskiy-pr-6"
            },
            {
                "amenity": "cafe",
                "contact:vk": "https://vk.com/kingpyshka",
                "cuisine": "donut",
                "name": "Царь-Пышка",
                "opening_hours": "Mo-Fr 09:00-21:00; Sa-Su 10:00-21:00",
                "operator": "ИП Иванов А.В.",
                "website": "https://king-pyshka.ru/"
            },
            {
                "name": "Фергана",
                "amenity": "cafe",
                "toilets": "yes"
            },
            {
                "amenity": "cafe",
                "contact:vk": "https://vk.com/kafe_kattakurgan_bar",
                "name": "Каттакурган"
            },
            {
                "amenity": "cafe",
                "contact:instagram": "https://www.instagram.com/ferma.cafe.sadovaya/",
                "contact:vk": "https://vk.com/fermacafe",
                "cuisine": "cake",
                "level": "0",
                "name": "FermA",
                "opening_hours": "10:00-23:00",
                "operator": "ООО «М-Промо»",
                "phone": "+7 812 6430400",
                "website": "https://white-group.ru/restaurants/view/konditerskaya-ferma/",
                "wheelchair": "no"
            },
            {
                "amenity": "cafe",
                "name": "1848",
                "opening_hours": "11:00-23:00"
            },
            {
                "amenity": "cafe",
                "contact:vk": "https://vk.com/buuzaroom",
                "cuisine": "asian",
                "name": "Buuza Room",
                "opening_hours": "11:00-23:00",
                "operator": "ИП Будуев Д.Д."
            },
            {
                "name": "Пышечка",
                "amenity": "cafe",
                "website": "https://ginza.ru/spb/restaurant/pyshechka",
                "contact:vk": "https://vk.com/ginzapyshechka",
                "opening_hours": "Mo-Fr 09:00-21:00; Sa-Su 10:00-21:00"
            },
            {
                "addr:housenumber": "54",
                "addr:street": "набережная канала Грибоедова",
                "amenity": "cafe",
                "contact:facebook": "https://facebook.com/coffeewayspb",
                "contact:instagram": "https://instagram.com/coffeeway_spb",
                "contact:phone": "+7 906 2728759",
                "contact:vk": "https://vk.com/coffeeway_spb_sennaya",
                "contact:website": "https://www.instagram.com/coffeeway_spb",
                "internet_access": "wlan",
                "name": "Coffee Way",
                "opening_hours": "Mo-Fr 08:00-21:00; Sa-Su 09:00-21:00",
                "operator": "Coffee Way"
            },
            {
                "amenity": "cafe",
                "name": "Маковый Jam"
            },
            {
                "amenity": "cafe",
                "breakfast": "09:00-14:00",
                "contact:vk": "https://vk.com/jcbistro",
                "dinner": "14:00-23:30",
                "lunch": "12:00-17:00",
                "name": "Julia Child",
                "opening_hours": "Mo-Fr 09:00-23:30; Sa-Su 10:00-23:30",
                "phone": "+7 812 9290797",
                "takeaway": "yes"
            },
            {
                "name": "#Кофейня №1",
                "amenity": "cafe",
                "website": "http://delmar-spb.ru/restaurants/koff-sadovaya/",
                "alt_name": "Кофейня №1",
                "contact:vk": "https://vk.com/coffeen1",
                "opening_hours": "24/7"
            },
            {
                "amenity": "cafe",
                "cuisine": "doner",
                "level": "-1",
                "name": "Шаверма Mix",
                "wheelchair": "no"
            },
            {
                "amenity": "cafe",
                "contact:vk": "https://vk.com/kafeagnia",
                "name": "Агния",
                "opening_hours": "11:00-23:00",
                "operator": "ООО «3 Обезьяны»",
                "website": "http://kafe-agnija.mozello.ru/"
            },
            {
                "amenity": "cafe",
                "contact:facebook": "https://www.facebook.com/horns.hooves18/",
                "name": "Рога и копыта",
                "name:en": "Horns & Hooves",
                "name:ru": "Рога и копыта",
                "opening_hours": "12:00+",
                "website": "https://horns.tastetoeat.ru/"
            },
            {
                "amenity": "cafe",
                "name": "Шаурма"
            },
            {
                "amenity": "cafe",
                "contact:vk": "club88357412",
                "fixme": "Возможно закрылись",
                "name": "Чуланчик",
                "opening_hours": "Mo-Th 11:00-23:00, Fr 11:00-01:00, Sa 13:00-01:00, Su 13:00-23:00",
                "phone": "+7 812 5726454"
            },
            {
                "amenity": "cafe",
                "cuisine": "coffee_shop",
                "internet_access": "wlan",
                "name": "Mr.Black Coffee",
                "opening_hours": "Mo-Fr 08:00-22:00; Sa-Su 09:00-22:00",
                "phone": "+7 931 0008800",
                "website": "https://mrblackcoffee.ru/"
            },
            {
                "name": "Шаурма",
                "level": "-1",
                "amenity": "cafe",
                "opening_hours": "24/7"
            },
            {
                "amenity": "cafe",
                "contact:vk": "https://vk.com/moomoo_burgers",
                "cuisine": "burger",
                "delivery": "yes",
                "diet:vegan": "yes",
                "diet:vegetarian": "yes",
                "level": "0",
                "name": "Moo Moo",
                "opening_hours": "Su-Th 08:00-23:30, Fr-Sa 08:00-01:30",
                "operator": "ООО «Природа»",
                "phone": "+7 812 9552288",
                "takeaway": "yes",
                "website": "https://www.moomooburgers.ru/",
                "wheelchair": "no"
            },
            {
                "amenity": "cafe",
                "level": "-1",
                "name": "Gunners",
                "wheelchair": "no"
            },
            {
                "amenity": "cafe",
                "level": "-1",
                "name": "Кебаб Хаус"
            },
            {
                "addr:city": "Санкт-Петербург",
                "addr:housenumber": "13-15",
                "addr:postcode": "190031",
                "addr:street": "Гражданская улица",
                "amenity": "cafe",
                "contact:vk": "https://vk.com/seizetheimpress",
                "cuisine": "coffee_shop;regional",
                "delivery": "yes",
                "description": "Кофейня с завтраками. У нас 10 видов сырников и specialty-кофе. Также в меню боулы, сендвичи, тосты, каши и блюда из яиц. У нас небольшое пространство, но от того еще более уютное. А еще, мы находимся в творческом кластере Бертголь Центр и здесь много дви",
                "internet_access": "wlan",
                "internet_access:fee": "no",
                "level": "1",
                "name": "STIM Coffee",
                "opening_hours": "9:00-20:00",
                "outdoor_seating": "yes",
                "takeaway": "yes",
                "website": "https://www.instagram.com/stimcoffeehome"
            },
            {
                "amenity": "cafe",
                "contact:vk": "https://vk.com/pastelariabica",
                "level": "0",
                "name": "Bica",
                "wheelchair": "no"
            },
            {
                "amenity": "cafe",
                "contact:vk": "https://vk.com/pastamuka",
                "level": "0",
                "name": "Мука",
                "wheelchair": "limited"
            },
            {
                "amenity": "cafe",
                "contact:email": "info@bagginscoffee.ru",
                "contact:phone": "+7 800 6007015;+7 905 2504412",
                "contact:vk": "https://vk.com/bagginscoffee",
                "contact:website": "http://bagginscoffee.ru/",
                "name": "Baggins Coffee",
                "note": "возможно не работает",
                "opening_hours": "Mo-Fr 08:00-21:00;Sa-Su 09:00-21:00",
                "operator": "ИП Павлов Андрей Петрович"
            },
            {
                "amenity": "cafe",
                "cuisine": "coffee_shop",
                "name": "КУЛЬТУРА - vinyl store & brew bar"
            },
            {
                "amenity": "cafe",
                "cafe": "time_cafe",
                "cuisine": "coffee_shop;snackbar",
                "internet_access": "wlan",
                "internet_access:fee": "no",
                "name": "Каледонский лес",
                "opening_hours": "Mo-We 14:00-22:00; Th-Fr 14:00-23:00; Sa 13:00-23:00; Su 13:00-22:30",
                "outdoor_seating": "no",
                "phone": "+7 921 3356010",
                "website": "https://vk.com/klles"
            },
            {
                "amenity": "cafe",
                "contact:vk": "https://vk.com/bagginscoffee",
                "cuisine": "coffee_shop",
                "name": "Baggins Coffee",
                "opening_hours": "Mo-Fr 08:00-21:00; Sa-Su 09:00-21:00",
                "website": "http://bagginscoffee.ru/"
            }
        ]
    },
    "alcohol": {
        "count": 3,
        "detail": [
            {
                "contact:vk": "https://vk.com/amwineru",
                "name": "Ароматный мир",
                "opening_hours": "10:00-22:00",
                "operator": "ООО «АМ-2 СПб»",
                "shop": "alcohol",
                "website": "https://amwine.ru/customers/shops/detail/433847/",
                "wheelchair": "yes"
            },
            {
                "brand": "Красное & Белое",
                "brand:en": "Red & White",
                "brand:wikidata": "Q24933790",
                "brand:wikipedia": "en:Krasnoe & Beloe",
                "contact:vk": "https://vk.com/krasnoebeloe",
                "name": "Красное & Белое",
                "name:en": "Red & White",
                "opening_hours": "09:00-22:05",
                "shop": "alcohol",
                "website": "https://krasnoeibeloe.ru/"
            },
            {
                "brand": "Ароматный мир",
                "contact:facebook": "https://www.facebook.com/amwine.ru",
                "contact:instagram": "https://instagram.com/amwine.ru",
                "contact:twitter": "https://twitter.com/amwineru",
                "contact:vk": "https://vk.com/amwineru",
                "drink:beer": "bottled",
                "drink:cider": "bottled",
                "drink:cognac": "bottled",
                "drink:soft_drink": "bottled",
                "drink:sparkling_wine": "bottled",
                "drink:vodka": "bottled",
                "drink:whisky": "bottled",
                "drink:wine": "bottled",
                "name": "Ароматный мир",
                "name:ru": "Ароматный мир",
                "opening_hours": "Mo-Su 10:00-22:00",
                "shop": "alcohol",
                "website": "https://amwine.ru/customers/shops/detail/84802/",
                "wheelchair": "no"
            }
        ]
    },
    "jewelry": {
        "count": 7,
        "detail": [
            {
                "brand": "Ювелирторг",
                "contact:vk": "https://vk.com/juvelirtorg",
                "name": "Агат",
                "opening_hours": "Mo-Sa 11:00-20:00; Su 11:00-18:00",
                "operator": "АО «Ювелирторг»",
                "shop": "jewelry",
                "website": "https://juvelirtorg.spb.ru/stores/sankt-peterburg/1"
            },
            {
                "contact:instagram": "https://www.instagram.com/jerusalembazar/",
                "name": "Jerusalembazar",
                "opening_hours": "10:00-22:00",
                "operator": "ИП Либерман",
                "shop": "jewelry",
                "website": "https://jerusalembazar.ru/"
            },
            {
                "name": "Серебро",
                "opening_hours": "Mo-Fr 10:00-21:00; Sa-Su 11:00-21:00",
                "shop": "jewelry",
                "website": "http://serebro-juvelir.com/"
            },
            {
                "name": "Золотая подкова",
                "shop": "jewelry",
                "craft": "jeweller",
                "level": "0",
                "opening_hours": "10:00-20:00"
            },
            {
                "name": "585 Gold",
                "shop": "jewelry",
                "level": "-1",
                "website": "https://zoloto585.ru/about/address/sankt-peterburg/56/",
                "contact:vk": "https://vk.com/zoloto585gold",
                "opening_hours": "10:00-21:00"
            },
            {
                "contact:instagram": "https://www.instagram.com/mir_kamnei_spb/",
                "level": "0",
                "name": "Мир камней",
                "opening_hours": "10:30-21:00",
                "shop": "jewelry",
                "website": "https://миркамнейспб.рф/"
            },
            {
                "name": "Серебро",
                "opening_hours": "Mo-Fr 11:00-20:00; Sa-Su 11:00-19:00",
                "shop": "jewelry"
            }
        ]
    },
    "health_food": {
        "count": 2,
        "detail": [
            {
                "contact:vk": "https://vk.com/eco_bio_market",
                "name": "Компас здоровья",
                "opening_hours": "09:00-22:00",
                "operator": "ИП Егорова Екатерина Сергеевна",
                "shop": "health_food",
                "website": "http://www.smkfarm.ru/contacts/stores/rossiya/sank-peterburg/953/"
            },
            {
                "contact:email": "altayber@mail.ru",
                "contact:instagram": "https://instagram.com/altayber",
                "contact:phone": "+7 991 6757391",
                "contact:vk": "https://vk.com/club62310872",
                "contact:website": "https://altayber.ru/",
                "name": "Берегиня Алтая",
                "opening_hours": "Mo-Fr 10:00-20:00;Sa-Su 11:00-18:00",
                "operator": "Берегиня Алтая",
                "shop": "health_food"
            }
        ]
    },
    "pharmacy": {
        "count": 13,
        "detail": [
            {
                "amenity": "pharmacy",
                "dispensing": "yes",
                "healthcare": "pharmacy",
                "name": "Народная аптека",
                "opening_hours": "24/7",
                "wheelchair": "no"
            },
            {
                "amenity": "pharmacy",
                "healthcare": "pharmacy",
                "name": "Зелёная линия",
                "opening_hours": "Mo-Fr 09:00-21:00; Sa-Su 10:00-20:00",
                "phone": "+7 812 3125725"
            },
            {
                "name": "Пульс",
                "level": "0",
                "amenity": "pharmacy",
                "website": "http://apteka-puls.ru/",
                "operator": "ООО «Фармтрейд»",
                "contact:vk": "https://vk.com/puls_russia",
                "opening_hours": "24/7",
                "contact:instagram": "https://www.instagram.com/apteka_puls_russia/"
            },
            {
                "amenity": "pharmacy",
                "contact:facebook": "https://www.facebook.com/ozerkiapteka/",
                "contact:instagram": "https://www.instagram.com/ozerki_apteki/",
                "contact:twitter": "https://twitter.com/Ozerki_Apteki",
                "contact:vk": "https://vk.com/ozerkiapteka",
                "healthcare": "pharmacy",
                "name": "Озерки",
                "opening_hours": "Mo-Fr 07:00-23:00; Sa-Su 08:00-22:00",
                "operator": "ООО «Эркафарм Северо-запад»",
                "website": "https://ozerki.ru/",
                "wheelchair": "yes"
            },
            {
                "amenity": "pharmacy",
                "contact:vk": "https://vk.com/club102971985",
                "healthcare": "pharmacy",
                "name": "Мелодия здоровья",
                "opening_hours": "Mo-Fr 08:00-21:00; Sa-Su 09:00-21:00",
                "operator": "ООО «Этна»",
                "website": "http://spb.melzdrav.ru/"
            },
            {
                "amenity": "pharmacy",
                "contact:facebook": "http://facebook.com/aptekivita",
                "contact:instagram": "https://www.instagram.com/vita_express/",
                "contact:phone": "+7 800 7550003",
                "contact:vk": "https://vk.com/aptekivita",
                "contact:website": "https://vitaexpress.ru/",
                "healthcare": "pharmacy",
                "name": "Вита Экспресс",
                "opening_hours": "Mo-Sa 08:00-23:00;Su 09:00-23:00",
                "operator": "ООО «Нептун»"
            },
            {
                "amenity": "pharmacy",
                "dispensing": "no",
                "healthcare": "pharmacy",
                "website": "http://www.pastera.ru/"
            },
            {
                "amenity": "pharmacy",
                "healthcare": "pharmacy",
                "name": "Здоровая жизнь",
                "opening_hours": "09:00-21:00"
            },
            {
                "amenity": "pharmacy",
                "contact:facebook": "http://facebook.com/aptekivita",
                "contact:instagram": "https://www.instagram.com/vita_express/",
                "contact:phone": "+7 800 7550003",
                "contact:vk": "https://vk.com/aptekivita",
                "contact:website": "https://vitaexpress.ru/",
                "name": "Вита Центральная",
                "opening_hours": "Mo-Su 08:00-22:00"
            },
            {
                "amenity": "pharmacy",
                "healthcare": "pharmacy",
                "name": "Балтика-Мед",
                "name:en": "Baltika-Med",
                "opening_hours": "09:00-22:00",
                "website": "http://baltikamed.ru/"
            },
            {
                "amenity": "pharmacy",
                "contact:vk": "https://vk.com/planeta_zdorovo",
                "healthcare": "pharmacy",
                "name": "Планета здоровья",
                "opening_hours": "24/7",
                "website": "https://planetazdorovo.ru/"
            },
            {
                "amenity": "pharmacy",
                "healthcare": "pharmacy",
                "name": "Фармап",
                "opening_hours": "09:00-21:00"
            },
            {
                "amenity": "pharmacy",
                "contact:facebook": "http://facebook.com/aptekivita",
                "contact:instagram": "https://www.instagram.com/vita_express/",
                "contact:phone": "+7 800 7550003",
                "contact:vk": "https://vk.com/aptekivita",
                "contact:website": "https://vitaexpress.ru/",
                "healthcare": "pharmacy",
                "name": "Вита Центральная",
                "opening_hours": "Mo-Sa 08:00-23:00;Su 09:00-23:00"
            }
        ]
    },
    "bakery": {
        "count": 4,
        "detail": [
            {
                "brand": "Булочные Ф. Вольчека",
                "contact:email": "info@fvolchek.ru",
                "contact:phone": "+7 812 6420638",
                "contact:vk": "f.volchek",
                "contact:website": "http://fvolchek.ru/",
                "inscription": "Булочная № 74",
                "name": "Булочная Ф. Вольчека",
                "name:ru": "Булочная Ф. Вольчека",
                "opening_hours": "Mo-Su 08:00-22:00",
                "ref": "74",
                "shop": "bakery"
            },
            {
                "brand": "Булочные Ф. Вольчека",
                "contact:email": "info@fvolchek.ru",
                "contact:phone": "+7 812 6420638",
                "contact:vk": "f.volchek",
                "contact:website": "http://fvolchek.ru/",
                "drink:coffee": "served",
                "drink:mors": "served",
                "drink:tea": "served",
                "inscription": "Булочная № 26",
                "name": "Булочная Ф. Вольчека",
                "name:ru": "Булочная Ф. Вольчека",
                "opening_hours": "Mo-Su 08:00-22:00",
                "operator": "Булочные Ф.Вольчека",
                "payment:cash": "yes",
                "payment:maestro": "yes",
                "payment:mastercard": "yes",
                "payment:visa": "yes",
                "payment:visa_debit": "yes",
                "payment:visa_electron": "yes",
                "ref": "26",
                "shop": "bakery",
                "takeaway": "yes",
                "wheelchair": "no"
            },
            {
                "amenity": "cafe",
                "contact:email": "info@tseh85.ru",
                "contact:instagram": "instagram.com/tseh85",
                "contact:phone": "+7 812 7757785",
                "contact:vk": "https://vk.com/tseh85",
                "contact:website": "http://tseh85.ru/",
                "delivery": "yes",
                "name": "Цех 85",
                "opening_hours": "Mo-Fr 08:00-21:00;Sa-Su 09:00-21:00",
                "operator": "Доценко",
                "shop": "bakery"
            },
            {
                "amenity": "cafe",
                "contact:email": "info@tseh85.ru",
                "contact:instagram": "instagram.com/tseh85",
                "contact:phone": "+7 812 7757785",
                "contact:vk": "https://vk.com/tseh85",
                "contact:website": "http://tseh85.ru/",
                "diet:vegetarian": "yes",
                "name": "ЦЕХ85",
                "opening_hours": "Mo-Fr 08:00-21:00;Sa-Su 09:00-21:00",
                "operator": "Андреева",
                "payment:credit_cards": "yes",
                "payment:debit_cards": "yes",
                "shop": "bakery",
                "toilets": "yes"
            }
        ]
    },
    "bank": {
        "count": 8,
        "detail": [
            {
                "amenity": "bank",
                "branch": "Северо-Западный банк",
                "brand": "Сбербанк",
                "brand:en": "Sberbank",
                "brand:ru": "Сбербанк",
                "brand:wikidata": "Q205012",
                "brand:wikipedia": "en:Sberbank of Russia",
                "contact:facebook": "https://www.facebook.com/sberbank",
                "contact:instagram": "https://instagram.com/sberbank",
                "contact:ok": "https://ok.ru/sberbank",
                "contact:phone": "+7 800 5555550",
                "contact:twitter": "https://twitter.com/sberbank/",
                "contact:vk": "https://vk.com/sberbank",
                "contact:website": "https://www.sberbank.ru",
                "contact:youtube": "https://www.youtube.com/sberbank",
                "name": "Сбербанк",
                "name:en": "Sberbank",
                "name:ru": "Сбербанк",
                "opening_hours": "Mo-Fr 10:00-19:00; Sa 11:00-20:00; Su 11:00-17:00",
                "operator": "ПАО Сбербанк",
                "operator:wikidata": "Q205012",
                "operator:wikipedia": "ru:Сбербанк России",
                "phone": "+7 812 3106770",
                "ref": "9055/0233",
                "wheelchair": "no"
            },
            {
                "amenity": "bank",
                "contact:email": "cc@bspb.ru",
                "contact:facebook": "https://www.facebook.com/bspb/",
                "contact:instagram": "https://instagram.com/bank_spb",
                "contact:ok": "https://ok.ru/bspb",
                "contact:phone": "+7 800 2225050;+7 812 3295050",
                "contact:twitter": "https://twitter.com/bank_spb",
                "contact:vk": "https://vk.com/bspb",
                "contact:website": "https://www.bspb.ru/",
                "name": "Банк Санкт-Петербург",
                "opening_hours": "Mo-Fr 10:00-20:00; Sa 10:00-18:00; Su 11:00-17:00",
                "operator": "Санкт-Петербург",
                "telegram": "https://t.me/mybspb",
                "wheelchair": "yes"
            },
            {
                "amenity": "bank",
                "atm": "yes",
                "bic": "VTBRRUMM",
                "brand": "ВТБ",
                "brand:en": "VTB Bank",
                "brand:wikidata": "Q1549389",
                "brand:wikipedia": "en:VTB Bank",
                "contact:email": "info@vtb.ru",
                "contact:facebook": "https://www.facebook.com/vtbrussia",
                "contact:phone": "+7 800 2007799",
                "contact:twitter": "https://twitter.com/vtb",
                "contact:vk": "https://vk.com/vtb",
                "contact:website": "https://www.vtb.ru/o-banke/kontakty/otdeleniya/imported/office-2382/",
                "contact:youtube": "https://www.youtube.com/user/vtbgroup",
                "level": "0",
                "name": "ВТБ",
                "name:en": "VTB",
                "name:ru": "ВТБ",
                "opening_hours": "Mo-Fr 09:00-20:00",
                "operator": "Банк ВТБ (публичное акционерное общество)",
                "operator:wikidata": "Q1549389",
                "operator:wikipedia": "ru:Банк ВТБ"
            },
            {
                "amenity": "bank",
                "brand": "Совкомбанк",
                "brand:ru": "Совкомбанк",
                "brand:wikidata": "Q4426566",
                "brand:wikipedia": "ru:Совкомбанк",
                "contact:vk": "https://vk.com/sovcombank",
                "name": "Совкомбанк",
                "name:ru": "Совкомбанк",
                "opening_hours": "Mo-Fr 10:00-20:00; Sa-Su 10:00-17:00",
                "website": "https://sovcombank.ru/"
            },
            {
                "amenity": "bank",
                "brand": "Московский кредитный банк",
                "brand:wikidata": "Q4304175",
                "contact:email": "info@mkb.ru",
                "contact:facebook": "https://www.facebook.com/mkb.ru",
                "contact:instagram": "https://www.instagram.com/bankmkb/",
                "contact:phone": "+7 495 7774888;+7 495 7974242;+7 800 1004888;+7 800 7755152",
                "contact:twitter": "https://twitter.com/bankmkb",
                "contact:vk": "https://vk.com/bankmkb",
                "contact:website": "https://mkb.ru/about/address/branch/dopolnitelniy-ofis-moskovskiy-prospekt",
                "name": "Московский кредитный банк",
                "opening_hours": "Mo-Su 10:00-21:00",
                "operator": "ПАО «Московский кредитный банк»",
                "operator:wikidata": "Q4304175"
            },
            {
                "amenity": "bank",
                "brand": "СКБ-банк",
                "brand:wikidata": "Q4403062",
                "contact:vk": "https://vk.com/skb_bank",
                "level": "0",
                "name": "СКБ-банк",
                "opening_hours": "Mo-Fr 10:00-19:00",
                "operator": "ПАО «СКБ-банк»",
                "operator:wikidata": "Q4403062",
                "website": "https://skbbank.ru/"
            },
            {
                "amenity": "bank",
                "name": "Консервативный коммерческий банк",
                "opening_hours": "Mo-Th 09:00-18:00; Fr 09:00-17:00",
                "short_name": "ККБ",
                "website": "https://kkb.ru/about-bank/kontakty-i-rekvizity-sankt-peterburg/"
            },
            {
                "amenity": "bank",
                "branch": "Северо-Западный банк",
                "brand": "Сбербанк",
                "brand:en": "Sberbank",
                "brand:ru": "Сбербанк",
                "brand:wikidata": "Q205012",
                "brand:wikipedia": "en:Sberbank of Russia",
                "contact:facebook": "https://www.facebook.com/sberbank",
                "contact:instagram": "https://instagram.com/sberbank",
                "contact:ok": "https://ok.ru/sberbank",
                "contact:phone": "+7 800 5555550",
                "contact:twitter": "https://twitter.com/sberbank/",
                "contact:vk": "https://vk.com/sberbank",
                "contact:website": "https://www.sberbank.ru/",
                "contact:youtube": "https://www.youtube.com/sberbank",
                "level": "0",
                "name": "Сбербанк",
                "name:en": "Sberbank",
                "name:ru": "Сбербанк",
                "opening_hours": "Mo-Fr 10:00-19:00; Sa 10:00-18:00",
                "operator": "ПАО Сбербанк",
                "operator:wikidata": "Q205012",
                "operator:wikipedia": "ru:Сбербанк России",
                "ref": "9055/01987",
                "wheelchair": "yes"
            }
        ]
    },
    "antiques": {
        "count": 1,
        "detail": [
            {
                "name": "Old Story",
                "opening_hours": "14:00-20:00",
                "shop": "antiques"
            }
        ]
    },
    "supermarket": {
        "count": 5,
        "detail": [
            {
                "alt_name": "Перекресток",
                "brand": "Перекрёсток",
                "brand:en": "Perekryostok",
                "brand:wikidata": "Q1684639",
                "brand:wikipedia": "en:Perekrestok (supermarket chain)",
                "contact:facebook": "https://www.facebook.com/perekrestok",
                "contact:instagram": "https://www.instagram.com/perekrestok/",
                "contact:ok": "https://ok.ru/perekrestok.shop",
                "contact:phone": "+7 800 2009555;+7 812 4483010",
                "contact:twitter": "https://twitter.com/perekrestok",
                "contact:vk": "https://vk.com/perekrestok_shop",
                "contact:website": "https://www.perekrestok.ru/",
                "name": "Перекрёсток",
                "opening_hours": "08:00-23:00",
                "shop": "supermarket"
            },
            {
                "brand": "Дикси",
                "brand:en": "Dixy",
                "brand:wikidata": "Q4161561",
                "brand:wikipedia": "ru:Дикси (сеть магазинов)",
                "contact:phone": "+7 800 3330201",
                "contact:vk": "https://vk.com/dixyclub",
                "contact:youtube": "https://www.youtube.com/user/DixyChannel",
                "name": "Дикси",
                "name:ru": "Дикси",
                "opening_hours": "24/7",
                "shop": "supermarket",
                "website": "https://dixy.ru/"
            },
            {
                "brand": "Магнит",
                "brand:en": "Magnit",
                "brand:wikidata": "Q940518",
                "brand:wikipedia": "ru:Магнит (сеть магазинов)",
                "contact:facebook": "https://www.facebook.com/magnitretail",
                "contact:ok": "https://ok.ru/magnitinfo",
                "contact:twitter": "https://twitter.com/magnitretail",
                "contact:vk": "https://vk.com/magnitretail",
                "contact:youtube": "https://www.youtube.com/channel/UCoWX1GhHlSJGwKpCEJitsoA/",
                "name": "Магнит у дома",
                "opening_hours": "08:00-23:00",
                "operator": "АО «Тандер»",
                "phone": "+7 800 2009002",
                "shop": "supermarket",
                "website": "https://magnit.ru/shops/49685/"
            },
            {
                "brand": "Дикси",
                "brand:en": "Dixy",
                "brand:wikidata": "Q4161561",
                "brand:wikipedia": "ru:Дикси (сеть магазинов)",
                "contact:phone": "+7 800 3330201",
                "contact:vk": "https://vk.com/dixyclub",
                "contact:youtube": "https://www.youtube.com/user/DixyChannel",
                "name": "Дикси",
                "name:ru": "Дикси",
                "opening_hours": "24/7",
                "operator": "АО «Дикси Юг»",
                "shop": "supermarket",
                "website": "https://dixy.ru/"
            },
            {
                "brand": "Пятёрочка",
                "brand:en": "Pyaterochka",
                "brand:wikidata": "Q1768969",
                "brand:wikipedia": "ru:Пятёрочка",
                "contact:vk": "https://vk.com/pyaterochka_shop",
                "name": "Пятёрочка",
                "name:en": "Pyaterochka",
                "opening_hours": "08:00-23:00",
                "operator": "ООО «Агроторг»",
                "shop": "supermarket",
                "website": "https://5ka.ru/"
            }
        ]
    },
    "convenience": {
        "count": 9,
        "detail": [
            {
                "brand": "ВкусВилл",
                "brand:wikidata": "Q57271676",
                "brand:wikipedia": "ru:Вкусвилл",
                "contact:phone": "+7 921 5543996",
                "contact:vk": "https://vk.com/vkusvill_ru",
                "contact:website": "https://vkusvill.ru",
                "name": "ВкусВилл",
                "opening_hours": "Mo-Su 08:00-21:00",
                "operator": "ООО «Вкусвилл»",
                "shop": "convenience"
            },
            {
                "level": "-1",
                "name": "Продукты",
                "opening_hours": "24/7",
                "shop": "convenience",
                "wheelchair": "no"
            },
            {
                "name": "Гастроном и Ко",
                "opening_hours": "24/7",
                "shop": "convenience"
            },
            {
                "name": "Food маркет",
                "opening_hours": "24/7",
                "shop": "convenience"
            },
            {
                "name": "Продукты",
                "opening_hours": "24/7",
                "operator": "ООО «МФА»",
                "shop": "convenience"
            },
            {
                "name": "Продукты",
                "opening_hours": "24/7",
                "shop": "convenience"
            },
            {
                "brand": "ВкусВилл",
                "brand:wikidata": "Q57271676",
                "brand:wikipedia": "ru:Вкусвилл",
                "contact:facebook": "https://www.facebook.com/vkusvill.ru",
                "contact:instagram": "https://www.instagram.com/izbenka_vkusvill/",
                "contact:vk": "https://vk.com/vkusvill_ru",
                "name": "ВкусВилл",
                "opening_hours": "08:00-23:00",
                "operator": "ООО «Вкусвилл»",
                "shop": "convenience",
                "website": "https://spb.vkusvill.ru/shops/?shop_id=8165"
            },
            {
                "food": "yes",
                "name": "Продукты",
                "name:ru": "Продукты",
                "opening_hours": "24/7",
                "shop": "convenience"
            },
            {
                "name": "Продукты",
                "opening_hours": "24/7",
                "shop": "convenience"
            }
        ]
    },
    "fountain": {
        "count": 1,
        "detail": [
            {
                "name": "«Нептун»",
                "amenity": "fountain"
            }
        ]
    },
    "hardware": {
        "count": 2,
        "detail": [
            {
                "contact:vk": "https://vk.com/clubmaterovoy",
                "name": "Мастеровой",
                "opening_hours": "Mo-Fr 10:00-20:00; Sa 10:00-19:00; Su 11:00-18:00",
                "operator": "ООО «Маркет Торг»",
                "shop": "hardware",
                "website": "https://masterovoy-spb.ru/"
            },
            {
                "name": "ГК Альянс",
                "shop": "hardware",
                "email": "info@prof-krepezh.ru",
                "phone": "+7 812 9121515",
                "website": "https://prof-krepezh.ru",
                "addr:city": "Санкт-Петербург",
                "addr:street": "Садовая улица",
                "description": "Строительный крепеж оптом: анкеры, метизы, строительная химия и другое",
                "addr:postcode": "190031",
                "opening_hours": "Mo-Fr 09:00-18:00",
                "addr:housenumber": "42"
            }
        ]
    },
    "kindergarten": {
        "count": 3,
        "detail": [
            {
                "amenity": "kindergarten",
                "contact:email": "admiral-gdou16@mail.ru",
                "contact:phone": "+7 812 3142454;+7 812 3141888;+7 812 3140150",
                "contact:website": "https://ds16spb.nubex.ru",
                "name": "Детский сад № 16",
                "official_name": "Государственное бюджетное дошкольное образовательное учреждение детский сад комбинированного вида № 16 Адмиралтейского района",
                "ref": "16"
            },
            {
                "amenity": "kindergarten",
                "contact:email": "dou32.adm@obr.gov.spb.ru",
                "contact:phone": "+7 812 3140558",
                "contact:website": "https://ds32spb.nubex.ru",
                "name": "Детский сад № 32",
                "official_name": "Государственное бюджетное дошкольное образовательное учреждение детский сад № 32 общеразвивающего вида с приоритетным осуществлением деятельности по художественно-эстетическому развитию детей Адмиралтейского района Санкт-Петербурга",
                "ref": "32"
            },
            {
                "addr:housenumber": "34",
                "addr:letter": "Б",
                "addr:street": "Вознесенский проспект",
                "building": "kindergarten",
                "building:levels": "2"
            }
        ]
    },
    "furniture": {
        "count": 3,
        "detail": [
            {
                "name": "Argento",
                "opening_hours": "11:00-21:00",
                "shop": "furniture",
                "website": "http://www.excellence-interiors.ru/"
            },
            {
                "int_name": "Borghese Classic",
                "name": "Боргезе классик",
                "opening_hours": "11:00-21:00",
                "shop": "furniture",
                "website": "http://www.excellence-interiors.ru/"
            },
            {
                "name": "Ateliér interiors",
                "opening_hours": "11:00-21:00",
                "operator": "ООО Модерн",
                "shop": "furniture",
                "website": "http://www.excellence-interiors.ru/"
            }
        ]
    },
    "fabric": {
        "count": 3,
        "detail": [
            {
                "name": "Апрель",
                "shop": "fabric",
                "source": "survey"
            },
            {
                "name": "Commode",
                "shop": "fabric"
            },
            {
                "contact:email": "auratessu@yandex.ru",
                "contact:facebook": "https://facebook.com/tkaniauratessu",
                "contact:instagram": "https://instagram.com/tkani_na_sennoispb",
                "contact:phone": "+7 812 5710298",
                "contact:vk": "https://vk.com/tkaniauratessu",
                "contact:website": "http://auratessu.ru/",
                "name": "Auratessu",
                "opening_hours": "Mo-Fr 10:00-20:00;Sa 11:00-20:00;Su 11:00-19:00",
                "operator": "Auratessu",
                "shop": "fabric"
            }
        ]
    },
    "police": {
        "count": 2,
        "detail": [
            {
                "name": "Участковый пункт полиции № 9",
                "amenity": "police"
            },
            {
                "amenity": "police",
                "name": "Управление уголовного розыска"
            }
        ]
    },
    "tattoo": {
        "count": 2,
        "detail": [
            {
                "name": "Артефакт",
                "shop": "tattoo",
                "source": "survey"
            },
            {
                "email": "dont_tell_mama@mail.ru",
                "internet_access": "wlan",
                "name": "Art of Pain",
                "opening_hours": "Mo-Su 11:00-20:00",
                "phone": "+7 921 9052088",
                "shop": "tattoo",
                "website": "https://artofpain.ru/"
            }
        ]
    },
    "copyshop": {
        "count": 6,
        "detail": [
            {
                "name": "Орион",
                "opening_hours": "Mo-Fr 10:00-18:00",
                "shop": "copyshop"
            },
            {
                "contact:vk": "https://vk.com/kopykanz",
                "name": "КопиКанц",
                "opening_hours": "08:30-20:00",
                "shop": "copyshop",
                "website": "https://kopykanz.ru/"
            },
            {
                "contact:vk": "https://vk.com/kopykanz",
                "level": "-1",
                "name": "КопиКанц",
                "opening_hours": "08:30-20:00",
                "shop": "copyshop",
                "website": "https://kopykanz.ru/"
            },
            {
                "shop": "copyshop"
            },
            {
                "level": "-1",
                "name": "Printsburg.ru",
                "opening_hours": "09:00-21:00",
                "shop": "copyshop",
                "website": "https://printsburg.ru/contacts/m4/"
            },
            {
                "contact:vk": "https://vk.com/copyspbru",
                "internet_access": "wlan",
                "name": "OQ Express",
                "opening_hours": "Mo-Su 09:00-21:00",
                "shop": "copyshop",
                "website": "https://copy.spb.ru/"
            }
        ]
    },
    "shoes": {
        "count": 6,
        "detail": [
            {
                "name": "Море обуви",
                "shop": "shoes"
            },
            {
                "name": "Cavaletto",
                "opening_hours": "Mo-Fr 11:00-20:00; Sa-Su 11:00-19:00",
                "shop": "shoes",
                "website": "http://www.cavaletto.ru/"
            },
            {
                "contact:vk": "https://vk.com/deutscheschuhe",
                "name": "Немецкая обувь",
                "opening_hours": "10:00-21:00",
                "operator": "ООО «Савва»",
                "shop": "shoes",
                "website": "https://www.немецкаяобувь.com/"
            },
            {
                "brand": "Belwest",
                "brand:wikidata": "Q4081686",
                "contact:email": "hotline@belwest.by",
                "contact:facebook": "https://www.facebook.com/belwest.shoes/",
                "contact:instagram": "https://www.instagram.com/belwest.shoes/",
                "contact:ok": "https://ok.ru/belwest.shoes",
                "contact:phone": "+7 812 3101676",
                "contact:vk": "https://vk.com/belwest.shoes",
                "contact:website": "https://belwest.ru/",
                "contact:youtube": "https://www.youtube.com/channel/UCMxwgKfu3jxDiv9lAdluR1Q",
                "name": "Belwest",
                "opening_hours": "10:00-21:00",
                "operator": "Белвест Ритейл Москва",
                "shop": "shoes"
            },
            {
                "name": "Обувной дом",
                "shop": "shoes",
                "level": "0",
                "opening_hours": "10:00-21:00"
            },
            {
                "alt_name": "Не проходим мимо",
                "level": "0",
                "name": "Всё по 500 рублей",
                "shop": "shoes"
            }
        ]
    },
    "chemist": {
        "count": 3,
        "detail": [
            {
                "contact:vk": "https://vk.com/ulybka_radugi",
                "name": "Улыбка радуги",
                "opening_hours": "09:00-22:00",
                "shop": "chemist",
                "website": "https://www.r-ulybka.ru/"
            },
            {
                "contact:vk": "https://vk.com/ulybka_radugi",
                "name": "Улыбка радуги",
                "opening_hours": "09:00-22:00",
                "operator": "ООО «Восточное»",
                "shop": "chemist",
                "website": "https://www.r-ulybka.ru/"
            },
            {
                "name": "Скарлетт",
                "opening_hours": "09:00-22:00",
                "operator": "ООО «Скарлетт»",
                "shop": "chemist",
                "website": "https://scarlett-group.ru/"
            }
        ]
    },
    "beauty": {
        "count": 13,
        "detail": [
            {
                "contact:vk": "https://vk.com/salonsharlizspb",
                "name": "Шарлиз",
                "opening_hours": "Mo-Fr 09:00-21:00; Sa-Su 10:00-21:00",
                "operator": "ИП Кондрашкин Николай Сергеевич",
                "shop": "beauty",
                "website": "http://sharm-salons.ru/"
            },
            {
                "contact:instagram": "https://www.instagram.com/instabeautyspb/",
                "level": "1",
                "name": "InstaBeauty",
                "opening_hours": "10:00-22:00",
                "shop": "beauty",
                "website": "http://instabeauty-salon.ru/"
            },
            {
                "contact:vk": "https://vk.com/beautysalonnewstars",
                "name": "New Stars",
                "opening_hours": "10:00-21:00",
                "shop": "beauty",
                "website": "http://salonstars.ru/"
            },
            {
                "check_date": "2018-08-31",
                "name": "Невесомость",
                "opening_hours": "09:00-21:00",
                "phone": "+7 812 6605175;+7 960 2330012",
                "shop": "beauty",
                "wheelchair": "no"
            },
            {
                "contact:vk": "https://vk.com/club157277461",
                "name": "Soma",
                "opening_hours": "10:00-22:00",
                "shop": "beauty"
            },
            {
                "contact:vk": "https://vk.com/club7587637",
                "name": "Passion",
                "phone": "+7 812 3129626",
                "shop": "beauty"
            },
            {
                "contact:vk": "https://vk.com/viktoriabrand",
                "int_name": "Viktoriya Brand",
                "name": "Салон красоты Виктории Бранд",
                "shop": "beauty",
                "website": "http://viktoriyabrand.ru/"
            },
            {
                "contact:vk": "https://vk.com/boom.salon",
                "name": "ВооМ",
                "opening_hours": "10:00-21:00",
                "phone": "+7 812 5716527",
                "shop": "beauty"
            },
            {
                "name": "Анастасия",
                "shop": "beauty",
                "website": "http://anastasia-spb.ru/",
                "contact:vk": "https://vk.com/salon_anastasiya_spb",
                "opening_hours": "10:00-21:00"
            },
            {
                "contact:vk": "https://vk.com/frenchspbnail",
                "name": "Фрэнч",
                "opening_hours": "10:00-22:00",
                "shop": "beauty"
            },
            {
                "name": "ПиLки",
                "shop": "beauty",
                "level": "0",
                "website": "https://pilkinail.ru/",
                "alt_name": "Пилки",
                "operator": "ИП Сенин Владимир Юрьевич",
                "contact:vk": "https://vk.com/pilkinail",
                "opening_hours": "09:00-23:00"
            },
            {
                "name": "На Садовой",
                "shop": "beauty",
                "contact:vk": "https://vk.com/club120437392"
            },
            {
                "beauty": "spa",
                "description": "Индийский традиционный центр здоровья",
                "name": "Аюрдара",
                "opening_hours": "Mo-Su 10:00-21:00",
                "phone": "+7 812 3266880;+7 911 2086162",
                "shop": "beauty",
                "website": "https://ayurdara.ru"
            }
        ]
    },
    "bus_stop": {
        "count": 11,
        "detail": [
            {
                "bus": "yes",
                "highway": "bus_stop",
                "local_ref": "50;70",
                "name": "Московский проспект, 5",
                "public_transport": "platform"
            },
            {
                "bus": "yes",
                "highway": "bus_stop",
                "local_ref": "49;50;70;181",
                "name": "Сенная площадь",
                "public_transport": "platform",
                "shelter": "yes",
                "tactile_paving": "no"
            },
            {
                "bus": "yes",
                "highway": "bus_stop",
                "local_ref": "49;50;71;181",
                "name": "Сенная площадь",
                "public_transport": "platform",
                "shelter": "no",
                "tactile_paving": "no"
            },
            {
                "bench": "no",
                "bus": "yes",
                "highway": "bus_stop",
                "local_ref": "10;70",
                "name": "Казанская улица",
                "public_transport": "platform",
                "shelter": "no",
                "tactile_paving": "no"
            },
            {
                "bus": "yes",
                "name": "Московский проспект, 5",
                "public_transport": "stop_position"
            },
            {
                "bus": "yes",
                "name": "Сенная площадь",
                "public_transport": "stop_position"
            },
            {
                "bus": "yes",
                "name": "Московский проспект, 4",
                "public_transport": "stop_position"
            },
            {
                "bus": "yes",
                "highway": "bus_stop",
                "local_ref": "50;71",
                "name": "Московский проспект, 4",
                "public_transport": "platform",
                "shelter": "yes"
            },
            {
                "bus": "yes",
                "name": "Казанская улица",
                "public_transport": "stop_position"
            },
            {
                "bus": "yes",
                "name": "Сенная площадь",
                "public_transport": "stop_position"
            },
            {
                "bus": "yes",
                "highway": "bus_stop",
                "public_transport": "platform",
                "route_ref": "К-1;К-19",
                "share_taxi": "yes"
            }
        ]
    },
    "clothes": {
        "count": 32,
        "detail": [
            {
                "contact:vk": "https://vk.com/imperiaplatya",
                "name": "Империя платья",
                "opening_hours": "09:00-21:00",
                "shop": "clothes",
                "website": "http://империяплатья.рф/"
            },
            {
                "contact:vk": "https://vk.com/stilnaya_odegda_spb",
                "name": "Сундук",
                "opening_hours": "Mo-Fr 11:00-20:00; Sa-Su 12:00-19:00",
                "shop": "clothes"
            },
            {
                "name": "Павловопосадские платки",
                "opening_hours": "10:00-21:00",
                "shop": "clothes",
                "website": "https://platki.ru/"
            },
            {
                "contact:vk": "https://vk.com/newlifemag",
                "name": "NewLife.Moda",
                "second_hand": "only",
                "shop": "clothes",
                "website": "https://newlife.moda/"
            },
            {
                "name": "Makki",
                "shop": "clothes",
                "website": "http://makki.ru/"
            },
            {
                "contact:vk": "https://vk.com/lyyk_store",
                "level": "-1",
                "name": "Луук",
                "opening_hours": "11:00-23:00",
                "shop": "clothes",
                "website": "http://www.lyyk.ru/",
                "wheelchair": "no"
            },
            {
                "name": "Ассортимент",
                "opening_hours": "Mo-Su 10:00-22:00",
                "shop": "clothes",
                "wheelchair": "no"
            },
            {
                "name": "Art-T-Shok",
                "shop": "clothes",
                "website": "http://www.art-t-shok.ru/",
                "contact:vk": "https://vk.com/art_t_shok",
                "opening_hours": "11:00-20:00"
            },
            {
                "name": "Ареола",
                "note": "нет на https://www.areolarus.ru/",
                "opening_hours": "10:00-19:00",
                "shop": "clothes"
            },
            {
                "clothes": "women",
                "contact:vk": "https://vk.com/evagraffova",
                "name": "Eva Graffova",
                "opening_hours": "10:00-21:00",
                "shop": "clothes",
                "website": "https://spb.evagraffova.ru/"
            },
            {
                "contact:instagram": "https://www.instagram.com/modus_fashion_spb____/",
                "name": "Modus Fashion",
                "shop": "clothes"
            },
            {
                "name": "Мегалюкс",
                "shop": "clothes",
                "website": "http://secondhand.spb.ru/",
                "contact:vk": "https://vk.com/secondhandru",
                "second_hand": "yes",
                "opening_hours": "10:00-21:00"
            },
            {
                "alt_name": "Carnaby",
                "contact:vk": "https://vk.com/welovetjcollection",
                "name": "TJ Collection",
                "opening_hours": "10:00-22:00",
                "operator": "ООО «КЛ Групп»",
                "shop": "clothes",
                "website": "https://tjcollection.ru/",
                "wheelchair": "no"
            },
            {
                "clothes": "wedding",
                "contact:vk": "https://vk.com/m.l.salon",
                "name": "Пудра",
                "opening_hours": "11:00-20:00",
                "shop": "clothes"
            },
            {
                "clothes": "women",
                "opening_hours": "10:00-21:00",
                "shop": "clothes"
            },
            {
                "clothes": "children",
                "name": "Островок",
                "shop": "clothes"
            },
            {
                "clothes": "women",
                "contact:instagram": "https://www.instagram.com/karmanstock/",
                "name": "Карман",
                "shop": "clothes"
            },
            {
                "clothes": "women",
                "contact:instagram": "https://www.instagram.com/showroom_mzia/",
                "shop": "clothes"
            },
            {
                "clothes": "women",
                "name": "Collette.ru",
                "note": "находится во дворе, за воротами с домофоном",
                "shop": "clothes",
                "website": "http://collette.ru/"
            },
            {
                "clothes": "wedding",
                "name": "Барбарис",
                "shop": "clothes",
                "website": "http://barbariswed.ru/"
            },
            {
                "clothes": "workwear",
                "contact:vk": "https://vk.com/spb_elit",
                "name": "Elit",
                "opening_hours": "10:00-20:00",
                "shop": "clothes",
                "website": "http://tdelit.ru/"
            },
            {
                "email": "zakaz@9114911.ru",
                "name": "Центр термобелья",
                "opening_hours": "Mo-Sa 10:00-20:00; Su 11:00-19:00",
                "phone": "+7 921 9114911",
                "shop": "clothes",
                "website": "https://9114911.ru/"
            },
            {
                "name": "Шапки",
                "shop": "clothes",
                "level": "0",
                "clothes": "hats",
                "opening_hours": "10:00-21:00"
            },
            {
                "contact:vk": "https://vk.com/volchoksaintp",
                "level": "0",
                "name": "Волчок",
                "opening_hours": "12:00-21:00",
                "shop": "clothes",
                "website": "https://volchok.ru/"
            },
            {
                "contact:vk": "https://vk.com/fjordcloth",
                "level": "2",
                "name": "FjordCloth",
                "shop": "clothes"
            },
            {
                "contact:vk": "https://vk.com/eversale",
                "level": "2",
                "name": "Eversale",
                "second_hand": "yes",
                "shop": "clothes"
            },
            {
                "name": "Yudsher",
                "shop": "clothes",
                "website": "http://yudsher.ru/",
                "contact:vk": "https://vk.com/yudsher",
                "opening_hours": "Mo-Fr 12:00-20:00"
            },
            {
                "name": "Свой стиль",
                "opening_hours": "11:00-20:00",
                "operator": "ИП Козлова А.А.",
                "second_hand": "yes",
                "shop": "clothes"
            },
            {
                "contact:vk": "https://vk.com/valentime_shop",
                "name": "Valentime",
                "opening_hours": "10:00-21:00",
                "shop": "clothes",
                "website": "https://valentime-shop.ru/"
            },
            {
                "contact:vk": "https://vk.com/castle_store",
                "name": "Castle Store",
                "shop": "clothes"
            },
            {
                "clothes": "wedding",
                "contact:vk": "https://vk.com/karina_salon",
                "name": "Карина",
                "shop": "clothes",
                "website": "https://свадьбанедорого.рф/"
            },
            {
                "contact:vk": "https://vk.com/m_termo",
                "level": "1",
                "name": "Магазин термобелья",
                "opening_hours": "10:00-21:00",
                "shop": "clothes",
                "website": "https://m-termo.ru/"
            }
        ]
    },
    "frame": {
        "count": 1,
        "detail": [
            {
                "name": "АртЦентр",
                "opening_hours": "Mo-Sa 10:00-21:00; Su 11:00-20:00",
                "shop": "frame",
                "website": "http://www.acframe.ru/"
            }
        ]
    },
    "dentist": {
        "count": 6,
        "detail": [
            {
                "amenity": "dentist",
                "contact:vk": "https://vk.com/langeclinic",
                "healthcare": "dentist",
                "name": "Клиника доктора Ланге",
                "opening_hours": "Mo-Sa 09:00-21:00; Su 10:00-17:00",
                "website": "https://langeclinic.ru/"
            },
            {
                "amenity": "dentist",
                "healthcare": "dentist",
                "name": "Евродент Профи",
                "opening_hours": "Mo-Fr 10:00-21:00",
                "website": "http://www.evrodentprofi.ru/"
            },
            {
                "amenity": "dentist",
                "contact:vk": "https://vk.com/stomastudio32",
                "healthcare": "dentist",
                "name": "Cтудия 32",
                "opening_hours": "09:00-21:00",
                "website": "https://www.studio32spb.ru/"
            },
            {
                "amenity": "dentist",
                "healthcare": "dentist",
                "name": "Мой Зубной",
                "opening_hours": "09:00-21:00",
                "operator": "ООО \"Гамма\"",
                "website": "http://moyzubnoy.ru/stomatologiya_sennaya"
            },
            {
                "amenity": "dentist",
                "contact:vk": "https://vk.com/club19261938",
                "healthcare": "dentist",
                "level": "0",
                "name": "Михайловская клиника",
                "operator": "ООО «Михал Михалыч»",
                "website": "https://stomm-clinic.ru/"
            },
            {
                "addr:housenumber": "34",
                "addr:letter": "Г",
                "addr:street": "Вознесенский проспект",
                "amenity": "dentist",
                "building": "yes",
                "building:levels": "4",
                "healthcare": "dentist",
                "name": "Городская детская стоматологическая поликлиника №6"
            }
        ]
    },
    "cosmetics": {
        "count": 2,
        "detail": [
            {
                "contact:vk": "https://vk.com/madeinseoul",
                "name": "Made in Seoul",
                "opening_hours": "Mo-Sa 11:00-21:00; Su 12:00-20:00",
                "shop": "cosmetics",
                "website": "https://madeinseoul.ru/"
            },
            {
                "contact:vk": "https://vk.com/madeinseoul",
                "email": "info@madeinseoul.ru",
                "name": "Made in Seoul",
                "opening_hours": "Mo-Sa 11:00-21:00; Su 12:00-20:00",
                "phone": "+7 906 2685603",
                "shop": "cosmetics",
                "website": "https://madeinseoul.ru/"
            }
        ]
    },
    "butcher": {
        "count": 2,
        "detail": [
            {
                "contact:vk": "https://vk.com/novbekon",
                "name": "Новгородский бекон",
                "opening_hours": "Mo-Fr 10:00-22:00; Sa 10:00-21:00; Su 10:00-19:00",
                "operator": "ООО «Новгородский бекон Плюс»",
                "ref": "14",
                "shop": "butcher",
                "website": "https://adept.ru/chastnym_pokupatelyam/"
            },
            {
                "name": "Калинка",
                "opening_hours": "09:00-21:00",
                "shop": "butcher"
            }
        ]
    },
    "optician": {
        "count": 5,
        "detail": [
            {
                "contact:vk": "https://vk.com/spbzu",
                "name": "Зайди — увидишь",
                "opening_hours": "Mo-Sa 10:00-21:00; Su 11:00-20:00",
                "shop": "optician",
                "website": "https://zaidiuvidish.ru/nashi-salonyi/grivtsova-per-d1311"
            },
            {
                "contact:vk": "https://vk.com/optika_novoe_zrenie",
                "name": "Новое зрение",
                "opening_hours": "Mo-Sa 10:00-20:00; Su 11:00-20:00",
                "operator": "ИП Крылов Сергей Николаевич",
                "shop": "optician"
            },
            {
                "contact:email": "otzyv@happylook.ru",
                "contact:facebook": "https://www.facebook.com/happylook.ru/",
                "contact:instagram": "https://www.instagram.com/happylook.ru/",
                "contact:phone": "+7 812 3170003 ext. 0057",
                "contact:vk": "https://vk.com/happylook_ru",
                "contact:website": "https://happylook.ru/stores/moskovskiy_pr_d_12_lit_a/",
                "contact:youtube": "https://www.youtube.com/channel/UCY1OkGBHKrWjswV7MRxtEXQ",
                "name": "Счастливый взгляд",
                "opening_hours": "Mo-Su 10:00-20:00",
                "operator": "Оптик Комфорт",
                "shop": "optician",
                "wheelchair": "no"
            },
            {
                "name": "Хорошая оптика",
                "opening_hours": "Mo-Fr 11:00-20:00; Sa 11:00-19:00",
                "operator": "ИП Корабельников",
                "shop": "optician"
            },
            {
                "addr:city": "Санкт-Петербург",
                "addr:postcode": "190031",
                "addr:street": "Московский проспект",
                "email": "4eyes.opticlab@gmail.com",
                "name": "4Eyes",
                "opening_hours": "Mo-Fr 11:00-20:00; Sa-Su 11:00-19:00",
                "payment:cash": "yes",
                "payment:credit_cards": "yes",
                "phone": "+7 921 5581855",
                "service": "glasses repair",
                "shop": "optician"
            }
        ]
    },
    "tobacco": {
        "count": 5,
        "detail": [
            {
                "shop": "tobacco"
            },
            {
                "level": "-1",
                "shop": "tobacco"
            },
            {
                "name": "Pro табак",
                "shop": "tobacco"
            },
            {
                "shop": "tobacco",
                "level": "-1"
            },
            {
                "shop": "tobacco"
            }
        ]
    },
    "interior_decoration": {
        "count": 2,
        "detail": [
            {
                "name": "Икстайл",
                "shop": "interior_decoration",
                "website": "http://www.xtile.ru/contacts/voznesenskiy/"
            },
            {
                "contact:vk": "https://vk.com/artefactum_decor_centre",
                "name": "Artefactum",
                "opening_hours": "Mo-Fr 10:00-20:00; Sa 11:00-19:00",
                "shop": "interior_decoration",
                "website": "http://www.artefactum-spb.ru/"
            }
        ]
    },
    "e-cigarette": {
        "count": 4,
        "detail": [
            {
                "contact:email": "sale@vardex.ru",
                "contact:facebook": "https://www.facebook.com/vardexRU",
                "contact:instagram": "http://instagram.com/vardex_ru",
                "contact:phone": "+7 812 3095198 ext. 1010",
                "contact:twitter": "https://twitter.com/Vardexru",
                "contact:vk": "https://vk.com/vardex_ru",
                "contact:website": "https://vardex.ru/",
                "name": "Vardex",
                "opening_hours": "Mo-Fr 09:00-21:00;Sa-Su 10:00-21:00",
                "operator": "«ВАРДЕКС ПЛЮС»",
                "shop": "e-cigarette"
            },
            {
                "name": "Папироска.рф",
                "shop": "e-cigarette",
                "level": "-1",
                "website": "https://папироска.рф/dostavka/sankt-peterburg/moskovskiy-prospekt-26/",
                "contact:vk": "https://vk.com/papiroska_rf",
                "opening_hours": "10:00-22:00"
            },
            {
                "name": "Babylon Литературный",
                "shop": "e-cigarette",
                "website": "http://babylonvape.ru/page/babylon-saint-p-sennoy",
                "contact:vk": "https://vk.com/babylonvape_saintp",
                "opening_hours": "11:00-23:00"
            },
            {
                "contact:vk": "https://vk.com/vapefruit",
                "level": "-1",
                "name": "Vape Zone",
                "shop": "e-cigarette",
                "website": "https://vapezone.pro/nashi-magaziny/sennaya/"
            }
        ]
    },
    "radiotechnics": {
        "count": 2,
        "detail": [
            {
                "name": "Радиодетали",
                "opening_hours": "Mo-Fr 10:00-20:00; Sa-Su 10:00-19:00",
                "shop": "radiotechnics",
                "website": "http://rdetal.com/"
            },
            {
                "name": "Профи",
                "opening_hours": "Mo-Fr 10:00-20:00; Sa-Su 10:00-19:00",
                "operator": "ООО «Нева-Стиль»",
                "shop": "radiotechnics",
                "website": "http://siriust.ru/"
            }
        ]
    },
    "parking": {
        "count": 1,
        "detail": [
            {
                "access": "yes",
                "amenity": "parking",
                "fee": "yes",
                "layer": "-1",
                "parking": "underground"
            }
        ]
    },
    "library": {
        "count": 1,
        "detail": [
            {
                "name": "Научно-техническая библиотека ПГУПС",
                "amenity": "library",
                "name:de": "Wissenschaftliche und Technische Bibliothek PGUPS",
                "name:en": "Scientific and Technical Library PGUPS",
                "website": "http://library.pgups.ru"
            }
        ]
    },
    "pub": {
        "count": 1,
        "detail": [
            {
                "amenity": "pub",
                "contact:instagram": "https://www.instagram.com/londonpub_spb/",
                "contact:vk": "https://vk.com/publondon_spb",
                "email": "london.pubspb@yandex.ru",
                "internet_access": "wlan",
                "internet_access:fee": "no",
                "name": "London",
                "opening_hours": "24/7",
                "operator": "ООО «Клевер СПб»",
                "payment:cash": "yes",
                "payment:maestro": "yes",
                "payment:mastercard": "yes",
                "payment:visa": "yes",
                "payment:visa_electron": "yes",
                "phone": "+7 812 5726079;+7 931 5347602",
                "wheelchair": "limited"
            }
        ]
    },
    "gift": {
        "count": 4,
        "detail": [
            {
                "name": "Роза Мира",
                "shop": "gift",
                "website": "http://www.rozamiraspb.ru/",
                "contact:vk": "https://vk.com/rozamiraspb",
                "opening_hours": "10:00-20:00"
            },
            {
                "contact:vk": "https://vk.com/lilkko",
                "name": "Lilkko",
                "opening_hours": "Mo-Su 10:00-22:00",
                "shop": "gift",
                "website": "https://www.lilkko.ru/"
            },
            {
                "name": "Подарки",
                "note": "также http://batist-spb.ru/",
                "opening_hours": "Mo-Fr 11:00-20:00; Sa-Su 11:00-18:00",
                "shop": "gift",
                "website": "http://nevapodarki.ru/"
            },
            {
                "contact:vk": "https://vk.com/rediskashop",
                "level": "0",
                "name": "Rediska Project",
                "note": "3 магазина",
                "opening_hours": "12:00-21:00",
                "shop": "gift",
                "website": "https://www.rediskaproject.ru/"
            }
        ]
    },
    "florist": {
        "count": 5,
        "detail": [
            {
                "contact:vk": "https://vk.com/gnezdosoroki",
                "name": "Гнездо сороки",
                "shop": "florist"
            },
            {
                "contact:vk": "https://vk.com/botanikalab",
                "name": "Ботаника Lab",
                "shop": "florist",
                "website": "http://botanikalab.ru/"
            },
            {
                "name": "Цветы",
                "note": "возможно https://vk.com/mondial_ru",
                "opening_hours": "24/7",
                "shop": "florist"
            },
            {
                "name": "Оранж",
                "shop": "florist",
                "layer": "-1",
                "website": "http://orangespb.ru/",
                "location": "underground",
                "contact:vk": "https://vk.com/spborange",
                "opening_hours": "08:00-23:00"
            },
            {
                "name": "Фантазия",
                "shop": "florist",
                "layer": "-1",
                "website": "https://eliteflower.ru/",
                "location": "underground",
                "contact:vk": "https://vk.com/eliteflower",
                "opening_hours": "08:00-22:00"
            }
        ]
    },
    "outdoor": {
        "count": 1,
        "detail": [
            {
                "addr:housenumber": "24",
                "addr:street": "переулок Гривцова",
                "contact:vk": "https://vk.com/sport_meloman",
                "name": "Спортивный меломан",
                "opening_hours": "10:00-21:00",
                "second_hand": "yes",
                "shop": "outdoor",
                "website": "http://komissionnyi-magazin.ru/"
            }
        ]
    },
    "playground": {
        "count": 5,
        "detail": [
            {
                "leisure": "playground"
            },
            {
                "leisure": "playground"
            },
            {
                "leisure": "playground"
            },
            {
                "leisure": "playground"
            },
            {
                "leisure": "playground"
            }
        ]
    },
    "erotic": {
        "count": 2,
        "detail": [
            {
                "name": "Extaz",
                "shop": "erotic",
                "website": "https://www.extazshop.ru/spb/3/",
                "contact:vk": "https://vk.com/extazshop",
                "opening_hours": "24/7"
            },
            {
                "contact:vk": "https://vk.com/tochkalubvi",
                "level": "-1",
                "name": "Точка любви",
                "opening_hours": "24/7",
                "shop": "erotic",
                "website": "https://www.tochka-lubvi.ru/"
            }
        ]
    },
    "hairdresser": {
        "count": 12,
        "detail": [
            {
                "contact:vk": "https://vk.com/club62033994",
                "internet_access": "wlan",
                "name": "Пудра",
                "opening_hours": "Mo-Sa 10:00-21:00; Su 11:00-21:00",
                "phone": "+7 812 4074605",
                "shop": "hairdresser",
                "website": "http://www.pudra2.ru/"
            },
            {
                "contact:vk": "https://vk.com/vertuali",
                "name": "Vertuali",
                "shop": "hairdresser"
            },
            {
                "opening_hours": "10:00-21:00",
                "shop": "hairdresser"
            },
            {
                "contact:vk": "https://vk.com/firma_piter",
                "name": "Firma",
                "opening_hours": "10:00-21:00",
                "shop": "hairdresser",
                "website": "http://spb.barberfirma.ru/1-4/"
            },
            {
                "contact:vk": "https://vk.com/strizhkagorodru",
                "name": "Adel",
                "shop": "hairdresser",
                "website": "https://www.strizhka-gorod.ru/"
            },
            {
                "contact:vk": "https://vk.com/club77310027",
                "shop": "hairdresser"
            },
            {
                "contact:vk": "https://vk.com/studio42spb",
                "level": "-1",
                "name": "Studio42",
                "opening_hours": "10:00-21:00",
                "shop": "hairdresser",
                "website": "https://www.studio42spb.com/"
            },
            {
                "contact:vk": "https://vk.com/pokrasstudio",
                "level": "1",
                "name": "Покрас",
                "shop": "hairdresser",
                "website": "http://pokrasstudio.com/"
            },
            {
                "contact:vk": "https://vk.com/velardi1",
                "name": "Velardi",
                "opening_hours": "09:00-21:00",
                "shop": "hairdresser",
                "website": "http://velardi.ru/"
            },
            {
                "contact:vk": "prostostrigka_spiter",
                "name": "Просто стрижка",
                "opening_hours": "10:00-21:00",
                "shop": "hairdresser"
            },
            {
                "male": "yes",
                "name": "Jack",
                "name:ru": "Джек",
                "opening_hours": "Mo-Su 10:00-22:00",
                "payment:credit_cards": "yes",
                "payment:debit_cards": "yes",
                "phone": "+7 812 3177218",
                "shop": "hairdresser",
                "website": "http://jackbarbershop.ru/",
                "wheelchair": "no"
            },
            {
                "contact:email": "lastetico@gmail.com",
                "contact:instagram": "https://instagram.com/lastetico_spb",
                "contact:phone": "+7 953 7955666",
                "contact:vk": "https://vk.com/lastetico",
                "contact:website": "https://gladko.ru/",
                "name": "Lastetico",
                "opening_hours": "Mo-Su 10:00-21:00",
                "operator": "Lastetico",
                "shop": "hairdresser"
            }
        ]
    },
    "waste_disposal": {
        "count": 7,
        "detail": [
            {
                "amenity": "waste_disposal"
            },
            {
                "amenity": "waste_disposal"
            },
            {
                "amenity": "waste_disposal"
            },
            {
                "amenity": "waste_disposal"
            },
            {
                "amenity": "waste_disposal"
            },
            {
                "amenity": "waste_disposal"
            },
            {
                "amenity": "waste_disposal"
            }
        ]
    },
    "bicycle_rental": {
        "count": 1,
        "detail": [
            {
                "name": "Станция велопроката",
                "amenity": "bicycle_rental",
                "opening_hours": "24/7"
            }
        ]
    },
    "farm": {
        "count": 2,
        "detail": [
            {
                "name": "ecofamily",
                "shop": "farm",
                "phone": "+7 812 9603267",
                "organic": "only",
                "website": "http://www.ecofamily.ru/",
                "operator": "Рудакова Ж.А.",
                "contact:vk": "https://vk.com/ecoem",
                "payment:visa": "yes",
                "opening_hours": "10:00-21:00",
                "payment:maestro": "yes",
                "payment:mastercard": "yes",
                "payment:visa_electron": "yes"
            },
            {
                "contact:vk": "https://vk.com/ecomedved_spb",
                "name": "Медведь",
                "shop": "farm",
                "website": "http://medved-centr.ru/"
            }
        ]
    },
    "post_box": {
        "count": 2,
        "detail": [
            {
                "amenity": "post_box",
                "collection_times": "Mo-Th 16:20,23:45; Fr 16:20; Sa 08:30; Su 16:20,23:45",
                "design:year": "2010",
                "drive_through": "no",
                "operator": "Почта России",
                "post_box:design": "ЯПНМ-II-С",
                "post_box:type": "wall",
                "ref": "154"
            },
            {
                "amenity": "post_box",
                "collection_times": "Mo-Sa 07:15",
                "drive_through": "no",
                "indoor": "yes",
                "level": "2",
                "opening_hours": "Mo-Fr 08:00-14:00,15:00-20:00; Sa 09:00-14:00,15:00-18:00; Su off",
                "operator": "Почта России",
                "post_box:design": "custom",
                "post_box:type": "pillar",
                "ref": "247"
            }
        ]
    },
    "telephone": {
        "count": 2,
        "detail": [
            {
                "amenity": "telephone",
                "payment:telephone_cards": "yes"
            },
            {
                "amenity": "telephone"
            }
        ]
    },
    "waste_basket": {
        "count": 11,
        "detail": [
            {
                "amenity": "waste_basket"
            },
            {
                "amenity": "waste_basket"
            },
            {
                "amenity": "waste_basket"
            },
            {
                "amenity": "waste_basket"
            },
            {
                "amenity": "waste_basket"
            },
            {
                "amenity": "waste_basket"
            },
            {
                "amenity": "waste_basket"
            },
            {
                "amenity": "waste_basket"
            },
            {
                "amenity": "waste_basket"
            },
            {
                "amenity": "waste_basket"
            },
            {
                "amenity": "waste_basket"
            }
        ]
    },
    "honey": {
        "count": 1,
        "detail": [
            {
                "contact:vk": "https://vk.com/pchelaspb_ru",
                "name": "Пчеловодство",
                "name:ru": "Пчеловодство",
                "opening_hours": "10:00-19:00",
                "operator": "ИП Полякова Т.Г.",
                "shop": "honey",
                "website": "https://pchelaspb.ru/"
            }
        ]
    },
    "confectionery": {
        "count": 4,
        "detail": [
            {
                "email": "rubigor@yandex.ru",
                "name": "RubisCookies",
                "name:en": "RubisCookies",
                "name:full": "Бюро сладкой архитектуры \"RubisCookies\"",
                "opening_hours": "Mo-Su 12:00-21:00",
                "phone": "+7 921 4181695",
                "shop": "confectionery",
                "website": "https://www.rubiscookies.ru/"
            },
            {
                "contact:vk": "https://vk.com/sladostidlradosti",
                "name": "Сладкий сувенир",
                "opening_hours": "09:00-21:00",
                "shop": "confectionery",
                "website": "http://sladostispb.ru/"
            },
            {
                "contact:vk": "https://vk.com/chocorus",
                "level": "0",
                "name": "Chocorus",
                "opening_hours": "Tu-Su 14:00-21:00",
                "shop": "confectionery"
            },
            {
                "contact:vk": "https://vk.com/sosweetco",
                "level": "0",
                "name": "So Sweet Co",
                "shop": "confectionery",
                "website": "https://sweet.so/"
            }
        ]
    },
    "money_lender": {
        "count": 4,
        "detail": [
            {
                "name": "Миг кредит",
                "opening_hours": "Mo-Fr 09:00-20:00; Sa 09:00-18:00; Su 09:00-16:00",
                "shop": "money_lender",
                "website": "https://migcredit.ru/"
            },
            {
                "contact:vk": "https://vk.com/gkdengisrazy",
                "level": "-1",
                "name": "Деньги сразу",
                "opening_hours": "09:00-21:00",
                "shop": "money_lender",
                "website": "https://dengisrazy.ru/"
            },
            {
                "contact:vk": "https://vk.com/dengazaim",
                "name": "Деньга",
                "opening_hours": "09:00-21:00",
                "shop": "money_lender",
                "website": "https://denga.ru/spb/"
            },
            {
                "name": "Твои деньги",
                "opening_hours": "09:00-22:00",
                "operator": "ООО МКК «Твои Плюс»",
                "shop": "money_lender",
                "website": "http://www.tvoidengi.com/office/office11_37.html"
            }
        ]
    },
    "escape_game": {
        "count": 1,
        "detail": [
            {
                "name": "Нора кролика",
                "note": "\"Друзья на Сенной\" возможно вместо него, а возможно и рядом с ним",
                "leisure": "escape_game",
                "name:en": "Rabbit Hole",
                "name:ru": "Нора кролика",
                "website": "https://norakrolika.ru/",
                "contact:vk": "https://vk.com/holequest"
            }
        ]
    },
    "greengrocer": {
        "count": 2,
        "detail": [
            {
                "name:en": "Veganika",
                "opening_hours": "Mo-Su 12:00-20:00",
                "shop": "greengrocer"
            },
            {
                "name": "На грядке",
                "shop": "greengrocer"
            }
        ]
    },
    "model": {
        "count": 1,
        "detail": [
            {
                "contact:vk": "https://vk.com/mirmodelej_spb",
                "name": "Мир моделей",
                "opening_hours": "12:00-20:00",
                "shop": "model",
                "website": "http://mirmodspb.ru/roznitsa"
            }
        ]
    },
    "mobile_phone": {
        "count": 10,
        "detail": [
            {
                "name": "Moba",
                "opening_hours": "09:30-19:30",
                "shop": "mobile_phone",
                "website": "https://moba.ru/"
            },
            {
                "brand": "Билайн",
                "brand:en": "Beeline",
                "brand:wikidata": "Q402880",
                "brand:wikipedia": "en:Beeline (brand)",
                "contact:facebook": "https://www.facebook.com/Beelinerus",
                "contact:instagram": "https://instagram.com/beelinerus/",
                "contact:ok": "https://ok.ru/beeline",
                "contact:phone": "+7 800 7000611",
                "contact:twitter": "https://twitter.com/Beeline_RUS",
                "contact:vk": "https://vk.com/beeline",
                "contact:website": "https://spb.beeline.ru/",
                "contact:youtube": "https://www.youtube.com/user/beelineru",
                "name": "Билайн",
                "name:en": "Beeline",
                "name:ru": "Билайн",
                "opening_hours": "09:00-22:00",
                "shop": "mobile_phone"
            },
            {
                "brand": "МТС",
                "brand:en": "MTS",
                "brand:wikidata": "Q1368919",
                "brand:wikipedia": "en:MTS (network provider)",
                "contact:vk": "https://vk.com/mts",
                "name": "МТС",
                "name:en": "MTS",
                "opening_hours": "09:00-21:00",
                "shop": "mobile_phone",
                "website": "https://spb.mts.ru/"
            },
            {
                "brand": "Tele2",
                "brand:wikidata": "Q309865",
                "brand:wikipedia": "en:Tele2",
                "contact:vk": "https://vk.com/tele2",
                "level": "0",
                "name": "Tele2",
                "opening_hours": "08:00-22:00",
                "operator": "ООО «Прайм Регион»",
                "shop": "mobile_phone",
                "website": "https://spb.tele2.ru/",
                "wheelchair": "no"
            },
            {
                "contact:vk": "https://vk.com/jpegstore",
                "description": "чехлы для телефонов",
                "level": "2",
                "name": "JpegStore",
                "shop": "mobile_phone",
                "website": "https://jpegstore.ru/"
            },
            {
                "brand": "МТС",
                "brand:en": "MTS",
                "brand:wikidata": "Q1368919",
                "brand:wikipedia": "en:MTS (network provider)",
                "contact:vk": "https://vk.com/mts",
                "layer": "-1",
                "location": "underground",
                "name": "МТС",
                "name:en": "MTS",
                "shop": "mobile_phone",
                "website": "https://spb.mts.ru/"
            },
            {
                "brand": "Tele2",
                "brand:wikidata": "Q309865",
                "brand:wikipedia": "en:Tele2",
                "contact:vk": "https://vk.com/tele2",
                "layer": "-1",
                "location": "underground",
                "name": "Tele2",
                "shop": "mobile_phone",
                "website": "https://spb.tele2.ru/"
            },
            {
                "brand": "Мегафон",
                "brand:en": "MegaFon",
                "brand:wikidata": "Q1720713",
                "brand:wikipedia": "en:MegaFon",
                "contact:vk": "https://vk.com/megafon",
                "layer": "-1",
                "location": "underground",
                "name": "Мегафон",
                "name:en": "MegaFon",
                "shop": "mobile_phone",
                "website": "https://spb.megafon.ru/"
            },
            {
                "brand": "Билайн",
                "brand:en": "Beeline",
                "brand:wikidata": "Q402880",
                "brand:wikipedia": "en:Beeline (brand)",
                "contact:vk": "https://vk.com/beeline",
                "layer": "-1",
                "location": "underground",
                "name": "Билайн",
                "name:en": "Beeline",
                "shop": "mobile_phone",
                "website": "https://spb.beeline.ru/"
            },
            {
                "shop": "mobile_phone",
                "level": "-1"
            }
        ]
    },
    "craft": {
        "count": 1,
        "detail": [
            {
                "access": "yes",
                "addr:city": "Санкт-Петербург",
                "addr:housenumber": "12",
                "addr:street": "Гражданская улица",
                "contact:vk": "https://vk.com/artkvartal",
                "door": "yes",
                "entrance": "staircase",
                "name": "Арт-квартал",
                "opening_hours": "09:00-21:00",
                "shop": "craft",
                "website": "https://artkvartal.ru/retail?go=shops&view=352"
            }
        ]
    },
    "internet_cafe": {
        "count": 1,
        "detail": [
            {
                "amenity": "internet_cafe",
                "name": "Золотая середина",
                "note": "рядом должен быть одноимённый отель"
            }
        ]
    },
    "baby_goods": {
        "count": 1,
        "detail": [
            {
                "name": "Маняша",
                "shop": "baby_goods",
                "contact:vk": "https://vk.com/manysha_4070777",
                "second_hand": "yes",
                "opening_hours": "Mo-Fr 11:00-20:00; Sa-Su 11:00-19:00"
            }
        ]
    },
    "bathroom_furnishing": {
        "count": 1,
        "detail": [
            {
                "contact:vk": "https://vk.com/elsodom",
                "name": "ЭнергоДом",
                "opening_hours": "Mo-Fr 09:00-20:00; Sa 10:00-20:00; Su 10:00-19:00",
                "shop": "bathroom_furnishing",
                "website": "https://elsodom.ru/"
            }
        ]
    },
    "doctors": {
        "count": 2,
        "detail": [
            {
                "amenity": "doctors",
                "brand": "Инвитро",
                "brand:wikidata": "Q4200546",
                "contact:vk": "https://vk.com/invitro",
                "healthcare": "doctor",
                "name": "Инвитро",
                "opening_hours": "Mo-Fr 07:30-20:00; Sa 08:30-17:00; Su 09:00-15:00",
                "operator": "ООО «Инвитро СПб»",
                "website": "https://www.invitro.ru/offices/piter/clinic.php?ID=8359"
            },
            {
                "amenity": "doctors",
                "contact:vk": "https://vk.com/mc_odont",
                "healthcare": "doctor",
                "name": "Одонт",
                "opening_hours": "09:00-21:00",
                "website": "https://www.odont.ru/"
            }
        ]
    },
    "medical_supply": {
        "count": 5,
        "detail": [
            {
                "brand": "Ортека",
                "brand:wikidata": "Q62393660",
                "contact:email": "info@orteka.ru",
                "contact:facebook": "https://www.facebook.com/orteka.rus",
                "contact:instagram": "https://www.instagram.com/orteka_rus/",
                "contact:phone": "+7 800 3333112",
                "contact:vk": "https://vk.com/orteka_ru",
                "contact:website": "https://orteka.ru/salons/spb/12134/",
                "medical_supply": "orthopedic",
                "name": "Ортека",
                "opening_hours": "Mo-Su 09:00-21:00",
                "operator": "ООО «Никамед»",
                "shop": "medical_supply"
            },
            {
                "contact:vk": "https://vk.com/terrapevtika",
                "medical_supply": "orthopedic",
                "name": "Террапевтика",
                "opening_hours": "Mo-Sa 09:00-20:00; Su 10:00-18:00",
                "operator": "ИП Гусаров А.М.",
                "shop": "medical_supply",
                "website": "https://www.terrapevtika.ru/adresa-magazinov/info/metro-spasskaya/"
            },
            {
                "name": "Медтехника",
                "shop": "medical_supply",
                "website": "https://www.med-europa.com/"
            },
            {
                "contact:vk": "https://vk.com/medmagazinru",
                "name": "Мед-Магазин.ру",
                "opening_hours": "10:00-20:00",
                "shop": "medical_supply",
                "website": "https://www.med-magazin.ru/"
            },
            {
                "medical_supply": "orthopedic",
                "name": "Нью Лайф",
                "shop": "medical_supply",
                "website": "http://newlifeorto.ru/"
            }
        ]
    },
    "ticket": {
        "count": 2,
        "detail": [
            {
                "contact:vk": "https://vk.com/bileter",
                "name": "Bileter",
                "opening_hours": "10:00-21:00; 14:00-15:00 off",
                "shop": "ticket",
                "tickets:theatre": "yes",
                "website": "https://www.bileter.ru/"
            },
            {
                "name": "Kassir.ru",
                "shop": "ticket",
                "layer": "-1",
                "website": "https://spb.kassir.ru/",
                "location": "underground",
                "contact:vk": "https://vk.com/spbkassir",
                "tickets:theatre": "yes"
            }
        ]
    },
    "hookah_lounge": {
        "count": 1,
        "detail": [
            {
                "amenity": "hookah_lounge",
                "name": "Кальян Хочу!",
                "website": "http://kalyan-hochu.ru/"
            }
        ]
    },
    "hairdresser_supply": {
        "count": 1,
        "detail": [
            {
                "name": "ЕвропаПроф",
                "opening_hours": "10:00-21:00",
                "operator": "ИП «Зильвестр А.Р.»",
                "shop": "hairdresser_supply",
                "website": "https://europaprof.ru/"
            }
        ]
    },
    "spices": {
        "count": 1,
        "detail": [
            {
                "contact:vk": "https://vk.com/belkinolukoshko",
                "name": "Белкино лукошко",
                "opening_hours": "10:00-21:00",
                "shop": "spices"
            }
        ]
    },
    "pawnbroker": {
        "count": 3,
        "detail": [
            {
                "name": "Сенной ломбард",
                "shop": "pawnbroker",
                "level": "0",
                "website": "https://sennoy.spb.ru/",
                "opening_hours": "Mo-Fr 09:00-20:00; Sa-Su 10:00-20:00"
            },
            {
                "level": "-1",
                "shop": "pawnbroker"
            },
            {
                "name": "Лидер",
                "opening_hours": "09:00-20:00",
                "shop": "pawnbroker"
            }
        ]
    },
    "tea": {
        "count": 2,
        "detail": [
            {
                "name": "Унция",
                "shop": "tea",
                "website": "https://www.chay.info/",
                "contact:vk": "https://vk.com/teaounce",
                "opening_hours": "09:30-21:00"
            },
            {
                "contact:vk": "https://vk.com/club89686021",
                "name": "Вкусная лавка",
                "shop": "tea"
            }
        ]
    },
    "stationery": {
        "count": 1,
        "detail": [
            {
                "brand": "Комус",
                "brand:en": "Komus",
                "brand:wikidata": "Q4230314",
                "brand:wikipedia": "en:Komus (company)",
                "contact:vk": "https://vk.com/komus_club",
                "name": "Комус",
                "name:en": "Komus",
                "opening_hours": "Mo-Fr 09:00-21:00; Sa-Su 10:00-20:00",
                "operator": "ООО «Комус-Петербург»",
                "shop": "stationery",
                "website": "https://www.komus.ru/store/sankt-peterburg/tts-sadovaya/s/143/"
            }
        ]
    },
    "bag": {
        "count": 2,
        "detail": [
            {
                "name": "h.o.p",
                "opening_hours": "11:00-21:00",
                "shop": "bag",
                "website": "http://www.hop.spb.ru/"
            },
            {
                "contact:vk": "https://vk.com/ffunction",
                "level": "1",
                "name": "Friend Function",
                "shop": "bag",
                "website": "https://friendfunction.ru/"
            }
        ]
    },
    "outpost": {
        "count": 2,
        "detail": [
            {
                "brand": "Ozon.ru",
                "brand:wikidata": "Q2365235",
                "contact:facebook": "ozon.ru",
                "contact:instagram": "ozonru",
                "contact:twitter": "Ozon_ru",
                "contact:vk": "ozon",
                "opening_hours": "09:00-21:00",
                "shop": "outpost",
                "website": "https://www.ozon.ru/"
            },
            {
                "brand": "Wildberries",
                "brand:wikidata": "Q24933714",
                "brand:wikipedia": "ru:Wildberries",
                "contact:vk": "https://vk.com/club9695053",
                "name": "Wildberries",
                "opening_hours": "Su-Fr 11:00-19:00",
                "reservation": "required",
                "shop": "outpost",
                "website": "https://www.wildberries.ru/"
            }
        ]
    },
    "variety_store": {
        "count": 1,
        "detail": [
            {
                "name": "Товары из Финляндии",
                "shop": "variety_store"
            }
        ]
    },
    "tiles": {
        "count": 1,
        "detail": [
            {
                "contact:facebook": "kerama.marazzi",
                "contact:instagram": "keramamarazzi",
                "contact:ok": "https://ok.ru/group/51946138763463",
                "contact:vk": "keramamarazzi",
                "contact:youtube": "KERAMAMARAZZIru",
                "email": "spb_sps9@kerama-marazzi.ru",
                "name": "Kerama Marazzi",
                "opening_hours": "Mo-Sa 11:00-20:00; Su 11:00-17:00",
                "operator": "ООО «Балткерама»",
                "payment:mastercard": "yes",
                "payment:visa": "yes",
                "phone": "+7 812 6556215 ext 2",
                "shop": "tiles",
                "website": "https://spb.kerama-marazzi.com/"
            }
        ]
    },
    "pet": {
        "count": 2,
        "detail": [
            {
                "name": "Petshop.ru",
                "shop": "pet",
                "level": "-1",
                "website": "https://www.petshop.ru/",
                "contact:vk": "https://vk.com/club57",
                "opening_hours": "09:00-22:00"
            },
            {
                "shop": "pet"
            }
        ]
    },
    "second_hand": {
        "count": 2,
        "detail": [
            {
                "contact:vk": "https://vk.com/spb.pobeda",
                "name": "Победа",
                "opening_hours": "24/7",
                "shop": "second_hand",
                "website": "https://санктпетербург.победа-63.рф/"
            },
            {
                "name": "Добро",
                "shop": "second_hand",
                "level": "1",
                "website": "http://piterkomok.ru/",
                "contact:vk": "https://vk.com/piterkomok",
                "opening_hours": "10:00-21:00"
            }
        ]
    },
    "games": {
        "count": 1,
        "detail": [
            {
                "name": "Hobby Games",
                "shop": "games",
                "level": "0",
                "website": "https://hobbygames.ru/magazin_na_sennoy",
                "contact:vk": "https://vk.com/hobbygames_sp",
                "opening_hours": "10:00-21:00"
            }
        ]
    },
    "electronics": {
        "count": 2,
        "detail": [
            {
                "name": "Redmond",
                "shop": "electronics",
                "level": "0",
                "website": "https://multivarka.pro/shops/sankt_peterburg/000007691/",
                "operator": "ООО «Гравилат»",
                "contact:vk": "https://vk.com/multipro",
                "opening_hours": "10:00-22:00"
            },
            {
                "email": "info@kotofoto.ru",
                "level": "3",
                "name": "КотоФото",
                "opening_hours": "11:00-19:30",
                "payment:cash": "only",
                "phone": "+7 812 4269899",
                "shop": "electronics",
                "website": "https://kotofoto.ru/",
                "wheelchair": "yes"
            }
        ]
    },
    "stripclub": {
        "count": 1,
        "detail": [
            {
                "amenity": "stripclub",
                "name": "Eden Club",
                "opening_hours": "21:00-06:00",
                "website": "http://edenclub.ru/"
            }
        ]
    },
    "collector": {
        "count": 1,
        "detail": [
            {
                "name": "Марки",
                "shop": "collector",
                "website": "http://zagorsky-stamps.ru/"
            }
        ]
    },
    "bench": {
        "count": 13,
        "detail": [
            {
                "amenity": "bench"
            },
            {
                "amenity": "bench"
            },
            {
                "amenity": "bench"
            },
            {
                "amenity": "bench"
            },
            {
                "amenity": "bench"
            },
            {
                "amenity": "bench"
            },
            {
                "amenity": "bench"
            },
            {
                "amenity": "bench"
            },
            {
                "amenity": "bench"
            },
            {
                "amenity": "bench"
            },
            {
                "amenity": "bench"
            },
            {
                "amenity": "bench"
            },
            {
                "amenity": "bench"
            }
        ]
    },
    "travel_agency": {
        "count": 3,
        "detail": [
            {
                "name": "Трак-Стар",
                "shop": "travel_agency",
                "website": "http://trak-star.ru/",
                "contact:vk": "https://vk.com/trakstar",
                "opening_hours": "Apr-Sep Mo-Fr 10:00-19:00; Oct-Mar Mo-Fr 11:00-19:00; Sa 12:00-17:00"
            },
            {
                "contact:vk": "https://vk.com/club17419497",
                "name": "Алиса",
                "opening_hours": "Mo-Fr 10:00-20:00; Sa-Su 11:00-18:00",
                "shop": "travel_agency",
                "website": "http://www.alisatravelspb.ru/"
            },
            {
                "alt_name": "Слетать.ру",
                "contact:vk": "https://vk.com/planetatravelspb",
                "name": "Планета Travel",
                "note": "На месте две таблички: планета и слетать, на sletat.ru указан как планета, режимы совпадают, телефоны разные",
                "opening_hours": "Mo-Fr 10:00-20:00; Sa 12:00-17:00",
                "shop": "travel_agency",
                "website": "https://plantravel.ru/"
            }
        ]
    },
    "photo": {
        "count": 1,
        "detail": [
            {
                "contact:vk": "https://vk.com/momentography",
                "level": "0",
                "name": "Моментография",
                "opening_hours": "Mo-Fr 13:00-20:00; Sa 13:00-18:00",
                "shop": "photo"
            }
        ]
    },
    "studio": {
        "count": 1,
        "detail": [
            {
                "amenity": "studio",
                "contact:vk": "https://vk.com/therealopenstudio",
                "level": "3",
                "name": "Open Studio",
                "studio": "photography"
            }
        ]
    },
    "training": {
        "count": 3,
        "detail": [
            {
                "amenity": "training",
                "contact:vk": "https://vk.com/as.backstage",
                "description": "школа макияжа и причесок",
                "level": "2",
                "name": "Backstage",
                "website": "http://as-bs.ru/"
            },
            {
                "amenity": "training",
                "contact:vk": "https://vk.com/prestigekurs",
                "name": "Престиж",
                "opening_hours": "Mo-Fr 10:00-19:00; Sa-Su 10:00-16:00",
                "website": "http://prestige-kurs.ru/"
            },
            {
                "amenity": "training",
                "contact:vk": "https://vk.com/artkarma",
                "name": "Картина маслом",
                "website": "https://artkarma.ru/"
            }
        ]
    },
    "bicycle": {
        "count": 2,
        "detail": [
            {
                "contact:vk": "https://vk.com/itsmybike",
                "level": "1",
                "name": "It's my!bike",
                "opening_hours": "Mo-Fr 13:00-21:00; Sa-Su 13:00-20:00",
                "shop": "bicycle",
                "website": "https://itsmybike.ru/"
            },
            {
                "alt_name": "Мастерская у Антонио",
                "contact:vk": "https://vk.com/antonsworkshop",
                "name": "Anton's workshop",
                "phone": "+7 (967) 530-84-20",
                "service:bicycle:repair": "yes",
                "service:bicycle:retail": "no",
                "shop": "bicycle",
                "website": "https://vk.com/antonsworkshop"
            }
        ]
    },
    "dance": {
        "count": 2,
        "detail": [
            {
                "contact:vk": "https://vk.com/sdvigorg",
                "dance:teaching": "yes",
                "leisure": "dance",
                "level": "3",
                "name": "Сдвиг",
                "website": "http://sdvig.org/"
            },
            {
                "contact:vk": "https://vk.com/move_dance",
                "dance:teaching": "yes",
                "leisure": "dance",
                "name": "Movement",
                "website": "https://www.movement-spb.com/"
            }
        ]
    },
    "bed": {
        "count": 3,
        "detail": [
            {
                "contact:vk": "https://vk.com/pitertextil",
                "name": "Петербургский уют",
                "note": "возможно переехал",
                "shop": "bed",
                "website": "https://tex-til.spb.ru/"
            },
            {
                "contact:vk": "https://vk.com/kultsna",
                "name": "Культ сна",
                "note": "также одежда",
                "opening_hours": "Mo-Fr 11:00-20:00; Sa-Su 11:00-19:00",
                "shop": "bed",
                "website": "https://www.kultsna.ru/"
            },
            {
                "shop": "bed"
            }
        ]
    },
    "place_of_worship": {
        "count": 1,
        "detail": [
            {
                "amenity": "place_of_worship",
                "denomination": "baptist",
                "name": "Краеугольный камень",
                "note": "http://baptist.org.ru/churches/church/people_organization/142055",
                "religion": "christian"
            }
        ]
    },
    "social_facility": {
        "count": 1,
        "detail": [
            {
                "amenity": "social_facility",
                "name": "Дом системы социального обслуживания населения",
                "social_facility": "assisted_living",
                "social_facility:for": "senior",
                "website": "https://www.gov.spb.ru/helper/social/soc_vet/drugoe/"
            }
        ]
    },
    "bookmaker": {
        "count": 1,
        "detail": [
            {
                "name": "Greenbet",
                "shop": "bookmaker",
                "opening_hours": "24/7"
            }
        ]
    },
    "newsagent": {
        "count": 2,
        "detail": [
            {
                "brand": "Первая полоса",
                "brand:wikidata": "Q62736412",
                "contact:vk": "https://vk.com/club127124787",
                "layer": "-1",
                "location": "underground",
                "name": "Первая полоса",
                "shop": "newsagent"
            },
            {
                "brand": "Первая полоса",
                "brand:wikidata": "Q62736412",
                "contact:vk": "https://vk.com/club127124787",
                "layer": "-1",
                "location": "underground",
                "name": "Первая полоса",
                "shop": "newsagent"
            }
        ]
    },
    "bicycle_parking": {
        "count": 2,
        "detail": [
            {
                "amenity": "bicycle_parking",
                "bicycle_parking": "rack",
                "capacity": "13",
                "covered": "no"
            },
            {
                "amenity": "bicycle_parking",
                "bicycle_parking": "stands",
                "covered": "no"
            }
        ]
    },
    "sports": {
        "count": 1,
        "detail": [
            {
                "contact:vk": "https://vk.com/airwars",
                "name": "AWTactical",
                "opening_hours": "Mo-Fr 10:00-20:00; Sa-Su 11:00-19:00",
                "shop": "sports",
                "website": "http://air-wars.ru/"
            }
        ]
    },
    "kiosk": {
        "count": 1,
        "detail": [
            {
                "name": "Невский символ",
                "shop": "kiosk",
                "layer": "-1",
                "location": "underground"
            }
        ]
    },
    "atm": {
        "count": 11,
        "detail": [
            {
                "layer": "-1",
                "amenity": "atm",
                "location": "underground",
                "operator": "ВТБ"
            },
            {
                "layer": "-1",
                "amenity": "atm",
                "location": "underground",
                "operator": "Альфа-Банк"
            },
            {
                "layer": "-1",
                "amenity": "atm",
                "location": "underground",
                "operator": "Санкт-Петербург"
            },
            {
                "layer": "-1",
                "amenity": "atm",
                "location": "underground",
                "operator": "Санкт-Петербург"
            },
            {
                "layer": "-1",
                "amenity": "atm",
                "location": "underground",
                "operator": "Сбербанк"
            },
            {
                "layer": "-1",
                "amenity": "atm",
                "location": "underground",
                "operator": "Альфа-Банк"
            },
            {
                "layer": "-1",
                "amenity": "atm",
                "location": "underground",
                "operator": "Сбербанк"
            },
            {
                "amenity": "atm",
                "brand": "Санкт-Петербург",
                "contact:email": "cc@bspb.ru",
                "contact:facebook": "https://www.facebook.com/bspb/",
                "contact:instagram": "https://instagram.com/bank_spb",
                "contact:ok": "https://ok.ru/bspb",
                "contact:phone": "+7 800 2225050;+7 812 3295050",
                "contact:twitter": "https://twitter.com/bank_spb",
                "contact:vk": "https://vk.com/bspb",
                "contact:website": "https://www.bspb.ru/",
                "currency:RUB": "yes",
                "opening_hours": "24/7",
                "operator": "ПАО Банк Санкт-Петербург",
                "telegram": "https://t.me/mybspb"
            },
            {
                "amenity": "atm",
                "brand": "Санкт-Петербург",
                "contact:email": "cc@bspb.ru",
                "contact:facebook": "https://www.facebook.com/bspb/",
                "contact:instagram": "https://instagram.com/bank_spb",
                "contact:ok": "https://ok.ru/bspb",
                "contact:phone": "+7 800 2225050;+7 812 3295050",
                "contact:twitter": "https://twitter.com/bank_spb",
                "contact:vk": "https://vk.com/bspb",
                "contact:website": "https://www.bspb.ru/",
                "currency:RUB": "yes",
                "opening_hours": "Mo-Su 05:36-00:19",
                "operator": "ПАО Банк Санкт-Петербург",
                "telegram": "https://t.me/mybspb"
            },
            {
                "amenity": "atm",
                "brand": "Санкт-Петербург",
                "contact:email": "cc@bspb.ru",
                "contact:facebook": "https://www.facebook.com/bspb/",
                "contact:instagram": "https://instagram.com/bank_spb",
                "contact:ok": "https://ok.ru/bspb",
                "contact:phone": "+7 800 2225050;+7 812 3295050",
                "contact:twitter": "https://twitter.com/bank_spb",
                "contact:vk": "https://vk.com/bspb",
                "contact:website": "https://www.bspb.ru/",
                "currency:RUB": "yes",
                "opening_hours": "Mo-Fr 06:00-22:00",
                "operator": "ПАО Банк Санкт-Петербург",
                "telegram": "https://t.me/mybspb"
            },
            {
                "amenity": "atm",
                "brand": "Санкт-Петербург",
                "contact:email": "cc@bspb.ru",
                "contact:facebook": "https://www.facebook.com/bspb/",
                "contact:instagram": "https://instagram.com/bank_spb",
                "contact:ok": "https://ok.ru/bspb",
                "contact:phone": "+7 800 2225050;+7 812 3295050",
                "contact:twitter": "https://twitter.com/bank_spb",
                "contact:vk": "https://vk.com/bspb",
                "contact:website": "https://www.bspb.ru/",
                "currency:RUB": "yes",
                "opening_hours": "24/7",
                "operator": "ПАО Банк Санкт-Петербург",
                "telegram": "https://t.me/mybspb"
            }
        ]
    },
    "toilets": {
        "count": 1,
        "detail": [
            {
                "level": "1",
                "amenity": "toilets"
            }
        ]
    },
    "chemical": {
        "count": 1,
        "detail": [
            {
                "description": "Магазин химических реактивов",
                "name": "Химмаг-СПб",
                "opening_hours": "10:00-21:00",
                "operator": "ООО «Экспит»",
                "shop": "chemical",
                "website": "https://himmag-spb.ru/"
            }
        ]
    },
    "fitness_centre": {
        "count": 1,
        "detail": [
            {
                "contact:vk": "https://vk.com/bikramyogaspb",
                "leisure": "fitness_centre",
                "name": "Bikram Yoga SPb",
                "sport": "yoga",
                "website": "http://bikramyogaspb.ru/"
            }
        ]
    },
    "toys": {
        "count": 1,
        "detail": [
            {
                "contact:vk": "https://vk.com/siburka",
                "email": "info@sivka-burka.com",
                "level": "-0.5",
                "name": "Сивка-Бурка",
                "opening_hours": "Mo-Fr 10:00-20:00",
                "operator": "Захарова Александра Васильевна",
                "payment:cash": "yes",
                "payment:maestro": "yes",
                "payment:mastercard": "yes",
                "payment:visa": "yes",
                "payment:visa_electron": "yes",
                "phone": "+7 800 3015502;+7 911 8310614",
                "shop": "toys",
                "website": "http://sivka-burka.com/",
                "wheelchair": "no"
            }
        ]
    },
    "payment_terminal": {
        "count": 1,
        "detail": [
            {
                "amenity": "payment_terminal"
            }
        ]
    },
    "sauna": {
        "count": 1,
        "detail": [
            {
                "leisure": "sauna",
                "note": "https://saunapiter.ru/katalog/kazanskaya",
                "phone": "+7 812 6481230"
            }
        ]
    },
    "events_venue": {
        "count": 1,
        "detail": [
            {
                "amenity": "events_venue",
                "contact:vk": "https://vk.com/banketsapphire",
                "name": "Sapphire"
            }
        ]
    },
    "community_centre": {
        "count": 1,
        "detail": [
            {
                "amenity": "community_centre",
                "name": "Бергольц центр"
            }
        ]
    },
    "theatre": {
        "count": 1,
        "detail": [
            {
                "amenity": "theatre",
                "email": "aktivfotogroup@gmail.com",
                "name": "Театр-Проект «Музыка города»",
                "opening_hours": "We, Fr-Sa 13:00-20:00",
                "operator": "Театр-Проект «Музыка Города»",
                "phone": "+7 911 1396383",
                "ref:mkrf_theaters": "36931",
                "website": "http://музыкагорода.рф"
            }
        ]
    },
    "vending_machine": {
        "count": 2,
        "detail": [
            {
                "amenity": "vending_machine",
                "layer": "-1",
                "operator": "Петербургский метрополитен",
                "payment:cash": "yes",
                "payment:jcb": "yes",
                "payment:maestro": "yes",
                "payment:mastercard": "yes",
                "payment:visa": "yes",
                "payment:visa_electron": "yes",
                "ref": "5106",
                "vending": "public_transport_tickets"
            },
            {
                "amenity": "vending_machine",
                "layer": "-1",
                "operator": "Петербургский метрополитен",
                "payment:cash": "yes",
                "payment:jcb": "yes",
                "payment:maestro": "yes",
                "payment:mastercard": "yes",
                "payment:visa": "yes",
                "payment:visa_electron": "yes",
                "ref": "5105",
                "vending": "public_transport_tickets"
            }
        ]
    },
    "school": {
        "count": 2,
        "detail": [
            {
                "addr:housenumber": "48",
                "addr:street": "Казанская улица",
                "building": "school",
                "building:levels": "4"
            },
            {
                "addr:housenumber": "76",
                "addr:letter": "П",
                "addr:street": "набережная канала Грибоедова",
                "amenity": "school",
                "building": "school",
                "building:levels": "4",
                "contact:email": "sc256.adm@obr.gov.spb.ru",
                "contact:phone": "+7 812 5739874",
                "contact:website": "http://sc.adm-edu.spb.ru/256/",
                "name": "Школа № 256",
                "official_name": "Государственное бюджетное общеобразовательное учреждение средняя общеобразовательная школа № 256 Адмиралтейского района Санкт-Петербурга",
                "ref": "256"
            }
        ]
    },
    "service": {
        "count": 7,
        "detail": [
            {
                "power": "substation",
                "building": "service",
                "building:levels": "1"
            },
            {
                "power": "substation",
                "building": "service",
                "addr:letter": "Б",
                "addr:street": "переулок Гривцова",
                "addr:housenumber": "20"
            },
            {
                "power": "substation",
                "building": "service",
                "addr:letter": "Я",
                "addr:street": "Вознесенский проспект",
                "building:levels": "1",
                "addr:housenumber": "34"
            },
            {
                "power": "substation",
                "building": "service",
                "building:levels": "1"
            },
            {
                "building": "service",
                "man_made": "mineshaft",
                "mineshaft_type": "air",
                "ref": "520"
            },
            {
                "building": "service"
            },
            {
                "building": "service",
                "power": "substation",
                "substation": "minor_distribution"
            }
        ]
    }
}