{
    "residents": 4288,
    "computer": {
        "count": 3,
        "detail": [
            {
                "alt_name": "ДНС",
                "brand": "DNS",
                "brand:en": "DNS",
                "brand:ru": "ДНС",
                "brand:wikidata": "Q4036922",
                "brand:wikipedia": "ru:DNS (компания)",
                "contact:email": "Erofeev.AA@dns-shop.ru",
                "contact:facebook": "https://www.facebook.com/dnsshop",
                "contact:phone": "+7 800 7707999",
                "contact:twitter": "https://twitter.com/dnsshop",
                "contact:vk": "https://vk.com/dns_47",
                "contact:website": "http://dns-shop.ru/",
                "contact:youtube": "https://www.youtube.com/c/DNSSHOPvideo",
                "level": "0",
                "name": "DNS",
                "name:en": "DNS",
                "name:ru": "ДНС",
                "opening_hours": "10:00-22:00",
                "operator": "ДНС Ритейл",
                "shop": "computer"
            },
            {
                "name": "3Delectronics.ru",
                "shop": "computer",
                "website": "https://3delectronics.ru/",
                "addr:floor": "2"
            },
            {
                "contact:email": "info@zolotaya-pora.ru",
                "contact:instagram": "https://instagram.com/zolotayapora",
                "contact:phone": "+7 965 7934046",
                "contact:website": "https://zolotaya-pora.ru/",
                "name": "Золотая пора",
                "opening_hours": "Mo-Su 10:00-20:00",
                "operator": "Золотая пора",
                "shop": "computer"
            }
        ]
    },
    "playground": {
        "count": 4,
        "detail": [
            {
                "leisure": "playground"
            },
            {
                "leisure": "playground"
            },
            {
                "leisure": "playground"
            },
            {
                "leisure": "playground"
            }
        ]
    },
    "electronics": {
        "count": 4,
        "detail": [
            {
                "alt_name": "ДНС",
                "brand": "DNS",
                "brand:en": "DNS",
                "brand:ru": "ДНС",
                "brand:wikidata": "Q4036922",
                "brand:wikipedia": "ru:DNS (компания)",
                "contact:phone": "+7 800 7707999",
                "contact:vk": "https://vk.com/dns_47",
                "contact:website": "http://dns-shop.ru/",
                "name": "DNS",
                "name:en": "DNS",
                "name:ru": "ДНС",
                "opening_hours": "10:00-22:00",
                "operator": "ДНС Ритейл",
                "shop": "electronics"
            },
            {
                "brand": "Xiaomi",
                "brand:wikidata": "Q1636958",
                "contact:vk": "https://vk.com/mi.russia",
                "email": "retail001ru78@mi-shop.com",
                "name": "Mi",
                "opening_hours": "10:00-22:00",
                "operator": "ООО \"Смарт Оранж\"",
                "shop": "electronics",
                "website": "https://mi-shop.com/"
            },
            {
                "brand": "re:Store",
                "brand:wikidata": "Q7486956",
                "contact:email": "ac.vladimirskiy.spb@re-store.ru",
                "contact:facebook": "https://www.facebook.com/restore.ru",
                "contact:instagram": "https://instagram.com/restore_ru",
                "contact:phone": "+7 812 6777276",
                "contact:vk": "https://vk.com/re_store",
                "contact:website": "https://www.re-store.ru/",
                "contact:youtube": "https://www.youtube.com/user/restoreapr",
                "name": "Re:store",
                "opening_hours": "Mo-Su 10:00-22:00",
                "operator": "реСтор",
                "shop": "electronics",
                "telegram": "https://t.me/restore_ru"
            },
            {
                "contact:phone": "+7 812 6449898;+7 812 6449899",
                "contact:website": "http://siriust.ru",
                "name": "Профи",
                "opening_hours": "Mo-Su 10:00-20:00",
                "shop": "electronics"
            }
        ]
    },
    "kindergarten": {
        "count": 3,
        "detail": [
            {
                "name": "Детский сад №25",
                "amenity": "kindergarten"
            },
            {
                "name": "Детский сад №44",
                "amenity": "kindergarten"
            },
            {
                "amenity": "kindergarten",
                "contact:email": "dou112.centr@obr.gov.spb.ru",
                "contact:phone": "+7 812 5717226",
                "contact:website": "http://gbdou112.3dn.ru",
                "name": "Детский сад №112",
                "official_name": "Государственное бюджетное дошкольное образовательное учреждение детский сад № 112 Центрального района Санкт-Петербурга",
                "ref": "112"
            }
        ]
    },
    "fast_food": {
        "count": 12,
        "detail": [
            {
                "name": "Столовая №1",
                "amenity": "fast_food",
                "cuisine": "russian",
                "website": "https://st1.one/",
                "operator": "ООО «Гуд Фуд Некрасова»",
                "takeaway": "yes",
                "fast_food": "cafeteria",
                "contact:vk": "https://vk.com/club12879930",
                "wheelchair": "no",
                "payment:cash": "yes",
                "opening_hours": "24/7",
                "diet:vegetarian": "yes",
                "internet_access": "wlan",
                "payment:debit_cards": "no",
                "payment:credit_cards": "no"
            },
            {
                "amenity": "fast_food",
                "brand": "Pizza Hut",
                "brand:wikidata": "Q191615",
                "brand:wikipedia": "en:Pizza Hut",
                "contact:email": "info@pizzahut.ru",
                "contact:facebook": "https://www.facebook.com/PizzaHutRussia",
                "contact:instagram": "https://www.instagram.com/pizzahutrussia/",
                "contact:phone": "+7 800 1001958",
                "contact:vk": "https://vk.com/pizzahutrussia",
                "contact:website": "https://spb.pizzahut.ru/",
                "cuisine": "pizza",
                "name": "Pizza Hut",
                "opening_hours": "09:00-22:00",
                "operator": "Амрест Пицца"
            },
            {
                "amenity": "fast_food",
                "contact:vk": "https://vk.com/tarelka_life",
                "cuisine": "russian",
                "fast_food": "cafeteria",
                "name": "Тарелка",
                "opening_hours": "08:00-23:00",
                "operator": "ООО «Шалфей»",
                "phone": "+7 812 3149949",
                "website": "http://tarelkas.ru/cafes/kolokolnaya-ul-d-18-19/",
                "wheelchair": "no"
            },
            {
                "name": "Friendly Coffee",
                "amenity": "fast_food",
                "website": "http://friendly-coffee.ru/",
                "contact:vk": "https://vk.com/1friendlycoffee"
            },
            {
                "amenity": "fast_food",
                "brand": "Subway",
                "brand:wikidata": "Q244457",
                "brand:wikipedia": "en:Subway (restaurant)",
                "contact:vk": "https://vk.com/subwayrussia",
                "cuisine": "sandwich",
                "name": "Subway",
                "opening_hours": "Mo-Fr 09:00-22:00; Sa-Su 10:00-22:00",
                "operator": "ИП Быкова",
                "takeaway": "yes",
                "website": "https://subway.ru/"
            },
            {
                "name": "Уличный шеф",
                "amenity": "fast_food"
            },
            {
                "amenity": "fast_food",
                "cuisine": "doner;mexican;falafel",
                "name": "Дон Педро"
            },
            {
                "level": "0",
                "amenity": "fast_food",
                "cuisine": "coffee_shop"
            },
            {
                "name": "Тили-тесто",
                "amenity": "fast_food",
                "cuisine": "pie",
                "building": "kiosk",
                "takeaway": "only",
                "wheelchair": "yes"
            },
            {
                "amenity": "fast_food",
                "fast_food": "cafeteria",
                "name": "Столовкин",
                "opening_hours": "08:00-21:00"
            },
            {
                "addr:housenumber": "23",
                "addr:street": "улица Марата",
                "amenity": "fast_food",
                "contact:instagram": "8956_hotdogs",
                "contact:vk": "hotdogsbyoblomoff",
                "cuisine": "burger",
                "name": "8956 Oblomoff streetfood",
                "opening_hours": "Mo-Th, Su 11:00-23:00; Fr, Sa 11:00-00:00",
                "phone": "+7 999 538-07-76"
            },
            {
                "amenity": "fast_food",
                "brand": "Теремок",
                "brand:en": "Teremok",
                "brand:ru": "Теремок",
                "brand:wikidata": "Q4455593",
                "brand:wikipedia": "ru:Теремок (сеть быстрого питания)",
                "building": "kiosk",
                "contact:vk": "https://vk.com/teremok",
                "cuisine": "crepe;russian",
                "name": "Теремок",
                "name:en": "Teremok",
                "name:ru": "Теремок",
                "opening_hours": "10:00-22:30",
                "phone": "+7 911 7912173",
                "takeaway": "yes",
                "website": "https://teremok.ru/places/t_vladimirskaya/"
            }
        ]
    },
    "bank": {
        "count": 11,
        "detail": [
            {
                "amenity": "bank",
                "brand": "Ак барс",
                "brand:wikidata": "Q4059103",
                "contact:email": "kanc@akbars.ru",
                "contact:facebook": "https://www.facebook.com/akbarsbank",
                "contact:instagram": "https://www.instagram.com/akbars_bank/",
                "contact:ok": "https://ok.ru/akbarsbank",
                "contact:phone": "+7 843 2303303",
                "contact:twitter": "https://twitter.com/akbars_ru",
                "contact:vk": "https://vk.com/akbars_ru",
                "contact:website": "https://akbars.ru/",
                "name": "Ак барс",
                "opening_hours": "Mo-Fr 09:00-19:00",
                "operator": "АК БАРС БАНК",
                "telegram": "https://t.me/akbars_ru"
            },
            {
                "amenity": "bank",
                "contact:email": "bank@ubrr.ru",
                "contact:phone": "+7 800 1000200",
                "contact:website": "https://spb.ubrr.ru/",
                "name": "Уральский банк реконструкции и развития",
                "opening_hours": "Mo-Fr 09:30-20:00;Sa 11:00-17:00",
                "operator": "УБРиР"
            },
            {
                "amenity": "bank",
                "brand": "Викинг",
                "brand:wikidata": "Q37650790",
                "name": "Викинг",
                "opening_hours": "Mo-Su 09:30-21:00",
                "phone": "+7 812 3203033",
                "website": "http://www.vikingbank.ru/",
                "wheelchair": "yes"
            },
            {
                "amenity": "bank",
                "brand": "Росбанк",
                "brand:en": "Rosbank",
                "brand:ru": "Росбанк",
                "brand:wikidata": "Q1119857",
                "brand:wikipedia": "en:Rosbank",
                "entrance": "yes",
                "name": "Росбанк",
                "name:en": "Rosbank",
                "name:ru": "Росбанк",
                "opening_hours": "Mo-Fr 09:00-20:00, Sa 10:00-17:00",
                "operator": "Росбанк",
                "phone": "+7 800 2005434",
                "website": "https://www.rosbank.ru/",
                "wheelchair": "no"
            },
            {
                "name": "Югра",
                "amenity": "bank",
                "website": "http://www.jugra.ru/spb/offices-and-atms/3/161.html"
            },
            {
                "amenity": "bank",
                "atm": "yes",
                "brand": "ОТП Банк",
                "brand:en": "OTP Bank",
                "brand:wikidata": "Q912778",
                "brand:wikipedia": "en:OTP Bank",
                "name": "ОТП Банк",
                "name:en": "OTP Bank",
                "opening_hours": "Mo-Fr 09:30-20:30; Sa 10:00-18:00",
                "operator": "ОТП Банк",
                "website": "https://www.otpbank.ru/"
            },
            {
                "amenity": "bank",
                "brand": "Бинбанк",
                "brand:en": "B&N Bank",
                "brand:wikidata": "Q4086829",
                "brand:wikipedia": "en:B&N Bank",
                "contact:vk": "https://vk.com/binbank",
                "name": "Бинбанк",
                "name:en": "B&N Bank",
                "opening_hours": "Mo-Fr 10:00-20:00; Sa 10:00-17:00",
                "website": "https://www.binbank.ru/branches/#branch573"
            },
            {
                "name": "Фора-Банк",
                "amenity": "bank",
                "website": "https://www.forabank.ru/offices/do_olimpik_plaza/",
                "contact:vk": "https://vk.com/forabank"
            },
            {
                "brand": "Райффайзен",
                "amenity": "bank",
                "operator": "Райффайзен"
            },
            {
                "amenity": "bank",
                "contact:email": "kanc@akbars.ru",
                "contact:facebook": "https://www.facebook.com/akbarsbank",
                "contact:instagram": "https://www.instagram.com/akbars_bank/",
                "contact:ok": "https://ok.ru/akbarsbank",
                "contact:phone": "+7 800 2005303;+7 843 2303303",
                "contact:twitter": "https://twitter.com/akbars_ru",
                "contact:vk": "https://vk.com/akbars_ru",
                "contact:website": "https://www.akbars.ru/",
                "opening_hours": "Mo-Fr 10:00 - 19:00",
                "operator": "АК БАРС БАНК",
                "telegram": "https://t.me/akbars_ru"
            },
            {
                "amenity": "bank",
                "contact:phone": "+7 800 2005303",
                "contact:website": "https://akbars.ru/",
                "name": "Ак Барс Банк",
                "opening_hours": "Fr 09:00-16:15;Mo-Th 09:00-17:00"
            }
        ]
    },
    "supermarket": {
        "count": 7,
        "detail": [
            {
                "brand": "Дикси",
                "brand:en": "Dixy",
                "brand:wikidata": "Q4161561",
                "brand:wikipedia": "ru:Дикси (сеть магазинов)",
                "contact:phone": "+7 800 3330201",
                "contact:vk": "https://vk.com/dixyclub",
                "contact:youtube": "https://www.youtube.com/user/DixyChannel",
                "name": "Дикси",
                "name:ru": "Дикси",
                "opening_hours": "24/7",
                "operator": "АО «Дикси Юг»",
                "shop": "supermarket",
                "website": "https://dixy.ru/",
                "wheelchair": "limited"
            },
            {
                "addr:city": "Санкт-Петербург",
                "addr:housenumber": "1",
                "addr:postcode": "191025",
                "addr:street": "Стремянная улица",
                "alt_name": "Пятерочка",
                "alt_name:ru": "Пятерочка",
                "brand": "Пятёрочка",
                "brand:en": "Pyaterochka",
                "brand:wikidata": "Q1768969",
                "brand:wikipedia": "ru:Пятёрочка",
                "contact:vk": "https://vk.com/pyaterochka_shop",
                "name": "Пятёрочка",
                "name:en": "Pyaterochka",
                "name:ru": "Пятёрочка",
                "opening_hours": "Mo-Su 09:00-23:00",
                "operator": "ООО \"Агроторг\"",
                "phone": "+7 800 5555505",
                "shop": "supermarket",
                "website": "https://5ka.ru/"
            },
            {
                "addr:city": "Санкт-Петербург",
                "addr:housenumber": "13",
                "addr:postcode": "191002",
                "addr:street": "Владимирский проспект",
                "brand": "Семишагофф",
                "brand:wikidata": "Q58003374",
                "contact:vk": "https://vk.com/7shagoff",
                "name": "Семишагофф",
                "opening_hours": "09:00-23:00",
                "operator": "ООО «ТК Триумф»",
                "phone": "+7 812 6485000",
                "shop": "supermarket",
                "website": "http://semishagoff.org/"
            },
            {
                "brand": "Дикси",
                "brand:en": "Dixy",
                "brand:wikidata": "Q4161561",
                "brand:wikipedia": "ru:Дикси (сеть магазинов)",
                "contact:phone": "+7 800 3330201",
                "contact:vk": "https://vk.com/dixyclub",
                "contact:youtube": "https://www.youtube.com/user/DixyChannel",
                "name": "Дикси",
                "name:ru": "Дикси",
                "opening_hours": "24/7",
                "shop": "supermarket",
                "website": "https://dixy.ru/"
            },
            {
                "brand": "Дикси",
                "brand:en": "Dixy",
                "brand:wikidata": "Q4161561",
                "brand:wikipedia": "ru:Дикси (сеть магазинов)",
                "contact:phone": "+7 800 3330201",
                "contact:vk": "https://vk.com/dixyclub",
                "contact:youtube": "https://www.youtube.com/user/DixyChannel",
                "name": "Дикси",
                "name:ru": "Дикси",
                "opening_hours": "Mo-Su 08:00-23:00",
                "operator": "АО «Дикси Юг»",
                "shop": "supermarket",
                "website": "https://dixy.ru/"
            },
            {
                "brand": "Дикси",
                "brand:en": "Dixy",
                "brand:wikidata": "Q4161561",
                "brand:wikipedia": "ru:Дикси (сеть магазинов)",
                "contact:phone": "+7 800 3330201",
                "contact:vk": "https://vk.com/dixyclub",
                "contact:youtube": "https://www.youtube.com/user/DixyChannel",
                "level": "0",
                "name": "Дикси",
                "name:ru": "Дикси",
                "opening_hours": "09:00-23:00",
                "shop": "supermarket",
                "website": "https://dixy.ru/"
            },
            {
                "addr:city": "Санкт-Петербург",
                "addr:housenumber": "1А",
                "addr:street": "Малый проспект П.С.",
                "name": "Vegan Beats",
                "opening_hours": "12:00-22:00",
                "opening_hours:covid19": "same",
                "organic": "only",
                "payment:cash": "yes",
                "payment:credit_cards": "yes",
                "shop": "supermarket",
                "website": "http://vegb.ru/index.php/ru/"
            }
        ]
    },
    "bag": {
        "count": 2,
        "detail": [
            {
                "name": "1000 и одна сумка",
                "shop": "bag",
                "level": "-1",
                "website": "https://1000i1sumka.ru/",
                "contact:vk": "https://vk.com/sumok1001",
                "opening_hours": "11:00-21:00"
            },
            {
                "name": "Clipsa",
                "shop": "bag",
                "opening_hours": "10:00-21:00"
            }
        ]
    },
    "butcher": {
        "count": 1,
        "detail": [
            {
                "name": "Фермер",
                "shop": "butcher",
                "operator": "ИП Архипова И.В.",
                "opening_hours": "09:00-21:00"
            }
        ]
    },
    "shoes": {
        "count": 11,
        "detail": [
            {
                "brand": "Salamander",
                "brand:wikidata": "Q878354",
                "brand:wikipedia": "de:Salamander (Schuhe)",
                "name": "Salamander",
                "opening_hours": "10:00-21:00",
                "operator": "ООО \"Гамма\"",
                "shop": "shoes",
                "website": "https://www.salamander.ru/where_to_buy/retail/sanktpeter/"
            },
            {
                "name": "Galary",
                "shop": "shoes",
                "operator": "ИП \"Веселов С.П.\"",
                "contact:vk": "https://vk.com/galary95",
                "opening_hours": "Mo-Su 10:00-21:00"
            },
            {
                "brand": "Ecco",
                "brand:wikidata": "Q1280255",
                "brand:wikipedia": "en:ECCO",
                "contact:email": "info@ecco-ros.ru",
                "contact:facebook": "https://www.facebook.com/eccoru",
                "contact:instagram": "https://instagram.com/ecco_ru",
                "contact:ok": "https://ok.ru/eccoru",
                "contact:phone": "+7 495 6412525;+7 800 4442525;+7 812 6080520",
                "contact:vk": "https://vk.com/eccoru",
                "contact:website": "https://www.ecco-shoes.ru/",
                "name": "Ecco",
                "opening_hours": "10:00-22:00",
                "operator": "«ЭККО-Петербург»",
                "shop": "shoes"
            },
            {
                "name": "Högl",
                "shop": "shoes",
                "website": "https://hoegl.ru/",
                "operator": "ООО «Хёгель Шу Фэшн»",
                "contact:vk": "https://vk.com/hogl_russia",
                "opening_hours": "10:00-21:00"
            },
            {
                "contact:vk": "https://vk.com/thomas_munz",
                "name": "Thomas Münz",
                "opening_hours": "10:00-22:00",
                "shop": "shoes",
                "website": "https://thomas-muenz.ru/salony/sankt-peterburg?salon_id=66"
            },
            {
                "name": "Сток-Центр",
                "shop": "shoes",
                "opening_hours": "10:00-21:00"
            },
            {
                "name": "Stopa",
                "shop": "shoes",
                "opening_hours": "10:00-21:00"
            },
            {
                "name": "ABC Shoemarket",
                "shop": "shoes",
                "contact:vk": "https://vk.com/abcshoemarket",
                "opening_hours": "10:00-22:00"
            },
            {
                "name": "Opera",
                "shop": "shoes",
                "contact:vk": "https://vk.com/operashoes"
            },
            {
                "name": "Opera",
                "shop": "shoes",
                "contact:vk": "https://vk.com/operashoes",
                "opening_hours": "11:00-21:00"
            },
            {
                "brand": "Rieker",
                "brand:wikidata": "Q2152193",
                "brand:wikipedia": "en:Rieker Shoes",
                "name": "Rieker",
                "operator": "ИП Боченинская Л.В.",
                "shop": "shoes"
            }
        ]
    },
    "cafe": {
        "count": 37,
        "detail": [
            {
                "name": "Сладкоежка",
                "amenity": "cafe",
                "website": "http://www.sladkoezka.com.ru/",
                "operator": "ООО «Апельсин»",
                "opening_hours": "Mo-Fr 08:00-22:00; Sa-Su 09:00-22:00"
            },
            {
                "addr:housenumber": "3",
                "addr:postcode": "191102",
                "addr:street": "Кузнечный переулок",
                "amenity": "cafe",
                "cuisine": "oriental;regional;russian;pancake;fish_and_chips;local;coffee_shop",
                "email": "forzhing@mail.ru",
                "internet_access": "wlan",
                "internet_access:fee": "no",
                "int_name": "Forzhing",
                "name": "Форжинг",
                "name:en": "Forzhing",
                "opening_hours": "Mo-Su 10:00-22:00",
                "phone": "+7 904 6343300"
            },
            {
                "name": "SalDeRiso",
                "amenity": "cafe"
            },
            {
                "name": "Кэт",
                "email": "cafe.cat@mail.ru",
                "phone": "+7 812 5713377",
                "amenity": "cafe",
                "cuisine": "georgian",
                "name:en": "Cat",
                "name:ru": "Кэт",
                "website": "http://cafe-cat.ru/",
                "opening_hours": "Mo-Su 12:00-23:00"
            },
            {
                "amenity": "cafe",
                "contact:vk": "https://vk.com/cafeukrop",
                "diet:vegetarian": "only",
                "level": "0",
                "name": "Укроп",
                "website": "http://cafe-ukrop.ru/"
            },
            {
                "amenity": "cafe",
                "contact:vk": "https://vk.com/l.brikcafe",
                "cuisine": "russian",
                "internet_access": "wlan",
                "name": "L. Brik",
                "phone": "+7 812 7646303",
                "website": "http://lbrik-cafe.ru/",
                "wheelchair": "no"
            },
            {
                "name": "Food studio",
                "amenity": "cafe",
                "contact:phone": "+7 952 3528301",
                "contact:website": "http://vk.com/foodstudio",
                "internet_access": "wlan",
                "internet_access:fee": "no"
            },
            {
                "name": "Два гуся",
                "amenity": "cafe",
                "cuisine": "donut"
            },
            {
                "name": "На Парах",
                "phone": "+7 812 5721001",
                "amenity": "cafe",
                "website": "http://www.naparah.ru/",
                "contact:vk": "https://vk.com/naparah",
                "opening_hours": "24/7",
                "internet_access": "wlan"
            },
            {
                "amenity": "cafe",
                "brand": "Штолле",
                "brand:en": "Stolle",
                "brand:wikidata": "Q62502236",
                "contact:vk": "https://vk.com/stollerussia",
                "cuisine": "coffee_shop",
                "level": "0",
                "name": "Штолле",
                "name:en": "Stolle",
                "opening_hours": "09:00-21:00",
                "operator": "ООО «Столовая №55»",
                "takeaway": "yes",
                "website": "https://spb.stolle.ru/addresses/vladimirskij-pr-15"
            },
            {
                "name": "Абажур",
                "amenity": "cafe",
                "contact:vk": "https://vk.com/abagurcafe"
            },
            {
                "name": "Прокофе",
                "amenity": "cafe",
                "cuisine": "coffee_shop"
            },
            {
                "name": "Кафе Куба",
                "amenity": "cafe",
                "name:en": "Cafe Cuba",
                "name:ru": "Арт-кафе Кипяток"
            },
            {
                "amenity": "cafe",
                "contact:vk": "https://vk.com/coffeers",
                "cuisine": "coffee_shop",
                "internet_access": "wlan",
                "name": "Coffeers",
                "opening_hours": "Mo-Sa 07:30-23:00; Su 09:00-21:00",
                "phone": "+7 921 6589929"
            },
            {
                "amenity": "cafe",
                "contact:vk": "https://vk.com/club112942211",
                "cuisine": "lebanese;turkish;persian;grill;israeli",
                "diet:vegan": "yes",
                "diet:vegetarian": "yes",
                "name": "Бейрут",
                "name:en": "Beirut",
                "name:ru": "Бейрут",
                "opening_hours": "Su-Th 12:00-24:00; Fr-Sa 12:00-01:00",
                "payment:mastercard": "yes",
                "payment:mir": "yes",
                "payment:visa": "yes",
                "phone": "+7 960 2345111",
                "toilets": "yes",
                "website": "https://www.beirutcafespb.com/"
            },
            {
                "name": "Венская кофейня",
                "brand": "Coffeeshop Company",
                "phone": "+7 911 0014784",
                "amenity": "cafe",
                "cuisine": "coffee_shop",
                "website": "http://www.coffeeshopcompany.ru/address/city/18/468/",
                "contact:vk": "https://vk.com/csc",
                "opening_hours": "Mo-Fr 08:00-23:00; Sa-Su 09:00-23:00",
                "brand:wikidata": "Q873767",
                "internet_access": "wlan"
            },
            {
                "amenity": "cafe"
            },
            {
                "name": "Штрогель",
                "amenity": "cafe",
                "website": "http://strogell.ru/kafe/kafe-shtrogel-na-bolshoj-moskovskoj",
                "contact:vk": "https://vk.com/strogell",
                "opening_hours": "09:00-21:00"
            },
            {
                "name": "Etlon Coffee",
                "amenity": "cafe",
                "opening_hours": "Mo-Fr 08:30-20:00; Sa 09:00-18:00"
            },
            {
                "name": "Melange",
                "amenity": "cafe"
            },
            {
                "amenity": "cafe",
                "brand": "Cofix",
                "brand:en": "Cofix",
                "brand:he": "קפויקס",
                "brand:wikidata": "Q16132717",
                "brand:wikipedia": "he:קופיקס",
                "contact:vk": "https://vk.com/cofixrussia",
                "cuisine": "coffee_shop",
                "name": "Cofix",
                "name:en": "Cofix",
                "name:he": "קופיקס",
                "takeaway": "yes",
                "website": "https://spb.cofix.ru/"
            },
            {
                "name": "Pitcher",
                "amenity": "cafe",
                "website": "http://pitcherbar.ru/"
            },
            {
                "amenity": "cafe",
                "contact:vk": "https://vk.com/chacha_puri_spb",
                "cuisine": "georgian",
                "internet_access": "wlan",
                "name": "ChaChaПури",
                "name:en": "ChaChaPuri",
                "opening_hours": "Mo-Su 12:00-23:00",
                "website": "https://www.chachapurispb.ru/"
            },
            {
                "name": "Sicaffe",
                "amenity": "cafe",
                "website": "http://sicafferussia.com/",
                "contact:vk": "https://vk.com/sicafferussia"
            },
            {
                "amenity": "cafe",
                "contact:vk": "https://vk.com/greenbox_spb",
                "level": "0",
                "name": "Greenbox",
                "opening_hours": "08:00-23:00",
                "website": "http://greenboxes.ru/"
            },
            {
                "amenity": "cafe",
                "contact:vk": "https://vk.com/lapastacafe",
                "name": "La Pasta",
                "opening_hours": "Mo,Tu 11:00-23:00, Fr 11:00-01:00, Su 12:00-24:00, We,Th 11:00-24:00, Sa 12:00-01:00",
                "operator": "ООО «Лайф»"
            },
            {
                "name": "Невский двор",
                "amenity": "cafe",
                "website": "http://www.nevskydvor.ru/nashe_kafe_nevskij_dvor/"
            },
            {
                "amenity": "cafe",
                "name": "Пловная",
                "opening_hours": "Mo-Su 09:00-22:00",
                "operator": "ИП Кеба АС",
                "wheelchair": "no"
            },
            {
                "name": "Pitcher",
                "amenity": "cafe",
                "cuisine": "coffee_shop"
            },
            {
                "name": "Больше кофе!",
                "amenity": "cafe",
                "cuisine": "coffee_shop;breakfast",
                "name:en": "Bolshecoffee Roasters",
                "website": "https://instagram.com/bolshe_coffee",
                "opening_hours": "Mo-Su 09:00-21:00"
            },
            {
                "amenity": "cafe",
                "brand": "Coffee Like",
                "brand:wikidata": "Q55662627",
                "brand:wikipedia": "ru:Coffee Like",
                "contact:email": "hotline@coffee-like.com",
                "contact:phone": "+7 341 2908292;+7 800 3334130",
                "contact:vk": "https://vk.com/coffeelike78",
                "contact:website": "https://coffee-like.com/",
                "cuisine": "coffee_shop",
                "name": "Coffee Like",
                "opening_hours": "09:00-21:50",
                "operator": "Суворова Анна Александровна",
                "takeaway": "yes"
            },
            {
                "amenity": "cafe",
                "name:en": "Coffee Bells"
            },
            {
                "amenity": "cafe",
                "contact:email": "info@tseh85.ru",
                "contact:instagram": "instagram.com/tseh85",
                "contact:phone": "+7 812 7757785",
                "contact:vk": "vk.com/tseh85",
                "contact:website": "http://tseh85.ru/",
                "name": "Цех 85",
                "opening_hours": "Mo-Fr 08:00-21:00;Sa-Su 09:00-21:00",
                "operator": "Карева"
            },
            {
                "amenity": "cafe",
                "contact:email": "info@bagginscoffee.ru",
                "contact:phone": "+7 800 6007015",
                "contact:website": "https://bagginscoffee.ru/",
                "name": "Baggins Coffee",
                "opening_hours": "Mo-Su 08:00-21:00",
                "operator": "ИП Леонькова Мария Николаевна"
            },
            {
                "amenity": "cafe",
                "cuisine": "local;oriental;pancake;russian",
                "email": "forzhing@mail.ru",
                "internet_access": "wlan",
                "name": "\"Форжинг\"",
                "name:en": "\"Forzhing\"",
                "opening_hours": "Mo-Su 10:00-22:00",
                "operator": "ООО \"Форжинг\"",
                "phone": "+7 904 6343300",
                "website": "https://forzhing.restoru.ru"
            },
            {
                "amenity": "cafe",
                "name:en": "Qq bar"
            },
            {
                "name": "Etlon Coffee",
                "amenity": "cafe",
                "cuisine": "coffee_shop;cafe",
                "smoking": "outside",
                "building": "yes",
                "addr:city": "Санкт-Петербург",
                "addr:street": "Владимирская площадь",
                "opening_hours": "Mo-Sa 08:00-21:00, Su 10:00-21:00",
                "internet_access": "wlan",
                "internet_access:fee": "no"
            }
        ]
    },
    "clothes": {
        "count": 27,
        "detail": [
            {
                "brand": "Tezenis",
                "clothes": "underwear",
                "contact:vk": "https://vk.com/tezenisofficial",
                "name": "Тезенис",
                "name:ru": "Тезенис",
                "opening_hours": "10:00-22:00",
                "operator": "Калцру",
                "payment:cash": "yes",
                "payment:maestro": "yes",
                "payment:mastercard": "yes",
                "payment:visa": "yes",
                "payment:visa_electron": "yes",
                "phone": "+7 812 7649338",
                "shop": "clothes",
                "website": "https://ru.tezenis.com/",
                "wheelchair": "no"
            },
            {
                "brand": "Intimissimi",
                "brand:wikidata": "Q305404",
                "brand:wikipedia": "en:Intimissimi",
                "clothes": "underwear",
                "contact:vk": "https://vk.com/intimissimiofficial",
                "name": "Intimissimi",
                "shop": "clothes",
                "website": "https://ru.intimissimi.com/",
                "wheelchair": "no"
            },
            {
                "name": "Truvor",
                "shop": "clothes",
                "clothes": "men",
                "website": "http://truvor-sale.ru/",
                "operator": "ИП Пынькина ВН",
                "opening_hours": "10:00-21:00"
            },
            {
                "name": "Lee",
                "shop": "clothes",
                "phone": "+7 812 7132261",
                "opening_hours": "10:00-21:00"
            },
            {
                "name": "Трикотаж",
                "shop": "clothes",
                "level": "-1",
                "clothes": "women",
                "opening_hours": "10:00-21:00"
            },
            {
                "name": "Клео",
                "shop": "clothes",
                "addr:postcode": "191025",
                "opening_hours": "11:00-20:00"
            },
            {
                "name": "Секонд хенд",
                "shop": "clothes",
                "second_hand": "yes"
            },
            {
                "name": "ТриКотаЖ",
                "shop": "clothes",
                "website": "http://www.trikstore.ru/",
                "contact:vk": "https://vk.com/trikstore",
                "opening_hours": "10:00-20:00"
            },
            {
                "name": "FB42",
                "shop": "clothes",
                "website": "http://fb42.ru/",
                "contact:vk": "https://vk.com/fb_42"
            },
            {
                "addr:city": "Санкт-Петербург",
                "addr:housenumber": "3",
                "addr:street": "Стремянная улица",
                "brand": "CODERED",
                "contact:vk": "https://vk.com/coderedstorespb",
                "name": "CODERED Store",
                "opening_hours": "11:00-21:00",
                "payment:cash": "yes",
                "payment:credit_cards": "yes",
                "payment:debit_cards": "yes",
                "payment:mastercard": "yes",
                "payment:visa_debit": "yes",
                "shop": "clothes",
                "website": "http://codered.su/"
            },
            {
                "name": "яМайка",
                "shop": "clothes",
                "website": "http://www.i-maika.ru/studios/marata/",
                "contact:vk": "https://vk.com/imaika",
                "description": "печать на футболках",
                "opening_hours": "11:00-21:00"
            },
            {
                "name": "Мидол",
                "shop": "clothes",
                "website": "http://midol.spb.ru/shop-6",
                "contact:vk": "https://vk.com/midol",
                "second_hand": "yes",
                "opening_hours": "11:00-21:00"
            },
            {
                "contact:email": "hello@kostrovstore.com",
                "contact:instagram": "https://www.instagram.com/kostrovstore",
                "contact:phone": "+7 999 0282522",
                "contact:vk": "https://vk.com/kostrovstore",
                "contact:website": "http://kostrovstore.com",
                "name": "Kostrov store",
                "opening_hours": "12:00-20:00",
                "shop": "clothes"
            },
            {
                "name": "Sёstry Mamutiny",
                "shop": "clothes",
                "website": "http://www.sestry.biz/",
                "contact:vk": "https://vk.com/sestrymamutiny",
                "opening_hours": "Mo-Fr 11:00-21:00"
            },
            {
                "name": "Best",
                "shop": "clothes",
                "website": "http://best-bytik.ru/",
                "second_hand": "yes",
                "opening_hours": "Mo-Sa 11:30-20:00; Su 12:00-19:00"
            },
            {
                "name": "Alisa Wedding",
                "shop": "clothes",
                "clothes": "wedding",
                "website": "https://alisa-wedding.ru/",
                "contact:vk": "https://vk.com/alisaweddingru",
                "opening_hours": "12:00-21:00"
            },
            {
                "contact:vk": "https://vk.com/kawaicat",
                "name": "Kawaicat",
                "opening_hours": "11:00-21:00",
                "shop": "clothes",
                "website": "http://www.kawaicat.ru/"
            },
            {
                "name": "Немецкая одежда",
                "shop": "clothes",
                "operator": "ООО «ПлатоФ»",
                "opening_hours": "Mo-Sa 10:00-20:00; Su 10:00-19:00"
            },
            {
                "contact:vk": "https://vk.com/usta_k_ustam",
                "name": "Уста к устам",
                "shop": "clothes",
                "website": "https://www.ustakustam.ru/"
            },
            {
                "name": "Белорусский трикотаж",
                "shop": "clothes"
            },
            {
                "contact:vk": "https://vk.com/eurobrandmarket",
                "name": "Евробренд",
                "opening_hours": "10:00-21:00",
                "second_hand": "yes",
                "shop": "clothes",
                "website": "https://eurobrand.market/"
            },
            {
                "name": "Pure Passion",
                "shop": "clothes",
                "clothes": "sports",
                "website": "https://purepassion.ru/",
                "contact:vk": "https://vk.com/pure_passion_spb",
                "opening_hours": "Mo-Fr 11:00-21:00; Sa-Su 10:00-20:00"
            },
            {
                "name": "Шляпный салонъ Ольги Макеевой",
                "shop": "clothes",
                "clothes": "hats",
                "website": "http://шляпныйсалон.рф/",
                "opening_hours": "11:00-19:00"
            },
            {
                "shop": "clothes",
                "opening_hours": "Mo-Fr 11:00-20:00; Sa 11:00-19:00; Su 11:00-18:00"
            },
            {
                "name": "4:20 Shop",
                "shop": "clothes",
                "contact:vk": "https://vk.com/svs_shop"
            },
            {
                "name": "Wear House",
                "shop": "clothes",
                "website": "https://www.wearhouse.ru/",
                "contact:vk": "https://vk.com/wearhouse",
                "opening_hours": "12:00-21:00"
            },
            {
                "contact:email": "vitabrava.spb@yandex.ru",
                "contact:instagram": "https://instagram.com/vitabrava",
                "contact:phone": "+7 812 4084050",
                "contact:website": "https://www.vitabrava.ru/",
                "name": "Vita Brava",
                "opening_hours": "Mo-Su 11:00-21:00",
                "operator": "Vita Brava",
                "shop": "clothes"
            }
        ]
    },
    "pastry": {
        "count": 2,
        "detail": [
            {
                "amenity": "cafe",
                "contact:vk": "https://vk.com/bushe.bakery",
                "cuisine": "pastry",
                "name": "Буше",
                "opening_hours": "08:00-23:00",
                "operator": "ООО «ПКД «Венец»",
                "payment:cash": "yes",
                "payment:maestro": "yes",
                "payment:mastercard": "yes",
                "payment:visa": "yes",
                "payment:visa_electron": "yes",
                "phone": "+7 812 6405151 ext. 253",
                "shop": "pastry",
                "takeaway": "yes",
                "website": "http://bushe.ru/"
            },
            {
                "name": "Невские берега",
                "shop": "pastry",
                "website": "http://www.cake.spb.ru/",
                "operator": "ИП Платонова М.И.",
                "contact:vk": "https://vk.com/nevskie.berega",
                "opening_hours": "Mo-Fr 08:30-20:30; Sa-Su 10:00-20:00"
            }
        ]
    },
    "restaurant": {
        "count": 18,
        "detail": [
            {
                "amenity": "restaurant",
                "contact:email": "ads@evrasia.spb.ru",
                "contact:phone": "+7 812 3103879",
                "contact:vk": "https://vk.com/evrasiaspb",
                "contact:website": "https://evrasia.spb.ru/",
                "cuisine": "sushi",
                "name": "Евразия",
                "opening_hours": "Mo-Su 12:00-05:00",
                "operator": "Евразия",
                "smoking": "yes"
            },
            {
                "name": "Villa Aston",
                "amenity": "restaurant",
                "website": "https://cityhotelgroup.ru/restaurant/4",
                "operator": "ООО «Бисквит Плюс»",
                "contact:vk": "https://vk.com/club34199797",
                "opening_hours": "11:00-23:00"
            },
            {
                "name": "Ф.М. Достоевский",
                "amenity": "restaurant",
                "website": "http://www.dostoevskyfm.com/",
                "int_name": "F.M. Dostoevsky"
            },
            {
                "amenity": "restaurant",
                "contact:vk": "https://vk.com/cleanplates",
                "internet_access": "wlan",
                "name": "Общество чистых тарелок",
                "name:en": "Clean plates society",
                "name:ru": "Общество чистых тарелок",
                "website": "https://www.cleanplatescafe.com/"
            },
            {
                "name": "Georgian's",
                "amenity": "restaurant",
                "cuisine": "georgian",
                "internet_access": "wlan",
                "internet_access:fee": "no"
            },
            {
                "name": "Гастрономика",
                "level": "5",
                "amenity": "restaurant",
                "website": "https://ginza.ru/spb/restaurant/gastronomika",
                "addr:city": "Санкт-Петербург",
                "addr:street": "Стремянная улица",
                "addr:postcode": "191025",
                "opening_hours": "Mo-Fr 11:00-01:00; Sa-Su 12:00-01:00",
                "addr:housenumber": "21/5"
            },
            {
                "name": "Ra Family",
                "level": "0",
                "amenity": "restaurant",
                "website": "https://rafamilygroup.com/",
                "diet:raw": "yes",
                "contact:vk": "https://vk.com/rafamily_spb",
                "opening_hours": "11:00-23:00"
            },
            {
                "name": "Этнос",
                "phone": "+7 812 3138382",
                "amenity": "restaurant",
                "cuisine": "georgian",
                "website": "http://ethnos-cafe.ru/",
                "contact:vk": "https://vk.com/club114240289",
                "opening_hours": "Mo-Fr 11:00-24:00, Sa-Su 11:00-01:00",
                "contact:facebook": "https://www.facebook.com/ethnos.cafe"
            },
            {
                "name": "Мы же на ты",
                "phone": "+7 812 4564474",
                "amenity": "restaurant",
                "website": "https://vk.com/myzhenaty",
                "payment:visa": "yes",
                "opening_hours": "Su-Th 09:00-23:00; Fr-Sa 09:00-01:00",
                "payment:mastercard": "yes"
            },
            {
                "amenity": "restaurant",
                "contact:vk": "https://vk.com/littlesicily",
                "name": "Little Sicily"
            },
            {
                "name": "Sasha's Bar",
                "amenity": "restaurant",
                "contact:vk": "https://vk.com/sashasbar"
            },
            {
                "name": "ПаратовЪ",
                "amenity": "restaurant",
                "website": "http://паратовъ-спб.рф/",
                "contact:vk": "https://vk.com/restoran.paratov",
                "opening_hours": "12:00-23:00"
            },
            {
                "name": "Пельмения",
                "amenity": "restaurant",
                "website": "http://пельмения.рф/",
                "operator": "ООО «Русский продукт»",
                "contact:vk": "https://vk.com/club35096702",
                "opening_hours": "11:00-23:00"
            },
            {
                "amenity": "restaurant",
                "contact:vk": "https://vk.com/restoranfavorit",
                "name": "Фаворит",
                "website": "https://favorit-restoran.ru/"
            },
            {
                "amenity": "restaurant",
                "contact:website": "https://claretcafe.ru/",
                "name": "Claret"
            },
            {
                "name": "Рестобар",
                "amenity": "restaurant",
                "wheelchair": "no",
                "outdoor_seating": "yes"
            },
            {
                "name": "Пури Оджахури",
                "amenity": "restaurant",
                "cuisine": "georgian",
                "contact:vk": "https://vk.com/pury_odzhahury",
                "opening_hours": "11:00-23:00"
            },
            {
                "name": "Корейко",
                "amenity": "restaurant",
                "website": "http://koreiko.com/",
                "contact:vk": "https://vk.com/grillbarkoreiko"
            }
        ]
    },
    "beauty": {
        "count": 9,
        "detail": [
            {
                "name": "ЛиксNail",
                "shop": "beauty",
                "website": "https://liksnail.ru/",
                "operator": "ИП Кит Виктория Николаевна",
                "contact:vk": "https://vk.com/club139601119",
                "opening_hours": "09:00-21:00"
            },
            {
                "name": "Солнечный Бункер",
                "shop": "beauty",
                "operator": "ООО \"Паритет\"",
                "opening_hours": "24/7"
            },
            {
                "name": "Chicago",
                "shop": "beauty",
                "website": "http://salon-chicago.ru/"
            },
            {
                "name": "Сфинкс",
                "shop": "beauty",
                "website": "https://sfinks.ru/",
                "contact:vk": "https://vk.com/depilsalon"
            },
            {
                "name": "Феникс",
                "shop": "beauty",
                "operator": "ООО \"Витязь\"",
                "contact:vk": "https://vk.com/phoenixsalon",
                "opening_hours": "Mo-Sa 09:00-21:00; Su 10:00-20:00"
            },
            {
                "name": "Афродита",
                "shop": "beauty",
                "phone": "+7 812 7644650",
                "contact:vk": "https://vk.com/vafrodite",
                "opening_hours": "Mo-Fr 08:00-20:00; Sa-Su 09:00-20:00"
            },
            {
                "name": "Помада",
                "note": "вход под аркой",
                "shop": "beauty",
                "level": "0",
                "website": "http://www.salonpomada.ru/",
                "contact:vk": "https://vk.com/salonpomada"
            },
            {
                "name": "Креатив",
                "shop": "beauty",
                "website": "https://kreativespb.ru/",
                "operator": "ООО «Фирма Интердин»",
                "contact:vk": "https://vk.com/club18809175",
                "opening_hours": "Mo-Sa 10:00-21:00; Su 11:00-19:00"
            },
            {
                "contact:email": "mirramed@yandex.ru",
                "contact:facebook": "https://facebook.com/mirramedspb",
                "contact:instagram": "https://instagram.com/mirramed",
                "contact:phone": "+7 812 5723161;+7 812 7010006;+7 812 7010112",
                "contact:vk": "https://vk.com/mirramed_spb",
                "contact:website": "https://www.mirramedspb.ru/",
                "contact:youtube": "https://youtube.com/user/MirraMed",
                "name": "МирраМед",
                "opening_hours": "Mo-Su 09:00-21:00",
                "operator": "МирраМед",
                "shop": "beauty"
            }
        ]
    },
    "bar": {
        "count": 10,
        "detail": [
            {
                "name": "Почта",
                "amenity": "bar",
                "contact:vk": "https://vk.com/pochtabar"
            },
            {
                "addr:city": "Санкт-Петербург",
                "addr:housenumber": "5",
                "addr:street": "улица Марата",
                "amenity": "bar",
                "contact:vk": "https://vk.com/kontaktbar",
                "name": "Контакт Бар",
                "opening_hours": "Mo-Su 12:00-06:00",
                "phone": "+7 812 9518394",
                "website": "https://kontaktbar.ru/"
            },
            {
                "name": "Karabas Bar",
                "amenity": "bar",
                "contact:instagram": "https://www.instagram.com/karabas.bar/"
            },
            {
                "name": "FSB",
                "amenity": "bar"
            },
            {
                "amenity": "bar",
                "contact:vk": "https://vk.com/kontaktbar",
                "level": "1",
                "name": "Контакт бар",
                "opening_hours": "Mo-Su 12:00-06:00",
                "phone": "+7 812 9518395",
                "smoking": "no",
                "website": "https://kontaktbar.ru/"
            },
            {
                "addr:housenumber": "14",
                "addr:street": "улица Марата",
                "amenity": "bar",
                "contact:vk": "https://vk.com/pivnoyetiket",
                "cuisine": "bavarian;grill;mexican;german",
                "internet_access": "wlan",
                "name": "Пивной Этикет",
                "name:en": "Pivnoy Etiket",
                "opening_hours": "Fr-Sa 15:00-04:00; Su-Th 15:00-02:00",
                "phone": "+7 812 7641068",
                "website": "http://www.vk.com/pivnoyetiket"
            },
            {
                "name": "Granada",
                "amenity": "bar",
                "contact:vk": "https://vk.com/club140027224"
            },
            {
                "name": "Бонвиван",
                "amenity": "bar",
                "contact:vk": "https://vk.com/bonvivanspb",
                "opening_hours": "Su-Th 16:00-02:00, Fr-Sa 16:00-06:00"
            },
            {
                "amenity": "bar",
                "cuisine": "mexican",
                "name": "El Copitas",
                "opening_hours": "Th-Sa 19:00-01:00",
                "phone": "+7 812 9417168"
            },
            {
                "amenity": "bar",
                "contact:vk": "https://vk.com/kwakinnpub",
                "internet_access": "wlan",
                "name": "KwakInn",
                "opening_hours": "Su-Th 12:00-01:00; Fr-Sa 12:00-02:00",
                "phone": "+7 812 9052236",
                "website": "http://kwakinn.ru/reservations/butylochnaya-kwakinn-draught-bottle"
            }
        ]
    },
    "pharmacy": {
        "count": 5,
        "detail": [
            {
                "amenity": "pharmacy",
                "contact:vk": "https://vk.com/drstoletov",
                "healthcare": "pharmacy",
                "name": "Доктор Столетов",
                "website": "https://stoletov.ru/"
            },
            {
                "amenity": "pharmacy",
                "contact:vk": "https://vk.com/planeta_zdorovo",
                "healthcare": "pharmacy",
                "name": "Планета здоровья",
                "opening_hours": "24/7",
                "operator": "ООО «Парус»",
                "website": "https://planetazdorovo.ru/"
            },
            {
                "amenity": "pharmacy",
                "healthcare": "pharmacy",
                "name": "Грибная аптека"
            },
            {
                "amenity": "pharmacy",
                "healthcare": "pharmacy",
                "opening_hours": "09:00-23:00",
                "operator": "ООО «Аптека №1»",
                "phone": "+7 812 5712328"
            },
            {
                "amenity": "pharmacy",
                "contact:vk": "https://vk.com/ozerkiapteka",
                "healthcare": "pharmacy",
                "name": "Озерки",
                "opening_hours": "Mo-Fr 07:00-23:00; Sa-Su 08:00-22:00",
                "operator": "ООО «Эркафарм Северо-Запад»",
                "website": "https://ozerki.ru/"
            }
        ]
    },
    "post_box": {
        "count": 6,
        "detail": [
            {
                "ref": "72",
                "amenity": "post_box",
                "operator": "Почта России",
                "design:year": "2010",
                "drive_through": "no",
                "post_box:type": "wall",
                "post_box:design": "ЯПНМ-II-С",
                "collection_times": "Mo-Fr 05:25,14:00; Sa 09:35; Su 14:00"
            },
            {
                "ref": "71",
                "amenity": "post_box",
                "operator": "Почта России",
                "design:year": "2010",
                "drive_through": "no",
                "post_box:type": "wall",
                "post_box:design": "ЯПНМ-II-С",
                "collection_times": "Mo-Fr 05:20,13:55; Sa 09:30; Su 13:55"
            },
            {
                "amenity": "post_box",
                "collection_times": "06:20",
                "design:year": "2010",
                "drive_through": "no",
                "operator": "Почта России",
                "post_box:design": "ЯПНМ-II-С",
                "post_box:type": "wall",
                "ref": "66"
            },
            {
                "ref": "53",
                "amenity": "post_box",
                "operator": "Почта России",
                "design:year": "2010",
                "drive_through": "no",
                "post_box:type": "wall",
                "post_box:design": "ЯПНМ-II-С",
                "collection_times": "Mo-Fr 03:50,12:10; Sa 07:50; Su 12:10"
            },
            {
                "ref": "73",
                "amenity": "post_box",
                "operator": "Почта России",
                "design:year": "2010",
                "drive_through": "no",
                "post_box:type": "wall",
                "post_box:design": "ЯПНМ-II-С",
                "collection_times": "Mo-Fr 05:30,14:05; Sa 09:40; Su 14:05"
            },
            {
                "ref": "347",
                "indoor": "yes",
                "amenity": "post_box",
                "operator": "Почта России",
                "design:year": "2010",
                "drive_through": "no",
                "opening_hours": "Mo-Fr 08:00-13:00,14:00-20:00; Sa 09:00-13:00,14:00-18:00; PH off",
                "post_box:type": "pillar",
                "post_box:design": "ЯПВ-Т-П",
                "collection_times": "Mo-Sa 07:40"
            }
        ]
    },
    "bakery": {
        "count": 4,
        "detail": [
            {
                "name": "Bengel",
                "shop": "bakery",
                "website": "http://bengel.ru/",
                "contact:vk": "https://vk.com/bengelbakery"
            },
            {
                "brand": "Булочные Ф. Вольчека",
                "contact:email": "info@fvolchek.ru",
                "contact:phone": "+7 812 6420638",
                "contact:vk": "f.volchek",
                "contact:website": "http://fvolchek.ru/",
                "drink:coffee": "served",
                "drink:mors": "served",
                "drink:tea": "served",
                "inscription": "Булочная № 15",
                "name": "Булочная Ф. Вольчека",
                "name:ru": "Булочная Ф. Вольчека",
                "opening_hours": "Mo-Su 08:00-22:00",
                "payment:cash": "yes",
                "payment:maestro": "yes",
                "payment:mastercard": "yes",
                "payment:visa": "yes",
                "payment:visa_debit": "yes",
                "payment:visa_electron": "yes",
                "ref": "15",
                "shop": "bakery",
                "takeaway": "yes"
            },
            {
                "drink:coffee": "served",
                "drink:tea": "served",
                "internet_access": "wlan",
                "level": "-1",
                "name": "Лавка пекаря",
                "payment:credit_cards": "yes",
                "payment:debit_cards": "yes",
                "shop": "bakery",
                "wheelchair": "no"
            },
            {
                "name": "Церковный хлеб",
                "shop": "bakery"
            }
        ]
    },
    "mobile_phone": {
        "count": 3,
        "detail": [
            {
                "brand": "Связной",
                "brand:en": "Svyaznoy",
                "brand:wikidata": "Q65371",
                "brand:wikipedia": "en:Svyaznoy",
                "name": "Связной",
                "name:en": "Svyaznoy",
                "opening_hours": "09:00-23:00",
                "operator": "Связной",
                "phone": "+7 800 7004343",
                "shop": "mobile_phone",
                "website": "http://www.svyaznoy.ru/"
            },
            {
                "brand": "Мегафон",
                "brand:en": "MegaFon",
                "brand:wikidata": "Q1720713",
                "brand:wikipedia": "en:MegaFon",
                "contact:vk": "https://vk.com/megafon",
                "name": "Мегафон",
                "name:en": "MegaFon",
                "opening_hours": "09:00-21:00",
                "shop": "mobile_phone",
                "website": "https://spb.megafon.ru/"
            },
            {
                "addr:floor": "2",
                "contact:vk": "https://vk.com/zopopro",
                "name": "Zopo.pro",
                "shop": "mobile_phone",
                "website": "https://zopo.pro/"
            }
        ]
    },
    "travel_agency": {
        "count": 10,
        "detail": [
            {
                "name": "Discovery Tour",
                "shop": "travel_agency",
                "opening_hours": "Mo-Fr 11:00-20:00;Sa 11:00-17:00"
            },
            {
                "contact:vk": "https://vk.com/meteorstravel",
                "email": "marata-9@meteors.ru",
                "name": "Meteors Travel",
                "opening_hours": "Mo-Fr 08:00-20:00; Sa 11:00-16:00",
                "phone": "+7 812 2404705",
                "shop": "travel_agency",
                "website": "https://meteors.ru/"
            },
            {
                "name": "Мир",
                "shop": "travel_agency",
                "brand": "Горячие туры",
                "website": "http://www.mirtravel.ru/",
                "website2": "http://www.hottspb.ru/mayakovskaya_2/",
                "contact:vk": "https://vk.com/mirtravel",
                "opening_hours": "Mo-Fr 10:00-20:00; Sa-Su 12:00-18:00"
            },
            {
                "contact:vk": "https://vk.com/sletatnamarata",
                "name": "Слетать.ру",
                "shop": "travel_agency",
                "website": "https://spb38.sletat.ru/"
            },
            {
                "name": "Robinson Tours",
                "shop": "travel_agency",
                "website": "http://robinsontours.ru/"
            },
            {
                "name": "Жара",
                "shop": "travel_agency",
                "website": "http://www.zharatravel.ru/",
                "contact:vk": "https://vk.com/zhara.travel"
            },
            {
                "name": "Aloha",
                "shop": "travel_agency",
                "website": "https://alohatur.ru/contacts/vladimirskaya-dostoevskaya",
                "addr:floor": "2",
                "contact:vk": "https://vk.com/alohatour"
            },
            {
                "name": "Слетать.ру",
                "shop": "travel_agency",
                "website": "https://sletat.ru/",
                "addr:floor": "2",
                "contact:vk": "https://vk.com/sletat_ru"
            },
            {
                "name": "AliVinTour",
                "shop": "travel_agency",
                "website": "http://www.alivintour.ru/",
                "addr:floor": "2",
                "contact:vk": "https://vk.com/club965217"
            },
            {
                "brand": "Сеть магазинов горящих путевок",
                "contact:vk": "https://vk.com/public_mgp",
                "name": "Магазин горящих путевок",
                "opening_hours": "11:00-20:00",
                "shop": "travel_agency",
                "website": "https://mgp.ru/offices/1949/"
            }
        ]
    },
    "guns": {
        "count": 1,
        "detail": [
            {
                "name": "Выставка-продажа",
                "shop": "guns",
                "phone": "+7 812 5757238"
            }
        ]
    },
    "toys": {
        "count": 2,
        "detail": [
            {
                "description": "Магазин настольных игр. Большой ассортимент лучших игр в мире.",
                "name": "GaGa.ru",
                "opening_hours": "10:00-22:00",
                "phone": "+7 812 3893753",
                "shop": "toys",
                "website": "https://gaga.ru/"
            },
            {
                "name": "Золотой ключик",
                "shop": "toys",
                "level": "-1",
                "website": "https://www.z-kliuchik.net/",
                "contact:vk": "https://vk.com/z_kliuchik",
                "opening_hours": "10:00-20:00"
            }
        ]
    },
    "waste_disposal": {
        "count": 2,
        "detail": [
            {
                "waste": "trash",
                "amenity": "waste_disposal"
            },
            {
                "amenity": "waste_disposal"
            }
        ]
    },
    "bus_stop": {
        "count": 5,
        "detail": [
            {
                "bench": "yes",
                "bin": "yes",
                "highway": "bus_stop",
                "local_ref": "1;5;7;10;11;22",
                "name": "станция метро «Площадь Восстания»",
                "passenger_information_display": "yes",
                "public_transport": "platform",
                "shelter": "yes",
                "trolleybus": "yes"
            },
            {
                "bus": "yes",
                "fixme": "расположение примерное",
                "highway": "bus_stop",
                "name": "станция метро «Владимирская»",
                "public_transport": "platform"
            },
            {
                "highway": "bus_stop",
                "name": "Владимирская площадь",
                "name:ru": "Владимирская площадь",
                "public_transport": "platform",
                "trolleybus": "yes"
            },
            {
                "name": "Владимирская площадь",
                "public_transport": "stop_position",
                "trolleybus": "yes"
            },
            {
                "name": "Владимирская площадь",
                "public_transport": "stop_position",
                "trolleybus": "yes"
            }
        ]
    },
    "convenience": {
        "count": 6,
        "detail": [
            {
                "name": "Продукты",
                "shop": "convenience",
                "opening_hours": "Mo-Fr 07:00-23:00; Sa-Su 08:00-23:00"
            },
            {
                "name": "СантаМаг",
                "shop": "convenience",
                "name:ru": "СантаМаг",
                "website": "http://santa-mag.ru/",
                "operator": "ООО \"Шарурский\"",
                "contact:vk": "https://vk.com/club144216822",
                "opening_hours": "24/7"
            },
            {
                "name": "Продукты",
                "shop": "convenience",
                "opening_hours": "24/7"
            },
            {
                "name": "Продукты",
                "shop": "convenience",
                "opening_hours": "24/7"
            },
            {
                "brand": "ВкусВилл",
                "brand:wikidata": "Q57271676",
                "brand:wikipedia": "ru:Вкусвилл",
                "contact:facebook": "https://www.facebook.com/vkusvill.ru",
                "contact:instagram": "https://www.instagram.com/izbenka_vkusvill/",
                "contact:vk": "https://vk.com/vkusvill_ru",
                "name": "ВкусВилл",
                "opening_hours": "Mo-Su 09:00-22:00",
                "operator": "ООО «Вкусвилл»",
                "shop": "convenience",
                "website": "https://spb.vkusvill.ru/shops/?shop_id=9427"
            },
            {
                "name": "Минимаркет",
                "opening_hours": "24/7",
                "shop": "convenience"
            }
        ]
    },
    "parking": {
        "count": 1,
        "detail": [
            {
                "access": "yes",
                "amenity": "parking",
                "fee": "yes",
                "layer": "-1",
                "opening_hours": "24/7",
                "parking": "underground"
            }
        ]
    },
    "parking_entrance": {
        "count": 2,
        "detail": [
            {
                "amenity": "parking_entrance"
            },
            {
                "amenity": "parking_entrance"
            }
        ]
    },
    "library": {
        "count": 1,
        "detail": [
            {
                "name": "На Стремянной",
                "amenity": "library",
                "website": "http://lermontovka-spb.ru/stremyannaya/",
                "contact:vk": "https://vk.com/stremyannaya"
            }
        ]
    },
    "hardware": {
        "count": 1,
        "detail": [
            {
                "name": "Водопад",
                "shop": "hardware",
                "opening_hours": "Mo-Fr 08:00-22:00; Sa 09:00-20:00; Su 10:00-19:00",
                "contact:website": "http://vodopad.spb.ru/"
            }
        ]
    },
    "training": {
        "count": 4,
        "detail": [
            {
                "name": "Я — Актер!",
                "amenity": "training",
                "website": "http://i-actor.ru/",
                "contact:vk": "https://vk.com/iactorspb",
                "wheelchair": "no",
                "description": "актёрское мастерство для детей"
            },
            {
                "name": "Школа Радио",
                "amenity": "training",
                "website": "http://школарадио.рф/",
                "contact:vk": "https://vk.com/radioschoolru"
            },
            {
                "name": "Питер-диплом",
                "amenity": "training",
                "website": "http://piterdiplom.ru/",
                "contact:vk": "https://vk.com/diplompiter"
            },
            {
                "name": "Секс.рф",
                "amenity": "training",
                "website": "https://spb.sexrf.com/",
                "contact:vk": "https://vk.com/tcsexrf"
            }
        ]
    },
    "jewelry": {
        "count": 6,
        "detail": [
            {
                "name": "Золотой",
                "shop": "jewelry",
                "phone": "+7 931 3554087;+7 800 5555585",
                "website": "https://www.zolotoy.ru/newshop/?shop=15671",
                "contact:vk": "https://vk.com/clubzolotoy",
                "opening_hours": "10:00-22:00"
            },
            {
                "level": "1",
                "name": "Sunlight",
                "opening_hours": "10:00-22:00",
                "phone": "+7 800 7752222",
                "shop": "jewelry",
                "website": "http://www.love-sl.ru/"
            },
            {
                "name": "585 Gold",
                "shop": "jewelry",
                "craft": "jeweller",
                "website": "https://zoloto585.ru/",
                "contact:vk": "https://vk.com/zoloto585gold"
            },
            {
                "addr:housenumber": "5",
                "addr:street": "улица Марата",
                "name": "Серебряный слон",
                "name:ru": "Серебряный слон",
                "opening_hours": "Mo-Su 10:00-21:00",
                "phone": "+7 812 9546530",
                "shop": "jewelry",
                "website": "http://slon925.ru"
            },
            {
                "name": "Серебро",
                "shop": "jewelry",
                "website": "http://serebro-juvelir.com/",
                "opening_hours": "Mo-Fr 10:00-21:00; Sa-Su 11:00-21:00"
            },
            {
                "name": "Магия граната",
                "shop": "jewelry",
                "brand": "Granát Turnov",
                "website": "http://www.magicgarnet.ru/",
                "contact:vk": "https://vk.com/magic_garnet",
                "opening_hours": "11:00-20:00",
                "brand:wikidata": "Q12018446"
            }
        ]
    },
    "gift": {
        "count": 3,
        "detail": [
            {
                "name": "Я в Питере!",
                "shop": "gift",
                "opening_hours": "10:00-23:00"
            },
            {
                "name": "Алхимия",
                "shop": "gift",
                "website": "http://ethnopiter.ru/alquimia.html",
                "operator": "ООО \"Ра\"",
                "contact:vk": "https://vk.com/alquimia",
                "opening_hours": "11:00-21:00"
            },
            {
                "opening_hours": "09:00-21:30",
                "shop": "gift"
            }
        ]
    },
    "hairdresser": {
        "count": 3,
        "detail": [
            {
                "name": "Vmesto",
                "shop": "hairdresser",
                "phone": "+7 812 9616061",
                "website": "http://vk.com/vmestostudio",
                "addr:city": "Санкт-Петербург",
                "addr:street": "Пушкинская улица",
                "opening_hours": "12:00-21:00",
                "addr:housenumber": "5"
            },
            {
                "name": "Расчеши",
                "shop": "hairdresser",
                "website": "http://ras4eshi.ru/",
                "contact:vk": "https://vk.com/ras4eshi",
                "opening_hours": "09:30-21:30"
            },
            {
                "name": "Две столицы",
                "shop": "hairdresser",
                "website": "https://www.2stolici.com/",
                "contact:vk": "https://vk.com/2dvestolicy",
                "opening_hours": "10:00-21:00"
            }
        ]
    },
    "telephone": {
        "count": 5,
        "detail": [
            {
                "amenity": "telephone"
            },
            {
                "amenity": "telephone"
            },
            {
                "phone": "+7 812 5714406",
                "amenity": "telephone",
                "payment:telephone_cards": "yes"
            },
            {
                "amenity": "telephone",
                "payment:telephone_cards": "yes"
            },
            {
                "amenity": "telephone",
                "payment:telephone_cards": "yes"
            }
        ]
    },
    "pub": {
        "count": 4,
        "detail": [
            {
                "name": "Ring o'Bells",
                "amenity": "pub",
                "operator": "ООО «Джокер»",
                "contact:vk": "https://vk.com/ringobells",
                "contact:phone": "+7 812 7642289",
                "opening_hours": "Mo-Su 00:00-05:00,12:00-24:00",
                "contact:website": "https://ringo-bells.ru/",
                "internet_access": "wlan"
            },
            {
                "name": "Jäger",
                "phone": "+7 812 3158574;+7 812 6111110",
                "amenity": "pub",
                "website": "http://www.jagerhaus.ru/kontakty/restoran-na-marata/",
                "old_name": "Jager Haus",
                "contact:vk": "https://vk.com/jagerhaus",
                "opening_hours": "Su-Th 11:30-01:00, Fr-Sa 11:30-06:00"
            },
            {
                "addr:city": "Санкт-Петербург",
                "addr:housenumber": "2",
                "addr:street": "улица Марата",
                "amenity": "pub",
                "brewery": "yes",
                "contact:vk": "https://vk.com/beerhousebar",
                "internet_access": "wlan",
                "name": "Beer House",
                "opening_hours": "Mo-Su 12:00-06:00",
                "phone": "+7 812 5012164",
                "website": "http://beerhousebar.ru/"
            },
            {
                "amenity": "pub",
                "contact:vk": "https://vk.com/mariusrestaurant",
                "name": "Marius",
                "opening_hours": "24/7",
                "website": "https://mariuspub.ru/"
            }
        ]
    },
    "alcohol": {
        "count": 6,
        "detail": [
            {
                "contact:facebook": "https://www.facebook.com/aromatny.mir",
                "contact:phone": "+7 812 32160605076",
                "contact:website": "http://amwine.ru",
                "name": "Ароматный мир",
                "name:en": "Aromatny Mir",
                "name:ru": "Ароматный мир",
                "opening_hours": "Mo-Su 10:00-22:00",
                "shop": "alcohol"
            },
            {
                "name": "Градусы всего мира",
                "shop": "alcohol",
                "phone": "+7 812 6776384",
                "website": "http://www.gradusi.net/shops/spb/1262/",
                "operator": "ООО «Винтаж»",
                "contact:vk": "https://vk.com/gradusi_market",
                "opening_hours": "Mo-Su 09:00-22:00"
            },
            {
                "contact:vk": "https://vk.com/napitkimiracom",
                "name": "Калейдоскоп напитков мира",
                "opening_hours": "10:00-22:00",
                "operator": "ООО «Калейдоскоп»",
                "shop": "alcohol",
                "website": "https://www.napitkimira.com/magaziny/kaleydoskop-napitkov-na-marata-18/"
            },
            {
                "name": "Росал 24",
                "shop": "alcohol",
                "opening_hours": "Mo-Su 11:00-22:00"
            },
            {
                "name": "Арарат",
                "shop": "alcohol",
                "website": "http://ararat-wine.ru/",
                "contact:vk": "https://vk.com/araratwine",
                "opening_hours": "Mo-Sa 11:00-22:00; Su 11:00-21:00"
            },
            {
                "brand": "Красное & Белое",
                "brand:en": "Red&White",
                "brand:wikidata": "Q24933790",
                "brand:wikipedia": "en:Krasnoe & Beloe",
                "name": "Красное & Белое",
                "name:en": "Red&White",
                "opening_hours": "Mo-Su 09:00-22:05",
                "shop": "alcohol"
            }
        ]
    },
    "dentist": {
        "count": 3,
        "detail": [
            {
                "amenity": "dentist",
                "healthcare": "dentist"
            },
            {
                "amenity": "dentist",
                "contact:vk": "https://vk.com/matissdent",
                "healthcare": "dentist",
                "name": "Матисс Дент",
                "opening_hours": "09:00-21:00",
                "website": "https://matissdent.ru/"
            },
            {
                "amenity": "dentist",
                "contact:vk": "https://vk.com/kzubki",
                "healthcare": "dentist",
                "name": "Красивые зубки",
                "opening_hours": "09:00-22:00",
                "website": "http://красивыезубки.рф/"
            }
        ]
    },
    "games": {
        "count": 1,
        "detail": [
            {
                "name": "Мосигра",
                "shop": "games",
                "level": "1"
            }
        ]
    },
    "outdoor": {
        "count": 1,
        "detail": [
            {
                "name": "Снаряжение",
                "shop": "outdoor",
                "name:ru": "Снаряжение",
                "operator": "ООО «Вектор»",
                "contact:vk": "https://vk.com/equipru",
                "contact:email": "Pasl80@yandex.ru",
                "contact:phone": "+7 812 7124870",
                "opening_hours": "Mo-Sa 10:00-20:00; Su 10:00-18:00",
                "contact:website": "http://www.equip.ru/ul._stremyannaya,_d._3"
            }
        ]
    },
    "atm": {
        "count": 12,
        "detail": [
            {
                "amenity": "atm",
                "operator": "Балтийский банк",
                "description": "За турникетами"
            },
            {
                "amenity": "atm",
                "operator": "Санкт-Петербург"
            },
            {
                "amenity": "atm",
                "operator": "Сбербанк России"
            },
            {
                "amenity": "atm",
                "operator": "ВТБ24",
                "ref": "372111"
            },
            {
                "amenity": "atm",
                "operator": "Сбербанк России"
            },
            {
                "amenity": "atm",
                "contact:email": "kanc@akbars.ru",
                "contact:facebook": "https://www.facebook.com/akbarsbank",
                "contact:instagram": "https://www.instagram.com/akbars_bank/",
                "contact:ok": "https://ok.ru/akbarsbank",
                "contact:phone": "+7 800 2005303",
                "contact:twitter": "https://twitter.com/akbars_ru",
                "contact:vk": "https://vk.com/akbars_ru",
                "contact:website": "https://akbars.ru/",
                "name": "Ак Барс Банк",
                "opening_hours": "24/7",
                "operator": "АК БАРС БАНК",
                "telegram": "https://t.me/akbars_ru"
            },
            {
                "amenity": "atm",
                "contact:email": "kanc@akbars.ru",
                "contact:facebook": "https://www.facebook.com/akbarsbank",
                "contact:instagram": "https://www.instagram.com/akbars_bank/",
                "contact:ok": "https://ok.ru/akbarsbank",
                "contact:phone": "+7 800 2005303",
                "contact:twitter": "https://twitter.com/akbars_ru",
                "contact:vk": "https://vk.com/akbars_ru",
                "contact:website": "https://akbars.ru/",
                "name": "Ак Барс Банк",
                "opening_hours": "24/7",
                "operator": "АК БАРС БАНК",
                "telegram": "https://t.me/akbars_ru"
            },
            {
                "amenity": "atm",
                "contact:email": "kanc@akbars.ru",
                "contact:facebook": "https://www.facebook.com/akbarsbank",
                "contact:instagram": "https://www.instagram.com/akbars_bank/",
                "contact:ok": "https://ok.ru/akbarsbank",
                "contact:phone": "+7 800 2005303",
                "contact:twitter": "https://twitter.com/akbars_ru",
                "contact:vk": "https://vk.com/akbars_ru",
                "contact:website": "https://akbars.ru/",
                "name": "Ак Барс Банк",
                "opening_hours": "Mo-Fr 09:00 - 19:00",
                "operator": "АК БАРС БАНК",
                "telegram": "https://t.me/akbars_ru"
            },
            {
                "amenity": "atm",
                "brand": "Санкт-Петербург",
                "contact:email": "cc@bspb.ru",
                "contact:facebook": "https://www.facebook.com/bspb/",
                "contact:instagram": "https://instagram.com/bank_spb",
                "contact:ok": "https://ok.ru/bspb",
                "contact:phone": "+7 800 2225050;+7 812 3295050",
                "contact:twitter": "https://twitter.com/bank_spb",
                "contact:vk": "https://vk.com/bspb",
                "contact:website": "https://www.bspb.ru/",
                "currency:RUB": "yes",
                "opening_hours": "Mo-Su 11:00-23:00",
                "operator": "ПАО Банк Санкт-Петербург",
                "telegram": "https://t.me/mybspb"
            },
            {
                "amenity": "atm",
                "brand": "Санкт-Петербург",
                "contact:email": "cc@bspb.ru",
                "contact:facebook": "https://www.facebook.com/bspb/",
                "contact:instagram": "https://instagram.com/bank_spb",
                "contact:ok": "https://ok.ru/bspb",
                "contact:phone": "+7 800 2225050;+7 812 3295050",
                "contact:twitter": "https://twitter.com/bank_spb",
                "contact:vk": "https://vk.com/bspb",
                "contact:website": "https://www.bspb.ru/",
                "currency:RUB": "yes",
                "opening_hours": "Mo-Su 05:38-00:26",
                "operator": "ПАО Банк Санкт-Петербург",
                "telegram": "https://t.me/mybspb"
            },
            {
                "amenity": "atm",
                "contact:email": "kanc@akbars.ru",
                "contact:facebook": "https://www.facebook.com/akbarsbank",
                "contact:instagram": "https://www.instagram.com/akbars_bank/",
                "contact:ok": "https://ok.ru/akbarsbank",
                "contact:phone": "+7 800 2005303",
                "contact:twitter": "https://twitter.com/akbars_ru",
                "contact:vk": "https://vk.com/akbars_ru",
                "contact:website": "https://akbars.ru/",
                "opening_hours": "24/7",
                "operator": "Ак Барс Банк",
                "telegram": "https://t.me/akbars_ru"
            },
            {
                "amenity": "atm",
                "contact:email": "kanc@akbars.ru",
                "contact:facebook": "https://www.facebook.com/akbarsbank",
                "contact:instagram": "https://www.instagram.com/akbars_bank/",
                "contact:ok": "https://ok.ru/akbarsbank",
                "contact:phone": "+7 800 2005303",
                "contact:twitter": "https://twitter.com/akbars_ru",
                "contact:vk": "https://vk.com/akbars_ru",
                "contact:website": "https://akbars.ru/",
                "opening_hours": "24/7",
                "operator": "Ак Барс Банк",
                "telegram": "https://t.me/akbars_ru"
            }
        ]
    },
    "stripclub": {
        "count": 1,
        "detail": [
            {
                "name": "Zависть",
                "amenity": "stripclub",
                "website": "http://zavistbar.ru/lounge-bar/",
                "contact:vk": "https://vk.com/zavistbar"
            }
        ]
    },
    "optician": {
        "count": 3,
        "detail": [
            {
                "name": "Зайди — увидишь",
                "shop": "optician",
                "website": "https://zaidiuvidish.ru",
                "operator": "ООО «Зайди — увидишь»",
                "opening_hours": "Mo-Sa 10:00-21:00; Su 11:00-20:00"
            },
            {
                "name": "Zeiss",
                "shop": "optician",
                "brand": "Zeiss",
                "website": "https://zaidiuvidish.ru",
                "operator": "ООО «Зайди — увидишь»",
                "opening_hours": "Mo-Sa 10:00-21:00; Su 11:00-20:00",
                "brand:wikidata": "Q282186"
            },
            {
                "name": "Катти Сарк",
                "opening_hours": "10:00-20:00",
                "operator": "ООО «ЭйчДи Оптика»",
                "shop": "optician",
                "website": "http://www.cuttys.ru/salons/11/"
            }
        ]
    },
    "bureau_de_change": {
        "count": 2,
        "detail": [
            {
                "name": "Авангард",
                "amenity": "bureau_de_change",
                "name:fa": "صرافی",
                "website": "http://valuta812.ru/",
                "opening_hours": "24/7"
            },
            {
                "amenity": "bureau_de_change",
                "contact:vk": "https://vk.com/bank45",
                "name": "Кетовский коммерческий банк",
                "opening_hours": "09:00-20:00",
                "operator": "ООО КБ «Кетовский»",
                "website": "https://marata13.ru/"
            }
        ]
    },
    "arts_centre": {
        "count": 2,
        "detail": [
            {
                "name": "Этюд",
                "amenity": "arts_centre",
                "website": "http://art-1.ru/"
            },
            {
                "name": "0+",
                "amenity": "arts_centre",
                "contact:vk": "https://vk.com/prostranstvoplus"
            }
        ]
    },
    "fitness_centre": {
        "count": 3,
        "detail": [
            {
                "name": "Серебряный Лотос",
                "level": "3",
                "sport": "yoga",
                "leisure": "fitness_centre",
                "website": "http://www.slotus.ru/",
                "contact:vk": "https://vk.com/yoga_slotus",
                "opening_hours": "08:30-21:00"
            },
            {
                "name": "Fit-n-Go",
                "leisure": "fitness_centre",
                "website": "http://fit-n-go.ru/",
                "contact:vk": "https://vk.com/fitngo"
            },
            {
                "name": "Livebody.club",
                "level": "2",
                "leisure": "fitness_centre",
                "website": "http://livebody.club/",
                "contact:vk": "https://vk.com/livebody.club",
                "opening_hours": "07:00-23:00"
            }
        ]
    },
    "video": {
        "count": 1,
        "detail": [
            {
                "name": "Фантаzия",
                "shop": "video",
                "level": "0",
                "opening_hours": "10:00-21:00"
            }
        ]
    },
    "studio": {
        "count": 1,
        "detail": [
            {
                "amenity": "studio",
                "contact:vk": "https://vk.com/studio1839",
                "name": "Studio 18/39",
                "note": "скорее всего вход со двора",
                "studio": "photography",
                "website": "https://studio1839.ru/"
            }
        ]
    },
    "music_school": {
        "count": 1,
        "detail": [
            {
                "amenity": "music_school",
                "contact:email": "info@jm-school.ru",
                "contact:phone": "+7 812 3094060",
                "contact:vk": "https://vk.com/jmschool",
                "contact:website": "http://www.jm-school.ru",
                "description": "школа джаза и мюзикла",
                "level": "1",
                "name": "J&M"
            }
        ]
    },
    "farm": {
        "count": 1,
        "detail": [
            {
                "name": "Медведь",
                "shop": "farm",
                "level": "0",
                "website": "http://medved-centr.ru/",
                "contact:vk": "https://vk.com/ecomedved_spb",
                "opening_hours": "10:00-21:00"
            }
        ]
    },
    "vending_machine": {
        "count": 9,
        "detail": [
            {
                "amenity": "vending_machine",
                "indoor": "yes",
                "vending": "subway_tokens"
            },
            {
                "amenity": "vending_machine",
                "indoor": "yes",
                "vending": "public_transport_tickets"
            },
            {
                "indoor": "yes",
                "amenity": "vending_machine",
                "vending": "subway_tokens"
            },
            {
                "indoor": "yes",
                "amenity": "vending_machine",
                "vending": "public_transport_tickets"
            },
            {
                "indoor": "yes",
                "amenity": "vending_machine",
                "vending": "public_transport_tickets"
            },
            {
                "amenity": "vending_machine",
                "contact:phone": "+7 800 7753553",
                "contact:website": "http://omnicdek.com/",
                "name": "ОмниСДЭК",
                "opening_hours": "24/7",
                "ref": "6088",
                "vending": "parcel_pickup"
            },
            {
                "amenity": "vending_machine",
                "indoor": "yes",
                "operator": "Петербургский метрополитен",
                "payment:cash": "yes",
                "payment:maestro": "yes",
                "payment:mastercard": "yes",
                "payment:visa": "yes",
                "payment:visa_electron": "yes",
                "vending": "public_transport_tickets"
            },
            {
                "amenity": "vending_machine",
                "indoor": "yes",
                "operator": "Петербургский метрополитен",
                "payment:cash": "yes",
                "payment:maestro": "yes",
                "payment:mastercard": "yes",
                "payment:visa": "yes",
                "payment:visa_electron": "yes",
                "vending": "public_transport_tickets"
            },
            {
                "amenity": "vending_machine",
                "indoor": "yes",
                "operator": "Петербургский метрополитен",
                "payment:cash": "yes",
                "payment:maestro": "yes",
                "payment:mastercard": "yes",
                "payment:visa": "yes",
                "payment:visa_electron": "yes",
                "ref": "1104",
                "vending": "public_transport_tickets"
            }
        ]
    },
    "interior_decoration": {
        "count": 2,
        "detail": [
            {
                "name": "Сентябревъ",
                "shop": "interior_decoration",
                "website": "http://www.sentiabrev.ru/",
                "contact:vk": "https://vk.com/sentiabrev",
                "opening_hours": "Mo-Fr 10:00-20:00"
            },
            {
                "name": "Ампир Декор",
                "shop": "interior_decoration",
                "website": "https://www.ampir.ru/shops/sankt-petergurg/ul_pushkinskaya_d_19_m_ploshchad_vosstaniya/",
                "contact:vk": "https://vk.com/ampir_decor"
            }
        ]
    },
    "watches": {
        "count": 2,
        "detail": [
            {
                "name": "The Chronicles",
                "shop": "watches",
                "website": "http://thechronicles.ru/",
                "contact:vk": "https://vk.com/the_chronicles_store",
                "opening_hours": "12:00-21:00"
            },
            {
                "name": "Часы",
                "opening_hours": "Mo-Sa 11:00-20:00; Su 11:00-19:00",
                "shop": "watches",
                "website": "https://www.marata9.ru/"
            }
        ]
    },
    "party": {
        "count": 1,
        "detail": [
            {
                "contact:vk": "https://vk.com/zatey_party",
                "name": "Весёлая Затея",
                "shop": "party",
                "website": "https://spb.zatey.ru/shops/vesyelaya-zateya-na-marata/"
            }
        ]
    },
    "bookmaker": {
        "count": 2,
        "detail": [
            {
                "brand": "Лига ставок",
                "brand:en": "Liga Stavok",
                "brand:ru": "Лига ставок",
                "brand:wikidata": "Q6545804",
                "brand:wikipedia": "ru:Лига Ставок",
                "contact:vk": "https://vk.com/ligastavok_official",
                "name": "Лига ставок",
                "name:en": "Liga Stavok",
                "name:ru": "Лига ставок",
                "shop": "bookmaker",
                "website": "https://www.ligastavok.ru/"
            },
            {
                "brand": "Лига ставок",
                "brand:en": "Liga Stavok",
                "brand:ru": "Лига ставок",
                "brand:wikidata": "Q6545804",
                "brand:wikipedia": "ru:Лига Ставок",
                "contact:email": "info@ligastavok.ru",
                "contact:phone": "+7 800 5554455",
                "contact:vk": "https://vk.com/ligastavok_official",
                "contact:website": "https://www.ligastavok.ru/",
                "name": "Лига ставок",
                "name:en": "Liga Stavok",
                "name:ru": "Лига ставок",
                "opening_hours": "Mo-Su 11:00-23:00",
                "operator": "Первая международная букмекерская компания",
                "shop": "bookmaker"
            }
        ]
    },
    "tea": {
        "count": 1,
        "detail": [
            {
                "name": "Море чая",
                "shop": "tea",
                "website": "http://morecha.ru/",
                "contact:vk": "https://vk.com/morecha",
                "opening_hours": "Mo-Fr 08:30-20:30; Sa-Su 10:00-20:00"
            }
        ]
    },
    "music": {
        "count": 1,
        "detail": [
            {
                "name": "Фонотека",
                "shop": "music",
                "website": "https://phonoteka.ru/",
                "contact:vk": "https://vk.com/magazinphonoteka",
                "opening_hours": "10:00-22:00"
            }
        ]
    },
    "cosmetics": {
        "count": 2,
        "detail": [
            {
                "contact:vk": "https://vk.com/mirraspb",
                "name": "Mirra",
                "shop": "cosmetics",
                "website": "https://mirraspb.ru/"
            },
            {
                "name": "Профбьютимаркет",
                "shop": "cosmetics",
                "level": "0",
                "website": "https://www.profbeautymarket.ru/",
                "alt_name": "Профкосметика",
                "opening_hours": "10:00-21:00"
            }
        ]
    },
    "theatre": {
        "count": 1,
        "detail": [
            {
                "name": "Кукольный формат",
                "note": "вход со двора",
                "amenity": "theatre",
                "website": "http://www.kukfo.ru/",
                "alt_name": "Кукфо",
                "contact:vk": "https://vk.com/club647800"
            }
        ]
    },
    "doityourself": {
        "count": 2,
        "detail": [
            {
                "name": "Мастер ок!",
                "opening_hours": "Mo-Fr 10:00-20:00; Sa 10:00-19:00; Su 11:00-19:00",
                "operator": "ИП Григорьева О.В.",
                "shop": "doityourself",
                "website": "http://www.мастерок.su/"
            },
            {
                "name": "СтройХозТовары",
                "shop": "doityourself",
                "opening_hours": "Mo-Sa 10:00-20:00; Su 11:00-20:00"
            }
        ]
    },
    "bicycle_parking": {
        "count": 4,
        "detail": [
            {
                "amenity": "bicycle_parking",
                "bicycle_parking": "rack",
                "capacity": "5",
                "covered": "no"
            },
            {
                "amenity": "bicycle_parking"
            },
            {
                "amenity": "bicycle_parking",
                "bicycle_parking": "stands",
                "capacity": "6",
                "covered": "no"
            },
            {
                "amenity": "bicycle_parking",
                "covered": "no"
            }
        ]
    },
    "waste_basket": {
        "count": 11,
        "detail": [
            {
                "amenity": "waste_basket"
            },
            {
                "amenity": "waste_basket"
            },
            {
                "amenity": "waste_basket"
            },
            {
                "amenity": "waste_basket"
            },
            {
                "amenity": "waste_basket"
            },
            {
                "amenity": "waste_basket"
            },
            {
                "amenity": "waste_basket"
            },
            {
                "amenity": "waste_basket"
            },
            {
                "amenity": "waste_basket"
            },
            {
                "amenity": "waste_basket"
            },
            {
                "amenity": "waste_basket"
            }
        ]
    },
    "bench": {
        "count": 11,
        "detail": [
            {
                "amenity": "bench"
            },
            {
                "amenity": "bench"
            },
            {
                "amenity": "bench"
            },
            {
                "amenity": "bench"
            },
            {
                "amenity": "bench"
            },
            {
                "amenity": "bench"
            },
            {
                "amenity": "bench"
            },
            {
                "amenity": "bench"
            },
            {
                "amenity": "bench"
            },
            {
                "amenity": "bench"
            },
            {
                "amenity": "bench"
            }
        ]
    },
    "florist": {
        "count": 5,
        "detail": [
            {
                "name": "Семицветик",
                "shop": "florist",
                "phone": "+7 812 3857642",
                "opening_hours": "24/7"
            },
            {
                "name": "Фантазия",
                "shop": "florist",
                "website": "https://eliteflower.ru/",
                "contact:vk": "https://vk.com/eliteflower",
                "opening_hours": "24/7"
            },
            {
                "shop": "florist",
                "website": "http://pushkinskaya20.ru/",
                "contact:vk": "https://vk.com/pushkinskaya20",
                "opening_hours": "08:00-23:00"
            },
            {
                "name": "Цветовик",
                "shop": "florist",
                "level": "0",
                "website": "https://cvetovik.com/",
                "contact:vk": "https://vk.com/cvetovikspb",
                "opening_hours": "24/7"
            },
            {
                "name": "Настроение",
                "shop": "florist",
                "website": "https://buket-podarki.ru/",
                "contact:vk": "https://vk.com/nastroeniespb",
                "opening_hours": "08:00-22:00"
            }
        ]
    },
    "e-cigarette": {
        "count": 1,
        "detail": [
            {
                "name": "Cloud Kitchen",
                "shop": "e-cigarette",
                "contact:vk": "https://vk.com/cloud_kitchen"
            }
        ]
    },
    "musical_instrument": {
        "count": 1,
        "detail": [
            {
                "name": "Gibson Shop",
                "shop": "musical_instrument",
                "website": "https://gibsonshop.ru/",
                "contact:vk": "https://vk.com/gibsonshop",
                "opening_hours": "Mo-Fr 11:00-20:00; Sa-Su 11:00-19:00"
            }
        ]
    },
    "doctors": {
        "count": 3,
        "detail": [
            {
                "amenity": "doctors",
                "contact:vk": "https://vk.com/klinikamelis",
                "healthcare": "doctor",
                "name": "Мелис",
                "opening_hours": "09:00-21:00",
                "website": "http://klinikamelis.ru/"
            },
            {
                "amenity": "doctors",
                "contact:vk": "https://vk.com/clinic_origitea",
                "healthcare": "doctor",
                "int_name": "Origitea",
                "name": "Оригитея",
                "opening_hours": "Tu-Sa 08:00-21:00; Su-Mo 10:00-19:00",
                "operator": "ООО «Лотос М»",
                "website": "https://origitea.ru/"
            },
            {
                "amenity": "doctors",
                "healthcare": "doctor",
                "name": "Медицинский центр доктора Явида",
                "opening_hours": "Mo-Fr 09:00-21:00; Sa 10:00-20:00",
                "operator": "ООО «МедЛайн Студия»",
                "website": "http://yavid-mc.ru/"
            }
        ]
    },
    "pawnbroker": {
        "count": 2,
        "detail": [
            {
                "name": "Белые ночи",
                "shop": "pawnbroker",
                "website": "https://lombardbn.ru/",
                "contact:vk": "https://vk.com/lombardbn",
                "opening_hours": "08:00-20:00"
            },
            {
                "contact:vk": "https://vk.com/lombard_doverie",
                "level": "0",
                "name": "Доверие",
                "opening_hours": "08:00-20:00",
                "shop": "pawnbroker",
                "website": "https://doveriegroup.ru/contacts/na-vladimirskom-prospekte"
            }
        ]
    },
    "sewing": {
        "count": 2,
        "detail": [
            {
                "name": "Вязаный клуб",
                "shop": "sewing",
                "website": "http://viazanyclub.ru/",
                "contact:vk": "https://vk.com/viazany_club",
                "opening_hours": "Mo-Fr 11:00-20:00; Sa-Su 11:00-19:00"
            },
            {
                "name": "Яркий мир рукоделия",
                "shop": "sewing",
                "website": "http://mir-ruk.ru/",
                "contact:vk": "https://vk.com/mir_rukodelija"
            }
        ]
    },
    "furniture": {
        "count": 1,
        "detail": [
            {
                "name": "Francesco Molon",
                "shop": "furniture",
                "website": "https://www.francescomolon.ru/"
            }
        ]
    },
    "place_of_worship": {
        "count": 6,
        "detail": [
            {
                "name": "Храм во имя Тихвинской иконы Пресвятой Богородицы",
                "amenity": "place_of_worship",
                "religion": "christian",
                "denomination": "russian_orthodox",
                "opening_hours": "11:00-19:00; 14:00-15:00 off"
            },
            {
                "name": "Колокольня Владимирского собора",
                "amenity": "place_of_worship",
                "building": "yes",
                "man_made": "tower",
                "religion": "christian",
                "roof:shape": "onion",
                "tower:type": "bell_tower",
                "addr:letter": "Б",
                "addr:street": "Владимирский проспект",
                "denomination": "orthodox",
                "building:levels": "4",
                "addr:housenumber": "20 литБ"
            },
            {
                "name": "Собор Владимирской иконы Божией Матери",
                "amenity": "place_of_worship",
                "name:de": "Wladimir-Kathedale",
                "website": "http://vladimirsobor.spb.ru/",
                "alt_name": "Владимирский собор",
                "building": "cathedral",
                "religion": "christian",
                "wikidata": "Q2415106",
                "wikipedia": "ru:Владимирский собор (Санкт-Петербург)",
                "contact:vk": "https://vk.com/vladimirsoborspb",
                "addr:street": "Владимирский проспект",
                "denomination": "orthodox",
                "building:levels": "3",
                "addr:housenumber": "20"
            },
            {
                "amenity": "place_of_worship",
                "building": "chapel",
                "religion": "christian",
                "roof:shape": "dome",
                "denomination": "orthodox",
                "opening_hours": "09:00-19:00",
                "building:levels": "1"
            },
            {
                "amenity": "place_of_worship",
                "building": "chapel",
                "religion": "christian",
                "roof:shape": "dome",
                "denomination": "orthodox",
                "opening_hours": "09:00-19:00",
                "building:levels": "1"
            },
            {
                "name": "Часовня Никольского Храма",
                "amenity": "place_of_worship",
                "building": "chapel",
                "religion": "christian",
                "addr:letter": "Д",
                "addr:street": "улица Марата",
                "denomination": "russian_orthodox",
                "addr:housenumber": "24А литД"
            }
        ]
    },
    "stationery": {
        "count": 1,
        "detail": [
            {
                "name": "Палитра",
                "shop": "stationery",
                "name:ru": "Палитра"
            }
        ]
    },
    "newsagent": {
        "count": 3,
        "detail": [
            {
                "name": "Роспечать",
                "shop": "newsagent",
                "brand": "Роспечать",
                "website": "http://rosp.ru/",
                "building": "kiosk",
                "brand:wikidata": "Q4397882"
            },
            {
                "shop": "newsagent"
            },
            {
                "name": "Роспечать",
                "shop": "newsagent",
                "brand": "Роспечать",
                "website": "http://rosp.ru/",
                "building": "kiosk",
                "brand:wikidata": "Q4397882"
            }
        ]
    },
    "hookah_lounge;cafe": {
        "count": 1,
        "detail": [
            {
                "amenity": "hookah_lounge;cafe",
                "contact:vk": "https://vk.com/mv_c16",
                "name": "Место встречи",
                "opening_hours": "Su-Th 14:00-00:00; Fr-Sa 14:00-06:00",
                "website": "http://mesto-vstrechi-centr.ru/"
            }
        ]
    },
    "nightclub": {
        "count": 1,
        "detail": [
            {
                "name": "S16",
                "phone": "+7 812 9348973",
                "amenity": "nightclub",
                "opening_hours": "19:00-07:00"
            }
        ]
    },
    "erotic": {
        "count": 1,
        "detail": [
            {
                "contact:vk": "https://vk.com/tochkalubvi",
                "name": "Точка любви",
                "shop": "erotic",
                "website": "https://www.tochka-lubvi.ru/spvladimirskaya"
            }
        ]
    },
    "copyshop": {
        "count": 2,
        "detail": [
            {
                "name": "Ink-Print",
                "shop": "copyshop",
                "website": "http://ink-print.net/",
                "contact:vk": "https://vk.com/ink_print",
                "opening_hours": "Mo-Fr 10:00-20:00"
            },
            {
                "name": "Oq",
                "shop": "copyshop",
                "phone": "+7 812 7027070",
                "name:en": "OQ",
                "name:ru": "OQ",
                "website": "https://copy.spb.ru/",
                "opening_hours": "Mo-Fr 09:00-19:00",
                "internet_access": "wlan"
            }
        ]
    },
    "antiques": {
        "count": 1,
        "detail": [
            {
                "shop": "antiques",
                "operator": "ООО «Владимирский, 3»",
                "opening_hours": "11:00-19:00"
            }
        ]
    },
    "houseware": {
        "count": 1,
        "detail": [
            {
                "name": "Императорский фарфор",
                "shop": "houseware",
                "brand": "Императорский фарфоровый завод",
                "website": "http://www.ipm.ru/shops/shops_2/",
                "contact:vk": "https://vk.com/ipm_ru",
                "brand:wikidata": "Q1303887"
            }
        ]
    },
    "hookah_lounge": {
        "count": 2,
        "detail": [
            {
                "amenity": "hookah_lounge",
                "contact:vk": "https://vk.com/feromongroup",
                "internet_access": "wlan",
                "name": "Feromon Povarskoy",
                "note": "нет на сайте, возможно переехал на Стремянную",
                "opening_hours": "Mo-Su 12:00-06:00",
                "phone": "+7 812 9999876",
                "website": "https://feromon.group/"
            },
            {
                "addr:city": "Санкт-Петербург",
                "addr:housenumber": "16",
                "addr:postcode": "191025",
                "addr:street": "Стремянная улица",
                "amenity": "hookah_lounge",
                "internet_access": "wlan",
                "name": "Feromon Stremyannaya",
                "opening_hours": "24/7",
                "phone": "+7 812 9529999",
                "website": "https://feromon.group/feromon_stremyannaya.html"
            }
        ]
    },
    "paint": {
        "count": 1,
        "detail": [
            {
                "name": "Wood & Color",
                "shop": "paint",
                "website": "http://woodandcolor.ru/",
                "opening_hours": "Tu-Fr 10:00-20:00"
            }
        ]
    },
    "pet": {
        "count": 1,
        "detail": [
            {
                "name": "Первая ветеринарная аптека",
                "shop": "pet",
                "wheelchair": "no",
                "opening_hours": "Mo-Fr 10:00-20:00; Sa, Su 12:00-18:00",
                "payment:debit_cards": "yes",
                "payment:credit_cards": "yes"
            }
        ]
    },
    "ticket": {
        "count": 1,
        "detail": [
            {
                "contact:vk": "https://vk.com/spbkassir",
                "name": "Kassir.ru",
                "shop": "ticket",
                "tickets:theatre": "yes",
                "website": "https://spb.kassir.ru/"
            }
        ]
    },
    "photo": {
        "count": 1,
        "detail": [
            {
                "name": "Фото",
                "shop": "photo",
                "craft": "photographer",
                "description": "20 на домофоне подъезда, 01 на домофоне на улице с квадратными кнопками"
            }
        ]
    },
    "massage": {
        "count": 3,
        "detail": [
            {
                "name": "Бордо",
                "shop": "massage"
            },
            {
                "addr:city": "Санкт-Петербург",
                "addr:housenumber": "22-24",
                "addr:street": "улица Марата",
                "description": "Салон тайского массажа и СПА в Санкт-Петербурге",
                "name": "Banyan tree",
                "opening_hours": "10:00-22:00",
                "payment:cash": "yes",
                "payment:credit_cards": "yes",
                "phone": "+7 921 9040682",
                "shop": "massage",
                "website": "http://spabanyan.ru"
            },
            {
                "addr:city": "Санкт-Петербург",
                "addr:housenumber": "14А",
                "addr:postcode": "191040",
                "addr:street": "Кузнечный переулок",
                "email": "orchidspa@inbox.ru",
                "name": "Орхидея",
                "opening_hours": "24/7",
                "opening_hours:covid19": "open",
                "payment:cash": "yes",
                "payment:debit_cards": "yes",
                "phone": "+8 (901) 316 61 21",
                "shop": "massage",
                "website": "https://www.spa-orchid.ru"
            }
        ]
    },
    "health_food": {
        "count": 1,
        "detail": [
            {
                "addr:housenumber": "12А",
                "addr:street": "Поварской переулок",
                "name": "Веган Бункер",
                "opening_hours": "Mo-Su 11:00-22:00",
                "phone": "+78129204313",
                "shop": "health_food",
                "website": "http://veganbunker.ru"
            }
        ]
    },
    "clinic": {
        "count": 2,
        "detail": [
            {
                "amenity": "clinic",
                "contact:email": "akmed-clinic@yandex.ru",
                "contact:phone": "+7 812 7131174",
                "contact:vk": "https://vk.com/akmedclinic",
                "contact:website": "https://www.akmed-clinic.ru/",
                "name": "Академическая Медицина",
                "opening_hours": "Mo-Fr 08:00-20:00;Sa 09:00-17:00",
                "operator": "Академическая Медицина"
            },
            {
                "addr:city": "Санкт-Петербург",
                "addr:housenumber": "2-4Б",
                "addr:postcode": "191025",
                "addr:street": "Кузнечный переулок",
                "amenity": "clinic",
                "healthcare": "clinic",
                "healthcare:speciality": "general",
                "name": "Ренессанс клиника",
                "name:en": "Renaissance clinic",
                "opening_hours": "Mo-Sa 08:00-21:00",
                "opening_hours:covid19": "open",
                "phone": "+7812334-43-02",
                "website": "https://renclinic.ru/"
            }
        ]
    },
    "garden_centre": {
        "count": 1,
        "detail": [
            {
                "addr:city": "Санкт-Петербург",
                "addr:housenumber": "3",
                "addr:postcode": "191002",
                "addr:street": "Кузнечный переулок",
                "contact:instagram": "https://www.instagram.com/praktik.sada",
                "contact:vk": "https://vk.com/magazinpraktiksada",
                "description": "В Практике сада мы предлагаем мицелий грибов и семена овощей, качественные удобрения, корни цветов (роз, георгинов, ирисов и тд) грунты, химию для растений, плодовые деревья, рассаду клубники.",
                "email": "pr.sada@yandex.ru",
                "name": "Практик сада, магазин семян",
                "opening_hours": "Mo-Su 10:00-19:00",
                "opening_hours:covid19": "open",
                "payment:cash": "yes",
                "payment:credit_cards": "yes",
                "payment:mastercard": "yes",
                "payment:visa": "yes",
                "phone": "+7 (812) 409 52 78",
                "shop": "garden_centre",
                "website": "https://praktik_sada_23454.pinbox.ru"
            }
        ]
    },
    "marketplace": {
        "count": 1,
        "detail": [
            {
                "addr:city": "Санкт-Петербург",
                "addr:housenumber": "3",
                "addr:postcode": "191102",
                "addr:street": "Кузнечный переулок",
                "amenity": "marketplace",
                "building": "yes",
                "building:levels": "2",
                "name": "Кузнечный рынок",
                "name:en": "Kuznechny market",
                "opening_hours": "Mo-Su 08:00-20:00"
            }
        ]
    },
    "mall": {
        "count": 3,
        "detail": [
            {
                "addr:city": "Санкт-Петербург",
                "addr:country": "RU",
                "addr:housenumber": "1/71",
                "addr:housenumber2": "71",
                "addr:postcode": "191025",
                "addr:street": "улица Марата",
                "addr:street2": "Невский проспект",
                "building": "yes",
                "building:levels": "5",
                "name": "Невский Атриум",
                "opening_hours": "10:00-22:00",
                "shop": "mall"
            },
            {
                "addr:housenumber": "21/5",
                "addr:street": "Стремянная улица",
                "building": "office",
                "building:levels": "6",
                "name": "Olympic Plaza",
                "shop": "mall",
                "website": "http://olympic-plaza-spb.com/"
            },
            {
                "name": "Владимирский Пассаж",
                "shop": "mall",
                "website": "http://vpassage.spb.ru/",
                "building": "yes",
                "addr:city": "Санкт-Петербург",
                "architect": "Карл Аллан (Вальдемар) Шульман",
                "contact:vk": "https://vk.com/vladimirskiy_passag",
                "start_date": "1901",
                "addr:street": "Владимирский проспект",
                "addr:country": "RU",
                "building:levels": "6",
                "addr:housenumber": "19",
                "architect:wikidata": "Q4527584",
                "building:architecture": "art_nouveau"
            }
        ]
    },
    "service": {
        "count": 10,
        "detail": [
            {
                "power": "substation",
                "building": "service",
                "substation": "minor_distribution",
                "addr:letter": "Б",
                "addr:street": "Пушкинская улица",
                "addr:street2": "Невский проспект",
                "building:levels": "1",
                "addr:housenumber": "1/77",
                "addr:housenumber2": "77/1"
            },
            {
                "power": "substation",
                "building": "service",
                "addr:letter": "Г",
                "addr:street": "Пушкинская улица",
                "addr:housenumber": "11 литГ"
            },
            {
                "power": "substation",
                "building": "service",
                "addr:letter": "Б",
                "addr:street": "Пушкинская улица",
                "addr:housenumber": "20"
            },
            {
                "power": "substation",
                "building": "service",
                "substation": "minor_distribution",
                "addr:street": "Пушкинская улица",
                "building:levels": "1",
                "addr:housenumber": "3А"
            },
            {
                "power": "substation",
                "height": "6",
                "building": "service",
                "addr:letter": "Т",
                "addr:street": "улица Марата",
                "building:levels": "1",
                "addr:housenumber": "14 литТ"
            },
            {
                "ref": "404",
                "building": "service",
                "man_made": "mineshaft",
                "operator": "Петербургский метрополитен",
                "addr:street": "Стремянная улица",
                "source:addr": "rgis",
                "mineshaft_type": "air",
                "building:levels": "1",
                "addr:housenumber": "19А"
            },
            {
                "power": "substation",
                "building": "service",
                "addr:letter": "Г",
                "addr:street": "Поварской переулок",
                "source:addr": "rgis",
                "addr:housenumber": "7"
            },
            {
                "power": "substation",
                "building": "service",
                "addr:street": "Дмитровский переулок",
                "source:addr": "rgis",
                "addr:housenumber": "2А"
            },
            {
                "addr:housenumber": "6 к2",
                "addr:letter": "А",
                "addr:street": "Кузнечный переулок",
                "building": "service"
            },
            {
                "building": "service",
                "power": "substation",
                "substation": "minor_distribution"
            }
        ]
    },
    "commercial": {
        "count": 1,
        "detail": [
            {
                "building": "commercial",
                "building:levels": "2"
            }
        ]
    },
    "toilets": {
        "count": 1,
        "detail": [
            {
                "fee": "yes",
                "amenity": "toilets",
                "building": "yes",
                "opening_hours": "09:00-23:00"
            }
        ]
    }
}