{
    "residents": 3997,
    "restaurant": {
        "count": 2,
        "detail": [
            {
                "amenity": "restaurant",
                "level": "1",
                "name": "Птичий двор",
                "phone": "+7 812 9342020",
                "website": "https://www.ptichiydvor.com/"
            },
            {
                "name": "Корейский ресторан",
                "fixme": "проверить название на \"земле\"",
                "amenity": "restaurant",
                "cuisine": "korean",
                "name:en": "Corean food",
                "name:ru": "Корейский ресторан"
            }
        ]
    },
    "supermarket": {
        "count": 2,
        "detail": [
            {
                "alt_name": "Призма",
                "brand": "Prisma",
                "brand:wikidata": "Q12047031",
                "brand:wikipedia": "fi:Prisma (kauppaketju)",
                "contact:instagram": "https://www.instagram.com/prismaspb/",
                "contact:vk": "https://vk.com/prisma",
                "level": "0",
                "name": "Prisma",
                "name:en": "Prisma",
                "name:fi": "Prisma",
                "name:ru": "Призма",
                "opening_hours": "Mo-Su 07:00-23:00",
                "operator": "ООО «Призма»",
                "phone": "+7 812 3344791",
                "ref": "5181",
                "shop": "supermarket",
                "website": "https://www.prismamarket.ru/"
            },
            {
                "addr:city": "Санкт-Петербург",
                "addr:country": "RU",
                "addr:housenumber": "3",
                "addr:street": "Беговая улица",
                "alt_name": "Пятерочка",
                "brand": "Пятёрочка",
                "brand:en": "Pyaterochka",
                "brand:wikidata": "Q1768969",
                "brand:wikipedia": "ru:Пятёрочка",
                "building": "store",
                "name": "Пятёрочка",
                "name:en": "Pyaterochka",
                "opening_hours": "Mo-Su 09:00-22:00",
                "operator": "X5 Retail Group",
                "shop": "supermarket",
                "website": "https://5ka.ru/"
            }
        ]
    },
    "fitness_centre": {
        "count": 1,
        "detail": [
            {
                "contact:email": "ya@worldclass.ru",
                "contact:phone": "+7 812 3130000",
                "leisure": "fitness_centre",
                "name": "World Class",
                "opening_hours": "Mo-Fr 7:00-24:00;Sa-Su 9:00-24:00",
                "operator": "«Спорт Форум»",
                "sport": "athletics"
            }
        ]
    },
    "cinema": {
        "count": 1,
        "detail": [
            {
                "name": "Мираж Синема",
                "level": "1",
                "phone": "+7 812 6776060",
                "amenity": "cinema",
                "website": "http://www.mirage.ru/"
            }
        ]
    },
    "waste_disposal": {
        "count": 7,
        "detail": [
            {
                "amenity": "waste_disposal"
            },
            {
                "amenity": "waste_disposal"
            },
            {
                "amenity": "waste_disposal"
            },
            {
                "amenity": "waste_disposal"
            },
            {
                "amenity": "waste_disposal"
            },
            {
                "amenity": "waste_disposal"
            },
            {
                "access": "private",
                "amenity": "waste_disposal"
            }
        ]
    },
    "hardware": {
        "count": 1,
        "detail": [
            {
                "description": "Магазин замкОв",
                "email": "nw@melangesrv.ru",
                "name": "Меланж Сервис",
                "opening_hours": "Mo-Fr 09:00-18:00;Sa 10:00-15:00",
                "phone": "+78124055573",
                "shop": "hardware",
                "website": "https://melangesrv.ru/"
            }
        ]
    },
    "parking_entrance": {
        "count": 2,
        "detail": [
            {
                "access": "yes",
                "amenity": "parking_entrance",
                "parking": "underground"
            },
            {
                "amenity": "parking_entrance",
                "parking": "underground"
            }
        ]
    },
    "cafe": {
        "count": 2,
        "detail": [
            {
                "name": "Coffeeshop company",
                "amenity": "cafe",
                "name:en": "Coffeeshop company",
                "name:ru": "Coffeeshop company",
                "internet_access": "wlan"
            },
            {
                "name": "Апрель",
                "amenity": "cafe",
                "name:ru": "Апрель"
            }
        ]
    },
    "convenience": {
        "count": 2,
        "detail": [
            {
                "name": "Продукты",
                "shop": "convenience",
                "operator": "ИП Шарова",
                "opening_hours": "Mo-Fr 10:00-21:00; Sa-Su 11:00-21:00"
            },
            {
                "brand": "ВкусВилл",
                "brand:wikidata": "Q57271676",
                "brand:wikipedia": "ru:Вкусвилл",
                "name": "ВкусВилл",
                "opening_hours": "Mo-Su 08:00-22:00",
                "phone": "+7 921 3324002",
                "shop": "convenience",
                "website": "https://spb.vkusvill.ru/"
            }
        ]
    },
    "recycling": {
        "count": 3,
        "detail": [
            {
                "amenity": "recycling",
                "recycling_type": "container",
                "recycling:paper": "yes",
                "recycling:cardboard": "yes"
            },
            {
                "access": "private",
                "amenity": "recycling",
                "recycling_type": "container",
                "recycling:plastic_bottles": "yes"
            },
            {
                "amenity": "recycling",
                "recycling:cans": "yes",
                "recycling_type": "container",
                "recycling:glass": "yes",
                "recycling:glass_bottles": "yes",
                "recycling:plastic_bottles": "yes"
            }
        ]
    },
    "waste_basket": {
        "count": 2,
        "detail": [
            {
                "amenity": "waste_basket"
            },
            {
                "amenity": "waste_basket"
            }
        ]
    },
    "bicycle": {
        "count": 1,
        "detail": [
            {
                "alt_name": "Чилен",
                "bicycle": "yes",
                "email": "chill@chillengrillen.ru",
                "loc_name": "ЧГ",
                "name": "ChillenGrillen",
                "name:en": "ChillenGrillen",
                "name:ru": "ЧилленГриллен",
                "opening_hours": "Mo-Su 11:00-20:00",
                "operator": "ИП Коновалов А.Н.",
                "phone": "+7 (812) 982-76-52",
                "shop": "bicycle",
                "website": "http://www.chillengrillen.ru/"
            }
        ]
    },
    "vending_machine": {
        "count": 1,
        "detail": [
            {
                "amenity": "vending_machine",
                "vending": "parking_tickets"
            }
        ]
    },
    "school": {
        "count": 1,
        "detail": [
            {
                "addr:postcode": "197374",
                "amenity": "school",
                "email": "info@oyama-do.ru",
                "name": "Каратэ Кёкусинкай Oyama do",
                "name:en": "Karate Kyokushinkai Oyama do",
                "opening_hours": "Mo, We, Fr 19:30-21:00; Tu, Th 18:00-21:00; Sa 16:30-18:00",
                "operator": "Самохин Алексей Алексеевич",
                "phone": "+7 903 0958673",
                "website": "https://oyama-do.ru"
            }
        ]
    },
    "hairdresser": {
        "count": 2,
        "detail": [
            {
                "name": "Флора",
                "shop": "hairdresser"
            },
            {
                "shop": "hairdresser"
            }
        ]
    },
    "wine": {
        "count": 1,
        "detail": [
            {
                "contact:email": "sav126@altavina.ru",
                "contact:facebook": "http://facebook.com/altavinavino",
                "contact:instagram": "https://www.instagram.com/altavinavino",
                "contact:phone": "+7 812 6773967",
                "contact:vk": "https://vk.com/altavina",
                "contact:website": "https://altavina.ru/",
                "name": "Альта Вина",
                "opening_hours": "Mo-Su 10:00-22:00",
                "operator": "Альтавина-Нева",
                "shop": "wine"
            }
        ]
    },
    "atm": {
        "count": 2,
        "detail": [
            {
                "amenity": "atm",
                "brand": "Санкт-Петербург",
                "contact:email": "cc@bspb.ru",
                "contact:facebook": "https://www.facebook.com/bspb/",
                "contact:instagram": "https://instagram.com/bank_spb",
                "contact:ok": "https://ok.ru/bspb",
                "contact:phone": "+7 800 2225050;+7 812 3295050",
                "contact:twitter": "https://twitter.com/bank_spb",
                "contact:vk": "https://vk.com/bspb",
                "contact:website": "https://www.bspb.ru/",
                "currency:RUB": "yes",
                "opening_hours": "Mo-Fr 09:30-20:00;Sa 10:00-18:00",
                "operator": "ПАО Банк Санкт-Петербург",
                "telegram": "https://t.me/mybspb"
            },
            {
                "amenity": "atm",
                "brand": "Санкт-Петербург",
                "contact:email": "cc@bspb.ru",
                "contact:facebook": "https://www.facebook.com/bspb/",
                "contact:instagram": "https://instagram.com/bank_spb",
                "contact:ok": "https://ok.ru/bspb",
                "contact:phone": "+7 800 2225050;+7 812 3295050",
                "contact:twitter": "https://twitter.com/bank_spb",
                "contact:vk": "https://vk.com/bspb",
                "contact:website": "https://www.bspb.ru/",
                "currency:RUB": "yes",
                "opening_hours": "24/7",
                "operator": "ПАО Банк Санкт-Петербург",
                "telegram": "https://t.me/mybspb"
            }
        ]
    },
    "furniture": {
        "count": 1,
        "detail": [
            {
                "name": "Дизайн-студия ИКЕА ТРК Атлантик Сити",
                "shop": "furniture"
            }
        ]
    },
    "bench": {
        "count": 2,
        "detail": [
            {
                "amenity": "bench",
                "colour": "brown",
                "material": "wood",
                "seats": "2"
            },
            {
                "amenity": "bench",
                "colour": "brown",
                "material": "wood",
                "seats": "2"
            }
        ]
    },
    "beauty": {
        "count": 1,
        "detail": [
            {
                "contact:email": "spa@worldclass.ru",
                "contact:facebook": "https://www.facebook.com/beautyspabyworldclass",
                "contact:instagram": "https://www.instagram.com/worldclass.spa/",
                "contact:phone": "+7 812 3130000",
                "contact:website": "https://spa.worldclass.ru/",
                "name": "World Class SPA",
                "opening_hours": "Mo-Su 10:00-21:00",
                "operator": "«МедиСПА»",
                "shop": "beauty"
            }
        ]
    },
    "dry_cleaning": {
        "count": 2,
        "detail": [
            {
                "addr:city": "Санкт-Петербург",
                "addr:housenumber": "118",
                "addr:street": "улица Савушкина",
                "contact:vk": "https://vk.com/club11111586",
                "name": "риемный пункт химчистки Пингвин",
                "opening_hours": "Mo-Fr 10:00-19:00; Sa-Su 10:00-18:00",
                "phone": "+7 981 9612400;+7 800 5556232",
                "shop": "dry_cleaning"
            },
            {
                "addr:city": "Санкт-Петербург",
                "addr:housenumber": "126",
                "addr:street": "улица Савушкина",
                "contact:instagram": "https://www.instagram.com/pingwinclean/",
                "contact:vk": "https://vk.com/club11111586",
                "name": "Центр бытовых услуг Пингвин",
                "opening_hours": "Mo-Su 11:00-20:00",
                "phone": "+7 800 5556232;+7 812 3093556",
                "shop": "dry_cleaning",
                "website": "http://химчисткапингвин.рф"
            }
        ]
    },
    "clinic": {
        "count": 2,
        "detail": [
            {
                "amenity": "clinic",
                "name": "Методика",
                "phone": "+78123300507",
                "website": "https://metodikaspb.ru/"
            },
            {
                "amenity": "clinic",
                "name": "Северо-Западный медицинский центр",
                "opening_hours": "Mo-Su 07:00-21:00",
                "phone": "+78123440344",
                "website": "https://mdmed.ru/"
            }
        ]
    },
    "doctors": {
        "count": 2,
        "detail": [
            {
                "amenity": "doctors",
                "contact:facebook": "https://www.facebook.com/kdllaboratory",
                "contact:instagram": "https://www.instagram.com/kdl.ru",
                "contact:phone": "+7 812 4069699",
                "contact:vk": "https://vk.com/kdllab",
                "contact:website": "https://www.kdl.ru/",
                "healthcare": "laboratory",
                "name": "KDL",
                "opening_hours": "Mo-Fr 07:30-14:00;Sa 07:30-13:00",
                "operator": "КДЛ РЕГИОНЫ"
            },
            {
                "amenity": "doctors",
                "brand": "Инвитро",
                "brand:wikidata": "Q4200546",
                "brand:wikipedia": "ru:Медицинская компания Инвитро",
                "contact:email": "info@invitro.ru",
                "contact:facebook": "https://www.facebook.com/invitro.ru",
                "contact:instagram": "https://www.instagram.com/invitro.ru",
                "contact:phone": "+7 800 2003630",
                "contact:vk": "https://vk.com/invitro",
                "contact:website": "https://www.invitro.ru",
                "healthcare": "laboratory",
                "health_facility:type": "laboratory",
                "health_specialty:microbiology": "yes",
                "medical_system:western": "yes",
                "name": "Инвитро",
                "name:ru": "Инвитро"
            }
        ]
    },
    "dentist": {
        "count": 1,
        "detail": [
            {
                "amenity": "dentist",
                "name": "Созвездие",
                "opening_hours": "Mo-Su 10:00-21:00",
                "phone": "+78126798909",
                "website": "https://sozvezdiedent.ru/"
            }
        ]
    },
    "pawnbroker": {
        "count": 1,
        "detail": [
            {
                "shop": "pawnbroker"
            }
        ]
    },
    "bakery": {
        "count": 2,
        "detail": [
            {
                "name": "Шарлотка",
                "shop": "bakery"
            },
            {
                "name": "Хлебница",
                "shop": "bakery"
            }
        ]
    },
    "optician": {
        "count": 1,
        "detail": [
            {
                "shop": "optician"
            }
        ]
    },
    "tailor": {
        "count": 1,
        "detail": [
            {
                "name": "LaRa",
                "opening_hours": "Mo-Su 10:00-21:00",
                "shop": "tailor"
            }
        ]
    },
    "health_food": {
        "count": 1,
        "detail": [
            {
                "name": "FitnessBar.ru",
                "opening_hours": "Mo-Su 09:00-22:00",
                "phone": "+78122440200",
                "shop": "health_food",
                "website": "https://www.fitnessbar.ru/"
            }
        ]
    },
    "copyshop": {
        "count": 1,
        "detail": [
            {
                "name": "Копирка",
                "shop": "copyshop"
            }
        ]
    },
    "confectionery": {
        "count": 1,
        "detail": [
            {
                "name": "Север-Метрополь",
                "phone": "+78126034190",
                "shop": "confectionery",
                "website": "https://sever-metropol.ru/"
            }
        ]
    },
    "bus_stop": {
        "count": 2,
        "detail": [
            {
                "bus": "yes",
                "name": "Приморский проспект, 147",
                "public_transport": "stop_position"
            },
            {
                "bench": "yes",
                "bin": "yes",
                "bus": "yes",
                "highway": "bus_stop",
                "name": "Приморский проспект, 147",
                "public_transport": "platform",
                "shelter": "yes"
            }
        ]
    },
    "kindergarten": {
        "count": 3,
        "detail": [
            {
                "building": "kindergarten",
                "addr:city": "Санкт-Петербург",
                "design:ref": "212-2-3ЛГ",
                "addr:street": "улица Савушкина",
                "addr:country": "RU",
                "building:parts": "horizontal",
                "building:levels": "2",
                "addr:housenumber": "124 к2"
            },
            {
                "building": "kindergarten",
                "addr:city": "Санкт-Петербург",
                "addr:street": "Яхтенная улица",
                "addr:country": "RU",
                "building:part": "base",
                "building:levels": "2",
                "design:code:SPb": "ДС-05",
                "addr:housenumber": "2 к2"
            },
            {
                "building": "kindergarten",
                "addr:street": "Беговая улица",
                "building:levels": "3",
                "addr:housenumber": "1 к2"
            }
        ]
    },
    "service": {
        "count": 10,
        "detail": [
            {
                "building": "service",
                "pipeline": "substation",
                "addr:city": "Санкт-Петербург",
                "substance": "heat",
                "addr:country": "RU",
                "building:levels": "2"
            },
            {
                "addr:city": "Санкт-Петербург",
                "addr:country": "RU",
                "addr:housenumber": "4 к4",
                "addr:letter": "Б",
                "addr:street": "Яхтенная улица",
                "building": "service",
                "building:levels": "1",
                "power": "substation",
                "ref": "29866",
                "substation": "minor_distribution",
                "voltage": "10000;400"
            },
            {
                "addr:city": "Санкт-Петербург",
                "addr:country": "RU",
                "addr:housenumber": "5 к1",
                "addr:letter": "Б",
                "addr:street": "Беговая улица",
                "building": "service",
                "building:levels": "1",
                "power": "substation",
                "ref": "29865",
                "substation": "minor_distribution",
                "voltage": "10000;400"
            },
            {
                "building": "service",
                "building:levels": "1"
            },
            {
                "building": "service",
                "building:levels": "1",
                "power": "substation",
                "ref": "29860",
                "substation": "minor_distribution",
                "voltage": "10000;400"
            },
            {
                "building": "service",
                "building:levels": "1",
                "power": "substation",
                "ref": "29861",
                "substation": "minor_distribution"
            },
            {
                "building": "service",
                "building:levels": "1",
                "power": "substation",
                "ref": "29863",
                "substation": "minor_distribution",
                "voltage": "10000;400"
            },
            {
                "building": "service",
                "building:levels": "1",
                "power": "substation",
                "ref": "29864",
                "source": "RGis",
                "substation": "minor_distribution",
                "voltage": "10000;400"
            },
            {
                "power": "substation",
                "building": "service",
                "building:levels": "1"
            },
            {
                "building": "service",
                "power": "substation",
                "ref": "29100",
                "substation": "minor_distribution",
                "voltage": "10000;400"
            }
        ]
    },
    "mall": {
        "count": 2,
        "detail": [
            {
                "addr:city": "Санкт-Петербург",
                "addr:housenumber": "72",
                "addr:street": "Приморский проспект",
                "building": "retail",
                "building:architecture": "contemporary",
                "building:levels": "5",
                "name": "ТРК «Питерлэнд»",
                "name:en": "TEC Piterland",
                "name:ru": "ТРК «Питерлэнд»",
                "note": "светопрозрачный купол-полусфера",
                "shop": "mall",
                "website": "http://www.piterland.ru"
            },
            {
                "addr:city": "Санкт-Петербург",
                "addr:country": "RU",
                "addr:housenumber": "126",
                "addr:postcode": "197374",
                "addr:street": "улица Савушкина",
                "building": "yes",
                "building:architecture": "contemporary",
                "building:levels": "4",
                "name": "ТРК «Атлантик Сити»",
                "shop": "mall",
                "start_date": "2009",
                "website": "http://atlantic-city.ru/",
                "wheelchair": "limited"
            }
        ]
    }
}