{
    "residents": 1773,
    "bank": {
        "count": 6,
        "detail": [
            {
                "amenity": "bank",
                "contact:email": "cc@bspb.ru",
                "contact:facebook": "https://www.facebook.com/bspb/",
                "contact:instagram": "https://instagram.com/bank_spb",
                "contact:ok": "https://ok.ru/bspb",
                "contact:phone": "+7 800 2225050;+7 812 3295050",
                "contact:twitter": "https://twitter.com/bank_spb",
                "contact:vk": "https://vk.com/bspb",
                "contact:website": "https://www.bspb.ru/",
                "name": "Банк Санкт-Петербург",
                "opening_hours": "Mo-Fr 10:00-19:00",
                "operator": "Санкт Петербург",
                "telegram": "https://t.me/mybspb"
            },
            {
                "amenity": "bank",
                "atm": "yes",
                "brand": "Россельхозбанк",
                "brand:en": "Rosselkhozbank",
                "brand:ru": "Россельхозбанк",
                "brand:wikidata": "Q3920226",
                "brand:wikipedia": "en:Russian Agricultural Bank",
                "contact:vk": "https://vk.com/rshbru",
                "name": "Россельхозбанк",
                "name:en": "Rosselkhozbank",
                "name:ru": "Россельхозбанк",
                "opening_hours": "Mo-Fr 09:00-19:30; Sa 09:00-16:00; 13:00-14:00 off",
                "operator": "Россельхозбанк",
                "phone": "+7 812 3350630;+7 800 2000290",
                "website": "https://www.rshb.ru/"
            },
            {
                "amenity": "bank",
                "brand": "Газпромбанк",
                "brand:en": "Gazprombank",
                "brand:wikidata": "Q1924338",
                "brand:wikipedia": "en:Gazprombank",
                "name": "Газпромбанк",
                "name:en": "Gazprombank",
                "website": "https://www.gazprombank.ru/offices/21810/"
            },
            {
                "amenity": "bank",
                "bic": "VTBRRUMM",
                "brand": "ВТБ",
                "brand:en": "VTB Bank",
                "brand:wikidata": "Q1549389",
                "brand:wikipedia": "en:VTB Bank",
                "contact:email": "info@vtb.ru",
                "contact:facebook": "https://www.facebook.com/vtbgroup",
                "contact:phone": "+7 800 2007799",
                "contact:twitter": "https://twitter.com/vtb",
                "contact:vk": "https://vk.com/vtb",
                "contact:website": "https://www.vtb.ru/o-banke/kontakty/otdeleniya/imported/office-3402/",
                "contact:youtube": "https://www.youtube.com/user/vtbgroup",
                "name": "ВТБ",
                "name:en": "VTB",
                "name:ru": "ВТБ",
                "operator": "Банк ВТБ (публичное акционерное общество)",
                "operator:wikidata": "Q1549389",
                "operator:wikipedia": "ru:Банк ВТБ"
            },
            {
                "amenity": "bank",
                "branch": "Северо-Западный банк",
                "brand": "Сбербанк",
                "brand:en": "Sberbank",
                "brand:ru": "Сбербанк",
                "brand:wikidata": "Q205012",
                "brand:wikipedia": "en:Sberbank of Russia",
                "contact:facebook": "https://www.facebook.com/sberbank",
                "contact:instagram": "https://instagram.com/sberbank",
                "contact:ok": "https://ok.ru/sberbank",
                "contact:phone": "+7 800 5555550",
                "contact:twitter": "https://twitter.com/sberbank/",
                "contact:vk": "https://vk.com/sberbank",
                "contact:website": "https://www.sberbank.ru",
                "contact:youtube": "https://www.youtube.com/sberbank",
                "name": "Сбербанк",
                "name:en": "Sberbank",
                "name:ru": "Сбербанк",
                "opening_hours": "Mo-Th 09:00-18:00; Fr 09:00-16:45",
                "operator": "ПАО Сбербанк",
                "operator:wikidata": "Q205012",
                "operator:wikipedia": "ru:Сбербанк России",
                "ref": "9055/01726",
                "wheelchair": "no"
            },
            {
                "amenity": "bank",
                "branch": "Северо-Западный банк",
                "brand": "Сбербанк",
                "brand:en": "Sberbank",
                "brand:ru": "Сбербанк",
                "brand:wikidata": "Q205012",
                "brand:wikipedia": "en:Sberbank of Russia",
                "contact:facebook": "https://www.facebook.com/sberbank",
                "contact:instagram": "https://instagram.com/sberbank",
                "contact:ok": "https://ok.ru/sberbank",
                "contact:phone": "+7 800 5555777",
                "contact:twitter": "https://twitter.com/sberbank/",
                "contact:vk": "https://vk.com/sberbank",
                "contact:website": "https://www.sberbank.ru",
                "contact:youtube": "https://www.youtube.com/sberbank",
                "name": "Сбербанк",
                "name:en": "Sberbank",
                "name:ru": "Сбербанк",
                "opening_hours": "Mo-Th 09:00-18:00; Fr 09:00-16:45",
                "operator": "ПАО Сбербанк",
                "operator:wikidata": "Q205012",
                "operator:wikipedia": "ru:Сбербанк России",
                "ref": "9055/26199",
                "wheelchair": "no"
            }
        ]
    },
    "restaurant": {
        "count": 4,
        "detail": [
            {
                "name": "Fiolet",
                "amenity": "restaurant",
                "website": "http://www.fioletspb.com/",
                "operator": "ООО «Галерея»",
                "contact:vk": "https://vk.com/fiolet_spb",
                "opening_hours": "Mo-Su 07:30-00:30"
            },
            {
                "amenity": "restaurant",
                "contact:vk": "https://vk.com/demetropole",
                "level": "1",
                "name": "Метрополь",
                "name:fr": "Brasserie de Metropole",
                "opening_hours": "Su-Th 07:00-23:30; Fr-Sa 07:00+",
                "operator": "АО «Метрополь»",
                "phone": "+7 812 5718888;+7 812 9947606",
                "website": "http://demetropole.ru/"
            },
            {
                "name": "Эривань",
                "amenity": "restaurant",
                "website": "http://erivan.ru/",
                "operator": "ООО \"Старый свет\"",
                "contact:vk": "https://vk.com/id307596859",
                "opening_hours": "12:00-24:00"
            },
            {
                "addr:housenumber": "5/7",
                "addr:street": "площадь Островского",
                "amenity": "restaurant",
                "brand": "Якитория",
                "brand:wikidata": "Q66088063",
                "contact:vk": "https://vk.com/club_yakitoriyaspb",
                "cuisine": "japanese;international",
                "name": "Якитория",
                "opening_hours": "Mo-Th 08:00-23:00; Fr 08:00-01:00; Sa 11:00-01:00; Su 11:00-23:00",
                "operator": "ООО «Солнце»",
                "phone": "+7 812 3158343",
                "website": "http://yakitoriya.spb.ru/restaurants/ostrovsky/"
            }
        ]
    },
    "bus_stop": {
        "count": 9,
        "detail": [
            {
                "bus": "yes",
                "highway": "bus_stop",
                "local_ref": "49;781",
                "name": "Улица Ломоносова",
                "public_transport": "platform"
            },
            {
                "bus": "yes",
                "highway": "bus_stop",
                "local_ref": "49;181",
                "name": "Невский проспект",
                "name:ru": "Невский проспект",
                "public_transport": "platform"
            },
            {
                "bench": "yes",
                "bin": "yes",
                "bus": "yes",
                "highway": "bus_stop",
                "name": "станция метро «Гостиный двор»",
                "public_transport": "platform",
                "shelter": "yes",
                "tactile_paving": "no",
                "wheelchair": "yes"
            },
            {
                "bus": "yes",
                "name": "станция метро «Гостиный двор»",
                "operator": "СПб ГУП \"Пассажиравтотранс\"",
                "public_transport": "stop_position",
                "ref": "3;7;22;24;27;191",
                "tactile_paving": "no",
                "trolleybus": "no"
            },
            {
                "bus": "yes",
                "name": "Невский проспект",
                "name:ru": "Невский проспект",
                "public_transport": "stop_position"
            },
            {
                "bench": "yes",
                "bin": "yes",
                "highway": "bus_stop",
                "name": "Дворец творчества юных",
                "passenger_information_display": "yes",
                "public_transport": "platform",
                "shelter": "yes",
                "trolleybus": "yes"
            },
            {
                "name": "Дворец творчества юных",
                "public_transport": "stop_position",
                "trolleybus": "yes"
            },
            {
                "bench": "yes",
                "bin": "yes",
                "bus": "yes",
                "highway": "bus_stop",
                "name": "Дворец творчества юных",
                "public_transport": "platform",
                "shelter": "yes",
                "tactile_paving": "no",
                "wheelchair": "yes"
            },
            {
                "bus": "yes",
                "name": "Дворец творчества юных",
                "operator": "СПб ГУП \"Организатор перевозок\"",
                "public_transport": "stop_position",
                "ref": "3;7;22;24;27;181;191",
                "tactile_paving": "no",
                "trolleybus": "no"
            }
        ]
    },
    "pastry": {
        "count": 1,
        "detail": [
            {
                "amenity": "cafe",
                "contact:vk": "https://vk.com/sever.metropol.official",
                "name": "Метрополь",
                "opening_hours": "08:00-22:00",
                "operator": "ИП Хилимон Зинаида Васильевна",
                "phone": "+7 812 3101875",
                "shop": "pastry",
                "website": "https://sever-metropol.ru/wheretobuy/spb/sadovaya-ul-22/"
            }
        ]
    },
    "convenience": {
        "count": 2,
        "detail": [
            {
                "name": "Продукты",
                "shop": "convenience",
                "operator": "ООО \"Новые ресурсы\"",
                "opening_hours": "24/7"
            },
            {
                "name": "Продукты",
                "shop": "convenience",
                "opening_hours": "24/7"
            }
        ]
    },
    "telephone": {
        "count": 2,
        "detail": [
            {
                "phone": "+7 812 3142773",
                "amenity": "telephone"
            },
            {
                "amenity": "telephone",
                "payment:telephone_cards": "yes"
            }
        ]
    },
    "post_office": {
        "count": 1,
        "detail": [
            {
                "ref": "191069",
                "name": "Санкт-Петербург 191069",
                "fixme": "Расположение примерное. Необходима проверка на местности.",
                "phone": "+7 812 3100187",
                "amenity": "post_office",
                "website": "https://www.pochta.ru",
                "operator": "Почта России",
                "opening_hours": "Mo-Fr 09:00-12:00,12:30-17:00; Sa-Su off"
            }
        ]
    },
    "recycling": {
        "count": 3,
        "detail": [
            {
                "name": "Экобокс",
                "fixme": "уточнить положение",
                "amenity": "recycling",
                "recycling_type": "container",
                "recycling:batteries": "yes",
                "recycling:hydrargyrum": "yes",
                "recycling:hazardous_waste": "yes",
                "recycling:low_energy_bulbs": "yes",
                "recycling:fluorescent_tubes": "yes"
            },
            {
                "name": "Экобокс",
                "fixme": "уточнить положение(в КГИОП, пл Ломоносова 1 подъезд №5)",
                "amenity": "recycling",
                "recycling_type": "container",
                "recycling:batteries": "yes",
                "recycling:hydrargyrum": "yes",
                "recycling:hazardous_waste": "yes",
                "recycling:low_energy_bulbs": "yes",
                "recycling:fluorescent_tubes": "yes"
            },
            {
                "amenity": "recycling",
                "recycling:batteries": "yes",
                "recycling:low_energy_bulbs": "yes",
                "recycling_type": "container",
                "ref": "463"
            }
        ]
    },
    "parking": {
        "count": 1,
        "detail": [
            {
                "amenity": "parking",
                "parking": "surface"
            }
        ]
    },
    "bicycle_parking": {
        "count": 5,
        "detail": [
            {
                "amenity": "bicycle_parking",
                "capacity": "5",
                "bicycle_parking": "wall_loops"
            },
            {
                "amenity": "bicycle_parking"
            },
            {
                "amenity": "bicycle_parking"
            },
            {
                "amenity": "bicycle_parking"
            },
            {
                "access": "yes",
                "amenity": "bicycle_parking",
                "bicycle_parking": "rack",
                "capacity": "12",
                "covered": "yes"
            }
        ]
    },
    "fire_station": {
        "count": 1,
        "detail": [
            {
                "ref": "37-ПСЧ",
                "name": "Пожарно-спасательная часть № 37",
                "amenity": "fire_station",
                "alt_name": "Пожарная часть № 37 Центрального района",
                "operator": "ПСО ППС СПб по Центральному р-ну",
                "official_name": "37-я пожарно-спасательная часть Пожарно-спасательного отряда противопожарной службы Санкт-Петербурга по Центральному району Санкт-Петербурга",
                "fire_station:type": "spo"
            }
        ]
    },
    "toilets": {
        "count": 1,
        "detail": [
            {
                "level": "-1",
                "amenity": "toilets"
            }
        ]
    },
    "games": {
        "count": 1,
        "detail": [
            {
                "name": "Игровед",
                "shop": "games",
                "email": "mail@igroved.ru",
                "phone": "+7 812 3090099",
                "website": "https://www.igroved.ru/shops/spb/krylova.html",
                "contact:vk": "https://vk.com/igroved",
                "opening_hours": "Mo-Su 10:00-21:00",
                "payment:debit_cards": "yes",
                "payment:credit_cards": "yes"
            }
        ]
    },
    "alcohol": {
        "count": 1,
        "detail": [
            {
                "name": "Массандра",
                "shop": "alcohol",
                "opening_hours": "Mo-Su 10:00-22:00"
            }
        ]
    },
    "police": {
        "count": 3,
        "detail": [
            {
                "name": "Отдел дознания",
                "amenity": "police",
                "website": "https://центр.78.мвд.рф/document/7875845"
            },
            {
                "name": "Следственное управление",
                "amenity": "police"
            },
            {
                "name": "Управление экономической безопасности и противодействия коррупции",
                "source": "Yahoo",
                "amenity": "police",
                "building": "yes",
                "addr:city": "Санкт-Петербург",
                "addr:street": "переулок Крылова",
                "addr:country": "RU",
                "addr:housenumber": "3"
            }
        ]
    },
    "cafe": {
        "count": 13,
        "detail": [
            {
                "amenity": "cafe",
                "contact:vk": "https://vk.com/naparah",
                "name": "На Парах",
                "opening_hours": "24/7",
                "operator": "ООО «НП-Садовая»",
                "website": "https://напарах.рф/"
            },
            {
                "amenity": "cafe",
                "contact:instagram": "https://www.instagram.com/trattoria_del_sadovaya22/",
                "int_name": "Trattoria",
                "name": "Траттория",
                "opening_hours": "11:00-00:00",
                "operator": "АО «Метрополь»"
            },
            {
                "name": "Soulmate",
                "amenity": "cafe",
                "website": "https://www.soulmatespb.com/",
                "contact:vk": "https://vk.com/soulmatespb",
                "description": "котокафе",
                "opening_hours": "Mo-Su 11:00-23:00",
                "internet_access": "wlan"
            },
            {
                "name": "Антракт",
                "amenity": "cafe",
                "website": "http://cafe-antrakt.spb.ru/"
            },
            {
                "amenity": "cafe",
                "name": "Дягилев",
                "website": "https://magnifique.catering/restorany-i-kafe/kafe-dyagilev/"
            },
            {
                "name": "Пышки Петербургские",
                "amenity": "cafe",
                "entrance": "yes"
            },
            {
                "name": "Суфле",
                "amenity": "cafe"
            },
            {
                "name": "Кафе на Ломоносова",
                "amenity": "cafe"
            },
            {
                "name": "Soup and sammich cafe",
                "amenity": "cafe"
            },
            {
                "amenity": "cafe",
                "brand": "Coffee Like",
                "brand:wikidata": "Q55662627",
                "brand:wikipedia": "ru:Coffee Like",
                "contact:email": "hotline@coffee-like.com",
                "contact:phone": "+7 341 2908292;+7 800 3334130",
                "contact:website": "https://coffee-like.com/",
                "cuisine": "coffee_shop",
                "name": "Coffee Like",
                "opening_hours": "Mo-Su 10:00-22:00",
                "operator": "Зараковская Кристина Сергеевна",
                "takeaway": "yes"
            },
            {
                "amenity": "cafe",
                "contact:email": "info@bagginscoffee.ru",
                "contact:phone": "+7 800 6007015",
                "contact:website": "https://bagginscoffee.ru/",
                "name": "Baggins Coffee",
                "opening_hours": "Mo-Fr 08:00-21:00; Sa-Su 09:00-21:00",
                "operator": "ИП Васильев Антон Николаевич"
            },
            {
                "amenity": "cafe",
                "description": "Атмосферное кафе, оформленное в околомузыкальном стиле.",
                "name": "Музыка кофе",
                "opening_hours": "Mo-Th, Su 10:00-23:00; Fr, Sa 10:00-24:00",
                "phone": "+7 969 2076837",
                "website": "https://muscoffee.ru/"
            },
            {
                "amenity": "cafe",
                "name": "Выяснить"
            }
        ]
    },
    "books": {
        "count": 2,
        "detail": [
            {
                "email": "bookshop@nlr.ru",
                "name": "Книжный салон",
                "phone": "+7 812 3104487",
                "shop": "books",
                "website": "http://www.nlr.ru/publ/bookshop.html"
            },
            {
                "name": "Порядок слов",
                "shop": "books",
                "opening_hours": "Mo-Su 14:00-22:00"
            }
        ]
    },
    "jewelry": {
        "count": 2,
        "detail": [
            {
                "contact:vk": "https://vk.com/epl_diamond",
                "name": "Эпл",
                "opening_hours": "10:00-22:00",
                "phone": "+7 800 3336737 (доб. 215)",
                "shop": "jewelry",
                "website": "https://spb.epldiamond.ru/company/stores/090210-op-sankt-peterburg-sadovaya/"
            },
            {
                "name": "Елана",
                "opening_hours": "10:00-22:00",
                "phone": "+7 812 7026773",
                "shop": "jewelry",
                "website": "https://elana-uk.ru/"
            }
        ]
    },
    "post_box": {
        "count": 3,
        "detail": [
            {
                "amenity": "post_box",
                "collection_times": "Mo-Fr 06:00,17:10; Sa 08:15; Su 17:10",
                "design:year": "2010",
                "drive_through": "no",
                "operator": "Почта России",
                "post_box:design": "ЯПНМ-II-С",
                "post_box:type": "wall",
                "ref": "8"
            },
            {
                "ref": "7",
                "amenity": "post_box",
                "operator": "Почта России",
                "design:year": "2010",
                "drive_through": "no",
                "post_box:type": "wall",
                "post_box:design": "ЯПНМ-II-С",
                "collection_times": "Mo-Fr 06:05,17:15; Sa 08:20; Su 17:15"
            },
            {
                "ref": "6",
                "amenity": "post_box",
                "operator": "Почта России",
                "design:year": "2010",
                "drive_through": "no",
                "post_box:type": "wall",
                "post_box:design": "ЯПНМ-II-С",
                "collection_times": "Mo-Fr 06:10,17:20; Sa 08:20; Su 17:20"
            }
        ]
    },
    "shoes": {
        "count": 3,
        "detail": [
            {
                "name": "Ralf Ringer",
                "phone": "+7 812 6300283",
                "shop": "shoes",
                "website": "https://ralf.ru/"
            },
            {
                "name": "Немецкая обувь",
                "shop": "shoes"
            },
            {
                "name": "Дом обуви",
                "shop": "shoes",
                "opening_hours": "07:00-18:00"
            }
        ]
    },
    "florist": {
        "count": 3,
        "detail": [
            {
                "shop": "florist"
            },
            {
                "name": "Duty Free Flowers",
                "shop": "florist",
                "website": "http://dff24.ru/",
                "contact:vk": "https://vk.com/dff24",
                "opening_hours": "Mo-Fr 07:00-22:00; Sa-Su 10:00-22:00"
            },
            {
                "name": "Оранж",
                "opening_hours": "Mo-Su 08:00-23:00",
                "operator": "ПК Оранж",
                "payment:cash": "yes",
                "payment:maestro": "yes",
                "payment:mastercard": "yes",
                "payment:visa": "yes",
                "payment:visa_electron": "yes",
                "shop": "florist",
                "wheelchair": "yes"
            }
        ]
    },
    "vending_machine": {
        "count": 6,
        "detail": [
            {
                "name": "Линзы Тут",
                "phone": "+7 812 6490039",
                "amenity": "vending_machine",
                "vending": "contact_lenses",
                "website": "http://www.linzi-tut.ru/"
            },
            {
                "ref": "303085",
                "amenity": "vending_machine",
                "vending": "subway_tokens",
                "operator": "Петербургский метрополитен",
                "payment:cash": "yes",
                "payment:visa": "yes",
                "payment:maestro": "yes",
                "payment:mastercard": "yes",
                "payment:visa_electron": "yes"
            },
            {
                "ref": "30311",
                "amenity": "vending_machine",
                "vending": "public_transport_tickets",
                "operator": "Петербургский метрополитен",
                "payment:cash": "yes",
                "payment:visa": "yes",
                "payment:maestro": "yes",
                "payment:mastercard": "yes",
                "payment:visa_electron": "yes"
            },
            {
                "amenity": "vending_machine",
                "vending": "public_transport_tickets",
                "operator": "Петербургский метрополитен",
                "payment:cash": "only"
            },
            {
                "ref": "30310",
                "amenity": "vending_machine",
                "vending": "public_transport_tickets",
                "operator": "Петербургский метрополитен",
                "payment:cash": "yes",
                "payment:visa": "yes",
                "payment:maestro": "yes",
                "payment:mastercard": "yes",
                "payment:visa_electron": "yes"
            },
            {
                "amenity": "vending_machine",
                "indoor": "yes",
                "operator": "Петербургский метрополитен",
                "payment:cash": "yes",
                "payment:maestro": "yes",
                "payment:mastercard": "yes",
                "payment:visa": "yes",
                "payment:visa_electron": "yes",
                "vending": "subway_tokens"
            }
        ]
    },
    "atm": {
        "count": 14,
        "detail": [
            {
                "amenity": "atm",
                "website": "https://raiffeisen.ru/",
                "operator": "Райффайзен"
            },
            {
                "amenity": "atm",
                "operator": "СМП Банк"
            },
            {
                "amenity": "atm",
                "operator": "ВТБ"
            },
            {
                "amenity": "atm",
                "brand": "Сбербанк",
                "operator": "Сбербанк России",
                "ref": "551187",
                "wheelchair": "yes"
            },
            {
                "amenity": "atm",
                "operator": "ВТБ",
                "wheelchair": "yes"
            },
            {
                "ref": "10028322",
                "brand": "Сбербанк",
                "amenity": "atm",
                "operator": "Сбербанк России",
                "wheelchair": "yes"
            },
            {
                "amenity": "atm",
                "brand": "Сбербанк",
                "operator": "Сбербанк России",
                "ref": "10333552",
                "wheelchair": "yes"
            },
            {
                "amenity": "atm",
                "brand": "Сбербанк",
                "operator": "Сбербанк России",
                "wheelchair": "yes"
            },
            {
                "amenity": "atm",
                "contact:email": "info@psbank.ru",
                "contact:phone": "+7 495 7873333;+7 800 3330303",
                "contact:website": "https://psbank.ru/",
                "opening_hours": "Mo-Su 06:00-24:00",
                "operator": "Промсвязьбанк"
            },
            {
                "amenity": "atm",
                "brand": "Санкт-Петербург",
                "cash_in": "yes",
                "contact:email": "cc@bspb.ru",
                "contact:facebook": "https://www.facebook.com/bspb/",
                "contact:instagram": "https://instagram.com/bank_spb",
                "contact:ok": "https://ok.ru/bspb",
                "contact:phone": "+7 800 2225050;+7 812 3295050",
                "contact:twitter": "https://twitter.com/bank_spb",
                "contact:vk": "https://vk.com/bspb",
                "contact:website": "https://www.bspb.ru/",
                "covered": "yes",
                "currency:RUB": "yes",
                "opening_hours": "24/7",
                "operator": "ПАО Банк Санкт-Петербург",
                "telegram": "https://t.me/mybspb"
            },
            {
                "amenity": "atm",
                "brand": "Санкт-Петербург",
                "contact:email": "cc@bspb.ru",
                "contact:facebook": "https://www.facebook.com/bspb/",
                "contact:instagram": "https://instagram.com/bank_spb",
                "contact:ok": "https://ok.ru/bspb",
                "contact:phone": "+7 800 2225050;+7 812 3295050",
                "contact:twitter": "https://twitter.com/bank_spb",
                "contact:vk": "https://vk.com/bspb",
                "contact:website": "https://www.bspb.ru/",
                "currency:RUB": "yes",
                "opening_hours": "Mo-Fr 09:00-18:00",
                "operator": "ПАО Банк Санкт-Петербург",
                "telegram": "https://t.me/mybspb"
            },
            {
                "amenity": "atm",
                "brand": "Санкт-Петербург",
                "contact:email": "cc@bspb.ru",
                "contact:facebook": "https://www.facebook.com/bspb/",
                "contact:instagram": "https://instagram.com/bank_spb",
                "contact:ok": "https://ok.ru/bspb",
                "contact:phone": "+7 800 2225050;+7 812 3295050",
                "contact:twitter": "https://twitter.com/bank_spb",
                "contact:vk": "https://vk.com/bspb",
                "contact:website": "https://www.bspb.ru/",
                "currency:RUB": "yes",
                "opening_hours": "24/7",
                "operator": "ПАО Банк Санкт-Петербург",
                "telegram": "https://t.me/mybspb"
            },
            {
                "amenity": "atm",
                "brand": "Банк Санкт-Петербург",
                "operator": "Банк Санкт-Петербург",
                "ref": "AC090497",
                "wheelchair": "yes"
            },
            {
                "amenity": "atm",
                "brand": "ВТБ",
                "operator": "ВТБ",
                "wheelchair": "yes"
            }
        ]
    },
    "sports": {
        "count": 1,
        "detail": [
            {
                "name": "Интерспорт",
                "shop": "sports",
                "phone": "+7 812 6300323",
                "website": "http://www.intersport.ru/",
                "opening_hours": "10:00-22:00"
            }
        ]
    },
    "cosmetics": {
        "count": 2,
        "detail": [
            {
                "brand": "Л'Этуаль",
                "brand:wikidata": "Q18400706",
                "brand:wikipedia": "ru:Л’Этуаль",
                "name": "Л'Этуаль",
                "opening_hours": "10:00-22:00",
                "phone": "+7 800 3337711 (ext. 32346, 32347)",
                "shop": "cosmetics",
                "website": "https://www.letoile.ru/"
            },
            {
                "name": "Cream.Shop",
                "shop": "cosmetics",
                "website": "https://deadsea-cosmetics.ru/shops/firmennyy_magazin_kosmetiki_mertvogo_morya_na_sadovoy/",
                "operator": "ООО «Крем шоп»",
                "contact:vk": "https://vk.com/crem.shop",
                "opening_hours": "10:00-22:00"
            }
        ]
    },
    "fast_food": {
        "count": 2,
        "detail": [
            {
                "name": "Пышки",
                "amenity": "fast_food"
            },
            {
                "amenity": "fast_food",
                "contact:vk": "https://vk.com/bagginscoffee",
                "cuisine": "coffee_shop",
                "name": "Baggins Coffee",
                "opening_hours": "Mo-Fr 08:00-21:00; Sa-Su 09:00-21:00",
                "website": "http://bagginscoffee.ru/"
            }
        ]
    },
    "toys": {
        "count": 2,
        "detail": [
            {
                "shop": "toys"
            },
            {
                "shop": "toys"
            }
        ]
    },
    "clock": {
        "count": 3,
        "detail": [
            {
                "amenity": "clock",
                "display": "analog",
                "support": "wall_mounted"
            },
            {
                "amenity": "clock",
                "display": "analog",
                "support": "wall_mounted",
                "visibility": "street"
            },
            {
                "amenity": "clock",
                "display": "analog",
                "support": "wall_mounted",
                "visibility": "house"
            }
        ]
    },
    "ticket": {
        "count": 8,
        "detail": [
            {
                "shop": "ticket",
                "entrance": "yes",
                "wheelchair": "no",
                "description": "Железнодорожная касса"
            },
            {
                "shop": "ticket",
                "description": "Касса Александринского театра"
            },
            {
                "contact:vk": "https://vk.com/bileter",
                "name": "Bileter",
                "opening_hours": "Tu-Sa 11:00-20:00; 15:00-16:00 off; Jun-Aug off",
                "shop": "ticket",
                "tickets:theatre": "yes",
                "website": "https://www.bileter.ru/"
            },
            {
                "name": "Kassir.ru",
                "opening_hours": "Mo-Su 09:00-13:00, 14:00-21:00",
                "phone": "+7 812 7034040",
                "shop": "ticket",
                "website": "https://www.kassir.ru/"
            },
            {
                "name": "Софит",
                "opening_hours": "Mo-Su 09:00-14:00, 15:00-21:00",
                "phone": "+7 812 3277400",
                "shop": "ticket",
                "website": "https://www.biletsofit.ru/"
            },
            {
                "name": "Tiketland",
                "shop": "ticket",
                "phone": "+7 812 3202160",
                "opening_hours": "Mo-Su 10:00-13:00, 14:00-20:00"
            },
            {
                "email": "bilet@bileter.ru",
                "name": "Дирекция театрально-зрелищных касс",
                "opening_hours": "09:00-12:00,12:30-16:30,17:00-21:00",
                "phone": "+7 812 3808050; +7 800 3338051",
                "ref": "13",
                "shop": "ticket",
                "short_name": "ДТЗК",
                "website": "https://www.bileter.ru/",
                "wheelchair": "yes"
            },
            {
                "building": "yes",
                "contact:vk": "https://vk.com/bileter",
                "name": "Bileter",
                "opening_hours": "Mo-Su 10:00-14:00,15:00-21:00",
                "shop": "ticket",
                "tickets:theatre": "yes",
                "website": "https://www.bileter.ru/",
                "wheelchair": "yes"
            }
        ]
    },
    "clothes": {
        "count": 6,
        "detail": [
            {
                "clothes": "women",
                "fixme": "disused:",
                "name": "Meldes",
                "opening_hours": "11:00-22:00",
                "shop": "clothes",
                "website": "http://meldes.ru/"
            },
            {
                "name": "Оптово-розничный центр",
                "shop": "clothes",
                "opening_hours": "07:00-18:30"
            },
            {
                "name": "Великие Люди",
                "shop": "clothes",
                "website": "http://www.greatpeople.ru/",
                "opening_hours": "10:00-20:00"
            },
            {
                "name": "Весна",
                "shop": "clothes"
            },
            {
                "addr:housenumber": "10",
                "addr:street": "улица Ломоносова",
                "name": "second kent",
                "name:en": "second Kent",
                "shop": "clothes",
                "website": "https://vk.com/secondkent"
            },
            {
                "name": "SuitYou",
                "shop": "clothes",
                "phone": "+78123097568",
                "website": "http://suityou.su/",
                "opening_hours": "Mo-Su 11:00-21:00"
            }
        ]
    },
    "gift": {
        "count": 3,
        "detail": [
            {
                "alt_name": "Подарки и сувениры",
                "name": "Taste of Russia",
                "opening_hours": "10:00-22:00",
                "operator": "ООО \"ТФ \"Сувенир\"",
                "shop": "gift",
                "website": "http://spb-souvenirs.ru",
                "wheelchair": "no"
            },
            {
                "contact:vk": "https://vk.com/milospb",
                "name": "Milo",
                "opening_hours": "11:00-21:00",
                "shop": "gift",
                "website": "http://mi-lo.ru/"
            },
            {
                "name": "Дарград",
                "shop": "gift",
                "website": "https://dargrad.ru/",
                "opening_hours": "11:00-20:00"
            }
        ]
    },
    "bar": {
        "count": 3,
        "detail": [
            {
                "name": "Люблю",
                "amenity": "bar",
                "website": "http://yourstream.ru/fontanka45/",
                "contact:vk": "https://vk.com/fontanka45",
                "opening_hours": "Mo-Fr 11:00-23:30; Sa-Su 12:00-00:00"
            },
            {
                "name": "Top Hops",
                "amenity": "bar",
                "website": "http://www.tophops.ru",
                "contact:vk": "https://vk.com/tophopsspb",
                "opening_hours": "Mo-Su 16:00-01:00"
            },
            {
                "amenity": "bar",
                "name": "Majestic Bar",
                "smoking": "outside",
                "website": "https://hotelmajestic.ru/restaurants/lobbi-bar/"
            }
        ]
    },
    "bench": {
        "count": 39,
        "detail": [
            {
                "amenity": "bench",
                "backrest": "yes"
            },
            {
                "amenity": "bench",
                "backrest": "yes"
            },
            {
                "amenity": "bench",
                "backrest": "yes"
            },
            {
                "amenity": "bench",
                "backrest": "yes"
            },
            {
                "amenity": "bench",
                "backrest": "yes"
            },
            {
                "amenity": "bench",
                "backrest": "yes"
            },
            {
                "amenity": "bench",
                "backrest": "yes"
            },
            {
                "amenity": "bench",
                "backrest": "yes"
            },
            {
                "amenity": "bench",
                "backrest": "yes"
            },
            {
                "amenity": "bench",
                "backrest": "yes"
            },
            {
                "amenity": "bench",
                "backrest": "yes"
            },
            {
                "amenity": "bench",
                "backrest": "yes"
            },
            {
                "amenity": "bench",
                "backrest": "yes"
            },
            {
                "amenity": "bench",
                "backrest": "yes"
            },
            {
                "amenity": "bench",
                "backrest": "yes"
            },
            {
                "amenity": "bench",
                "backrest": "yes"
            },
            {
                "amenity": "bench",
                "backrest": "yes"
            },
            {
                "amenity": "bench",
                "backrest": "yes"
            },
            {
                "amenity": "bench",
                "backrest": "yes"
            },
            {
                "amenity": "bench",
                "backrest": "yes"
            },
            {
                "amenity": "bench",
                "backrest": "yes"
            },
            {
                "amenity": "bench",
                "backrest": "yes"
            },
            {
                "amenity": "bench",
                "backrest": "yes"
            },
            {
                "amenity": "bench",
                "backrest": "yes"
            },
            {
                "amenity": "bench",
                "backrest": "yes"
            },
            {
                "amenity": "bench",
                "backrest": "yes"
            },
            {
                "amenity": "bench",
                "backrest": "yes"
            },
            {
                "amenity": "bench",
                "backrest": "yes"
            },
            {
                "amenity": "bench",
                "backrest": "yes"
            },
            {
                "amenity": "bench",
                "backrest": "yes"
            },
            {
                "amenity": "bench",
                "backrest": "yes"
            },
            {
                "amenity": "bench",
                "backrest": "yes"
            },
            {
                "amenity": "bench",
                "backrest": "yes"
            },
            {
                "amenity": "bench",
                "backrest": "yes"
            },
            {
                "amenity": "bench",
                "backrest": "yes"
            },
            {
                "amenity": "bench"
            },
            {
                "amenity": "bench",
                "backrest": "yes"
            },
            {
                "amenity": "bench",
                "backrest": "yes"
            },
            {
                "amenity": "bench",
                "backrest": "yes"
            }
        ]
    },
    "school": {
        "count": 3,
        "detail": [
            {
                "amenity": "school",
                "contact:email": "unison1991@gmail.com",
                "contact:phone": "+7 812 9066008",
                "contact:vk": "https://vk.com/unison_school",
                "contact:website": "http://unisonschool.ru",
                "name": "Унисон",
                "official_name": "Общеобразовательная автономная некоммерческая организация \"ШКОЛА \"УНИСОН\""
            },
            {
                "addr:city": "Санкт-Петербург",
                "addr:housenumber": "2А",
                "addr:street": "Торговый переулок",
                "amenity": "school",
                "building": "school",
                "building:levels": "5",
                "contact:phone": "+7 812 3155060",
                "contact:website": "https://portal.ort.spb.ru",
                "name": "Школа № 550",
                "official_name": "Государственное бюджетное общеобразовательное учреждение средняя общеобразовательная школа № 550 «Школа информационных технологий» Центрального района Санкт-Петербурга",
                "ref": "550"
            },
            {
                "addr:city": "Санкт-Петербург",
                "addr:country": "RU",
                "addr:housenumber": "39",
                "addr:letter": "К",
                "addr:postcode": "191011",
                "addr:street": "Невский проспект",
                "amenity": "school",
                "building": "school",
                "contact:email": "anichkov_licey@mail.ru;gdtu37@mail.ru",
                "contact:phone": "+7 812 3101313;+7 812 3149555",
                "contact:website": "http://www.anichkov.ru",
                "name": "Аничков лицей",
                "official_name": "Государственное бюджетное нетиповое образовательное учреждение «Санкт-Петербургский городской Дворец творчества юных». Аничков лицей",
                "source": "rgis",
                "wheelchair": "no",
                "wikidata": "Q4066432"
            }
        ]
    },
    "electronics": {
        "count": 1,
        "detail": [
            {
                "name": "ReaderONE",
                "shop": "electronics",
                "website": "https://www.readerone.ru/",
                "contact:vk": "https://vk.com/readerone",
                "description": "Электронные книги и планшеты"
            }
        ]
    },
    "confectionery": {
        "count": 2,
        "detail": [
            {
                "name": "Rahat",
                "shop": "confectionery",
                "contact:vk": "https://vk.com/rahat_spb"
            },
            {
                "brand": "Фабрика имени Крупской",
                "brand:wikidata": "Q4480319",
                "contact:vk": "https://vk.com/sladostidlradosti",
                "name": "Сладости для радости",
                "opening_hours": "09:00-21:00",
                "shop": "confectionery",
                "website": "http://sladostispb.ru/"
            }
        ]
    },
    "hairdresser": {
        "count": 1,
        "detail": [
            {
                "name": "Perfect",
                "shop": "hairdresser",
                "website": "http://www.instityte-of-beauty.com/",
                "contact:vk": "https://vk.com/instityte_of_beauty"
            }
        ]
    },
    "sports_centre": {
        "count": 1,
        "detail": [
            {
                "name": "Центр боевых искусств Сергия Радонежского",
                "leisure": "sports_centre",
                "website": "http://www.martialartscenter.ru/",
                "contact:vk": "https://vk.com/russianmartialart"
            }
        ]
    },
    "beauty": {
        "count": 2,
        "detail": [
            {
                "name": "Good Look",
                "shop": "beauty",
                "website": "https://www.goodlook.spb.ru/",
                "contact:vk": "https://vk.com/public152937752"
            },
            {
                "name": "Колибри",
                "shop": "beauty",
                "contact:vk": "https://vk.com/kolibrisalon"
            }
        ]
    },
    "fabric": {
        "count": 1,
        "detail": [
            {
                "name": "Ткания",
                "shop": "fabric",
                "website": "http://www.tkania.ru/",
                "contact:vk": "https://vk.com/tkania",
                "opening_hours": "Mo-Sa 10:00-20:00; Su 11:00-19:00"
            }
        ]
    },
    "lighting": {
        "count": 1,
        "detail": [
            {
                "name": "Novolampa",
                "shop": "lighting",
                "website": "https://novolampa.ru/"
            }
        ]
    },
    "copyshop": {
        "count": 1,
        "detail": [
            {
                "name": "Copy Shop",
                "shop": "copyshop",
                "website": "http://copy-shop.ru/",
                "contact:vk": "https://vk.com/lomonosova10"
            }
        ]
    },
    "nightclub": {
        "count": 1,
        "detail": [
            {
                "name": "Rossi’s Club",
                "amenity": "nightclub",
                "website": "http://rossis.ru/",
                "contact:vk": "https://vk.com/rossisclub"
            }
        ]
    },
    "travel_agency": {
        "count": 5,
        "detail": [
            {
                "name": "Lex Tour",
                "shop": "travel_agency",
                "website": "http://lex-tour.ru/"
            },
            {
                "name": "Дюйм",
                "opening_hours": "Mo-Fr 10:00-18:00",
                "shop": "travel_agency",
                "website": "https://diuim.ru/"
            },
            {
                "contact:facebook": "https://www.facebook.com/primaveratour812",
                "contact:vk": "https://vk.com/primaveratour",
                "name": "Примавера Тур",
                "opening_hours": "Mo-Fr 10:00-18:00",
                "shop": "travel_agency",
                "website": "https://primavera-spb.ru/"
            },
            {
                "name": "Балтийский берег",
                "shop": "travel_agency",
                "website": "http://www.balt-bereg.ru/",
                "contact:vk": "https://vk.com/club65217770"
            },
            {
                "name": "Солнечный Берег",
                "shop": "travel_agency",
                "website": "http://sunnycoast.ru/",
                "contact:vk": "https://vk.com/s_coast",
                "opening_hours": "Mo-Fr 10:00-20:00; Sa-Su 11:00-19:00"
            }
        ]
    },
    "kindergarten": {
        "count": 1,
        "detail": [
            {
                "amenity": "kindergarten",
                "contact:email": "250@dou-center.spb.ru",
                "contact:phone": "+7 812 5722308;+7 812 5722861",
                "contact:website": "http://dou250spb.ru",
                "max_age": "8",
                "min_age": "3",
                "name": "Детский сад № 250",
                "official_name": "Государственное бюджетное дошкольное образовательное учреждение детский сад № 250 Центрального района Санкт-Петербурга",
                "opening_hours": "Mo-Fr 07:00-19:00; PH off",
                "ref": "250"
            }
        ]
    },
    "training": {
        "count": 1,
        "detail": [
            {
                "name": "SPB Training",
                "amenity": "training",
                "website": "http://www.trening-spb.com/",
                "contact:vk": "https://vk.com/spbtraining"
            }
        ]
    },
    "dentist": {
        "count": 1,
        "detail": [
            {
                "amenity": "dentist",
                "contact:vk": "https://vk.com/urartuspbru",
                "healthcare": "dentist",
                "name": "Урарту",
                "website": "http://urartuclinic.ru/"
            }
        ]
    },
    "library": {
        "count": 1,
        "detail": [
            {
                "amenity": "library",
                "contact:vk": "https://vk.com/club55052134",
                "name": "Санкт-Петербургская государственная Театральная библиотека",
                "opening_hours": "Mo-Fr 11:00-19:00; Sa 11:00-18:00; Fr[-1] off",
                "website": "http://sptl.spb.ru/",
                "wikidata": "Q4407659"
            }
        ]
    },
    "optician": {
        "count": 1,
        "detail": [
            {
                "contact:vk": "https://vk.com/optisse",
                "name": "Вижен сервис",
                "operator": "ЗАО «Невская Оптика Холдинг»",
                "shop": "optician",
                "website": "https://noptica.ru/saloni/vizhen_cervis_31/"
            }
        ]
    },
    "outdoor": {
        "count": 1,
        "detail": [
            {
                "name": "Товары для военных",
                "shop": "outdoor",
                "name:en": "Military shop"
            }
        ]
    },
    "bell": {
        "count": 1,
        "detail": [
            {
                "bell": "carillon",
                "amenity": "bell",
                "support": "cage"
            }
        ]
    },
    "place_of_worship": {
        "count": 1,
        "detail": [
            {
                "name": "Домовая церковь преподобного Серафима Вырицкого",
                "amenity": "place_of_worship",
                "religion": "christian",
                "denomination": "orthodox",
                "opening_hours": "08:00-18:00"
            }
        ]
    },
    "fountain": {
        "count": 1,
        "detail": [
            {
                "amenity": "fountain"
            }
        ]
    },
    "newsagent": {
        "count": 1,
        "detail": [
            {
                "brand": "Первая полоса",
                "brand:wikidata": "Q62736412",
                "name": "Первая полоса",
                "payment:cash": "yes",
                "payment:maestro": "yes",
                "payment:mastercard": "yes",
                "payment:visa": "yes",
                "payment:visa_electron": "yes",
                "ref": "19",
                "shop": "newsagent",
                "wheelchair": "yes"
            }
        ]
    },
    "tea": {
        "count": 1,
        "detail": [
            {
                "addr:door": "104",
                "addr:housenumber": "10",
                "addr:street": "улица Ломоносова",
                "email": "shop@teaspot.ru",
                "name": "Teaspot",
                "opening_hours": "Mo-Su 12:00-21:00",
                "phone": "+7 921 9047503",
                "shop": "tea",
                "website": "https://teaspot.ru/"
            }
        ]
    },
    "courthouse": {
        "count": 1,
        "detail": [
            {
                "amenity": "courthouse",
                "name": "Третий кассационный суд общей юрисдикции"
            }
        ]
    },
    "theatre": {
        "count": 4,
        "detail": [
            {
                "amenity": "theatre",
                "email": "pushkin_centre@mail.ru",
                "name": "Государственный Пушкинский театральный центр",
                "opening_hours": "Mo-Su 10:00-18:00",
                "operator": "ФГБУК «Государственный Пушкинский театральный центр в Санкт-Петербурге»",
                "ref:mkrf_theaters": "18521",
                "website": "http://www.pushkincenter.ru/"
            },
            {
                "addr:housenumber": "6",
                "addr:street": "площадь Островского",
                "amenity": "theatre",
                "building": "yes",
                "email": "teatrgolos@gmail.com",
                "fax": "+7 812 5836000",
                "historic": "yes",
                "name": "Александринский театр",
                "name:de": "Alexandrinski-Theater",
                "name:en": "Alexandrinsky Theatre",
                "name:fr": "Théâtre Alexandra",
                "name:it": "Teatro Aleksandrinskij",
                "name:ru": "Александринский театр",
                "name:zh": "亚力山大剧院",
                "opening_hours": "We-Su 13:00-23:00",
                "phone": "+7 812 9617799",
                "ref:mkrf_theaters": "28288",
                "website": "https://alexandrinsky.ru/",
                "wheelchair": "limited",
                "wikidata": "Q1186567",
                "wikipedia": "ru:Александринский театр"
            },
            {
                "addr:city": "Санкт-Петербург",
                "addr:country": "RU",
                "addr:housenumber": "39 литД",
                "addr:letter": "Д",
                "addr:street": "Невский проспект",
                "amenity": "theatre",
                "building": "yes",
                "building:levels": "5",
                "description": "Театрально-концертный комплекс «Карнавал» Городского Дворца пионеров",
                "name": "Карнавал",
                "phone": "+78123149555",
                "source": "rgis",
                "website": "http://www.anichkov.ru/page/karnaval/"
            },
            {
                "addr:housenumber": "49А",
                "addr:postcode": "191023",
                "addr:street": "набережная реки Фонтанки",
                "amenity": "theatre",
                "building": "yes",
                "fixme": "Контуры приблизительные по проекту",
                "name": "Новая сцена Александринского театра",
                "phone": "+7 812 4015341",
                "website": "https://alexandrinsky.ru/",
                "wikidata": "Q4321920",
                "wikipedia": "ru:Новая (малая) сцена Александринского театра"
            }
        ]
    },
    "carpet": {
        "count": 1,
        "detail": [
            {
                "addr:city": "Санкт-Петербург",
                "addr:housenumber": "35",
                "addr:street": "Невский проспект",
                "name": "Правильные Ковры",
                "opening_hours": "Mo-Su 10:00-22:00",
                "phone": "+7 812 4459876",
                "shop": "carpet"
            }
        ]
    },
    "service": {
        "count": 1,
        "detail": [
            {
                "ref": "312",
                "building": "service",
                "man_made": "mineshaft",
                "operator": "Петербургский метрополитен",
                "addr:street": "Невский проспект",
                "mineshaft_type": "air",
                "building:levels": "1",
                "addr:housenumber": "35"
            }
        ]
    }
}