{
    "residents": 4974,
    "bar": {
        "count": 9,
        "detail": [
            {
                "amenity": "bar",
                "contact:vk": "https://vk.com/barspb_official",
                "name": "SПБ",
                "opening_hours": "Su-Th 12:00-01:00, Fr-Sa 12:00-05:00",
                "phone": "+7 812 3353316",
                "website": "http://www.barspb.ru/"
            },
            {
                "amenity": "bar",
                "contact:vk": "https://vk.com/vtd_spb",
                "internet_access": "wlan",
                "name": "Все твои друзья"
            },
            {
                "amenity": "bar",
                "name": "Craft Beer Shop"
            },
            {
                "amenity": "bar",
                "contact:vk": "https://vk.com/everydogbar",
                "name": "Every Dog Bar"
            },
            {
                "alt_name": "КиллФиш",
                "amenity": "bar",
                "contact:vk": "https://vk.com/killfishbar",
                "cuisine": "sushi",
                "name": "KillFish",
                "opening_hours": "Mo-Su 12:00-03:00",
                "operator": "ООО «НГБ Ваян»",
                "phone": "+7 812 4480800",
                "website": "https://killfish.ru/"
            },
            {
                "amenity": "bar",
                "name": "Luxor",
                "website": "http://luxorbar.ru/"
            },
            {
                "amenity": "bar",
                "contact:vk": "https://vk.com/hookahpacman",
                "description": "кальянный клуб",
                "name": "Pacman",
                "name:ru": "5 Перцев"
            },
            {
                "alt_name": "Рюмочная",
                "amenity": "bar",
                "contact:vk": "https://vk.com/dobroemest",
                "name": "Закусочная",
                "opening_hours": "07:00-23:00",
                "operator": "ООО «Сатурн»"
            },
            {
                "addr:housenumber": "16/4",
                "addr:street": "Столярный переулок",
                "amenity": "bar",
                "cuisine": "russian",
                "email": "pechorinbar@gagara.biz",
                "internet_access": "wlan",
                "name": "Петербургский бар «Печоринъ»",
                "name:en": "St.Petersburg bar Pechorin",
                "opening_hours": "We-Su 18:00-01:00",
                "phone": "+78129643040",
                "website": "http://pechorinbar.ru"
            }
        ]
    },
    "restaurant": {
        "count": 11,
        "detail": [
            {
                "amenity": "restaurant",
                "contact:vk": "https://vk.com/iloverim",
                "level": "-0.5",
                "name": "Рим",
                "website": "http://www.restorimspb.ru/",
                "wheelchair": "no"
            },
            {
                "amenity": "restaurant",
                "cuisine": "chinese",
                "name": "Цзао Ван",
                "name:zh": "灶王餐館",
                "note": "скорее всего не относится к chinacook.ru",
                "opening_hours": "Mo-Su 12:00-24:00",
                "operator": "徐敏菊",
                "phone": "+7 812 5716921"
            },
            {
                "addr:housenumber": "39/41",
                "addr:street": "Садовая улица",
                "amenity": "restaurant",
                "contact:facebook": "https://www.facebook.com/hochuharcho",
                "cuisine": "georgian",
                "internet_access": "wlan",
                "name": "Хочу харчо",
                "name:en": "Hochu Harcho",
                "name:ru": "Хочу харчо",
                "opening_hours": "24/7",
                "outdoor_seating": "no",
                "phone": "+7 812 6401616",
                "website": "https://ginza.ru/spb/restaurant/hochu_harcho"
            },
            {
                "amenity": "restaurant",
                "contact:vk": "https://vk.com/severyanin_project",
                "cuisine": "russian",
                "email": "9516396@gmail.com",
                "internet_access": "wlan",
                "name": "Северянин",
                "phone": "+7 921 9516396",
                "website": "https://www.severyanin.me/"
            },
            {
                "amenity": "restaurant",
                "cuisine": "georgian",
                "name": "Азалия"
            },
            {
                "amenity": "restaurant",
                "contact:vk": "https://vk.com/toscanagrill",
                "cuisine": "italian",
                "name": "Toscana grill",
                "opening_hours": "12:00-24:00",
                "website": "http://toscanagrill.ru/"
            },
            {
                "amenity": "restaurant",
                "contact:vk": "https://vk.com/club165020651",
                "name": "Perbacco",
                "opening_hours": "11:30-23:00",
                "operator": "ООО «Триколоре»",
                "website": "https://www.perbacco.ru/"
            },
            {
                "alt_name": "Едимруками",
                "amenity": "restaurant",
                "contact:vk": "https://vk.com/edimrukami",
                "name": "Едим руками",
                "note": "возможно не работает",
                "opening_hours": "12:00-01:00",
                "website": "http://ginza.ru/spb/restaurant/edimrukami"
            },
            {
                "addr:housenumber": "54",
                "addr:street": "набережная канала Грибоедова",
                "amenity": "restaurant",
                "name": "Charlie",
                "opening_hours": "Mo-Th 09:00-23:00; Fr 09:00-02:00; Sa 10:00-02:00; Su 10:00-23:00",
                "phone": "+7 911 9260012",
                "website": "https://www.charlie-charlie.ru/"
            },
            {
                "amenity": "restaurant",
                "contact:vk": "https://vk.com/hochushashlik",
                "cuisine": "kebab",
                "name": "Хочу шашлык"
            },
            {
                "amenity": "restaurant",
                "contact:vk": "https://vk.com/ukusno",
                "cuisine": "balkan",
                "internet_access": "wlan",
                "name": "Ukusno",
                "opening_hours": "Su-Th 12:00-23:00; Fr-Sa 12:00-01:00",
                "phone": "+7 931 5857179",
                "website": "https://vk.com/ukusno"
            }
        ]
    },
    "fast_food": {
        "count": 14,
        "detail": [
            {
                "amenity": "fast_food",
                "brand": "Hesburger",
                "brand:wikidata": "Q1276832",
                "brand:wikipedia": "en:Hesburger",
                "contact:vk": "https://vk.com/hesburger_russia",
                "cuisine": "burger",
                "email": "sn.spb@hesburger.org",
                "internet_access": "wlan",
                "int_name": "Hesburger",
                "name": "Хесбургер",
                "name:en": "Hesburger",
                "opening_hours": "Su-Th 08:00-23:00, Fr-Sa 08:00-04:00",
                "operator": "ИП Кучеренко О.В.",
                "payment:cash": "yes",
                "payment:mastercard": "yes",
                "payment:visa": "yes",
                "phone": "+7 812 6779609",
                "takeaway": "yes",
                "website": "https://www.hesburger.ru/260?tid=1230"
            },
            {
                "amenity": "fast_food",
                "fast_food": "cafeteria",
                "name": "Ложка",
                "opening_hours": "Mo-Su 09:00-21:00",
                "operator": "ООО \"Ярко\"",
                "wheelchair": "no"
            },
            {
                "amenity": "fast_food",
                "contact:vk": "https://vk.com/royal.pizza",
                "cuisine": "pizza",
                "email": "info@royalpizza.ru",
                "name": "Роял пицца",
                "opening_hours": "24/7",
                "operator": "ООО \"БиКей\"",
                "phone": "+7 812 4485310",
                "website": "https://royalpizza.ru/"
            },
            {
                "amenity": "fast_food",
                "fast_food": "cafeteria",
                "name": "Домашний вкус",
                "opening_hours": "09:00-21:00"
            },
            {
                "amenity": "fast_food",
                "contact:vk": "https://vk.com/dodospb",
                "cuisine": "pizza",
                "delivery": "yes",
                "name": "Додо Пицца",
                "opening_hours": "10:00-23:00",
                "takeaway": "yes",
                "website": "https://dodopizza.ru/peterburg/sadovaya49/contacts",
                "wheelchair": "no"
            },
            {
                "amenity": "fast_food",
                "contact:vk": "https://vk.com/sushishop",
                "cuisine": "sushi",
                "delivery": "yes",
                "name": "СушиШоп",
                "opening_hours": "Mo-Su 10:00-23:00",
                "takeaway": "yes",
                "website": "https://www.sushishop.ru/"
            },
            {
                "amenity": "fast_food",
                "contact:vk": "https://vk.com/taiyakicafe",
                "cuisine": "japanese",
                "name": "Тайяки",
                "name:en": "Taiyaki",
                "name:ja": "たいやき",
                "opening_hours": "Su-Th 11:00-21:00; Fr-Sa 11:00-22:00",
                "website": "http://taiyakicafe.ru/"
            },
            {
                "amenity": "fast_food",
                "building": "kiosk",
                "cuisine": "crepe;coffee",
                "name": "Блины и кофе",
                "opening_hours": "Mo-Su 08:00-22:00",
                "payment:credit_cards": "yes",
                "payment:debit_cards": "yes",
                "takeaway": "only"
            },
            {
                "amenity": "fast_food",
                "contact:vk": "https://vk.com/leoncoffeespb",
                "cuisine": "coffee_shop",
                "level": "-1",
                "name": "Leon Coffee"
            },
            {
                "amenity": "fast_food",
                "contact:vk": "https://vk.com/etloncoffee",
                "cuisine": "coffee_shop",
                "name": "Etlon Coffee",
                "website": "https://etloncoffee.ru/"
            },
            {
                "amenity": "fast_food",
                "contact:instagram": "https://www.instagram.com/veg.pyramid/",
                "contact:vk": "https://vk.com/veganpyramid",
                "cuisine": "falafel",
                "diet:vegan": "yes",
                "name": "Веган Пирамида",
                "opening_hours": "24/7"
            },
            {
                "amenity": "fast_food",
                "contact:vk": "https://vk.com/jolywoo",
                "cuisine": "vietnamese; noodle",
                "delivery": "yes",
                "diet:vegetarian": "yes",
                "internet_access": "wlan",
                "level": "0",
                "name": "Joly Woo",
                "opening_hours": "11:00-23:00",
                "operator": "ООО «Джоли Ву Садовая»",
                "takeaway": "yes",
                "toilets": "yes",
                "website": "https://jolywoo.com/",
                "wheelchair": "no"
            },
            {
                "amenity": "fast_food",
                "contact:vk": "https://vk.com/coffeetherapists",
                "cuisine": "coffee_shop",
                "name": "Coffee Therapy",
                "website": "http://coffeetherapy.ru/"
            },
            {
                "amenity": "fast_food",
                "name:en": "Sparta gyros"
            }
        ]
    },
    "cafe": {
        "count": 31,
        "detail": [
            {
                "amenity": "cafe",
                "brand": "Starbucks",
                "brand:wikidata": "Q37158",
                "brand:wikipedia": "en:Starbucks",
                "contact:vk": "https://vk.com/starbucks",
                "cuisine": "coffee_shop",
                "internet_access": "wlan",
                "level": "0",
                "name": "Starbucks",
                "official_name": "Starbucks Coffee",
                "opening_hours": "Mo-Fr 07:30-22:00; Sa-Su 08:30-22:00",
                "operator": "ООО «Кофе Сирена»",
                "takeaway": "yes",
                "toilets:wheelchair": "yes",
                "website": "https://www.starbucks.ru/store/1023954",
                "wheelchair": "no"
            },
            {
                "amenity": "cafe",
                "name": "Алазани",
                "website": "http://alazani-spb.ru/"
            },
            {
                "amenity": "cafe",
                "contact:instagram": "https://www.instagram.com/coffitspb/",
                "contact:vk": "https://vk.com/coffitspb",
                "name": "Coffit",
                "opening_hours": "08:00-23:00",
                "operator": "ООО «Коффит-1»",
                "website": "http://www.coffit.spb.ru/"
            },
            {
                "amenity": "cafe",
                "name": "Stolov-ka",
                "opening_hours": "Mo-Fr 08:00-23:00; Sa-Su 09:00-23:00",
                "wheelchair": "no"
            },
            {
                "amenity": "cafe",
                "name": "Шаверма Хаус"
            },
            {
                "amenity": "cafe",
                "name": "Аъло",
                "website": "http://alo-halol.ru/"
            },
            {
                "amenity": "cafe",
                "contact:vk": "https://vk.com/teaumii",
                "name": "TeaUmii",
                "website": "https://teaumii.business.site/"
            },
            {
                "amenity": "cafe",
                "name": "Пирогоф",
                "website": "http://www.pirogof.com/"
            },
            {
                "amenity": "cafe",
                "contact:vk": "https://vk.com/kingpyshka",
                "cuisine": "donut",
                "name": "Царь-Пышка",
                "opening_hours": "Mo-Fr 09:00-21:00; Sa-Su 10:00-21:00",
                "operator": "ИП Иванов А.В.",
                "website": "https://king-pyshka.ru/"
            },
            {
                "amenity": "cafe",
                "name": "ManGall",
                "opening_hours": "Mo-Th 10:00-23:00; Fr 10:00-00:00; Sa 11:00-00:00; Su 11:00-22:00"
            },
            {
                "name": "Фергана",
                "amenity": "cafe",
                "toilets": "yes"
            },
            {
                "amenity": "cafe",
                "contact:vk": "https://vk.com/kafe_kattakurgan_bar",
                "name": "Каттакурган"
            },
            {
                "amenity": "cafe",
                "contact:instagram": "https://www.instagram.com/ferma.cafe.sadovaya/",
                "contact:vk": "https://vk.com/fermacafe",
                "cuisine": "cake",
                "level": "0",
                "name": "FermA",
                "opening_hours": "10:00-23:00",
                "operator": "ООО «М-Промо»",
                "phone": "+7 812 6430400",
                "website": "https://white-group.ru/restaurants/view/konditerskaya-ferma/",
                "wheelchair": "no"
            },
            {
                "amenity": "cafe",
                "name": "1848",
                "opening_hours": "11:00-23:00"
            },
            {
                "name": "Пышечка",
                "amenity": "cafe",
                "website": "https://ginza.ru/spb/restaurant/pyshechka",
                "contact:vk": "https://vk.com/ginzapyshechka",
                "opening_hours": "Mo-Fr 09:00-21:00; Sa-Su 10:00-21:00"
            },
            {
                "addr:housenumber": "54",
                "addr:street": "набережная канала Грибоедова",
                "amenity": "cafe",
                "contact:facebook": "https://facebook.com/coffeewayspb",
                "contact:instagram": "https://instagram.com/coffeeway_spb",
                "contact:phone": "+7 906 2728759",
                "contact:vk": "https://vk.com/coffeeway_spb_sennaya",
                "contact:website": "https://www.instagram.com/coffeeway_spb",
                "internet_access": "wlan",
                "name": "Coffee Way",
                "opening_hours": "Mo-Fr 08:00-21:00; Sa-Su 09:00-21:00",
                "operator": "Coffee Way"
            },
            {
                "amenity": "cafe",
                "name": "Маковый Jam"
            },
            {
                "amenity": "cafe",
                "diet:vegetarian": "no",
                "drink:beer": "served",
                "name": "Lagman Delivery",
                "opening_hours": "10:00-22:00",
                "toilets": "yes",
                "website": "https://lagman-delivery.ru/",
                "wheelchair": "no"
            },
            {
                "amenity": "cafe",
                "breakfast": "09:00-14:00",
                "contact:vk": "https://vk.com/jcbistro",
                "dinner": "14:00-23:30",
                "lunch": "12:00-17:00",
                "name": "Julia Child",
                "opening_hours": "Mo-Fr 09:00-23:30; Sa-Su 10:00-23:30",
                "phone": "+7 812 9290797",
                "takeaway": "yes"
            },
            {
                "name": "#Кофейня №1",
                "amenity": "cafe",
                "website": "http://delmar-spb.ru/restaurants/koff-sadovaya/",
                "alt_name": "Кофейня №1",
                "contact:vk": "https://vk.com/coffeen1",
                "opening_hours": "24/7"
            },
            {
                "amenity": "cafe",
                "cuisine": "doner",
                "level": "-1",
                "name": "Шаверма Mix",
                "wheelchair": "no"
            },
            {
                "amenity": "cafe",
                "contact:vk": "https://vk.com/kafeagnia",
                "name": "Агния",
                "opening_hours": "11:00-23:00",
                "operator": "ООО «3 Обезьяны»",
                "website": "http://kafe-agnija.mozello.ru/"
            },
            {
                "amenity": "cafe",
                "contact:facebook": "https://www.facebook.com/horns.hooves18/",
                "name": "Рога и копыта",
                "name:en": "Horns & Hooves",
                "name:ru": "Рога и копыта",
                "opening_hours": "12:00+",
                "website": "https://horns.tastetoeat.ru/"
            },
            {
                "amenity": "cafe",
                "name": "Шаурма"
            },
            {
                "name": "Шаурма",
                "level": "-1",
                "amenity": "cafe",
                "opening_hours": "24/7"
            },
            {
                "amenity": "cafe",
                "contact:vk": "https://vk.com/moomoo_burgers",
                "cuisine": "burger",
                "delivery": "yes",
                "diet:vegan": "yes",
                "diet:vegetarian": "yes",
                "level": "0",
                "name": "Moo Moo",
                "opening_hours": "Su-Th 08:00-23:30, Fr-Sa 08:00-01:30",
                "operator": "ООО «Природа»",
                "phone": "+7 812 9552288",
                "takeaway": "yes",
                "website": "https://www.moomooburgers.ru/",
                "wheelchair": "no"
            },
            {
                "amenity": "cafe",
                "level": "-1",
                "name": "Gunners",
                "wheelchair": "no"
            },
            {
                "amenity": "cafe",
                "level": "-1",
                "name": "Кебаб Хаус"
            },
            {
                "amenity": "cafe",
                "contact:vk": "https://vk.com/pastelariabica",
                "level": "0",
                "name": "Bica",
                "wheelchair": "no"
            },
            {
                "amenity": "cafe",
                "contact:email": "info@bagginscoffee.ru",
                "contact:phone": "+7 800 6007015;+7 905 2504412",
                "contact:vk": "https://vk.com/bagginscoffee",
                "contact:website": "http://bagginscoffee.ru/",
                "name": "Baggins Coffee",
                "note": "возможно не работает",
                "opening_hours": "Mo-Fr 08:00-21:00;Sa-Su 09:00-21:00",
                "operator": "ИП Павлов Андрей Петрович"
            },
            {
                "amenity": "cafe",
                "contact:vk": "https://vk.com/bagginscoffee",
                "cuisine": "coffee_shop",
                "name": "Baggins Coffee",
                "opening_hours": "Mo-Fr 08:00-21:00; Sa-Su 09:00-21:00",
                "website": "http://bagginscoffee.ru/"
            }
        ]
    },
    "alcohol": {
        "count": 6,
        "detail": [
            {
                "contact:vk": "https://vk.com/amwineru",
                "name": "Ароматный мир",
                "opening_hours": "10:00-22:00",
                "operator": "ООО «АМ-2 СПб»",
                "shop": "alcohol",
                "website": "https://amwine.ru/customers/shops/detail/433847/",
                "wheelchair": "yes"
            },
            {
                "brand": "Красное & Белое",
                "brand:en": "Red & White",
                "brand:wikidata": "Q24933790",
                "brand:wikipedia": "en:Krasnoe & Beloe",
                "contact:vk": "https://vk.com/krasnoebeloe",
                "name": "Красное & Белое",
                "name:en": "Red & White",
                "opening_hours": "09:00-22:05",
                "shop": "alcohol",
                "website": "https://krasnoeibeloe.ru/"
            },
            {
                "amenity": "bar",
                "name": "РосАл",
                "opening_hours": "24/7",
                "shop": "alcohol",
                "website": "http://www.rosal24.ru/"
            },
            {
                "brand": "Ароматный мир",
                "contact:facebook": "https://www.facebook.com/amwine.ru",
                "contact:instagram": "https://instagram.com/amwine.ru",
                "contact:twitter": "https://twitter.com/amwineru",
                "contact:vk": "https://vk.com/amwineru",
                "drink:beer": "bottled",
                "drink:cider": "bottled",
                "drink:cognac": "bottled",
                "drink:soft_drink": "bottled",
                "drink:sparkling_wine": "bottled",
                "drink:vodka": "bottled",
                "drink:whisky": "bottled",
                "drink:wine": "bottled",
                "name": "Ароматный мир",
                "name:ru": "Ароматный мир",
                "opening_hours": "Mo-Su 10:00-22:00",
                "shop": "alcohol",
                "website": "https://amwine.ru/customers/shops/detail/84802/",
                "wheelchair": "no"
            },
            {
                "name": "Живое пиво",
                "shop": "alcohol"
            },
            {
                "name": "Мир виски",
                "shop": "alcohol",
                "website": "https://whiskyworld.ru/saint-petersburg",
                "operator": "ООО \"Академия Виски\"",
                "opening_hours": "11:00-22:00"
            }
        ]
    },
    "jewelry": {
        "count": 5,
        "detail": [
            {
                "brand": "Ювелирторг",
                "contact:vk": "https://vk.com/juvelirtorg",
                "name": "Агат",
                "opening_hours": "Mo-Sa 11:00-20:00; Su 11:00-18:00",
                "operator": "АО «Ювелирторг»",
                "shop": "jewelry",
                "website": "https://juvelirtorg.spb.ru/stores/sankt-peterburg/1"
            },
            {
                "contact:instagram": "https://www.instagram.com/jerusalembazar/",
                "name": "Jerusalembazar",
                "opening_hours": "10:00-22:00",
                "operator": "ИП Либерман",
                "shop": "jewelry",
                "website": "https://jerusalembazar.ru/"
            },
            {
                "name": "Серебро",
                "opening_hours": "Mo-Fr 10:00-21:00; Sa-Su 11:00-21:00",
                "shop": "jewelry",
                "website": "http://serebro-juvelir.com/"
            },
            {
                "contact:instagram": "https://www.instagram.com/mir_kamnei_spb/",
                "level": "0",
                "name": "Мир камней",
                "opening_hours": "10:30-21:00",
                "shop": "jewelry",
                "website": "https://миркамнейспб.рф/"
            },
            {
                "name": "Серебро",
                "opening_hours": "Mo-Fr 11:00-20:00; Sa-Su 11:00-19:00",
                "shop": "jewelry"
            }
        ]
    },
    "health_food": {
        "count": 1,
        "detail": [
            {
                "contact:vk": "https://vk.com/eco_bio_market",
                "name": "Компас здоровья",
                "opening_hours": "09:00-22:00",
                "operator": "ИП Егорова Екатерина Сергеевна",
                "shop": "health_food",
                "website": "http://www.smkfarm.ru/contacts/stores/rossiya/sank-peterburg/953/"
            }
        ]
    },
    "pharmacy": {
        "count": 13,
        "detail": [
            {
                "amenity": "pharmacy",
                "dispensing": "yes",
                "healthcare": "pharmacy",
                "name": "Народная аптека",
                "opening_hours": "24/7",
                "wheelchair": "no"
            },
            {
                "amenity": "pharmacy",
                "healthcare": "pharmacy",
                "name": "Сити-Фарм",
                "opening_hours": "Mo-Fr 08:00-22:30; Sa-Su 09:00-21:00",
                "operator": "ИП Родин В.В.",
                "phone": "+7 812 3101324"
            },
            {
                "amenity": "pharmacy",
                "healthcare": "pharmacy",
                "name": "Зелёная линия",
                "opening_hours": "Mo-Fr 09:00-21:00; Sa-Su 10:00-20:00",
                "phone": "+7 812 3125725"
            },
            {
                "amenity": "pharmacy",
                "contact:facebook": "https://www.facebook.com/ozerkiapteka/",
                "contact:instagram": "https://www.instagram.com/ozerki_apteki/",
                "contact:twitter": "https://twitter.com/Ozerki_Apteki",
                "contact:vk": "https://vk.com/ozerkiapteka",
                "healthcare": "pharmacy",
                "name": "Озерки",
                "opening_hours": "Mo-Fr 07:00-23:00; Sa-Su 08:00-22:00",
                "operator": "ООО «Эркафарм Северо-запад»",
                "website": "https://ozerki.ru/",
                "wheelchair": "yes"
            },
            {
                "amenity": "pharmacy",
                "contact:vk": "https://vk.com/club102971985",
                "healthcare": "pharmacy",
                "name": "Мелодия здоровья",
                "opening_hours": "Mo-Fr 08:00-21:00; Sa-Su 09:00-21:00",
                "operator": "ООО «Этна»",
                "website": "http://spb.melzdrav.ru/"
            },
            {
                "amenity": "pharmacy",
                "contact:facebook": "http://facebook.com/aptekivita",
                "contact:instagram": "https://www.instagram.com/vita_express/",
                "contact:phone": "+7 800 7550003",
                "contact:vk": "https://vk.com/aptekivita",
                "contact:website": "https://vitaexpress.ru/",
                "healthcare": "pharmacy",
                "name": "Вита Экспресс",
                "opening_hours": "Mo-Sa 08:00-23:00;Su 09:00-23:00",
                "operator": "ООО «Нептун»"
            },
            {
                "amenity": "pharmacy",
                "dispensing": "no",
                "healthcare": "pharmacy",
                "website": "http://www.pastera.ru/"
            },
            {
                "amenity": "pharmacy",
                "healthcare": "pharmacy",
                "name": "Здоровая жизнь",
                "opening_hours": "09:00-21:00"
            },
            {
                "amenity": "pharmacy",
                "contact:facebook": "http://facebook.com/aptekivita",
                "contact:instagram": "https://www.instagram.com/vita_express/",
                "contact:phone": "+7 800 7550003",
                "contact:vk": "https://vk.com/aptekivita",
                "contact:website": "https://vitaexpress.ru/",
                "name": "Вита Центральная",
                "opening_hours": "Mo-Su 08:00-22:00"
            },
            {
                "amenity": "pharmacy",
                "healthcare": "pharmacy",
                "name": "Петербургские аптеки",
                "opening_hours": "Mo-Fr 09:00-21:00; Sa-Su 10:00-20:00",
                "phone": "+7 812 7000303",
                "website": "https://papteki.ru/"
            },
            {
                "amenity": "pharmacy",
                "healthcare": "pharmacy",
                "name": "Балтика-Мед",
                "name:en": "Baltika-Med",
                "opening_hours": "09:00-22:00",
                "website": "http://baltikamed.ru/"
            },
            {
                "amenity": "pharmacy",
                "contact:vk": "https://vk.com/planeta_zdorovo",
                "healthcare": "pharmacy",
                "name": "Планета здоровья",
                "opening_hours": "24/7",
                "website": "https://planetazdorovo.ru/"
            },
            {
                "amenity": "pharmacy",
                "contact:facebook": "http://facebook.com/aptekivita",
                "contact:instagram": "https://www.instagram.com/vita_express/",
                "contact:phone": "+7 800 7550003",
                "contact:vk": "https://vk.com/aptekivita",
                "contact:website": "https://vitaexpress.ru/",
                "healthcare": "pharmacy",
                "name": "Вита Центральная",
                "opening_hours": "Mo-Sa 08:00-23:00;Su 09:00-23:00"
            }
        ]
    },
    "bakery": {
        "count": 5,
        "detail": [
            {
                "brand": "Булочные Ф. Вольчека",
                "contact:email": "info@fvolchek.ru",
                "contact:phone": "+7 812 6420638",
                "contact:vk": "f.volchek",
                "contact:website": "http://fvolchek.ru/",
                "inscription": "Булочная № 74",
                "name": "Булочная Ф. Вольчека",
                "name:ru": "Булочная Ф. Вольчека",
                "opening_hours": "Mo-Su 08:00-22:00",
                "ref": "74",
                "shop": "bakery"
            },
            {
                "brand": "Булочные Ф. Вольчека",
                "contact:email": "info@fvolchek.ru",
                "contact:phone": "+7 812 6420638",
                "contact:vk": "f.volchek",
                "contact:website": "http://fvolchek.ru/",
                "drink:coffee": "served",
                "drink:mors": "served",
                "drink:tea": "served",
                "inscription": "Булочная № 26",
                "name": "Булочная Ф. Вольчека",
                "name:ru": "Булочная Ф. Вольчека",
                "opening_hours": "Mo-Su 08:00-22:00",
                "operator": "Булочные Ф.Вольчека",
                "payment:cash": "yes",
                "payment:maestro": "yes",
                "payment:mastercard": "yes",
                "payment:visa": "yes",
                "payment:visa_debit": "yes",
                "payment:visa_electron": "yes",
                "ref": "26",
                "shop": "bakery",
                "takeaway": "yes",
                "wheelchair": "no"
            },
            {
                "brand": "Булочные Ф. Вольчека",
                "contact:email": "info@fvolchek.ru",
                "contact:phone": "+7 812 6420638",
                "contact:vk": "f.volchek",
                "contact:website": "http://fvolchek.ru/",
                "drink:coffee": "served",
                "drink:mors": "served",
                "drink:tea": "served",
                "inscription": "Булочная № 28",
                "name": "Булочная Ф. Вольчека",
                "name:ru": "Булочная Ф. Вольчека",
                "opening_hours": "Mo-Su 08:00-22:00",
                "payment:cash": "yes",
                "payment:maestro": "yes",
                "payment:mastercard": "yes",
                "payment:visa": "yes",
                "payment:visa_debit": "yes",
                "payment:visa_electron": "yes",
                "ref": "28",
                "shop": "bakery",
                "takeaway": "yes"
            },
            {
                "contact:vk": "https://vk.com/bonape.voznesensky",
                "name": "Bonapé",
                "note": "нет на сайте",
                "opening_hours": "Mo-Fr 08:00-20:00; Sa-Su 09:00-20:00",
                "shop": "bakery",
                "website": "http://www.bonape.ru/"
            },
            {
                "amenity": "cafe",
                "contact:email": "info@tseh85.ru",
                "contact:instagram": "instagram.com/tseh85",
                "contact:phone": "+7 812 7757785",
                "contact:vk": "https://vk.com/tseh85",
                "contact:website": "http://tseh85.ru/",
                "diet:vegetarian": "yes",
                "name": "ЦЕХ85",
                "opening_hours": "Mo-Fr 08:00-21:00;Sa-Su 09:00-21:00",
                "operator": "Андреева",
                "payment:credit_cards": "yes",
                "payment:debit_cards": "yes",
                "shop": "bakery",
                "toilets": "yes"
            }
        ]
    },
    "supermarket": {
        "count": 4,
        "detail": [
            {
                "alt_name": "Перекресток",
                "brand": "Перекрёсток",
                "brand:en": "Perekryostok",
                "brand:wikidata": "Q1684639",
                "brand:wikipedia": "en:Perekrestok (supermarket chain)",
                "contact:facebook": "https://www.facebook.com/perekrestok",
                "contact:instagram": "https://www.instagram.com/perekrestok/",
                "contact:ok": "https://ok.ru/perekrestok.shop",
                "contact:phone": "+7 800 2009555;+7 812 4483010",
                "contact:twitter": "https://twitter.com/perekrestok",
                "contact:vk": "https://vk.com/perekrestok_shop",
                "contact:website": "https://www.perekrestok.ru/",
                "name": "Перекрёсток",
                "opening_hours": "08:00-23:00",
                "shop": "supermarket"
            },
            {
                "brand": "Дикси",
                "brand:en": "Dixy",
                "brand:wikidata": "Q4161561",
                "brand:wikipedia": "ru:Дикси (сеть магазинов)",
                "contact:phone": "+7 800 3330201",
                "contact:vk": "https://vk.com/dixyclub",
                "contact:youtube": "https://www.youtube.com/user/DixyChannel",
                "name": "Дикси",
                "name:ru": "Дикси",
                "opening_hours": "24/7",
                "shop": "supermarket",
                "website": "https://dixy.ru/"
            },
            {
                "brand": "Магнит",
                "brand:en": "Magnit",
                "brand:wikidata": "Q940518",
                "brand:wikipedia": "ru:Магнит (сеть магазинов)",
                "contact:facebook": "https://www.facebook.com/magnitretail",
                "contact:ok": "https://ok.ru/magnitinfo",
                "contact:twitter": "https://twitter.com/magnitretail",
                "contact:vk": "https://vk.com/magnitretail",
                "contact:youtube": "https://www.youtube.com/channel/UCoWX1GhHlSJGwKpCEJitsoA/",
                "name": "Магнит у дома",
                "opening_hours": "08:00-23:00",
                "operator": "АО «Тандер»",
                "phone": "+7 800 2009002",
                "shop": "supermarket",
                "website": "https://magnit.ru/shops/49685/"
            },
            {
                "brand": "Пятёрочка",
                "brand:en": "Pyaterochka",
                "brand:wikidata": "Q1768969",
                "brand:wikipedia": "ru:Пятёрочка",
                "contact:vk": "https://vk.com/pyaterochka_shop",
                "name": "Пятёрочка",
                "name:en": "Pyaterochka",
                "opening_hours": "08:00-23:00",
                "operator": "ООО «Агроторг»",
                "shop": "supermarket",
                "website": "https://5ka.ru/"
            }
        ]
    },
    "convenience": {
        "count": 10,
        "detail": [
            {
                "brand": "ВкусВилл",
                "brand:wikidata": "Q57271676",
                "brand:wikipedia": "ru:Вкусвилл",
                "contact:phone": "+7 921 5543996",
                "contact:vk": "https://vk.com/vkusvill_ru",
                "contact:website": "https://vkusvill.ru",
                "name": "ВкусВилл",
                "opening_hours": "Mo-Su 08:00-21:00",
                "operator": "ООО «Вкусвилл»",
                "shop": "convenience"
            },
            {
                "level": "-1",
                "name": "Продукты",
                "opening_hours": "24/7",
                "shop": "convenience",
                "wheelchair": "no"
            },
            {
                "name": "Гастроном и Ко",
                "opening_hours": "24/7",
                "shop": "convenience"
            },
            {
                "name": "Food маркет",
                "opening_hours": "24/7",
                "shop": "convenience"
            },
            {
                "name": "Продукты",
                "opening_hours": "24/7",
                "operator": "ООО «МФА»",
                "shop": "convenience"
            },
            {
                "name": "Продукты",
                "opening_hours": "24/7",
                "shop": "convenience"
            },
            {
                "opening_hours": "08:00-23:00",
                "shop": "convenience"
            },
            {
                "brand": "ВкусВилл",
                "brand:wikidata": "Q57271676",
                "brand:wikipedia": "ru:Вкусвилл",
                "contact:facebook": "https://www.facebook.com/vkusvill.ru",
                "contact:instagram": "https://www.instagram.com/izbenka_vkusvill/",
                "contact:vk": "https://vk.com/vkusvill_ru",
                "name": "ВкусВилл",
                "opening_hours": "08:00-23:00",
                "operator": "ООО «Вкусвилл»",
                "shop": "convenience",
                "website": "https://spb.vkusvill.ru/shops/?shop_id=8165"
            },
            {
                "food": "yes",
                "name": "Продукты",
                "name:ru": "Продукты",
                "opening_hours": "24/7",
                "shop": "convenience"
            },
            {
                "name": "Продукты",
                "opening_hours": "24/7",
                "shop": "convenience"
            }
        ]
    },
    "fountain": {
        "count": 1,
        "detail": [
            {
                "name": "«Нептун»",
                "amenity": "fountain"
            }
        ]
    },
    "hardware": {
        "count": 2,
        "detail": [
            {
                "contact:vk": "https://vk.com/clubmaterovoy",
                "name": "Мастеровой",
                "opening_hours": "Mo-Fr 10:00-20:00; Sa 10:00-19:00; Su 11:00-18:00",
                "operator": "ООО «Маркет Торг»",
                "shop": "hardware",
                "website": "https://masterovoy-spb.ru/"
            },
            {
                "name": "ГК Альянс",
                "shop": "hardware",
                "email": "info@prof-krepezh.ru",
                "phone": "+7 812 9121515",
                "website": "https://prof-krepezh.ru",
                "addr:city": "Санкт-Петербург",
                "addr:street": "Садовая улица",
                "description": "Строительный крепеж оптом: анкеры, метизы, строительная химия и другое",
                "addr:postcode": "190031",
                "opening_hours": "Mo-Fr 09:00-18:00",
                "addr:housenumber": "42"
            }
        ]
    },
    "kindergarten": {
        "count": 3,
        "detail": [
            {
                "amenity": "kindergarten",
                "contact:email": "admiral-gdou16@mail.ru",
                "contact:phone": "+7 812 3142454;+7 812 3141888;+7 812 3140150",
                "contact:website": "https://ds16spb.nubex.ru",
                "name": "Детский сад № 16",
                "official_name": "Государственное бюджетное дошкольное образовательное учреждение детский сад комбинированного вида № 16 Адмиралтейского района",
                "ref": "16"
            },
            {
                "amenity": "kindergarten",
                "contact:email": "dou32.adm@obr.gov.spb.ru",
                "contact:phone": "+7 812 3140558",
                "contact:website": "https://ds32spb.nubex.ru",
                "name": "Детский сад № 32",
                "official_name": "Государственное бюджетное дошкольное образовательное учреждение детский сад № 32 общеразвивающего вида с приоритетным осуществлением деятельности по художественно-эстетическому развитию детей Адмиралтейского района Санкт-Петербурга",
                "ref": "32"
            },
            {
                "addr:housenumber": "34",
                "addr:letter": "Б",
                "addr:street": "Вознесенский проспект",
                "building": "kindergarten",
                "building:levels": "2"
            }
        ]
    },
    "fabric": {
        "count": 3,
        "detail": [
            {
                "name": "Апрель",
                "shop": "fabric",
                "source": "survey"
            },
            {
                "name": "Commode",
                "shop": "fabric"
            },
            {
                "contact:email": "auratessu@yandex.ru",
                "contact:facebook": "https://facebook.com/tkaniauratessu",
                "contact:instagram": "https://instagram.com/tkani_na_sennoispb",
                "contact:phone": "+7 812 5710298",
                "contact:vk": "https://vk.com/tkaniauratessu",
                "contact:website": "http://auratessu.ru/",
                "name": "Auratessu",
                "opening_hours": "Mo-Fr 10:00-20:00;Sa 11:00-20:00;Su 11:00-19:00",
                "operator": "Auratessu",
                "shop": "fabric"
            }
        ]
    },
    "police": {
        "count": 2,
        "detail": [
            {
                "name": "Участковый пункт полиции № 9",
                "amenity": "police"
            },
            {
                "amenity": "police",
                "name": "Управление уголовного розыска"
            }
        ]
    },
    "tattoo": {
        "count": 2,
        "detail": [
            {
                "name": "Артефакт",
                "shop": "tattoo",
                "source": "survey"
            },
            {
                "email": "dont_tell_mama@mail.ru",
                "internet_access": "wlan",
                "name": "Art of Pain",
                "opening_hours": "Mo-Su 11:00-20:00",
                "phone": "+7 921 9052088",
                "shop": "tattoo",
                "website": "https://artofpain.ru/"
            }
        ]
    },
    "copyshop": {
        "count": 3,
        "detail": [
            {
                "name": "Орион",
                "opening_hours": "Mo-Fr 10:00-18:00",
                "shop": "copyshop"
            },
            {
                "contact:vk": "https://vk.com/kopykanz",
                "name": "КопиКанц",
                "opening_hours": "08:30-20:00",
                "shop": "copyshop",
                "website": "https://kopykanz.ru/"
            },
            {
                "contact:vk": "https://vk.com/kopykanz",
                "level": "-1",
                "name": "КопиКанц",
                "opening_hours": "08:30-20:00",
                "shop": "copyshop",
                "website": "https://kopykanz.ru/"
            }
        ]
    },
    "kitchen": {
        "count": 1,
        "detail": [
            {
                "name": "Verona mobili",
                "shop": "kitchen",
                "website": "http://www.verona-mobili.ru/",
                "contact:vk": "https://vk.com/verona_mobili",
                "opening_hours": "11:00-20:00"
            }
        ]
    },
    "sewing": {
        "count": 1,
        "detail": [
            {
                "name": "Текстильторг",
                "shop": "sewing",
                "website": "https://www.textiletorg.ru/",
                "contact:vk": "https://vk.com/textile.torg",
                "opening_hours": "09:00-21:00"
            }
        ]
    },
    "shoes": {
        "count": 5,
        "detail": [
            {
                "name": "Море обуви",
                "shop": "shoes"
            },
            {
                "name": "Cavaletto",
                "opening_hours": "Mo-Fr 11:00-20:00; Sa-Su 11:00-19:00",
                "shop": "shoes",
                "website": "http://www.cavaletto.ru/"
            },
            {
                "contact:vk": "https://vk.com/deutscheschuhe",
                "name": "Немецкая обувь",
                "opening_hours": "10:00-21:00",
                "operator": "ООО «Савва»",
                "shop": "shoes",
                "website": "https://www.немецкаяобувь.com/"
            },
            {
                "brand": "Belwest",
                "brand:wikidata": "Q4081686",
                "contact:email": "hotline@belwest.by",
                "contact:facebook": "https://www.facebook.com/belwest.shoes/",
                "contact:instagram": "https://www.instagram.com/belwest.shoes/",
                "contact:ok": "https://ok.ru/belwest.shoes",
                "contact:phone": "+7 812 3101676",
                "contact:vk": "https://vk.com/belwest.shoes",
                "contact:website": "https://belwest.ru/",
                "contact:youtube": "https://www.youtube.com/channel/UCMxwgKfu3jxDiv9lAdluR1Q",
                "name": "Belwest",
                "opening_hours": "10:00-21:00",
                "operator": "Белвест Ритейл Москва",
                "shop": "shoes"
            },
            {
                "name": "Обувной дом",
                "shop": "shoes",
                "level": "0",
                "opening_hours": "10:00-21:00"
            }
        ]
    },
    "chemist": {
        "count": 3,
        "detail": [
            {
                "contact:vk": "https://vk.com/ulybka_radugi",
                "name": "Улыбка радуги",
                "opening_hours": "09:00-22:00",
                "shop": "chemist",
                "website": "https://www.r-ulybka.ru/"
            },
            {
                "contact:vk": "https://vk.com/ulybka_radugi",
                "name": "Улыбка радуги",
                "opening_hours": "09:00-22:00",
                "operator": "ООО «Восточное»",
                "shop": "chemist",
                "website": "https://www.r-ulybka.ru/"
            },
            {
                "name": "Скарлетт",
                "opening_hours": "09:00-22:00",
                "operator": "ООО «Скарлетт»",
                "shop": "chemist",
                "website": "https://scarlett-group.ru/"
            }
        ]
    },
    "beauty": {
        "count": 11,
        "detail": [
            {
                "contact:vk": "https://vk.com/salonsharlizspb",
                "name": "Шарлиз",
                "opening_hours": "Mo-Fr 09:00-21:00; Sa-Su 10:00-21:00",
                "operator": "ИП Кондрашкин Николай Сергеевич",
                "shop": "beauty",
                "website": "http://sharm-salons.ru/"
            },
            {
                "contact:vk": "https://vk.com/beautysalonnewstars",
                "name": "New Stars",
                "opening_hours": "10:00-21:00",
                "shop": "beauty",
                "website": "http://salonstars.ru/"
            },
            {
                "check_date": "2018-08-31",
                "name": "Невесомость",
                "opening_hours": "09:00-21:00",
                "phone": "+7 812 6605175;+7 960 2330012",
                "shop": "beauty",
                "wheelchair": "no"
            },
            {
                "contact:vk": "https://vk.com/club157277461",
                "name": "Soma",
                "opening_hours": "10:00-22:00",
                "shop": "beauty"
            },
            {
                "contact:vk": "https://vk.com/club7587637",
                "name": "Passion",
                "phone": "+7 812 3129626",
                "shop": "beauty"
            },
            {
                "contact:vk": "https://vk.com/viktoriabrand",
                "int_name": "Viktoriya Brand",
                "name": "Салон красоты Виктории Бранд",
                "shop": "beauty",
                "website": "http://viktoriyabrand.ru/"
            },
            {
                "contact:vk": "https://vk.com/boom.salon",
                "name": "ВооМ",
                "opening_hours": "10:00-21:00",
                "phone": "+7 812 5716527",
                "shop": "beauty"
            },
            {
                "contact:vk": "https://vk.com/frenchspbnail",
                "name": "Фрэнч",
                "opening_hours": "10:00-22:00",
                "shop": "beauty"
            },
            {
                "name": "ПиLки",
                "shop": "beauty",
                "level": "0",
                "website": "https://pilkinail.ru/",
                "alt_name": "Пилки",
                "operator": "ИП Сенин Владимир Юрьевич",
                "contact:vk": "https://vk.com/pilkinail",
                "opening_hours": "09:00-23:00"
            },
            {
                "name": "На Садовой",
                "shop": "beauty",
                "contact:vk": "https://vk.com/club120437392"
            },
            {
                "beauty": "spa",
                "description": "Индийский традиционный центр здоровья",
                "name": "Аюрдара",
                "opening_hours": "Mo-Su 10:00-21:00",
                "phone": "+7 812 3266880;+7 911 2086162",
                "shop": "beauty",
                "website": "https://ayurdara.ru"
            }
        ]
    },
    "bus_stop": {
        "count": 16,
        "detail": [
            {
                "bus": "yes",
                "highway": "bus_stop",
                "local_ref": "50;70",
                "name": "Московский проспект, 5",
                "public_transport": "platform"
            },
            {
                "bus": "yes",
                "highway": "bus_stop",
                "local_ref": "49;50;70;181",
                "name": "Сенная площадь",
                "public_transport": "platform",
                "shelter": "yes",
                "tactile_paving": "no"
            },
            {
                "bench": "yes",
                "bin": "yes",
                "bus": "yes",
                "highway": "bus_stop",
                "local_ref": "49;50;70;181",
                "name": "Вознесенский проспект",
                "public_transport": "platform",
                "shelter": "yes"
            },
            {
                "bus": "yes",
                "highway": "bus_stop",
                "local_ref": "49;50;71;181",
                "name": "Сенная площадь",
                "public_transport": "platform",
                "shelter": "no",
                "tactile_paving": "no"
            },
            {
                "bench": "no",
                "bin": "yes",
                "bus": "yes",
                "highway": "bus_stop",
                "local_ref": "49;50;181",
                "name": "Переулок Бойцова",
                "public_transport": "platform",
                "shelter": "no"
            },
            {
                "bus": "yes",
                "highway": "bus_stop",
                "local_ref": "10;71",
                "name": "Красноградский переулок",
                "public_transport": "platform",
                "shelter": "no",
                "tactile_paving": "no"
            },
            {
                "bus": "yes",
                "highway": "bus_stop",
                "local_ref": "10;70",
                "name": "Красноградский переулок",
                "public_transport": "platform",
                "shelter": "no",
                "tactile_paving": "no"
            },
            {
                "bus": "yes",
                "highway": "bus_stop",
                "local_ref": "10",
                "name": "Садовая улица",
                "name:ru": "Садовая улица",
                "public_transport": "platform",
                "shelter": "no",
                "tactile_paving": "no"
            },
            {
                "bus": "yes",
                "name": "Вознесенский проспект",
                "name:ru": "Вознесенский проспект",
                "public_transport": "stop_position"
            },
            {
                "bus": "yes",
                "name": "Сенная площадь",
                "public_transport": "stop_position"
            },
            {
                "bus": "yes",
                "name": "Переулок Бойцова",
                "public_transport": "stop_position"
            },
            {
                "bus": "yes",
                "name": "Красноградский переулок",
                "public_transport": "stop_position"
            },
            {
                "bus": "yes",
                "name": "Красноградский переулок",
                "public_transport": "stop_position"
            },
            {
                "bus": "yes",
                "name": "Садовая улица",
                "name:ru": "Садовая улица",
                "public_transport": "stop_position"
            },
            {
                "bus": "yes",
                "name": "Сенная площадь",
                "public_transport": "stop_position"
            },
            {
                "bus": "yes",
                "highway": "bus_stop",
                "public_transport": "platform",
                "route_ref": "К-1;К-19",
                "share_taxi": "yes"
            }
        ]
    },
    "clothes": {
        "count": 22,
        "detail": [
            {
                "contact:vk": "https://vk.com/imperiaplatya",
                "name": "Империя платья",
                "opening_hours": "09:00-21:00",
                "shop": "clothes",
                "website": "http://империяплатья.рф/"
            },
            {
                "contact:vk": "https://vk.com/stilnaya_odegda_spb",
                "name": "Сундук",
                "opening_hours": "Mo-Fr 11:00-20:00; Sa-Su 12:00-19:00",
                "shop": "clothes"
            },
            {
                "name": "Павловопосадские платки",
                "opening_hours": "10:00-21:00",
                "shop": "clothes",
                "website": "https://platki.ru/"
            },
            {
                "contact:vk": "https://vk.com/newlifemag",
                "name": "NewLife.Moda",
                "second_hand": "only",
                "shop": "clothes",
                "website": "https://newlife.moda/"
            },
            {
                "name": "Makki",
                "shop": "clothes",
                "website": "http://makki.ru/"
            },
            {
                "contact:vk": "https://vk.com/lyyk_store",
                "level": "-1",
                "name": "Луук",
                "opening_hours": "11:00-23:00",
                "shop": "clothes",
                "website": "http://www.lyyk.ru/",
                "wheelchair": "no"
            },
            {
                "clothes": "workwear",
                "contact:vk": "https://vk.com/4doctors_spb",
                "name": "4Doctors",
                "opening_hours": "10:00-20:00",
                "shop": "clothes",
                "website": "https://4doctors.ru/where-to-buy/spb/m-sadovaya-spasskaya-sennaya-ploshchad-voznesenskiy-prospekt-21/"
            },
            {
                "name": "Ассортимент",
                "opening_hours": "Mo-Su 10:00-22:00",
                "shop": "clothes",
                "wheelchair": "no"
            },
            {
                "clothes": "women",
                "contact:vk": "https://vk.com/evagraffova",
                "name": "Eva Graffova",
                "opening_hours": "10:00-21:00",
                "shop": "clothes",
                "website": "https://spb.evagraffova.ru/"
            },
            {
                "contact:instagram": "https://www.instagram.com/modus_fashion_spb____/",
                "name": "Modus Fashion",
                "shop": "clothes"
            },
            {
                "name": "Мегалюкс",
                "shop": "clothes",
                "website": "http://secondhand.spb.ru/",
                "contact:vk": "https://vk.com/secondhandru",
                "second_hand": "yes",
                "opening_hours": "10:00-21:00"
            },
            {
                "alt_name": "Carnaby",
                "contact:vk": "https://vk.com/welovetjcollection",
                "name": "TJ Collection",
                "opening_hours": "10:00-22:00",
                "operator": "ООО «КЛ Групп»",
                "shop": "clothes",
                "website": "https://tjcollection.ru/",
                "wheelchair": "no"
            },
            {
                "clothes": "wedding",
                "contact:vk": "https://vk.com/m.l.salon",
                "name": "Пудра",
                "opening_hours": "11:00-20:00",
                "shop": "clothes"
            },
            {
                "clothes": "women",
                "opening_hours": "10:00-21:00",
                "shop": "clothes"
            },
            {
                "clothes": "children",
                "name": "Островок",
                "shop": "clothes"
            },
            {
                "clothes": "women",
                "contact:instagram": "https://www.instagram.com/karmanstock/",
                "name": "Карман",
                "shop": "clothes"
            },
            {
                "clothes": "women",
                "contact:instagram": "https://www.instagram.com/showroom_mzia/",
                "shop": "clothes"
            },
            {
                "clothes": "women",
                "name": "Collette.ru",
                "note": "находится во дворе, за воротами с домофоном",
                "shop": "clothes",
                "website": "http://collette.ru/"
            },
            {
                "clothes": "wedding",
                "name": "Барбарис",
                "shop": "clothes",
                "website": "http://barbariswed.ru/"
            },
            {
                "name": "Шапки",
                "shop": "clothes",
                "level": "0",
                "clothes": "hats",
                "opening_hours": "10:00-21:00"
            },
            {
                "contact:vk": "https://vk.com/castle_store",
                "name": "Castle Store",
                "shop": "clothes"
            },
            {
                "contact:vk": "https://vk.com/m_termo",
                "level": "1",
                "name": "Магазин термобелья",
                "opening_hours": "10:00-21:00",
                "shop": "clothes",
                "website": "https://m-termo.ru/"
            }
        ]
    },
    "frame": {
        "count": 1,
        "detail": [
            {
                "name": "АртЦентр",
                "opening_hours": "Mo-Sa 10:00-21:00; Su 11:00-20:00",
                "shop": "frame",
                "website": "http://www.acframe.ru/"
            }
        ]
    },
    "dentist": {
        "count": 6,
        "detail": [
            {
                "amenity": "dentist",
                "contact:vk": "https://vk.com/langeclinic",
                "healthcare": "dentist",
                "name": "Клиника доктора Ланге",
                "opening_hours": "Mo-Sa 09:00-21:00; Su 10:00-17:00",
                "website": "https://langeclinic.ru/"
            },
            {
                "amenity": "dentist",
                "contact:vk": "https://vk.com/intan",
                "healthcare": "dentist",
                "name": "Интан",
                "opening_hours": "Mo-Sa 09:00-22:00; Su 10:00-20:00",
                "website": "https://intan.ru/kontacty/voznesenskiy_25/"
            },
            {
                "amenity": "dentist",
                "healthcare": "dentist",
                "name": "Евродент Профи",
                "opening_hours": "Mo-Fr 10:00-21:00",
                "website": "http://www.evrodentprofi.ru/"
            },
            {
                "amenity": "dentist",
                "contact:vk": "https://vk.com/stomastudio32",
                "healthcare": "dentist",
                "name": "Cтудия 32",
                "opening_hours": "09:00-21:00",
                "website": "https://www.studio32spb.ru/"
            },
            {
                "amenity": "dentist",
                "healthcare": "dentist",
                "name": "Мой Зубной",
                "opening_hours": "09:00-21:00",
                "operator": "ООО \"Гамма\"",
                "website": "http://moyzubnoy.ru/stomatologiya_sennaya"
            },
            {
                "addr:housenumber": "34",
                "addr:letter": "Г",
                "addr:street": "Вознесенский проспект",
                "amenity": "dentist",
                "building": "yes",
                "building:levels": "4",
                "healthcare": "dentist",
                "name": "Городская детская стоматологическая поликлиника №6"
            }
        ]
    },
    "cosmetics": {
        "count": 2,
        "detail": [
            {
                "contact:vk": "https://vk.com/madeinseoul",
                "name": "Made in Seoul",
                "opening_hours": "Mo-Sa 11:00-21:00; Su 12:00-20:00",
                "shop": "cosmetics",
                "website": "https://madeinseoul.ru/"
            },
            {
                "contact:vk": "https://vk.com/madeinseoul",
                "email": "info@madeinseoul.ru",
                "name": "Made in Seoul",
                "opening_hours": "Mo-Sa 11:00-21:00; Su 12:00-20:00",
                "phone": "+7 906 2685603",
                "shop": "cosmetics",
                "website": "https://madeinseoul.ru/"
            }
        ]
    },
    "butcher": {
        "count": 2,
        "detail": [
            {
                "contact:vk": "https://vk.com/novbekon",
                "name": "Новгородский бекон",
                "opening_hours": "Mo-Fr 10:00-22:00; Sa 10:00-21:00; Su 10:00-19:00",
                "operator": "ООО «Новгородский бекон Плюс»",
                "ref": "14",
                "shop": "butcher",
                "website": "https://adept.ru/chastnym_pokupatelyam/"
            },
            {
                "name": "Калинка",
                "opening_hours": "09:00-21:00",
                "shop": "butcher"
            }
        ]
    },
    "optician": {
        "count": 6,
        "detail": [
            {
                "contact:vk": "https://vk.com/spbzu",
                "name": "Зайди — увидишь",
                "opening_hours": "Mo-Sa 10:00-21:00; Su 11:00-20:00",
                "shop": "optician",
                "website": "https://zaidiuvidish.ru/nashi-salonyi/grivtsova-per-d1311"
            },
            {
                "contact:vk": "https://vk.com/optika_novoe_zrenie",
                "name": "Новое зрение",
                "opening_hours": "Mo-Sa 10:00-20:00; Su 11:00-20:00",
                "operator": "ИП Крылов Сергей Николаевич",
                "shop": "optician"
            },
            {
                "name": "Оптика стиль",
                "opening_hours": "Mo-Fr 10:00-21:00; Sa-Su 11:00-20:00",
                "operator": "ИП \"Потоялло И.А.\"",
                "phone": "+7 812 3149456",
                "shop": "optician",
                "website": "http://opticstyle.spb.ru/"
            },
            {
                "contact:email": "otzyv@happylook.ru",
                "contact:facebook": "https://www.facebook.com/happylook.ru/",
                "contact:instagram": "https://www.instagram.com/happylook.ru/",
                "contact:phone": "+7 812 3170003 ext. 0057",
                "contact:vk": "https://vk.com/happylook_ru",
                "contact:website": "https://happylook.ru/stores/moskovskiy_pr_d_12_lit_a/",
                "contact:youtube": "https://www.youtube.com/channel/UCY1OkGBHKrWjswV7MRxtEXQ",
                "name": "Счастливый взгляд",
                "opening_hours": "Mo-Su 10:00-20:00",
                "operator": "Оптик Комфорт",
                "shop": "optician",
                "wheelchair": "no"
            },
            {
                "name": "Хорошая оптика",
                "opening_hours": "Mo-Fr 11:00-20:00; Sa 11:00-19:00",
                "operator": "ИП Корабельников",
                "shop": "optician"
            },
            {
                "addr:city": "Санкт-Петербург",
                "addr:postcode": "190031",
                "addr:street": "Московский проспект",
                "email": "4eyes.opticlab@gmail.com",
                "name": "4Eyes",
                "opening_hours": "Mo-Fr 11:00-20:00; Sa-Su 11:00-19:00",
                "payment:cash": "yes",
                "payment:credit_cards": "yes",
                "phone": "+7 921 5581855",
                "service": "glasses repair",
                "shop": "optician"
            }
        ]
    },
    "tobacco": {
        "count": 3,
        "detail": [
            {
                "shop": "tobacco"
            },
            {
                "level": "-1",
                "shop": "tobacco"
            },
            {
                "name": "Pro табак",
                "shop": "tobacco"
            }
        ]
    },
    "interior_decoration": {
        "count": 2,
        "detail": [
            {
                "name": "Икстайл",
                "shop": "interior_decoration",
                "website": "http://www.xtile.ru/contacts/voznesenskiy/"
            },
            {
                "contact:vk": "https://vk.com/artefactum_decor_centre",
                "name": "Artefactum",
                "opening_hours": "Mo-Fr 10:00-20:00; Sa 11:00-19:00",
                "shop": "interior_decoration",
                "website": "http://www.artefactum-spb.ru/"
            }
        ]
    },
    "e-cigarette": {
        "count": 2,
        "detail": [
            {
                "contact:email": "sale@vardex.ru",
                "contact:facebook": "https://www.facebook.com/vardexRU",
                "contact:instagram": "http://instagram.com/vardex_ru",
                "contact:phone": "+7 812 3095198 ext. 1010",
                "contact:twitter": "https://twitter.com/Vardexru",
                "contact:vk": "https://vk.com/vardex_ru",
                "contact:website": "https://vardex.ru/",
                "name": "Vardex",
                "opening_hours": "Mo-Fr 09:00-21:00;Sa-Su 10:00-21:00",
                "operator": "«ВАРДЕКС ПЛЮС»",
                "shop": "e-cigarette"
            },
            {
                "name": "Babylon Литературный",
                "shop": "e-cigarette",
                "website": "http://babylonvape.ru/page/babylon-saint-p-sennoy",
                "contact:vk": "https://vk.com/babylonvape_saintp",
                "opening_hours": "11:00-23:00"
            }
        ]
    },
    "bank": {
        "count": 7,
        "detail": [
            {
                "amenity": "bank",
                "contact:email": "cc@bspb.ru",
                "contact:facebook": "https://www.facebook.com/bspb/",
                "contact:instagram": "https://instagram.com/bank_spb",
                "contact:ok": "https://ok.ru/bspb",
                "contact:phone": "+7 800 2225050;+7 812 3295050",
                "contact:twitter": "https://twitter.com/bank_spb",
                "contact:vk": "https://vk.com/bspb",
                "contact:website": "https://www.bspb.ru/",
                "name": "Банк Санкт-Петербург",
                "opening_hours": "Mo-Fr 10:00-20:00; Sa 10:00-18:00; Su 11:00-17:00",
                "operator": "Санкт-Петербург",
                "telegram": "https://t.me/mybspb",
                "wheelchair": "yes"
            },
            {
                "amenity": "bank",
                "atm": "yes",
                "brand": "Промсвязьбанк",
                "brand:en": "Promsvyazbank",
                "brand:wikidata": "Q649100",
                "brand:wikipedia": "en:Promsvyazbank",
                "contact:vk": "https://vk.com/psbank_ru",
                "name": "Промсвязьбанк",
                "name:en": "Promsvyazbank",
                "opening_hours": "Mo-Fr 10:00-19:00",
                "website": "https://www.psbank.ru/Office?OfficeId=463"
            },
            {
                "amenity": "bank",
                "contact:vk": "https://vk.com/vostbankru",
                "name": "Восточный",
                "opening_hours": "10:00-19:00",
                "website": "https://www.vostbank.ru/"
            },
            {
                "amenity": "bank",
                "brand": "Совкомбанк",
                "brand:ru": "Совкомбанк",
                "brand:wikidata": "Q4426566",
                "brand:wikipedia": "ru:Совкомбанк",
                "contact:vk": "https://vk.com/sovcombank",
                "name": "Совкомбанк",
                "name:ru": "Совкомбанк",
                "opening_hours": "Mo-Fr 10:00-20:00; Sa-Su 10:00-17:00",
                "website": "https://sovcombank.ru/"
            },
            {
                "amenity": "bank",
                "brand": "Московский кредитный банк",
                "brand:wikidata": "Q4304175",
                "contact:email": "info@mkb.ru",
                "contact:facebook": "https://www.facebook.com/mkb.ru",
                "contact:instagram": "https://www.instagram.com/bankmkb/",
                "contact:phone": "+7 495 7774888;+7 495 7974242;+7 800 1004888;+7 800 7755152",
                "contact:twitter": "https://twitter.com/bankmkb",
                "contact:vk": "https://vk.com/bankmkb",
                "contact:website": "https://mkb.ru/about/address/branch/dopolnitelniy-ofis-moskovskiy-prospekt",
                "name": "Московский кредитный банк",
                "opening_hours": "Mo-Su 10:00-21:00",
                "operator": "ПАО «Московский кредитный банк»",
                "operator:wikidata": "Q4304175"
            },
            {
                "amenity": "bank",
                "name": "Консервативный коммерческий банк",
                "opening_hours": "Mo-Th 09:00-18:00; Fr 09:00-17:00",
                "short_name": "ККБ",
                "website": "https://kkb.ru/about-bank/kontakty-i-rekvizity-sankt-peterburg/"
            },
            {
                "amenity": "bank",
                "branch": "Северо-Западный банк",
                "brand": "Сбербанк",
                "brand:en": "Sberbank",
                "brand:ru": "Сбербанк",
                "brand:wikidata": "Q205012",
                "brand:wikipedia": "en:Sberbank of Russia",
                "contact:facebook": "https://www.facebook.com/sberbank",
                "contact:instagram": "https://instagram.com/sberbank",
                "contact:ok": "https://ok.ru/sberbank",
                "contact:phone": "+7 800 5555550",
                "contact:twitter": "https://twitter.com/sberbank/",
                "contact:vk": "https://vk.com/sberbank",
                "contact:website": "https://www.sberbank.ru/",
                "contact:youtube": "https://www.youtube.com/sberbank",
                "level": "0",
                "name": "Сбербанк",
                "name:en": "Sberbank",
                "name:ru": "Сбербанк",
                "opening_hours": "Mo-Fr 10:00-19:00; Sa 10:00-18:00",
                "operator": "ПАО Сбербанк",
                "operator:wikidata": "Q205012",
                "operator:wikipedia": "ru:Сбербанк России",
                "ref": "9055/01987",
                "wheelchair": "yes"
            }
        ]
    },
    "radiotechnics": {
        "count": 2,
        "detail": [
            {
                "name": "Радиодетали",
                "opening_hours": "Mo-Fr 10:00-20:00; Sa-Su 10:00-19:00",
                "shop": "radiotechnics",
                "website": "http://rdetal.com/"
            },
            {
                "name": "Профи",
                "opening_hours": "Mo-Fr 10:00-20:00; Sa-Su 10:00-19:00",
                "operator": "ООО «Нева-Стиль»",
                "shop": "radiotechnics",
                "website": "http://siriust.ru/"
            }
        ]
    },
    "parking": {
        "count": 1,
        "detail": [
            {
                "access": "yes",
                "amenity": "parking",
                "fee": "yes",
                "layer": "-1",
                "parking": "underground"
            }
        ]
    },
    "library": {
        "count": 1,
        "detail": [
            {
                "name": "Научно-техническая библиотека ПГУПС",
                "amenity": "library",
                "name:de": "Wissenschaftliche und Technische Bibliothek PGUPS",
                "name:en": "Scientific and Technical Library PGUPS",
                "website": "http://library.pgups.ru"
            }
        ]
    },
    "newsagent": {
        "count": 1,
        "detail": [
            {
                "brand": "Роспечать",
                "brand:wikidata": "Q4397882",
                "building": "kiosk",
                "name": "Роспечать",
                "shop": "newsagent",
                "website": "http://rosp.ru/"
            }
        ]
    },
    "pub": {
        "count": 1,
        "detail": [
            {
                "amenity": "pub",
                "contact:instagram": "https://www.instagram.com/londonpub_spb/",
                "contact:vk": "https://vk.com/publondon_spb",
                "email": "london.pubspb@yandex.ru",
                "internet_access": "wlan",
                "internet_access:fee": "no",
                "name": "London",
                "opening_hours": "24/7",
                "operator": "ООО «Клевер СПб»",
                "payment:cash": "yes",
                "payment:maestro": "yes",
                "payment:mastercard": "yes",
                "payment:visa": "yes",
                "payment:visa_electron": "yes",
                "phone": "+7 812 5726079;+7 931 5347602",
                "wheelchair": "limited"
            }
        ]
    },
    "gift": {
        "count": 3,
        "detail": [
            {
                "name": "Роза Мира",
                "shop": "gift",
                "website": "http://www.rozamiraspb.ru/",
                "contact:vk": "https://vk.com/rozamiraspb",
                "opening_hours": "10:00-20:00"
            },
            {
                "contact:vk": "https://vk.com/lilkko",
                "name": "Lilkko",
                "opening_hours": "Mo-Su 10:00-22:00",
                "shop": "gift",
                "website": "https://www.lilkko.ru/"
            },
            {
                "name": "Подарки",
                "note": "также http://batist-spb.ru/",
                "opening_hours": "Mo-Fr 11:00-20:00; Sa-Su 11:00-18:00",
                "shop": "gift",
                "website": "http://nevapodarki.ru/"
            }
        ]
    },
    "outdoor": {
        "count": 1,
        "detail": [
            {
                "addr:housenumber": "24",
                "addr:street": "переулок Гривцова",
                "contact:vk": "https://vk.com/sport_meloman",
                "name": "Спортивный меломан",
                "opening_hours": "10:00-21:00",
                "second_hand": "yes",
                "shop": "outdoor",
                "website": "http://komissionnyi-magazin.ru/"
            }
        ]
    },
    "erotic": {
        "count": 2,
        "detail": [
            {
                "name": "Extaz",
                "shop": "erotic",
                "website": "https://www.extazshop.ru/spb/3/",
                "contact:vk": "https://vk.com/extazshop",
                "opening_hours": "24/7"
            },
            {
                "contact:vk": "https://vk.com/tochkalubvi",
                "level": "-1",
                "name": "Точка любви",
                "opening_hours": "24/7",
                "shop": "erotic",
                "website": "https://www.tochka-lubvi.ru/"
            }
        ]
    },
    "stationery": {
        "count": 2,
        "detail": [
            {
                "contact:vk": "https://vk.com/grafit_spb",
                "name": "Графит",
                "opening_hours": "Mo-Fr 10:00-20:00; Sa-Su 11:00-19:00",
                "shop": "stationery",
                "website": "http://www.grafitspb.com/"
            },
            {
                "brand": "Комус",
                "brand:en": "Komus",
                "brand:wikidata": "Q4230314",
                "brand:wikipedia": "en:Komus (company)",
                "contact:vk": "https://vk.com/komus_club",
                "name": "Комус",
                "name:en": "Komus",
                "opening_hours": "Mo-Fr 09:00-21:00; Sa-Su 10:00-20:00",
                "operator": "ООО «Комус-Петербург»",
                "shop": "stationery",
                "website": "https://www.komus.ru/store/sankt-peterburg/tts-sadovaya/s/143/"
            }
        ]
    },
    "playground": {
        "count": 4,
        "detail": [
            {
                "leisure": "playground"
            },
            {
                "leisure": "playground"
            },
            {
                "leisure": "playground"
            },
            {
                "leisure": "playground"
            }
        ]
    },
    "variety_store": {
        "count": 1,
        "detail": [
            {
                "name": "Петроторг",
                "note": "Разные промтовары",
                "opening_hours": "Mo-Fr 10:00-19:00; Sa-Su 11:00-19:00",
                "shop": "variety_store",
                "website": "http://www.петроторг-атк.рф/"
            }
        ]
    },
    "ticket": {
        "count": 2,
        "detail": [
            {
                "contact:vk": "https://vk.com/bileter",
                "name": "Театральная касса",
                "opening_hours": "10:00-21:00; 15:00-16:00 off",
                "shop": "ticket",
                "tickets:theatre": "yes",
                "website": "https://www.bileter.ru/"
            },
            {
                "contact:vk": "https://vk.com/bileter",
                "name": "Bileter",
                "opening_hours": "10:00-21:00; 14:00-15:00 off",
                "shop": "ticket",
                "tickets:theatre": "yes",
                "website": "https://www.bileter.ru/"
            }
        ]
    },
    "hairdresser": {
        "count": 9,
        "detail": [
            {
                "contact:vk": "https://vk.com/club62033994",
                "internet_access": "wlan",
                "name": "Пудра",
                "opening_hours": "Mo-Sa 10:00-21:00; Su 11:00-21:00",
                "phone": "+7 812 4074605",
                "shop": "hairdresser",
                "website": "http://www.pudra2.ru/"
            },
            {
                "contact:vk": "https://vk.com/vertuali",
                "name": "Vertuali",
                "shop": "hairdresser"
            },
            {
                "opening_hours": "10:00-21:00",
                "shop": "hairdresser"
            },
            {
                "contact:vk": "https://vk.com/firma_piter",
                "name": "Firma",
                "opening_hours": "10:00-21:00",
                "shop": "hairdresser",
                "website": "http://spb.barberfirma.ru/1-4/"
            },
            {
                "contact:vk": "https://vk.com/strizhkagorodru",
                "name": "Adel",
                "shop": "hairdresser",
                "website": "https://www.strizhka-gorod.ru/"
            },
            {
                "contact:vk": "https://vk.com/club77310027",
                "shop": "hairdresser"
            },
            {
                "contact:vk": "https://vk.com/studio42spb",
                "level": "-1",
                "name": "Studio42",
                "opening_hours": "10:00-21:00",
                "shop": "hairdresser",
                "website": "https://www.studio42spb.com/"
            },
            {
                "male": "yes",
                "name": "Jack",
                "name:ru": "Джек",
                "opening_hours": "Mo-Su 10:00-22:00",
                "payment:credit_cards": "yes",
                "payment:debit_cards": "yes",
                "phone": "+7 812 3177218",
                "shop": "hairdresser",
                "website": "http://jackbarbershop.ru/",
                "wheelchair": "no"
            },
            {
                "contact:email": "lastetico@gmail.com",
                "contact:instagram": "https://instagram.com/lastetico_spb",
                "contact:phone": "+7 953 7955666",
                "contact:vk": "https://vk.com/lastetico",
                "contact:website": "https://gladko.ru/",
                "name": "Lastetico",
                "opening_hours": "Mo-Su 10:00-21:00",
                "operator": "Lastetico",
                "shop": "hairdresser"
            }
        ]
    },
    "waste_disposal": {
        "count": 5,
        "detail": [
            {
                "amenity": "waste_disposal"
            },
            {
                "amenity": "waste_disposal"
            },
            {
                "amenity": "waste_disposal"
            },
            {
                "amenity": "waste_disposal"
            },
            {
                "amenity": "waste_disposal"
            }
        ]
    },
    "bicycle_parking": {
        "count": 3,
        "detail": [
            {
                "fee": "no",
                "amenity": "bicycle_parking",
                "covered": "no",
                "capacity": "12",
                "bicycle_parking": "rack"
            },
            {
                "fee": "no",
                "amenity": "bicycle_parking",
                "covered": "no",
                "capacity": "4",
                "bicycle_parking": "stands"
            },
            {
                "amenity": "bicycle_parking",
                "bicycle_parking": "stands",
                "covered": "no"
            }
        ]
    },
    "recycling": {
        "count": 2,
        "detail": [
            {
                "amenity": "recycling",
                "fixme": "уточнить положение",
                "name": "Экобокс",
                "recycling:batteries": "yes",
                "recycling:fluorescent_tubes": "yes",
                "recycling:hazardous_waste": "yes",
                "recycling:hydrargyrum": "yes",
                "recycling:low_energy_bulbs": "yes",
                "recycling_type": "container"
            },
            {
                "amenity": "recycling",
                "recycling:batteries": "yes",
                "recycling:hydrargyrum": "yes",
                "recycling:low_energy_bulbs": "yes",
                "recycling_type": "container",
                "ref": "527"
            }
        ]
    },
    "mobile_phone": {
        "count": 2,
        "detail": [
            {
                "contact:vk": "https://vk.com/telefonybu",
                "name": "Проект связь",
                "opening_hours": "11:00-20:00",
                "shop": "mobile_phone",
                "website": "https://sviaz.spb.ru/"
            },
            {
                "brand": "Билайн",
                "brand:en": "Beeline",
                "brand:wikidata": "Q402880",
                "brand:wikipedia": "en:Beeline (brand)",
                "contact:vk": "https://vk.com/beeline",
                "layer": "-1",
                "location": "underground",
                "name": "Билайн",
                "name:en": "Beeline",
                "shop": "mobile_phone",
                "website": "https://spb.beeline.ru/"
            }
        ]
    },
    "farm": {
        "count": 1,
        "detail": [
            {
                "name": "ecofamily",
                "shop": "farm",
                "phone": "+7 812 9603267",
                "organic": "only",
                "website": "http://www.ecofamily.ru/",
                "operator": "Рудакова Ж.А.",
                "contact:vk": "https://vk.com/ecoem",
                "payment:visa": "yes",
                "opening_hours": "10:00-21:00",
                "payment:maestro": "yes",
                "payment:mastercard": "yes",
                "payment:visa_electron": "yes"
            }
        ]
    },
    "post_box": {
        "count": 3,
        "detail": [
            {
                "amenity": "post_box",
                "collection_times": "Mo-Th 16:20,23:45; Fr 16:20; Sa 08:30; Su 16:20,23:45",
                "design:year": "2010",
                "drive_through": "no",
                "operator": "Почта России",
                "post_box:design": "ЯПНМ-II-С",
                "post_box:type": "wall",
                "ref": "154"
            },
            {
                "amenity": "post_box",
                "collection_times": "Mo-Sa 07:15",
                "drive_through": "no",
                "indoor": "yes",
                "level": "2",
                "opening_hours": "Mo-Fr 08:00-14:00,15:00-20:00; Sa 09:00-14:00,15:00-18:00; Su off",
                "operator": "Почта России",
                "post_box:design": "custom",
                "post_box:type": "pillar",
                "ref": "247"
            },
            {
                "amenity": "post_box",
                "collection_times": "Mo-Fr 07:10,18:25; Sa 09:30; Su 18:25",
                "design:year": "2010",
                "drive_through": "no",
                "operator": "Почта России",
                "post_box:design": "ЯПНМ-II-С",
                "post_box:type": "wall",
                "ref": "20"
            }
        ]
    },
    "telephone": {
        "count": 2,
        "detail": [
            {
                "amenity": "telephone",
                "payment:telephone_cards": "yes"
            },
            {
                "amenity": "telephone"
            }
        ]
    },
    "toilets": {
        "count": 1,
        "detail": [
            {
                "amenity": "toilets"
            }
        ]
    },
    "waste_basket": {
        "count": 38,
        "detail": [
            {
                "amenity": "waste_basket"
            },
            {
                "amenity": "waste_basket"
            },
            {
                "amenity": "waste_basket"
            },
            {
                "amenity": "waste_basket"
            },
            {
                "amenity": "waste_basket"
            },
            {
                "amenity": "waste_basket"
            },
            {
                "amenity": "waste_basket"
            },
            {
                "amenity": "waste_basket"
            },
            {
                "amenity": "waste_basket"
            },
            {
                "amenity": "waste_basket"
            },
            {
                "amenity": "waste_basket"
            },
            {
                "amenity": "waste_basket"
            },
            {
                "amenity": "waste_basket"
            },
            {
                "amenity": "waste_basket"
            },
            {
                "amenity": "waste_basket"
            },
            {
                "amenity": "waste_basket"
            },
            {
                "amenity": "waste_basket"
            },
            {
                "amenity": "waste_basket"
            },
            {
                "amenity": "waste_basket"
            },
            {
                "amenity": "waste_basket"
            },
            {
                "amenity": "waste_basket"
            },
            {
                "amenity": "waste_basket"
            },
            {
                "amenity": "waste_basket"
            },
            {
                "amenity": "waste_basket"
            },
            {
                "amenity": "waste_basket"
            },
            {
                "amenity": "waste_basket"
            },
            {
                "amenity": "waste_basket"
            },
            {
                "amenity": "waste_basket"
            },
            {
                "amenity": "waste_basket"
            },
            {
                "amenity": "waste_basket"
            },
            {
                "amenity": "waste_basket"
            },
            {
                "amenity": "waste_basket"
            },
            {
                "amenity": "waste_basket"
            },
            {
                "amenity": "waste_basket"
            },
            {
                "amenity": "waste_basket"
            },
            {
                "amenity": "waste_basket"
            },
            {
                "amenity": "waste_basket"
            },
            {
                "amenity": "waste_basket"
            }
        ]
    },
    "bench": {
        "count": 29,
        "detail": [
            {
                "amenity": "bench",
                "backrest": "yes"
            },
            {
                "amenity": "bench"
            },
            {
                "amenity": "bench"
            },
            {
                "amenity": "bench"
            },
            {
                "amenity": "bench"
            },
            {
                "amenity": "bench"
            },
            {
                "amenity": "bench"
            },
            {
                "amenity": "bench"
            },
            {
                "amenity": "bench"
            },
            {
                "amenity": "bench"
            },
            {
                "amenity": "bench"
            },
            {
                "amenity": "bench"
            },
            {
                "amenity": "bench"
            },
            {
                "amenity": "bench"
            },
            {
                "amenity": "bench"
            },
            {
                "amenity": "bench"
            },
            {
                "amenity": "bench"
            },
            {
                "amenity": "bench"
            },
            {
                "amenity": "bench"
            },
            {
                "amenity": "bench"
            },
            {
                "amenity": "bench"
            },
            {
                "amenity": "bench"
            },
            {
                "amenity": "bench"
            },
            {
                "amenity": "bench"
            },
            {
                "amenity": "bench",
                "backrest": "yes"
            },
            {
                "amenity": "bench",
                "backrest": "yes"
            },
            {
                "amenity": "bench",
                "backrest": "yes"
            },
            {
                "amenity": "bench"
            },
            {
                "amenity": "bench"
            }
        ]
    },
    "honey": {
        "count": 1,
        "detail": [
            {
                "contact:vk": "https://vk.com/pchelaspb_ru",
                "name": "Пчеловодство",
                "name:ru": "Пчеловодство",
                "opening_hours": "10:00-19:00",
                "operator": "ИП Полякова Т.Г.",
                "shop": "honey",
                "website": "https://pchelaspb.ru/"
            }
        ]
    },
    "confectionery": {
        "count": 2,
        "detail": [
            {
                "email": "rubigor@yandex.ru",
                "name": "RubisCookies",
                "name:en": "RubisCookies",
                "name:full": "Бюро сладкой архитектуры \"RubisCookies\"",
                "opening_hours": "Mo-Su 12:00-21:00",
                "phone": "+7 921 4181695",
                "shop": "confectionery",
                "website": "https://www.rubiscookies.ru/"
            },
            {
                "contact:vk": "https://vk.com/sladostidlradosti",
                "name": "Сладкий сувенир",
                "opening_hours": "09:00-21:00",
                "shop": "confectionery",
                "website": "http://sladostispb.ru/"
            }
        ]
    },
    "money_lender": {
        "count": 1,
        "detail": [
            {
                "name": "Миг кредит",
                "opening_hours": "Mo-Fr 09:00-20:00; Sa 09:00-18:00; Su 09:00-16:00",
                "shop": "money_lender",
                "website": "https://migcredit.ru/"
            }
        ]
    },
    "escape_game": {
        "count": 1,
        "detail": [
            {
                "name": "Нора кролика",
                "note": "\"Друзья на Сенной\" возможно вместо него, а возможно и рядом с ним",
                "leisure": "escape_game",
                "name:en": "Rabbit Hole",
                "name:ru": "Нора кролика",
                "website": "https://norakrolika.ru/",
                "contact:vk": "https://vk.com/holequest"
            }
        ]
    },
    "party": {
        "count": 1,
        "detail": [
            {
                "contact:vk": "https://vk.com/aeroburo_ru",
                "name": "Аэробюро",
                "shop": "party",
                "website": "https://www.aeroburo.ru/"
            }
        ]
    },
    "greengrocer": {
        "count": 2,
        "detail": [
            {
                "name:en": "Veganika",
                "opening_hours": "Mo-Su 12:00-20:00",
                "shop": "greengrocer"
            },
            {
                "name": "На грядке",
                "shop": "greengrocer"
            }
        ]
    },
    "craft": {
        "count": 1,
        "detail": [
            {
                "access": "yes",
                "addr:city": "Санкт-Петербург",
                "addr:housenumber": "12",
                "addr:street": "Гражданская улица",
                "contact:vk": "https://vk.com/artkvartal",
                "door": "yes",
                "entrance": "staircase",
                "name": "Арт-квартал",
                "opening_hours": "09:00-21:00",
                "shop": "craft",
                "website": "https://artkvartal.ru/retail?go=shops&view=352"
            }
        ]
    },
    "internet_cafe": {
        "count": 1,
        "detail": [
            {
                "amenity": "internet_cafe",
                "name": "Золотая середина",
                "note": "рядом должен быть одноимённый отель"
            }
        ]
    },
    "courthouse": {
        "count": 1,
        "detail": [
            {
                "amenity": "courthouse",
                "name": "Мировые судьи, участки №№ 1, 2, 3, 4, 40",
                "website": "https://mirsud.spb.ru/"
            }
        ]
    },
    "baby_goods": {
        "count": 1,
        "detail": [
            {
                "name": "Маняша",
                "shop": "baby_goods",
                "contact:vk": "https://vk.com/manysha_4070777",
                "second_hand": "yes",
                "opening_hours": "Mo-Fr 11:00-20:00; Sa-Su 11:00-19:00"
            }
        ]
    },
    "bathroom_furnishing": {
        "count": 1,
        "detail": [
            {
                "contact:vk": "https://vk.com/elsodom",
                "name": "ЭнергоДом",
                "opening_hours": "Mo-Fr 09:00-20:00; Sa 10:00-20:00; Su 10:00-19:00",
                "shop": "bathroom_furnishing",
                "website": "https://elsodom.ru/"
            }
        ]
    },
    "medical_supply": {
        "count": 3,
        "detail": [
            {
                "brand": "Ортека",
                "brand:wikidata": "Q62393660",
                "contact:email": "info@orteka.ru",
                "contact:facebook": "https://www.facebook.com/orteka.rus",
                "contact:instagram": "https://www.instagram.com/orteka_rus/",
                "contact:phone": "+7 800 3333112",
                "contact:vk": "https://vk.com/orteka_ru",
                "contact:website": "https://orteka.ru/salons/spb/12134/",
                "medical_supply": "orthopedic",
                "name": "Ортека",
                "opening_hours": "Mo-Su 09:00-21:00",
                "operator": "ООО «Никамед»",
                "shop": "medical_supply"
            },
            {
                "name": "Медтехника",
                "shop": "medical_supply",
                "website": "https://www.med-europa.com/"
            },
            {
                "contact:vk": "https://vk.com/medmagazinru",
                "name": "Мед-Магазин.ру",
                "opening_hours": "10:00-20:00",
                "shop": "medical_supply",
                "website": "https://www.med-magazin.ru/"
            }
        ]
    },
    "florist": {
        "count": 3,
        "detail": [
            {
                "contact:vk": "https://vk.com/botanikalab",
                "name": "Ботаника Lab",
                "shop": "florist",
                "website": "http://botanikalab.ru/"
            },
            {
                "name": "Цветы",
                "note": "возможно https://vk.com/mondial_ru",
                "opening_hours": "24/7",
                "shop": "florist"
            },
            {
                "name": "Фантазия",
                "shop": "florist",
                "layer": "-1",
                "website": "https://eliteflower.ru/",
                "location": "underground",
                "contact:vk": "https://vk.com/eliteflower",
                "opening_hours": "08:00-22:00"
            }
        ]
    },
    "travel_agency": {
        "count": 3,
        "detail": [
            {
                "name": "Ника",
                "shop": "travel_agency",
                "website": "http://www.nikatours.ru/"
            },
            {
                "name": "Фиеста Гранд Тур",
                "note": "вход за воротами арки",
                "shop": "travel_agency",
                "website": "http://fiestagt.ru/",
                "contact:vk": "https://vk.com/fiestagtt",
                "opening_hours": "Mo-Fr 11:00-19:00"
            },
            {
                "alt_name": "Слетать.ру",
                "contact:vk": "https://vk.com/planetatravelspb",
                "name": "Планета Travel",
                "note": "На месте две таблички: планета и слетать, на sletat.ru указан как планета, режимы совпадают, телефоны разные",
                "opening_hours": "Mo-Fr 10:00-20:00; Sa 12:00-17:00",
                "shop": "travel_agency",
                "website": "https://plantravel.ru/"
            }
        ]
    },
    "hookah_lounge": {
        "count": 1,
        "detail": [
            {
                "amenity": "hookah_lounge",
                "name": "Кальян Хочу!",
                "website": "http://kalyan-hochu.ru/"
            }
        ]
    },
    "hairdresser_supply": {
        "count": 1,
        "detail": [
            {
                "name": "ЕвропаПроф",
                "opening_hours": "10:00-21:00",
                "operator": "ИП «Зильвестр А.Р.»",
                "shop": "hairdresser_supply",
                "website": "https://europaprof.ru/"
            }
        ]
    },
    "spices": {
        "count": 1,
        "detail": [
            {
                "contact:vk": "https://vk.com/belkinolukoshko",
                "name": "Белкино лукошко",
                "opening_hours": "10:00-21:00",
                "shop": "spices"
            }
        ]
    },
    "tea": {
        "count": 1,
        "detail": [
            {
                "name": "Унция",
                "shop": "tea",
                "website": "https://www.chay.info/",
                "contact:vk": "https://vk.com/teaounce",
                "opening_hours": "09:30-21:00"
            }
        ]
    },
    "bag": {
        "count": 1,
        "detail": [
            {
                "name": "h.o.p",
                "opening_hours": "11:00-21:00",
                "shop": "bag",
                "website": "http://www.hop.spb.ru/"
            }
        ]
    },
    "games": {
        "count": 1,
        "detail": [
            {
                "name": "Hobby Games",
                "shop": "games",
                "level": "0",
                "website": "https://hobbygames.ru/magazin_na_sennoy",
                "contact:vk": "https://vk.com/hobbygames_sp",
                "opening_hours": "10:00-21:00"
            }
        ]
    },
    "electronics": {
        "count": 2,
        "detail": [
            {
                "name": "Redmond",
                "shop": "electronics",
                "level": "0",
                "website": "https://multivarka.pro/shops/sankt_peterburg/000007691/",
                "operator": "ООО «Гравилат»",
                "contact:vk": "https://vk.com/multipro",
                "opening_hours": "10:00-22:00"
            },
            {
                "email": "info@kotofoto.ru",
                "level": "3",
                "name": "КотоФото",
                "opening_hours": "11:00-19:30",
                "payment:cash": "only",
                "phone": "+7 812 4269899",
                "shop": "electronics",
                "website": "https://kotofoto.ru/",
                "wheelchair": "yes"
            }
        ]
    },
    "stripclub": {
        "count": 1,
        "detail": [
            {
                "amenity": "stripclub",
                "name": "Eden Club",
                "opening_hours": "21:00-06:00",
                "website": "http://edenclub.ru/"
            }
        ]
    },
    "collector": {
        "count": 1,
        "detail": [
            {
                "name": "Марки",
                "shop": "collector",
                "website": "http://zagorsky-stamps.ru/"
            }
        ]
    },
    "photo": {
        "count": 1,
        "detail": [
            {
                "contact:vk": "https://vk.com/momentography",
                "level": "0",
                "name": "Моментография",
                "opening_hours": "Mo-Fr 13:00-20:00; Sa 13:00-18:00",
                "shop": "photo"
            }
        ]
    },
    "pet": {
        "count": 1,
        "detail": [
            {
                "shop": "pet"
            }
        ]
    },
    "dance": {
        "count": 1,
        "detail": [
            {
                "contact:vk": "https://vk.com/move_dance",
                "dance:teaching": "yes",
                "leisure": "dance",
                "name": "Movement",
                "website": "https://www.movement-spb.com/"
            }
        ]
    },
    "training": {
        "count": 3,
        "detail": [
            {
                "name": "ИнтЭгра",
                "amenity": "training",
                "website": "http://integraclub.com/",
                "contact:vk": "https://vk.com/integrapsy"
            },
            {
                "amenity": "training",
                "contact:vk": "https://vk.com/prestigekurs",
                "name": "Престиж",
                "opening_hours": "Mo-Fr 10:00-19:00; Sa-Su 10:00-16:00",
                "website": "http://prestige-kurs.ru/"
            },
            {
                "amenity": "training",
                "contact:vk": "https://vk.com/artkarma",
                "name": "Картина маслом",
                "website": "https://artkarma.ru/"
            }
        ]
    },
    "bed": {
        "count": 3,
        "detail": [
            {
                "contact:vk": "https://vk.com/pitertextil",
                "name": "Петербургский уют",
                "note": "возможно переехал",
                "shop": "bed",
                "website": "https://tex-til.spb.ru/"
            },
            {
                "contact:vk": "https://vk.com/kultsna",
                "name": "Культ сна",
                "note": "также одежда",
                "opening_hours": "Mo-Fr 11:00-20:00; Sa-Su 11:00-19:00",
                "shop": "bed",
                "website": "https://www.kultsna.ru/"
            },
            {
                "shop": "bed"
            }
        ]
    },
    "place_of_worship": {
        "count": 1,
        "detail": [
            {
                "amenity": "place_of_worship",
                "denomination": "baptist",
                "name": "Краеугольный камень",
                "note": "http://baptist.org.ru/churches/church/people_organization/142055",
                "religion": "christian"
            }
        ]
    },
    "bookmaker": {
        "count": 1,
        "detail": [
            {
                "name": "Greenbet",
                "shop": "bookmaker",
                "opening_hours": "24/7"
            }
        ]
    },
    "second_hand": {
        "count": 1,
        "detail": [
            {
                "name": "Добро",
                "shop": "second_hand",
                "level": "1",
                "website": "http://piterkomok.ru/",
                "contact:vk": "https://vk.com/piterkomok",
                "opening_hours": "10:00-21:00"
            }
        ]
    },
    "sports": {
        "count": 2,
        "detail": [
            {
                "contact:vk": "https://vk.com/airwars",
                "name": "AWTactical",
                "opening_hours": "Mo-Fr 10:00-20:00; Sa-Su 11:00-19:00",
                "shop": "sports",
                "website": "http://air-wars.ru/"
            },
            {
                "name": "Sky Run",
                "opening_hours": "Mo-Su 10:00-19:00",
                "phone": "+7 812 4099591",
                "shop": "sports",
                "website": "https://sky-run.ru"
            }
        ]
    },
    "chemical": {
        "count": 1,
        "detail": [
            {
                "description": "Магазин химических реактивов",
                "name": "Химмаг-СПб",
                "opening_hours": "10:00-21:00",
                "operator": "ООО «Экспит»",
                "shop": "chemical",
                "website": "https://himmag-spb.ru/"
            }
        ]
    },
    "toys": {
        "count": 1,
        "detail": [
            {
                "contact:vk": "https://vk.com/siburka",
                "email": "info@sivka-burka.com",
                "level": "-0.5",
                "name": "Сивка-Бурка",
                "opening_hours": "Mo-Fr 10:00-20:00",
                "operator": "Захарова Александра Васильевна",
                "payment:cash": "yes",
                "payment:maestro": "yes",
                "payment:mastercard": "yes",
                "payment:visa": "yes",
                "payment:visa_electron": "yes",
                "phone": "+7 800 3015502;+7 911 8310614",
                "shop": "toys",
                "website": "http://sivka-burka.com/",
                "wheelchair": "no"
            }
        ]
    },
    "payment_terminal": {
        "count": 1,
        "detail": [
            {
                "amenity": "payment_terminal"
            }
        ]
    },
    "atm": {
        "count": 6,
        "detail": [
            {
                "amenity": "atm",
                "contact:email": "info@psbank.ru",
                "contact:phone": "+7 495 7873333;+7 800 3330303",
                "contact:website": "https://psbank.ru/",
                "opening_hours": "Mo-Fr 10:00-19:00",
                "operator": "Промсвязьбанк"
            },
            {
                "amenity": "atm",
                "contact:email": "info@psbank.ru",
                "contact:phone": "+7 495 7873333;+7 800 3330303",
                "contact:website": "https://psbank.ru/",
                "opening_hours": "Mo-Fr 10:00-19:00",
                "operator": "Промсвязьбанк"
            },
            {
                "amenity": "atm",
                "brand": "Санкт-Петербург",
                "contact:email": "cc@bspb.ru",
                "contact:facebook": "https://www.facebook.com/bspb/",
                "contact:instagram": "https://instagram.com/bank_spb",
                "contact:ok": "https://ok.ru/bspb",
                "contact:phone": "+7 800 2225050;+7 812 3295050",
                "contact:twitter": "https://twitter.com/bank_spb",
                "contact:vk": "https://vk.com/bspb",
                "contact:website": "https://www.bspb.ru/",
                "currency:RUB": "yes",
                "opening_hours": "24/7",
                "operator": "ПАО Банк Санкт-Петербург",
                "telegram": "https://t.me/mybspb"
            },
            {
                "amenity": "atm",
                "brand": "Санкт-Петербург",
                "contact:email": "cc@bspb.ru",
                "contact:facebook": "https://www.facebook.com/bspb/",
                "contact:instagram": "https://instagram.com/bank_spb",
                "contact:ok": "https://ok.ru/bspb",
                "contact:phone": "+7 800 2225050;+7 812 3295050",
                "contact:twitter": "https://twitter.com/bank_spb",
                "contact:vk": "https://vk.com/bspb",
                "contact:website": "https://www.bspb.ru/",
                "currency:RUB": "yes",
                "opening_hours": "Mo-Su 05:36-00:19",
                "operator": "ПАО Банк Санкт-Петербург",
                "telegram": "https://t.me/mybspb"
            },
            {
                "amenity": "atm",
                "brand": "Санкт-Петербург",
                "contact:email": "cc@bspb.ru",
                "contact:facebook": "https://www.facebook.com/bspb/",
                "contact:instagram": "https://instagram.com/bank_spb",
                "contact:ok": "https://ok.ru/bspb",
                "contact:phone": "+7 800 2225050;+7 812 3295050",
                "contact:twitter": "https://twitter.com/bank_spb",
                "contact:vk": "https://vk.com/bspb",
                "contact:website": "https://www.bspb.ru/",
                "currency:RUB": "yes",
                "opening_hours": "Mo-Fr 06:00-22:00",
                "operator": "ПАО Банк Санкт-Петербург",
                "telegram": "https://t.me/mybspb"
            },
            {
                "amenity": "atm",
                "brand": "Санкт-Петербург",
                "contact:email": "cc@bspb.ru",
                "contact:facebook": "https://www.facebook.com/bspb/",
                "contact:instagram": "https://instagram.com/bank_spb",
                "contact:ok": "https://ok.ru/bspb",
                "contact:phone": "+7 800 2225050;+7 812 3295050",
                "contact:twitter": "https://twitter.com/bank_spb",
                "contact:vk": "https://vk.com/bspb",
                "contact:website": "https://www.bspb.ru/",
                "currency:RUB": "yes",
                "opening_hours": "24/7",
                "operator": "ПАО Банк Санкт-Петербург",
                "telegram": "https://t.me/mybspb"
            }
        ]
    },
    "theatre": {
        "count": 1,
        "detail": [
            {
                "amenity": "theatre",
                "email": "aktivfotogroup@gmail.com",
                "name": "Театр-Проект «Музыка города»",
                "opening_hours": "We, Fr-Sa 13:00-20:00",
                "operator": "Театр-Проект «Музыка Города»",
                "phone": "+7 911 1396383",
                "ref:mkrf_theaters": "36931",
                "website": "http://музыкагорода.рф"
            }
        ]
    },
    "bicycle": {
        "count": 1,
        "detail": [
            {
                "alt_name": "Мастерская у Антонио",
                "contact:vk": "https://vk.com/antonsworkshop",
                "name": "Anton's workshop",
                "phone": "+7 (967) 530-84-20",
                "service:bicycle:repair": "yes",
                "service:bicycle:retail": "no",
                "shop": "bicycle",
                "website": "https://vk.com/antonsworkshop"
            }
        ]
    },
    "school": {
        "count": 3,
        "detail": [
            {
                "addr:housenumber": "48",
                "addr:street": "Казанская улица",
                "building": "school",
                "building:levels": "4"
            },
            {
                "addr:housenumber": "76",
                "addr:letter": "П",
                "addr:street": "набережная канала Грибоедова",
                "amenity": "school",
                "building": "school",
                "building:levels": "4",
                "contact:email": "sc256.adm@obr.gov.spb.ru",
                "contact:phone": "+7 812 5739874",
                "contact:website": "http://sc.adm-edu.spb.ru/256/",
                "name": "Школа № 256",
                "official_name": "Государственное бюджетное общеобразовательное учреждение средняя общеобразовательная школа № 256 Адмиралтейского района Санкт-Петербурга",
                "ref": "256"
            },
            {
                "addr:housenumber": "52",
                "addr:postcode": "143103",
                "addr:street": "Садовая улица",
                "amenity": "school",
                "building": "school",
                "building:levels": "4",
                "contact:email": "sc229.adm@obr.gov.spb.ru",
                "contact:phone": "+7 812 4173242",
                "contact:website": "http://licey229.ru",
                "name": "Школа № 229 (начальная школа)",
                "official_name": "Государственное бюджетное общеобразовательное учреждение средняя общеобразовательная школа № 229 Адмиралтейского района Санкт-Петербурга",
                "ref": "229",
                "roof:levels": "1"
            }
        ]
    },
    "doctors": {
        "count": 1,
        "detail": [
            {
                "addr:housenumber": "54",
                "addr:street": "Казанская улица",
                "amenity": "doctors",
                "building": "yes",
                "building:levels": "4",
                "healthcare": "doctor",
                "name": "Поликлиника №81 «Максимилиановская»",
                "opening_hours": "Mo-Fr 08:00-20:00; Sa 09:00-15:00",
                "website": "http://maxi-med.spb.ru/"
            }
        ]
    },
    "service": {
        "count": 9,
        "detail": [
            {
                "addr:housenumber": "50",
                "addr:letter": "Б",
                "addr:street": "Садовая улица",
                "building": "service",
                "building:levels": "1",
                "fixme": "check",
                "power": "substation",
                "ref": "5762",
                "substation": "minor_distribution"
            },
            {
                "power": "substation",
                "building": "service",
                "building:levels": "1"
            },
            {
                "power": "substation",
                "building": "service",
                "building:levels": "1"
            },
            {
                "power": "substation",
                "building": "service",
                "addr:letter": "Я",
                "addr:street": "Вознесенский проспект",
                "building:levels": "1",
                "addr:housenumber": "34"
            },
            {
                "power": "substation",
                "building": "service",
                "addr:letter": "Л",
                "addr:street": "Московский проспект",
                "addr:housenumber": "9 литЛ"
            },
            {
                "power": "substation",
                "building": "service",
                "addr:letter": "Я",
                "addr:street": "Садовая улица",
                "addr:housenumber": "50Б литЯ"
            },
            {
                "power": "substation",
                "building": "service",
                "building:levels": "1"
            },
            {
                "building": "service",
                "man_made": "mineshaft",
                "mineshaft_type": "air",
                "ref": "520"
            },
            {
                "building": "service",
                "power": "substation",
                "substation": "minor_distribution"
            }
        ]
    }
}