{
    "bank": {
        "count": 2,
        "detail": [
            {
                "amenity": "bank",
                "atm": "yes",
                "branch": "Северо-Западный банк",
                "brand": "Сбербанк",
                "brand:en": "Sberbank",
                "brand:ru": "Сбербанк",
                "brand:wikidata": "Q205012",
                "brand:wikipedia": "en:Sberbank of Russia",
                "contact:facebook": "https://www.facebook.com/sberbank",
                "contact:instagram": "https://instagram.com/sberbank",
                "contact:ok": "https://ok.ru/sberbank",
                "contact:phone": "+7 800 5555550",
                "contact:twitter": "https://twitter.com/sberbank/",
                "contact:vk": "https://vk.com/sberbank",
                "contact:website": "https://www.sberbank.ru/",
                "contact:youtube": "https://www.youtube.com/sberbank",
                "name": "Сбербанк",
                "name:en": "Sberbank",
                "name:ru": "Сбербанк",
                "opening_hours": "Mo-Fr 10:00-19:00; Sa 10:00-18:00",
                "operator": "ПАО Сбербанк",
                "operator:wikidata": "Q205012",
                "operator:wikipedia": "ru:Сбербанк России",
                "ref": "9055/0774",
                "wheelchair": "no"
            },
            {
                "amenity": "bank",
                "name": "Российский капитал",
                "opening_hours": "Mo-Fr 09:00-18:00",
                "website": "https://www.roscap.ru/"
            }
        ]
    },
    "fast_food": {
        "count": 5,
        "detail": [
            {
                "amenity": "fast_food",
                "contact:vk": "https://vk.com/club106973123",
                "fast_food": "cafeteria",
                "name": "Столовая от ЭКО ферма «Семейная»",
                "opening_hours": "08:00-21:00"
            },
            {
                "amenity": "fast_food",
                "fast_food": "cafeteria",
                "name": "Столовая №37",
                "opening_hours": "Mo-Fr 08:30-20:00; Sa-Su 10:00-20:00",
                "website": "http://www.stolovaya37.ru/"
            },
            {
                "name": "Уют",
                "amenity": "fast_food",
                "fast_food": "cafeteria",
                "opening_hours": "10:00-21:00"
            },
            {
                "amenity": "fast_food",
                "name": "Ваша столовая",
                "opening_hours": "09:00-22:00"
            },
            {
                "name": "PrestoCoffee",
                "amenity": "fast_food",
                "cuisine": "coffee_shop",
                "contact:vk": "https://vk.com/prestocoffee",
                "opening_hours": "Mo-Fr 10:00-21:00; Sa-Su 12:00-21:00"
            }
        ]
    },
    "cafe": {
        "count": 19,
        "detail": [
            {
                "amenity": "cafe",
                "contact:vk": "https://vk.com/cafe_lindfors",
                "int_name": "Lindfors",
                "name": "Линдфорс",
                "opening_hours": "Mo-Su 09:00-21:00",
                "operator": "ООО «Столовая 41»",
                "phone": "+7 812 3152383",
                "website": "https://spb.lindfors.ru/restorany/ul-dekabristov-19"
            },
            {
                "name": "Лавка Хлебосолов",
                "amenity": "cafe",
                "contact:vk": "https://vk.com/lavkahlebosolova",
                "opening_hours": "Mo-Fr 08:00-21:00; Sa-Su,PH 10:00-21:00"
            },
            {
                "amenity": "cafe",
                "contact:vk": "https://vk.com/nairiarm",
                "name": "Наири",
                "note": "возможно закрыто"
            },
            {
                "cafe": "cafeteria",
                "amenity": "cafe",
                "operator": "ПК Темп",
                "opening_hours": "Mo-Su 08:00-21:00"
            },
            {
                "amenity": "cafe",
                "name": "Riravo"
            },
            {
                "amenity": "cafe",
                "website": "http://30cafe.ru/"
            },
            {
                "amenity": "cafe",
                "contact:email": "cupincup@mail.ru",
                "contact:instagram": "https://instagram.com/cupincup",
                "contact:phone": "+7 962 7116236",
                "contact:vk": "https://vk.com/cupincup",
                "contact:website": "https://cupincup.ru/",
                "cuisine": "coffee_shop",
                "name": "Cup in Cup",
                "opening_hours": "Mo-Fr 09:00-21:00;Sa-Su 10:00-21:00",
                "operator": "Cup In Cup",
                "smoking": "no"
            },
            {
                "amenity": "cafe",
                "contact:vk": "https://vk.com/coficocoffee",
                "cuisine": "coffee_shop",
                "name": "Cofico",
                "opening_hours": "08:00-21:00"
            },
            {
                "name": "Лаор",
                "amenity": "cafe",
                "website": "http://cafe.lahore.spb.ru/",
                "contact:vk": "https://vk.com/lahorecafe"
            },
            {
                "amenity": "cafe",
                "cuisine": "coffee_shop",
                "name": "Sky wine bar"
            },
            {
                "name": "Bake Me Up",
                "amenity": "cafe",
                "website": "http://www.bakemeup.spb.ru/",
                "contact:vk": "https://vk.com/bakemeuppls",
                "opening_hours": "07:30-21:00"
            },
            {
                "amenity": "cafe",
                "contact:facebook": "fb.com/kreuzberg.kebab",
                "contact:instagram": "https://www.instagram.com/kreuzberg.kebab/",
                "drink:beer": "yes",
                "int_name": "Kreuzberg Kebab",
                "name": "Кройцберг",
                "opening_hours": "Mo-Su 11:00-23:00"
            },
            {
                "amenity": "cafe",
                "contact:vk": "https://vk.com/spb.pelmeni",
                "name": "Отменная пельменная"
            },
            {
                "amenity": "cafe",
                "contact:vk": "https://vk.com/mostikcafe",
                "int_name": "Mostik Cafe",
                "name": "Мостик",
                "opening_hours": "12:00-23:00",
                "website": "http://cafemostik.com/",
                "wheelchair": "no"
            },
            {
                "amenity": "cafe",
                "contact:vk": "https://vk.com/pelmennapodyacheskoy",
                "name": "Пельмень"
            },
            {
                "name": "Кофелософия",
                "amenity": "cafe",
                "contact:vk": "https://vk.com/coffeelosophy",
                "opening_hours": "Mo-Fr 09:00-21:00; Sa-Su 10:00-22:00"
            },
            {
                "name": "Silent Tea",
                "amenity": "cafe",
                "website": "http://silenttea.ru/",
                "contact:vk": "https://vk.com/sitea"
            },
            {
                "amenity": "cafe",
                "contact:vk": "https://vk.com/public160434919",
                "name": "Маркет Шашлык",
                "opening_hours": "10:00-24:00",
                "operator": "ООО «Фрегат»",
                "website": "https://www.marketshashlik.ru/"
            },
            {
                "amenity": "cafe",
                "opening_hours": "24/7"
            }
        ]
    },
    "residents": 10681,
    "waste_disposal": {
        "count": 7,
        "detail": [
            {
                "amenity": "waste_disposal"
            },
            {
                "amenity": "waste_disposal"
            },
            {
                "amenity": "waste_disposal"
            },
            {
                "amenity": "waste_disposal"
            },
            {
                "amenity": "waste_disposal"
            },
            {
                "amenity": "waste_disposal"
            },
            {
                "amenity": "waste_disposal"
            }
        ]
    },
    "bar": {
        "count": 5,
        "detail": [
            {
                "amenity": "bar",
                "contact:vk": "https://vk.com/bar.znahar",
                "level": "-1",
                "name": "Знахарь"
            },
            {
                "amenity": "bar",
                "contact:vk": "https://vk.com/beeclb",
                "name": "Ящик пива"
            },
            {
                "amenity": "bar",
                "contact:vk": "yes",
                "description": "Russian craft beer & local food",
                "email": "rf@russofeel.ru",
                "level": "0",
                "name": "Russofeel",
                "opening_hours": "Mo-Su 17:00-01:00; Fr-Sa 17:00-02:00",
                "payment:cash": "yes",
                "payment:contactless": "yes",
                "payment:credit_cards": "yes",
                "payment:debit_cards": "yes",
                "payment:maestro": "yes",
                "payment:mastercard": "yes",
                "payment:visa": "yes",
                "payment:visa_debit": "yes",
                "payment:visa_electron": "yes",
                "phone": "+7 812 3375606",
                "start_date": "2018",
                "website": "http://russofeel.ru"
            },
            {
                "name": "Terki",
                "email": "terkibar@yandex.ru",
                "level": "-0.5",
                "phone": "+7 812 9339527",
                "amenity": "bar",
                "alt_name": "Тёрки",
                "contact:vk": "terkibar",
                "wheelchair": "no",
                "addr:street": "Театральная площадь",
                "payment:cash": "yes",
                "payment:visa": "yes",
                "opening_hours": "24/7",
                "payment:maestro": "yes",
                "addr:housenumber": "4",
                "contact:instagram": "terkibar",
                "payment:mastercard": "yes",
                "payment:visa_electron": "yes"
            },
            {
                "amenity": "bar",
                "name": "Гараж",
                "note": "днём не работает и внешне никак не заметен",
                "website": "http://гаражбар.рф/"
            }
        ]
    },
    "supermarket": {
        "count": 5,
        "detail": [
            {
                "brand": "Дикси",
                "brand:en": "Dixy",
                "brand:wikidata": "Q4161561",
                "brand:wikipedia": "ru:Дикси (сеть магазинов)",
                "contact:phone": "+7 800 3330201",
                "contact:vk": "https://vk.com/dixyclub",
                "contact:youtube": "https://www.youtube.com/user/DixyChannel",
                "name": "Дикси",
                "name:ru": "Дикси",
                "opening_hours": "24/7",
                "operator": "АО «Дикси Юг»",
                "shop": "supermarket",
                "website": "https://dixy.ru/"
            },
            {
                "brand": "Пятёрочка",
                "brand:en": "Pyaterochka",
                "brand:wikidata": "Q1768969",
                "brand:wikipedia": "ru:Пятёрочка",
                "contact:facebook": "https://www.facebook.com/pyaterochka/",
                "contact:instagram": "https://www.instagram.com/pyaterochka_official",
                "contact:ok": "https://ok.ru/pyaterochka",
                "contact:vk": "https://vk.com/pyaterochka_shop",
                "name": "Пятёрочка",
                "name:en": "Pyaterochka",
                "opening_hours": "Mo-Fr 08:00-23:00; Sa-Su 09:00-23:00",
                "operator": "ООО «Агроторг»",
                "shop": "supermarket",
                "website": "https://5ka.ru/"
            },
            {
                "brand": "Дикси",
                "brand:en": "Dixy",
                "brand:wikidata": "Q4161561",
                "brand:wikipedia": "ru:Дикси (сеть магазинов)",
                "contact:phone": "+7 800 3330201",
                "contact:vk": "https://vk.com/dixyclub",
                "contact:youtube": "https://www.youtube.com/user/DixyChannel",
                "name": "Дикси",
                "name:ru": "Дикси",
                "opening_hours": "24/7",
                "operator": "АО «Дикси Юг»",
                "shop": "supermarket",
                "website": "https://dixy.ru/"
            },
            {
                "brand": "Дикси",
                "brand:en": "Dixy",
                "brand:wikidata": "Q4161561",
                "brand:wikipedia": "ru:Дикси (сеть магазинов)",
                "contact:phone": "+7 800 3330201",
                "contact:vk": "https://vk.com/dixyclub",
                "contact:youtube": "https://www.youtube.com/user/DixyChannel",
                "name": "Дикси",
                "name:ru": "Дикси",
                "opening_hours": "Mo-Su 08:00-23:00",
                "operator": "АО «Дикси Юг»",
                "shop": "supermarket",
                "website": "https://dixy.ru/"
            },
            {
                "brand": "Магнит",
                "brand:en": "Magnit",
                "brand:wikidata": "Q940518",
                "brand:wikipedia": "ru:Магнит (сеть магазинов)",
                "contact:vk": "https://vk.com/magnitretail",
                "name": "Магнит",
                "name:en": "Magnit",
                "opening_hours": "Mo-Su 08:00-23:00",
                "shop": "supermarket",
                "website": "https://magnit-info.ru/"
            }
        ]
    },
    "restaurant": {
        "count": 5,
        "detail": [
            {
                "amenity": "restaurant",
                "cuisine": "chinese",
                "name": "Тан Жен",
                "name:en": "Tang Ren",
                "opening_hours": "Mo-Su 12:00-23:00",
                "phone": "+7 812 5700056",
                "website": "http://www.tang-ren.ru/"
            },
            {
                "amenity": "restaurant",
                "contact:vk": "https://vk.com/traktirsenoval",
                "contact:website": "https://www.senoval-traktir.ru",
                "cuisine": "international",
                "internet_access": "wlan",
                "internet_access:fee": "no",
                "level": "-1",
                "name": "Сеновал",
                "opening_hours": "11:30-23:30",
                "wheelchair": "no"
            },
            {
                "name": "Vincent",
                "amenity": "restaurant",
                "website": "http://vin-cent.ru/"
            },
            {
                "name": "Българ",
                "amenity": "restaurant",
                "website": "https://www.blgar.ru/",
                "contact:vk": "https://vk.com/restoranblgar",
                "opening_hours": "Mo-Fr 10:00-23:00; Sa-Su 11:00-23:00"
            },
            {
                "name": "Siegfried",
                "amenity": "restaurant",
                "cuisine": "german;bavarian",
                "addr:street": "улица Глинки",
                "opening_hours": "Mo-Su 09:00-23:00",
                "internet_access": "wlan",
                "addr:housenumber": "11"
            }
        ]
    },
    "clothes": {
        "count": 7,
        "detail": [
            {
                "contact:vk": "https://vk.com/deam_shops",
                "name": "Deam Shop",
                "opening_hours": "12:00-20:00",
                "shop": "clothes",
                "website": "http://deam-shop.ru/"
            },
            {
                "contact:vk": "https://vk.com/secondhandroom2",
                "name": "Room",
                "opening_hours": "11:00-20:00",
                "second_hand": "yes",
                "shop": "clothes"
            },
            {
                "name": "Трикотаж",
                "opening_hours": "Mo-Fr 11:00-20:00; Sa-Su 11:00-19:00",
                "shop": "clothes"
            },
            {
                "clothes": "underwear",
                "contact:vk": "https://vk.com/krilonyshop",
                "name": "Крилони",
                "shop": "clothes",
                "website": "https://www.krilony.ru/"
            },
            {
                "contact:vk": "https://vk.com/eleven_spb",
                "name": "Eleven",
                "shop": "clothes"
            },
            {
                "shop": "clothes"
            },
            {
                "craft": "tailor",
                "name": "Батист",
                "shop": "clothes"
            }
        ]
    },
    "beauty": {
        "count": 6,
        "detail": [
            {
                "name": "Леди",
                "shop": "beauty",
                "website": "http://lady-rf.ru/salony/%D1%84%D0%BE%D0%BD%D0%B0%D1%80%D0%BD%D1%8B%D0%B9-%D0%BF%D0%B5%D1%80-10/",
                "contact:vk": "https://vk.com/companylady",
                "opening_hours": "10:00-21:00"
            },
            {
                "name": "Studio7",
                "shop": "beauty",
                "operator": "ИП Дудкина Н.Н.",
                "contact:vk": "https://vk.com/club26374706",
                "opening_hours": "Mo-Sa 10:00-21:00; Su 11:00-20:00"
            },
            {
                "name": "Юджин",
                "opening_hours": "Mo-Sa 10:00-21:00",
                "shop": "beauty",
                "website": "http://www.salon-yudgin.ru/"
            },
            {
                "contact:vk": "https://vk.com/beautytheatre",
                "name": "На Театральной",
                "opening_hours": "10:00-21:00",
                "shop": "beauty"
            },
            {
                "contact:vk": "https://vk.com/koldynyakrasoti",
                "name": "Колдунья",
                "shop": "beauty"
            },
            {
                "contact:phone": "+7 969 2011177",
                "contact:vk": "https://vk.com/zhadina_volos",
                "name": "ЖаДина",
                "shop": "beauty"
            }
        ]
    },
    "coffee": {
        "count": 1,
        "detail": [
            {
                "contact:vk": "https://vk.com/spbespresso",
                "name": "Мир эспрессо",
                "opening_hours": "Mo-Fr 09:00-20:00; Sa-Su 10:00-20:00",
                "operator": "ООО «Эспрессо СПб»",
                "shop": "coffee",
                "website": "https://www.mirespresso.ru/contacts/stores/35666/"
            }
        ]
    },
    "florist": {
        "count": 7,
        "detail": [
            {
                "name": "Цветландия",
                "opening_hours": "24/7",
                "shop": "florist"
            },
            {
                "contact:vk": "https://vk.com/fiora_spb",
                "contact:website": "http://www.fiora.spb.ru",
                "level": "-1",
                "name": "Fiora",
                "shop": "florist",
                "wheelchair": "no"
            },
            {
                "name": "Flor del sol",
                "shop": "florist",
                "level": "-1",
                "website": "http://flordelsol.ru/",
                "contact:vk": "https://vk.com/flordelsol",
                "opening_hours": "Mo-Fr 10:00-18:00"
            },
            {
                "name": "Вереск",
                "shop": "florist",
                "contact:vk": "https://vk.com/veresk_flowers",
                "opening_hours": "09:00-21:00"
            },
            {
                "name": "Цветы",
                "shop": "florist"
            },
            {
                "contact:instagram": "https://instagram.com/flocafe.spb",
                "contact:phone": "+7 921 8705838",
                "level": "-1",
                "name": "Flocafe",
                "opening_hours": "Mo-Fr 08:30-20:00;Sa-Su 10:30-19:00",
                "operator": "Flocafe",
                "shop": "florist",
                "wheelchair": "no"
            },
            {
                "name": "Лес",
                "shop": "florist"
            }
        ]
    },
    "pet": {
        "count": 2,
        "detail": [
            {
                "name": "4 лапки",
                "opening_hours": "Mo-Fr 10:00-20:00; Sa-Su 10:00-19:00",
                "shop": "pet"
            },
            {
                "brand": "Royal Canin",
                "description": "ветеринарная аптека",
                "note": "возможно https://vk.com/nevavet4",
                "opening_hours": "Mo-Fr 10:00-20:00; Sa-Su 11:00-18:00",
                "shop": "pet"
            }
        ]
    },
    "convenience": {
        "count": 8,
        "detail": [
            {
                "opening_hours": "24/7",
                "shop": "convenience"
            },
            {
                "name": "Минимаркет",
                "opening_hours": "24/7",
                "shop": "convenience"
            },
            {
                "name": "Продукты",
                "shop": "convenience",
                "opening_hours": "24/7"
            },
            {
                "opening_hours": "24/7",
                "shop": "convenience"
            },
            {
                "name": "Вкусные продукты",
                "opening_hours": "24/7",
                "shop": "convenience"
            },
            {
                "name": "Продукты",
                "shop": "convenience",
                "opening_hours": "24/7"
            },
            {
                "name": "Анюткин гастроном",
                "shop": "convenience"
            },
            {
                "contact:website": "https://ecologovo.com/",
                "name": "Ecologovo.com",
                "organic": "yes",
                "shop": "convenience"
            }
        ]
    },
    "fabric": {
        "count": 1,
        "detail": [
            {
                "name": "Мерный лоскут",
                "shop": "fabric",
                "website": "http://mernyiloskut.ru/",
                "contact:vk": "https://vk.com/mernyi.loskut",
                "opening_hours": "Mo-Sa 11:00-20:00"
            }
        ]
    },
    "language_school": {
        "count": 1,
        "detail": [
            {
                "amenity": "language_school",
                "contact:vk": "https://vk.com/club1975494",
                "name": "Бенедикт-школа",
                "website": "http://benedict.ru/content492"
            }
        ]
    },
    "school": {
        "count": 1,
        "detail": [
            {
                "amenity": "school",
                "name": "Логос"
            }
        ]
    },
    "dentist": {
        "count": 3,
        "detail": [
            {
                "amenity": "dentist",
                "healthcare": "dentist",
                "name": "Умная стоматология",
                "website": "http://www.smartstom.spb.ru/"
            },
            {
                "amenity": "dentist",
                "healthcare": "dentist",
                "name": "Стома",
                "website": "https://www.ctoma.ru/"
            },
            {
                "amenity": "dentist",
                "healthcare": "dentist",
                "name": "Forum International Technology",
                "website": "http://clinicdent.ru/"
            }
        ]
    },
    "confectionery": {
        "count": 2,
        "detail": [
            {
                "amenity": "cafe",
                "contact:instagram": "ptitsi.cafe",
                "name": "Птицы",
                "opening_hours": "Mo-Su 11:00-22:00",
                "operator": "Синитский Виталий Александрович",
                "payment:cash": "yes",
                "payment:maestro": "yes",
                "payment:mastercard": "yes",
                "payment:visa": "yes",
                "payment:visa_electron": "yes",
                "phone": "+7 900 6318781",
                "shop": "confectionery",
                "website": "https://ptitsicafe.ru/",
                "wheelchair": "no"
            },
            {
                "brand": "Фабрика имени Крупской",
                "brand:wikidata": "Q4480319",
                "name": "Магазин фабрики имени Крупской",
                "opening_hours": "Mo-Sa 10:00-20:00; Su 10:00-18:00",
                "operator": "ООО «Турнир»",
                "shop": "confectionery"
            }
        ]
    },
    "hairdresser": {
        "count": 6,
        "detail": [
            {
                "name": "Colibri",
                "opening_hours": "10:00-20:00",
                "shop": "hairdresser"
            },
            {
                "contact:vk": "https://vk.com/chiochio_spb",
                "name": "Чио Чио",
                "opening_hours": "10:00-22:00",
                "shop": "hairdresser",
                "website": "http://chio-chio.ru/"
            },
            {
                "name": "Чёлка",
                "opening_hours": "10:00-21:00",
                "shop": "hairdresser"
            },
            {
                "name": "Маркиза",
                "shop": "hairdresser"
            },
            {
                "contact:instagram": "https://www.instagram.com/bonsalon_spb/",
                "name": "Bon Salon",
                "opening_hours": "10:00-21:00",
                "shop": "hairdresser"
            },
            {
                "contact:vk": "https://vk.com/mernum",
                "name": "Mernum",
                "shop": "hairdresser"
            }
        ]
    },
    "car_repair": {
        "count": 1,
        "detail": [
            {
                "shop": "car_repair",
                "service": "tyres",
                "opening_hours": "Mo-Fr 10:00-21:00; Sa-Su 12:00-22:00"
            }
        ]
    },
    "pharmacy": {
        "count": 2,
        "detail": [
            {
                "amenity": "pharmacy",
                "contact:vk": "https://vk.com/aptekanevis",
                "name": "Невис",
                "opening_hours": "09:00-22:00",
                "website": "https://aptekanevis.ru/"
            },
            {
                "amenity": "pharmacy",
                "opening_hours": "08:30-21:00"
            }
        ]
    },
    "greengrocer": {
        "count": 2,
        "detail": [
            {
                "contact:vk": "https://vk.com/worldfruits",
                "name": "Мир фруктов",
                "shop": "greengrocer"
            },
            {
                "name": "На грядке",
                "shop": "greengrocer"
            }
        ]
    },
    "playground": {
        "count": 1,
        "detail": [
            {
                "leisure": "playground"
            }
        ]
    },
    "pub": {
        "count": 1,
        "detail": [
            {
                "amenity": "pub",
                "contact:phone": "+7 921 5752234",
                "contact:vk": "https://vk.com/myfriendspub",
                "contact:website": "http://myfriendspub.ru",
                "name": "My friends"
            }
        ]
    },
    "furniture": {
        "count": 1,
        "detail": [
            {
                "addr:city": "Адмиралтейский округ",
                "addr:housenumber": "9",
                "addr:postcode": "190068",
                "addr:street": "Большая Подьяческая улица",
                "description": "Магазин офисной мебели: приемные, ресепшн, кабинеты руководителя, мебель для персонала, кресла и стулья, зоны для переговоров. Доставка по городу или самовывоз.",
                "email": "info@delo-mebel.ru",
                "level": "0",
                "name": "Деловая мебель",
                "opening_hours": "Mo-Fr 10:00-19:00",
                "payment:cash": "yes",
                "payment:notes": "yes",
                "phone": "+7 812 5707270",
                "shop": "furniture",
                "start_date": "2011",
                "website": "https://delo-mebel.ru/"
            }
        ]
    },
    "variety_store": {
        "count": 1,
        "detail": [
            {
                "name": "Фикс цена",
                "shop": "variety_store"
            }
        ]
    },
    "gift": {
        "count": 2,
        "detail": [
            {
                "contact:vk": "https://vk.com/merci.gift",
                "name": "Мерси",
                "opening_hours": "12:00-19:00",
                "shop": "gift",
                "website": "http://www.merci.gift/"
            },
            {
                "shop": "gift"
            }
        ]
    },
    "training": {
        "count": 2,
        "detail": [
            {
                "amenity": "training",
                "contact:vk": "https://vk.com/ecolespb",
                "description": "Санкт-Петербургская Школа Красоты - это новый образовательный проект по обучению специалистов индустрии красоты и моды. Школа представляет 6 факультетов различных направлений. Занятия на 80% состоят из серьёзной практической подготовки.",
                "name": "Санкт-Петербургская школа красоты",
                "opening_hours": "10:00-22:00",
                "phone": "+7 812 6480083",
                "website": "https://ecolespb.ru/"
            },
            {
                "amenity": "training",
                "contact:vk": "https://vk.com/spbmrc",
                "name": "Санкт-Петербургский межрегиональный ресурсный центр",
                "website": "https://spbmrc.ru/"
            }
        ]
    },
    "bakery": {
        "count": 2,
        "detail": [
            {
                "name": "ПитерБулки",
                "opening_hours": "Mo-Fr 09:00-21:00; Sa-Su 10:00-21:00",
                "shop": "bakery"
            },
            {
                "amenity": "cafe",
                "contact:vk": "https://vk.com/club115780446",
                "name": "Калачи",
                "opening_hours": "Mo-Sa 08:00-21:00; Su 10:00-20:00",
                "shop": "bakery"
            }
        ]
    },
    "interior_decoration": {
        "count": 2,
        "detail": [
            {
                "name": "Interior Boutique",
                "reservation": "required",
                "shop": "interior_decoration",
                "website": "http://arkadastudio.ru/"
            },
            {
                "contact:vk": "https://vk.com/facturaspb",
                "name": "Factura",
                "opening_hours": "Mo-Fr 11:00-19:00; Sa 11:00-18:00",
                "shop": "interior_decoration",
                "website": "http://www.facturaspb.ru/"
            }
        ]
    },
    "outdoor": {
        "count": 1,
        "detail": [
            {
                "name": "Камуфляж",
                "opening_hours": "Mo-Fr 11:00-20:00; Sa 11:00-19:00; Su 11:00-18:00",
                "payment:credit_cards": "yes",
                "payment:debit_cards": "yes",
                "phone": "+7 812 5718644",
                "shop": "outdoor",
                "website": "http://camouflage78.ru/",
                "wheelchair": "no"
            }
        ]
    },
    "alcohol": {
        "count": 1,
        "detail": [
            {
                "contact:vk": "https://vk.com/amwineru",
                "name": "Ароматный мир",
                "opening_hours": "Mo-Su 10:00-22:00",
                "shop": "alcohol",
                "website": "https://amwine.ru/customers/shops/detail/84661/",
                "wheelchair": "no"
            }
        ]
    },
    "copyshop": {
        "count": 2,
        "detail": [
            {
                "name": "Вита Принт",
                "shop": "copyshop",
                "website": "http://www.vitaprint.spb.ru/",
                "opening_hours": "Mo-Fr 10:00-18:00"
            },
            {
                "shop": "copyshop"
            }
        ]
    },
    "kindergarten": {
        "count": 3,
        "detail": [
            {
                "amenity": "kindergarten",
                "contact:email": "dou38@adm-edu.spb.ru",
                "contact:phone": "+7 812 3125633",
                "contact:website": "https://ds38spb.nubex.ru",
                "name": "Детский сад № 38",
                "official_name": "Государственное бюджетное дошкольное образовательное учреждение Детский сад № 38 Адмиралтейского района Санкт-Петербурга",
                "ref": "38"
            },
            {
                "amenity": "kindergarten",
                "contact:email": "dou39.adm@obr.gov.spb.ru",
                "contact:phone": "+7 812 7144824;+7 812 7141582;+7 812 6765045;+7 812 6765047;+7 812 6765046",
                "contact:website": "http://gbdou39.ucoz.net",
                "name": "Детский сад № 39",
                "official_name": "Государственное бюджетное дошкольное образовательное учреждение детский сад общеразвивающего вида № 39 с приоритетным осуществлением деятельности по художественно-эстетическому развитию детей Адмиралтейского района Санкт-Петербурга",
                "ref": "39"
            },
            {
                "amenity": "kindergarten",
                "contact:email": "gbdou-12ar@yandex.ru",
                "contact:phone": "+7 812 3125273",
                "contact:vk": "https://vk.com/club65760625",
                "contact:website": "https://gbdou12arspb.ru",
                "name": "Детский сад № 12",
                "official_name": "Государственное бюджетное дошкольное образовательное учреждение детский сад № 12 Адмиралтейского района Санкт-Петербурга",
                "ref": "12"
            }
        ]
    },
    "butcher": {
        "count": 2,
        "detail": [
            {
                "name": "Фермер",
                "shop": "butcher",
                "opening_hours": "10:00-21:00"
            },
            {
                "name": "Восход",
                "opening_hours": "10:00-21:00",
                "shop": "butcher"
            }
        ]
    },
    "antiques": {
        "count": 1,
        "detail": [
            {
                "name": "Антиквариат",
                "opening_hours": "11:00-19:00",
                "shop": "antiques",
                "website": "http://skupka-expert.ru/"
            }
        ]
    },
    "funeral_directors": {
        "count": 1,
        "detail": [
            {
                "name": "Ритуал-плюс",
                "opening_hours": "Mo-Fr 09:00-17:00",
                "shop": "funeral_directors",
                "website": "https://ритуальные-услуги-спб.рф/"
            }
        ]
    },
    "houseware": {
        "count": 1,
        "detail": [
            {
                "shop": "houseware"
            }
        ]
    },
    "car_parts": {
        "count": 1,
        "detail": [
            {
                "name": "Поиск",
                "opening_hours": "Mo-Fr 09:00-21:00; Sa 09:00-20:00; Su 10:00-20:00",
                "operator": "ЧП Иоффе",
                "shop": "car_parts"
            }
        ]
    },
    "cosmetics": {
        "count": 1,
        "detail": [
            {
                "contact:vk": "https://vk.com/dubaishop78",
                "name": "Dubaishop",
                "opening_hours": "11:00-20:00",
                "shop": "cosmetics",
                "website": "https://dubaishop78.ru/"
            }
        ]
    },
    "veterinary": {
        "count": 2,
        "detail": [
            {
                "amenity": "veterinary",
                "brand": "Royal Canin",
                "opening_hours": "Mo-Fr 10:00-21:00; Sa-Su,PH 10:00-20:00",
                "phone": "+7 812 5719204"
            },
            {
                "amenity": "veterinary",
                "name": "Ветеринарная станция Адмиралтейского района",
                "opening_hours": "09:00-21:00; 13:00-14:00 off",
                "website": "http://www.spbvet.ru/structure/station/gruppy-rayonov/moskovsky/ul-bolshaya-podyacheskaya-d-5-"
            }
        ]
    },
    "musical_instrument": {
        "count": 3,
        "detail": [
            {
                "name": "Kawai",
                "shop": "musical_instrument"
            },
            {
                "name": "Love-Piano",
                "shop": "musical_instrument",
                "website": "https://love-piano.ru/",
                "contact:vk": "https://vk.com/lovepiano",
                "opening_hours": "09:30-21:00"
            },
            {
                "contact:vk": "https://vk.com/rsmdomnot",
                "contact:website": "https://domnot.ru",
                "description": "ноты, струны",
                "name": "RSM дом нот",
                "opening_hours": "11:00-19:00",
                "shop": "musical_instrument",
                "wheelchair": "no"
            }
        ]
    },
    "lighting": {
        "count": 1,
        "detail": [
            {
                "contact:vk": "https://vk.com/diodus_ru",
                "name": "Диодус",
                "opening_hours": "Mo-Fr 11:00-19:00; Sa 11:00-17:00",
                "shop": "lighting",
                "website": "https://diodus.ru/"
            }
        ]
    },
    "escape_game": {
        "count": 1,
        "detail": [
            {
                "contact:vk": "https://vk.com/doorbusters",
                "leisure": "escape_game",
                "name": "DoorBusters",
                "website": "http://doorbusters.ru/"
            }
        ]
    },
    "doctors": {
        "count": 4,
        "detail": [
            {
                "amenity": "doctors",
                "contact:vk": "https://vk.com/public105455698",
                "healthcare": "doctor",
                "health_specialty:dermatology": "yes",
                "health_specialty:gynaecology": "yes",
                "name": "Клиника Игнатовского",
                "opening_hours": "Mo-Fr 09:00-20:00; Sa 10:00-18:00",
                "operator": "ООО «Клиника Дерматологии и Репродуктивного здоровья доктора Игнатовского»",
                "website": "http://dermklinik.ru/"
            },
            {
                "amenity": "doctors",
                "healthcare": "doctor",
                "name": "МедПрофЭксперт",
                "opening_hours": "Mo-Fr 10:00-20:00; Sa 11:00-16:00",
                "website": "https://medprofexpert.ru/"
            },
            {
                "amenity": "doctors",
                "healthcare": "doctor",
                "name": "Травматологический пункт"
            },
            {
                "addr:housenumber": "54",
                "addr:street": "Казанская улица",
                "amenity": "doctors",
                "building": "yes",
                "building:levels": "4",
                "healthcare": "doctor",
                "name": "Поликлиника №81 «Максимилиановская»",
                "opening_hours": "Mo-Fr 08:00-20:00; Sa 09:00-15:00",
                "website": "http://maxi-med.spb.ru/"
            }
        ]
    },
    "travel_agency": {
        "count": 2,
        "detail": [
            {
                "name": "Союз",
                "opening_hours": "Mo-Fr 10:00-18:00",
                "shop": "travel_agency",
                "website": "http://www.souz.travel/"
            },
            {
                "contact:vk": "https://vk.com/kottedzhi_finlandia",
                "int_name": "Ecotour",
                "name": "Экотур",
                "shop": "travel_agency",
                "website": "http://www.ecotour-spb.ru/"
            }
        ]
    },
    "second_hand": {
        "count": 1,
        "detail": [
            {
                "shop": "second_hand"
            }
        ]
    },
    "massage": {
        "count": 2,
        "detail": [
            {
                "name": "iSpa",
                "shop": "massage",
                "massage": "sexual",
                "website": "http://i-spa.su/",
                "contact:vk": "https://vk.com/eroticheskiy_massage_spb",
                "opening_hours": "24/7"
            },
            {
                "name": "Лаор",
                "shop": "massage",
                "website": "http://www.arpanaveda.ru/",
                "opening_hours": "09:00-22:00"
            }
        ]
    },
    "payment_centre": {
        "count": 1,
        "detail": [
            {
                "amenity": "payment_centre",
                "brand": "Петроэлектросбыт",
                "contact:facebook": "petroelektrosbyt",
                "contact:twitter": "zao_pes",
                "contact:vk": "petroelektrosbyt",
                "office": "energy_supplier",
                "opening_hours": "Mo-Sa 08:45-19:45; Su off",
                "operator": "АО «Петроэлектросбыт»",
                "phone": "+7 812 6792222",
                "website": "https://www.pes.spb.ru/"
            }
        ]
    },
    "medical_supply": {
        "count": 1,
        "detail": [
            {
                "name": "InvaMarket",
                "shop": "medical_supply",
                "website": "http://www.invamarket.ru/",
                "opening_hours": "Mo-Fr 10:00-20:00; Sa 11:00-18:00"
            }
        ]
    },
    "chemist": {
        "count": 1,
        "detail": [
            {
                "contact:vk": "https://vk.com/borodist",
                "name": "Borodist",
                "opening_hours": "Mo-Fr 12:00-20:00",
                "shop": "chemist",
                "website": "https://borodist.com/"
            }
        ]
    },
    "art": {
        "count": 1,
        "detail": [
            {
                "name": "Надосках",
                "shop": "art",
                "tourism": "gallery",
                "website": "https://art.nadoskah.com/",
                "contact:vk": "https://vk.com/artnadoskah"
            }
        ]
    },
    "jewelry": {
        "count": 2,
        "detail": [
            {
                "contact:vk": "https://vk.com/matryoshkarf",
                "name": "Matryoshka",
                "opening_hours": "11:00-21:00",
                "operator": "ООО «Матрешка Рус»",
                "shop": "jewelry",
                "website": "https://matryoshkadesign.com/"
            },
            {
                "contact:vk": "https://vk.com/darkrain.store",
                "name": "Darkrain",
                "shop": "jewelry",
                "website": "https://darkrain.store/"
            }
        ]
    },
    "shoes": {
        "count": 1,
        "detail": [
            {
                "contact:vk": "https://vk.com/hochu_kedi",
                "name": "ХочуКеды.РФ",
                "opening_hours": "12:00-20:00",
                "shop": "shoes",
                "website": "http://хочукеды.рф/"
            }
        ]
    },
    "coworking_space": {
        "count": 1,
        "detail": [
            {
                "amenity": "coworking_space",
                "contact:vk": "https://vk.com/praktik.work",
                "name": "Практик",
                "website": "https://praktik.work/workspace-griboedova-99"
            }
        ]
    },
    "sewing": {
        "count": 1,
        "detail": [
            {
                "contact:vk": "https://vk.com/tvoy_hobby",
                "name": "Булавка",
                "shop": "sewing",
                "website": "http://tvoy-hobby.ru/"
            }
        ]
    },
    "library": {
        "count": 1,
        "detail": [
            {
                "name": "Итальянская Медиатека",
                "amenity": "library",
                "website": "https://iicsanpietroburgo.esteri.it/iic_sanpietroburgo/ru/la_biblioteca/",
                "opening_hours": "Mo,We,Th 15:00-18:00; Tu,Fr 11:00-14:00"
            }
        ]
    },
    "events_venue": {
        "count": 1,
        "detail": [
            {
                "name": "Room-101",
                "amenity": "events_venue",
                "contact:vk": "https://vk.com/art_room101"
            }
        ]
    },
    "theatre": {
        "count": 2,
        "detail": [
            {
                "name": "Синий сарафан",
                "amenity": "theatre",
                "website": "http://bluesarafanteatr.ru/",
                "contact:vk": "https://vk.com/blue_sarafan"
            },
            {
                "name": "Домашний театр Юсуповского дворца",
                "email": "bs@yusupov-palace.ru",
                "phone": "+7 921 9703038;+7 812 3143859",
                "amenity": "theatre",
                "website": "https://www.yusupov-palace.ru/ru/theatre",
                "wheelchair": "limited"
            }
        ]
    },
    "books": {
        "count": 1,
        "detail": [
            {
                "name": "Майн Рид",
                "shop": "books",
                "contact:vk": "https://vk.com/maynereidbook",
                "opening_hours": "11:00-22:00"
            }
        ]
    },
    "music_rehearsal_place": {
        "count": 1,
        "detail": [
            {
                "amenity": "music_rehearsal_place",
                "contact:phone": "+7 812 3143236",
                "contact:vk": "https://vk.com/classicpoint",
                "contact:website": "https://classicpoint.ru/",
                "name": "Классическая точка",
                "name:en": "Classic point",
                "opening_hours": "Mo-Fr 10:00-22:00; Sa-Su 10:00-21:00"
            }
        ]
    },
    "bicycle_parking": {
        "count": 1,
        "detail": [
            {
                "amenity": "bicycle_parking",
                "bicycle_parking": "wall_loops",
                "capacity": "5",
                "covered": "no"
            }
        ]
    },
    "toys": {
        "count": 1,
        "detail": [
            {
                "name": "Ромашка",
                "opening_hours": "Mo-Fr 10:00-20:00; Sa-Su 11:00-19:00",
                "operator": "ИП Воронцов А.С.",
                "shop": "toys"
            }
        ]
    },
    "atm": {
        "count": 1,
        "detail": [
            {
                "amenity": "atm",
                "brand": "Сбербанк",
                "cash_in": "yes",
                "opening_hours": "24/7",
                "wheelchair": "no"
            }
        ]
    },
    "bench": {
        "count": 12,
        "detail": [
            {
                "amenity": "bench",
                "backrest": "yes",
                "material": "wood"
            },
            {
                "amenity": "bench",
                "backrest": "yes",
                "material": "wood"
            },
            {
                "amenity": "bench",
                "backrest": "yes",
                "material": "wood"
            },
            {
                "amenity": "bench",
                "backrest": "yes",
                "material": "wood"
            },
            {
                "amenity": "bench",
                "backrest": "yes",
                "material": "wood"
            },
            {
                "amenity": "bench",
                "backrest": "yes",
                "material": "wood"
            },
            {
                "amenity": "bench",
                "backrest": "yes",
                "material": "wood"
            },
            {
                "amenity": "bench",
                "backrest": "yes",
                "material": "wood"
            },
            {
                "amenity": "bench",
                "backrest": "yes",
                "material": "wood"
            },
            {
                "amenity": "bench"
            },
            {
                "amenity": "bench"
            },
            {
                "amenity": "bench"
            }
        ]
    },
    "social_facility": {
        "count": 1,
        "detail": [
            {
                "addr:housenumber": "98",
                "addr:street": "набережная канала Грибоедова",
                "amenity": "social_facility",
                "building": "yes",
                "building:levels": "3",
                "name": "Дом ребёнка №13"
            }
        ]
    },
    "university": {
        "count": 1,
        "detail": [
            {
                "addr:housenumber": "1",
                "addr:postcode": "190068",
                "addr:street": "Средняя Подьяческая улица",
                "amenity": "university",
                "building": "yes",
                "building:levels": "2",
                "name": "Гуманитарный центр института внешнеэкономических связей, экономики и права"
            }
        ]
    },
    "toilets": {
        "count": 1,
        "detail": [
            {
                "addr:housenumber": "5",
                "addr:street": "Театральная площадь",
                "amenity": "toilets",
                "building": "yes",
                "building:levels": "1",
                "fee": "yes",
                "opening_hours": "09:00-21:00",
                "operator": "ГУП «Водоканал Санкт-Петербурга»",
                "unisex": "yes",
                "website": "http://www.vodokanal.spb.ru/kanalizovanie/tualety/"
            }
        ]
    },
    "service": {
        "count": 7,
        "detail": [
            {
                "power": "substation",
                "building": "service",
                "building:levels": "1"
            },
            {
                "power": "substation",
                "building": "service",
                "addr:letter": "Я",
                "addr:street": "набережная канала Грибоедова",
                "source:addr": "rgis",
                "building:levels": "1",
                "addr:housenumber": "87"
            },
            {
                "power": "substation",
                "building": "service",
                "building:levels": "1"
            },
            {
                "power": "substation",
                "building": "service",
                "substation": "minor_distribution",
                "building:levels": "1"
            },
            {
                "power": "substation",
                "building": "service",
                "building:levels": "1"
            },
            {
                "power": "substation",
                "building": "service",
                "building:levels": "1"
            },
            {
                "power": "substation",
                "building": "service",
                "building:levels": "1"
            }
        ]
    }
}