{
    "residents": 9209,
    "bank": {
        "count": 4,
        "detail": [
            {
                "amenity": "bank",
                "atm": "yes",
                "branch": "Северо-Западный банк",
                "brand": "Сбербанк",
                "brand:en": "Sberbank",
                "brand:ru": "Сбербанк",
                "brand:wikidata": "Q205012",
                "brand:wikipedia": "en:Sberbank of Russia",
                "contact:facebook": "https://www.facebook.com/sberbank",
                "contact:instagram": "https://instagram.com/sberbank",
                "contact:ok": "https://ok.ru/sberbank",
                "contact:phone": "+7 800 5555550",
                "contact:twitter": "https://twitter.com/sberbank/",
                "contact:vk": "https://vk.com/sberbank",
                "contact:website": "https://www.sberbank.ru/",
                "contact:youtube": "https://www.youtube.com/sberbank",
                "name": "Сбербанк",
                "name:en": "Sberbank",
                "name:ru": "Сбербанк",
                "opening_hours": "Mo-Fr 10:00-19:00; Sa 10:00-18:00",
                "operator": "ПАО Сбербанк",
                "operator:wikidata": "Q205012",
                "operator:wikipedia": "ru:Сбербанк России",
                "ref": "9055/0774",
                "wheelchair": "no"
            },
            {
                "amenity": "bank",
                "name": "Российский капитал",
                "opening_hours": "Mo-Fr 09:00-18:00",
                "website": "https://www.roscap.ru/"
            },
            {
                "amenity": "bank",
                "atm": "yes",
                "brand": "Промсвязьбанк",
                "brand:en": "Promsvyazbank",
                "brand:wikidata": "Q649100",
                "brand:wikipedia": "en:Promsvyazbank",
                "contact:vk": "https://vk.com/psbank_ru",
                "name": "Промсвязьбанк",
                "name:en": "Promsvyazbank",
                "opening_hours": "Mo-Fr 10:00-19:00",
                "website": "https://www.psbank.ru/Office?OfficeId=463"
            },
            {
                "amenity": "bank",
                "contact:vk": "https://vk.com/vostbankru",
                "name": "Восточный",
                "opening_hours": "10:00-19:00",
                "website": "https://www.vostbank.ru/"
            }
        ]
    },
    "fast_food": {
        "count": 7,
        "detail": [
            {
                "amenity": "fast_food",
                "contact:vk": "https://vk.com/club106973123",
                "fast_food": "cafeteria",
                "name": "Столовая от ЭКО ферма «Семейная»",
                "opening_hours": "08:00-21:00"
            },
            {
                "amenity": "fast_food",
                "contact:vk": "https://vk.com/royal.pizza",
                "cuisine": "pizza",
                "email": "info@royalpizza.ru",
                "name": "Роял пицца",
                "opening_hours": "24/7",
                "operator": "ООО \"БиКей\"",
                "phone": "+7 812 4485310",
                "website": "https://royalpizza.ru/"
            },
            {
                "amenity": "fast_food",
                "contact:vk": "https://vk.com/sushishop",
                "cuisine": "sushi",
                "delivery": "yes",
                "name": "СушиШоп",
                "opening_hours": "Mo-Su 10:00-23:00",
                "takeaway": "yes",
                "website": "https://www.sushishop.ru/"
            },
            {
                "amenity": "fast_food",
                "fast_food": "cafeteria",
                "name": "Столовая №37",
                "opening_hours": "Mo-Fr 08:30-20:00; Sa-Su 10:00-20:00",
                "website": "http://www.stolovaya37.ru/"
            },
            {
                "name": "Уют",
                "amenity": "fast_food",
                "fast_food": "cafeteria",
                "opening_hours": "10:00-21:00"
            },
            {
                "amenity": "fast_food",
                "name": "Ваша столовая",
                "opening_hours": "09:00-22:00"
            },
            {
                "amenity": "fast_food",
                "name:en": "Sparta gyros"
            }
        ]
    },
    "pharmacy": {
        "count": 6,
        "detail": [
            {
                "amenity": "pharmacy",
                "dispensing": "yes",
                "healthcare": "pharmacy",
                "name": "Народная аптека",
                "opening_hours": "24/7",
                "wheelchair": "no"
            },
            {
                "amenity": "pharmacy",
                "healthcare": "pharmacy",
                "name": "Сити-Фарм",
                "opening_hours": "Mo-Fr 08:00-22:30; Sa-Su 09:00-21:00",
                "operator": "ИП Родин В.В.",
                "phone": "+7 812 3101324"
            },
            {
                "amenity": "pharmacy",
                "contact:vk": "https://vk.com/aptekanevis",
                "name": "Невис",
                "opening_hours": "09:00-22:00",
                "website": "https://aptekanevis.ru/"
            },
            {
                "amenity": "pharmacy",
                "dispensing": "no",
                "healthcare": "pharmacy",
                "website": "http://www.pastera.ru/"
            },
            {
                "amenity": "pharmacy",
                "healthcare": "pharmacy",
                "name": "Петербургские аптеки",
                "opening_hours": "Mo-Fr 09:00-21:00; Sa-Su 10:00-20:00",
                "phone": "+7 812 7000303",
                "website": "https://papteki.ru/"
            },
            {
                "amenity": "pharmacy",
                "opening_hours": "08:30-21:00"
            }
        ]
    },
    "cafe": {
        "count": 18,
        "detail": [
            {
                "amenity": "cafe",
                "contact:vk": "https://vk.com/cafe_lindfors",
                "int_name": "Lindfors",
                "name": "Линдфорс",
                "opening_hours": "Mo-Su 09:00-21:00",
                "operator": "ООО «Столовая 41»",
                "phone": "+7 812 3152383",
                "website": "https://spb.lindfors.ru/restorany/ul-dekabristov-19"
            },
            {
                "amenity": "cafe",
                "name": "Алазани",
                "website": "http://alazani-spb.ru/"
            },
            {
                "name": "Лавка Хлебосолов",
                "amenity": "cafe",
                "contact:vk": "https://vk.com/lavkahlebosolova",
                "opening_hours": "Mo-Fr 08:00-21:00; Sa-Su,PH 10:00-21:00"
            },
            {
                "amenity": "cafe",
                "name": "Пирогоф",
                "website": "http://www.pirogof.com/"
            },
            {
                "cafe": "cafeteria",
                "amenity": "cafe",
                "operator": "ПК Темп",
                "opening_hours": "Mo-Su 08:00-21:00"
            },
            {
                "amenity": "cafe",
                "name": "ManGall",
                "opening_hours": "Mo-Th 10:00-23:00; Fr 10:00-00:00; Sa 11:00-00:00; Su 11:00-22:00"
            },
            {
                "amenity": "cafe",
                "contact:instagram": "https://www.instagram.com/kafebarpelikan/",
                "name": "Пеликан",
                "wheelchair": "no"
            },
            {
                "amenity": "cafe",
                "name": "Riravo"
            },
            {
                "amenity": "cafe",
                "website": "http://30cafe.ru/"
            },
            {
                "amenity": "cafe",
                "contact:email": "cupincup@mail.ru",
                "contact:instagram": "https://instagram.com/cupincup",
                "contact:phone": "+7 962 7116236",
                "contact:vk": "https://vk.com/cupincup",
                "contact:website": "https://cupincup.ru/",
                "cuisine": "coffee_shop",
                "name": "Cup in Cup",
                "opening_hours": "Mo-Fr 09:00-21:00;Sa-Su 10:00-21:00",
                "operator": "Cup In Cup",
                "smoking": "no"
            },
            {
                "amenity": "cafe",
                "contact:vk": "https://vk.com/coficocoffee",
                "cuisine": "coffee_shop",
                "name": "Cofico",
                "opening_hours": "08:00-21:00"
            },
            {
                "amenity": "cafe",
                "name": "Хороший день"
            },
            {
                "amenity": "cafe",
                "contact:vk": "https://vk.com/mostikcafe",
                "int_name": "Mostik Cafe",
                "name": "Мостик",
                "opening_hours": "12:00-23:00",
                "website": "http://cafemostik.com/",
                "wheelchair": "no"
            },
            {
                "amenity": "cafe",
                "contact:vk": "https://vk.com/pelmennapodyacheskoy",
                "name": "Пельмень"
            },
            {
                "amenity": "cafe",
                "diet:vegetarian": "no",
                "drink:beer": "served",
                "name": "Lagman Delivery",
                "opening_hours": "10:00-22:00",
                "toilets": "yes",
                "website": "https://lagman-delivery.ru/",
                "wheelchair": "no"
            },
            {
                "amenity": "cafe",
                "breakfast": "09:00-14:00",
                "contact:vk": "https://vk.com/jcbistro",
                "dinner": "14:00-23:30",
                "lunch": "12:00-17:00",
                "name": "Julia Child",
                "opening_hours": "Mo-Fr 09:00-23:30; Sa-Su 10:00-23:30",
                "phone": "+7 812 9290797",
                "takeaway": "yes"
            },
            {
                "name": "Кофелософия",
                "amenity": "cafe",
                "contact:vk": "https://vk.com/coffeelosophy",
                "opening_hours": "Mo-Fr 09:00-21:00; Sa-Su 10:00-22:00"
            },
            {
                "amenity": "cafe",
                "opening_hours": "24/7"
            }
        ]
    },
    "waste_disposal": {
        "count": 4,
        "detail": [
            {
                "amenity": "waste_disposal"
            },
            {
                "amenity": "waste_disposal"
            },
            {
                "amenity": "waste_disposal"
            },
            {
                "amenity": "waste_disposal"
            }
        ]
    },
    "bar": {
        "count": 4,
        "detail": [
            {
                "amenity": "bar",
                "contact:vk": "https://vk.com/bar.znahar",
                "level": "-1",
                "name": "Знахарь"
            },
            {
                "amenity": "bar",
                "contact:vk": "https://vk.com/vtd_spb",
                "internet_access": "wlan",
                "name": "Все твои друзья"
            },
            {
                "amenity": "bar",
                "name": "Гараж",
                "note": "днём не работает и внешне никак не заметен",
                "website": "http://гаражбар.рф/"
            },
            {
                "amenity": "bar",
                "contact:vk": "https://vk.com/hookahpacman",
                "description": "кальянный клуб",
                "name": "Pacman",
                "name:ru": "5 Перцев"
            }
        ]
    },
    "supermarket": {
        "count": 3,
        "detail": [
            {
                "brand": "Дикси",
                "brand:en": "Dixy",
                "brand:wikidata": "Q4161561",
                "brand:wikipedia": "ru:Дикси (сеть магазинов)",
                "contact:phone": "+7 800 3330201",
                "contact:vk": "https://vk.com/dixyclub",
                "contact:youtube": "https://www.youtube.com/user/DixyChannel",
                "name": "Дикси",
                "name:ru": "Дикси",
                "opening_hours": "24/7",
                "operator": "АО «Дикси Юг»",
                "shop": "supermarket",
                "website": "https://dixy.ru/"
            },
            {
                "alt_name": "Перекресток",
                "brand": "Перекрёсток",
                "brand:en": "Perekryostok",
                "brand:wikidata": "Q1684639",
                "brand:wikipedia": "en:Perekrestok (supermarket chain)",
                "contact:facebook": "https://www.facebook.com/perekrestok",
                "contact:instagram": "https://www.instagram.com/perekrestok/",
                "contact:ok": "https://ok.ru/perekrestok.shop",
                "contact:phone": "+7 800 2009555;+7 812 4483010",
                "contact:twitter": "https://twitter.com/perekrestok",
                "contact:vk": "https://vk.com/perekrestok_shop",
                "contact:website": "https://www.perekrestok.ru/",
                "name": "Перекрёсток",
                "opening_hours": "08:00-23:00",
                "shop": "supermarket"
            },
            {
                "brand": "Дикси",
                "brand:en": "Dixy",
                "brand:wikidata": "Q4161561",
                "brand:wikipedia": "ru:Дикси (сеть магазинов)",
                "contact:phone": "+7 800 3330201",
                "contact:vk": "https://vk.com/dixyclub",
                "contact:youtube": "https://www.youtube.com/user/DixyChannel",
                "name": "Дикси",
                "name:ru": "Дикси",
                "opening_hours": "24/7",
                "operator": "АО «Дикси Юг»",
                "shop": "supermarket",
                "website": "https://dixy.ru/"
            }
        ]
    },
    "restaurant": {
        "count": 5,
        "detail": [
            {
                "amenity": "restaurant",
                "cuisine": "chinese",
                "name": "Цзао Ван",
                "name:zh": "灶王餐館",
                "note": "скорее всего не относится к chinacook.ru",
                "opening_hours": "Mo-Su 12:00-24:00",
                "operator": "徐敏菊",
                "phone": "+7 812 5716921"
            },
            {
                "amenity": "restaurant",
                "cuisine": "chinese",
                "name": "Тан Жен",
                "name:en": "Tang Ren",
                "opening_hours": "Mo-Su 12:00-23:00",
                "phone": "+7 812 5700056",
                "website": "http://www.tang-ren.ru/"
            },
            {
                "amenity": "restaurant",
                "contact:vk": "https://vk.com/traktirsenoval",
                "contact:website": "https://www.senoval-traktir.ru",
                "cuisine": "international",
                "internet_access": "wlan",
                "internet_access:fee": "no",
                "level": "-1",
                "name": "Сеновал",
                "opening_hours": "11:30-23:30",
                "wheelchair": "no"
            },
            {
                "amenity": "restaurant",
                "contact:vk": "https://vk.com/korsakovspb",
                "name": "Корсаков",
                "opening_hours": "Mo-Fr 12:00-20:00; Sa-Su 12:00-16:00",
                "reservation": "required",
                "website": "http://korsakovspb.ru/"
            },
            {
                "amenity": "restaurant",
                "contact:email": "niagarahall@mail.ru",
                "contact:phone": "+7 812 9815022;+7 812 9815094",
                "contact:vk": "https://vk.com/niagarahall",
                "contact:website": "http://niagarahall.ru",
                "description": "Банкетный зал",
                "name": "Niagara",
                "opening_hours": "Mo-Su 12:00-23:00",
                "reservation": "required"
            }
        ]
    },
    "convenience": {
        "count": 8,
        "detail": [
            {
                "brand": "ВкусВилл",
                "brand:wikidata": "Q57271676",
                "brand:wikipedia": "ru:Вкусвилл",
                "contact:phone": "+7 921 5543996",
                "contact:vk": "https://vk.com/vkusvill_ru",
                "contact:website": "https://vkusvill.ru",
                "name": "ВкусВилл",
                "opening_hours": "Mo-Su 08:00-21:00",
                "operator": "ООО «Вкусвилл»",
                "shop": "convenience"
            },
            {
                "name": "Минимаркет",
                "opening_hours": "24/7",
                "shop": "convenience"
            },
            {
                "name": "Продукты",
                "shop": "convenience",
                "opening_hours": "24/7"
            },
            {
                "opening_hours": "24/7",
                "shop": "convenience"
            },
            {
                "name": "Вкусные продукты",
                "opening_hours": "24/7",
                "shop": "convenience"
            },
            {
                "name": "Продукты",
                "opening_hours": "24/7",
                "operator": "ООО «ПАМ-Лимитед»",
                "shop": "convenience"
            },
            {
                "opening_hours": "08:00-23:00",
                "shop": "convenience"
            },
            {
                "contact:website": "https://ecologovo.com/",
                "name": "Ecologovo.com",
                "organic": "yes",
                "shop": "convenience"
            }
        ]
    },
    "furniture": {
        "count": 2,
        "detail": [
            {
                "int_name": "Borghese Classic",
                "name": "Боргезе классик",
                "opening_hours": "11:00-21:00",
                "shop": "furniture",
                "website": "http://www.excellence-interiors.ru/"
            },
            {
                "addr:city": "Адмиралтейский округ",
                "addr:housenumber": "9",
                "addr:postcode": "190068",
                "addr:street": "Большая Подьяческая улица",
                "description": "Магазин офисной мебели: приемные, ресепшн, кабинеты руководителя, мебель для персонала, кресла и стулья, зоны для переговоров. Доставка по городу или самовывоз.",
                "email": "info@delo-mebel.ru",
                "level": "0",
                "name": "Деловая мебель",
                "opening_hours": "Mo-Fr 10:00-19:00",
                "payment:cash": "yes",
                "payment:notes": "yes",
                "phone": "+7 812 5707270",
                "shop": "furniture",
                "start_date": "2011",
                "website": "https://delo-mebel.ru/"
            }
        ]
    },
    "beauty": {
        "count": 3,
        "detail": [
            {
                "name": "Леди",
                "shop": "beauty",
                "website": "http://lady-rf.ru/salony/%D1%84%D0%BE%D0%BD%D0%B0%D1%80%D0%BD%D1%8B%D0%B9-%D0%BF%D0%B5%D1%80-10/",
                "contact:vk": "https://vk.com/companylady",
                "opening_hours": "10:00-21:00"
            },
            {
                "check_date": "2018-08-31",
                "name": "Невесомость",
                "opening_hours": "09:00-21:00",
                "phone": "+7 812 6605175;+7 960 2330012",
                "shop": "beauty",
                "wheelchair": "no"
            },
            {
                "contact:vk": "https://vk.com/koldynyakrasoti",
                "name": "Колдунья",
                "shop": "beauty"
            }
        ]
    },
    "mobile_phone": {
        "count": 2,
        "detail": [
            {
                "brand": "МТС",
                "brand:en": "MTS",
                "brand:wikidata": "Q1368919",
                "brand:wikipedia": "en:MTS (network provider)",
                "contact:vk": "https://vk.com/mts",
                "name": "МТС",
                "name:en": "MTS",
                "opening_hours": "09:00-21:00",
                "shop": "mobile_phone",
                "website": "https://spb.mts.ru/"
            },
            {
                "contact:vk": "https://vk.com/telefonybu",
                "name": "Проект связь",
                "opening_hours": "11:00-20:00",
                "shop": "mobile_phone",
                "website": "https://sviaz.spb.ru/"
            }
        ]
    },
    "pet": {
        "count": 2,
        "detail": [
            {
                "name": "4 лапки",
                "opening_hours": "Mo-Fr 10:00-20:00; Sa-Su 10:00-19:00",
                "shop": "pet"
            },
            {
                "brand": "Royal Canin",
                "description": "ветеринарная аптека",
                "note": "возможно https://vk.com/nevavet4",
                "opening_hours": "Mo-Fr 10:00-20:00; Sa-Su 11:00-18:00",
                "shop": "pet"
            }
        ]
    },
    "kitchen": {
        "count": 1,
        "detail": [
            {
                "name": "Verona mobili",
                "shop": "kitchen",
                "website": "http://www.verona-mobili.ru/",
                "contact:vk": "https://vk.com/verona_mobili",
                "opening_hours": "11:00-20:00"
            }
        ]
    },
    "fabric": {
        "count": 1,
        "detail": [
            {
                "name": "Мерный лоскут",
                "shop": "fabric",
                "website": "http://mernyiloskut.ru/",
                "contact:vk": "https://vk.com/mernyi.loskut",
                "opening_hours": "Mo-Sa 11:00-20:00"
            }
        ]
    },
    "bakery": {
        "count": 4,
        "detail": [
            {
                "brand": "Булочные Ф. Вольчека",
                "contact:email": "info@fvolchek.ru",
                "contact:phone": "+7 812 6420638",
                "contact:vk": "f.volchek",
                "contact:website": "http://fvolchek.ru/",
                "drink:coffee": "served",
                "drink:mors": "served",
                "drink:tea": "served",
                "inscription": "Булочная № 28",
                "name": "Булочная Ф. Вольчека",
                "name:ru": "Булочная Ф. Вольчека",
                "opening_hours": "Mo-Su 08:00-22:00",
                "payment:cash": "yes",
                "payment:maestro": "yes",
                "payment:mastercard": "yes",
                "payment:visa": "yes",
                "payment:visa_debit": "yes",
                "payment:visa_electron": "yes",
                "ref": "28",
                "shop": "bakery",
                "takeaway": "yes"
            },
            {
                "contact:vk": "https://vk.com/bonape.voznesensky",
                "name": "Bonapé",
                "note": "нет на сайте",
                "opening_hours": "Mo-Fr 08:00-20:00; Sa-Su 09:00-20:00",
                "shop": "bakery",
                "website": "http://www.bonape.ru/"
            },
            {
                "name": "ПитерБулки",
                "opening_hours": "Mo-Fr 09:00-21:00; Sa-Su 10:00-21:00",
                "shop": "bakery"
            },
            {
                "amenity": "cafe",
                "contact:vk": "https://vk.com/club115780446",
                "name": "Калачи",
                "opening_hours": "Mo-Sa 08:00-21:00; Su 10:00-20:00",
                "shop": "bakery"
            }
        ]
    },
    "sewing": {
        "count": 2,
        "detail": [
            {
                "name": "Текстильторг",
                "shop": "sewing",
                "website": "https://www.textiletorg.ru/",
                "contact:vk": "https://vk.com/textile.torg",
                "opening_hours": "09:00-21:00"
            },
            {
                "contact:vk": "https://vk.com/tvoy_hobby",
                "name": "Булавка",
                "shop": "sewing",
                "website": "http://tvoy-hobby.ru/"
            }
        ]
    },
    "language_school": {
        "count": 1,
        "detail": [
            {
                "amenity": "language_school",
                "contact:vk": "https://vk.com/club1975494",
                "name": "Бенедикт-школа",
                "website": "http://benedict.ru/content492"
            }
        ]
    },
    "school": {
        "count": 3,
        "detail": [
            {
                "amenity": "school",
                "name": "Логос"
            },
            {
                "addr:housenumber": "48",
                "addr:street": "Казанская улица",
                "building": "school",
                "building:levels": "4"
            },
            {
                "addr:housenumber": "76",
                "addr:letter": "П",
                "addr:street": "набережная канала Грибоедова",
                "amenity": "school",
                "building": "school",
                "building:levels": "4",
                "contact:email": "sc256.adm@obr.gov.spb.ru",
                "contact:phone": "+7 812 5739874",
                "contact:website": "http://sc.adm-edu.spb.ru/256/",
                "name": "Школа № 256",
                "official_name": "Государственное бюджетное общеобразовательное учреждение средняя общеобразовательная школа № 256 Адмиралтейского района Санкт-Петербурга",
                "ref": "256"
            }
        ]
    },
    "florist": {
        "count": 5,
        "detail": [
            {
                "contact:vk": "https://vk.com/fiora_spb",
                "contact:website": "http://www.fiora.spb.ru",
                "level": "-1",
                "name": "Fiora",
                "shop": "florist",
                "wheelchair": "no"
            },
            {
                "name": "Flor del sol",
                "shop": "florist",
                "level": "-1",
                "website": "http://flordelsol.ru/",
                "contact:vk": "https://vk.com/flordelsol",
                "opening_hours": "Mo-Fr 10:00-18:00"
            },
            {
                "name": "Вереск",
                "shop": "florist",
                "contact:vk": "https://vk.com/veresk_flowers",
                "opening_hours": "09:00-21:00"
            },
            {
                "name": "Цветы",
                "shop": "florist"
            },
            {
                "name": "Лес",
                "shop": "florist"
            }
        ]
    },
    "confectionery": {
        "count": 2,
        "detail": [
            {
                "amenity": "cafe",
                "contact:instagram": "ptitsi.cafe",
                "name": "Птицы",
                "opening_hours": "Mo-Su 11:00-22:00",
                "operator": "Синитский Виталий Александрович",
                "payment:cash": "yes",
                "payment:maestro": "yes",
                "payment:mastercard": "yes",
                "payment:visa": "yes",
                "payment:visa_electron": "yes",
                "phone": "+7 900 6318781",
                "shop": "confectionery",
                "website": "https://ptitsicafe.ru/",
                "wheelchair": "no"
            },
            {
                "brand": "Фабрика имени Крупской",
                "brand:wikidata": "Q4480319",
                "name": "Магазин фабрики имени Крупской",
                "opening_hours": "Mo-Sa 10:00-20:00; Su 10:00-18:00",
                "operator": "ООО «Турнир»",
                "shop": "confectionery"
            }
        ]
    },
    "bus_stop": {
        "count": 8,
        "detail": [
            {
                "bench": "no",
                "bin": "yes",
                "bus": "yes",
                "highway": "bus_stop",
                "local_ref": "49;50;181",
                "name": "Переулок Бойцова",
                "public_transport": "platform",
                "shelter": "no"
            },
            {
                "bus": "yes",
                "highway": "bus_stop",
                "local_ref": "10;71",
                "name": "Красноградский переулок",
                "public_transport": "platform",
                "shelter": "no",
                "tactile_paving": "no"
            },
            {
                "bus": "yes",
                "highway": "bus_stop",
                "local_ref": "10;70",
                "name": "Красноградский переулок",
                "public_transport": "platform",
                "shelter": "no",
                "tactile_paving": "no"
            },
            {
                "bus": "yes",
                "highway": "bus_stop",
                "local_ref": "10",
                "name": "Садовая улица",
                "name:ru": "Садовая улица",
                "public_transport": "platform",
                "shelter": "no",
                "tactile_paving": "no"
            },
            {
                "bus": "yes",
                "name": "Переулок Бойцова",
                "public_transport": "stop_position"
            },
            {
                "bus": "yes",
                "name": "Красноградский переулок",
                "public_transport": "stop_position"
            },
            {
                "bus": "yes",
                "name": "Красноградский переулок",
                "public_transport": "stop_position"
            },
            {
                "bus": "yes",
                "name": "Садовая улица",
                "name:ru": "Садовая улица",
                "public_transport": "stop_position"
            }
        ]
    },
    "interior_decoration": {
        "count": 3,
        "detail": [
            {
                "name": "Икстайл",
                "shop": "interior_decoration",
                "website": "http://www.xtile.ru/contacts/voznesenskiy/"
            },
            {
                "name": "Interior Boutique",
                "reservation": "required",
                "shop": "interior_decoration",
                "website": "http://arkadastudio.ru/"
            },
            {
                "contact:vk": "https://vk.com/facturaspb",
                "name": "Factura",
                "opening_hours": "Mo-Fr 11:00-19:00; Sa 11:00-18:00",
                "shop": "interior_decoration",
                "website": "http://www.facturaspb.ru/"
            }
        ]
    },
    "hairdresser": {
        "count": 8,
        "detail": [
            {
                "name": "Colibri",
                "opening_hours": "10:00-20:00",
                "shop": "hairdresser"
            },
            {
                "contact:vk": "https://vk.com/chiochio_spb",
                "name": "Чио Чио",
                "opening_hours": "10:00-22:00",
                "shop": "hairdresser",
                "website": "http://chio-chio.ru/"
            },
            {
                "name": "Чёлка",
                "opening_hours": "10:00-21:00",
                "shop": "hairdresser"
            },
            {
                "opening_hours": "10:00-21:00",
                "shop": "hairdresser"
            },
            {
                "name": "Маркиза",
                "shop": "hairdresser"
            },
            {
                "contact:instagram": "https://www.instagram.com/bonsalon_spb/",
                "name": "Bon Salon",
                "opening_hours": "10:00-21:00",
                "shop": "hairdresser"
            },
            {
                "contact:vk": "https://vk.com/velardi1",
                "name": "Velardi",
                "opening_hours": "09:00-21:00",
                "shop": "hairdresser",
                "website": "http://velardi.ru/"
            },
            {
                "contact:vk": "https://vk.com/mernum",
                "name": "Mernum",
                "shop": "hairdresser"
            }
        ]
    },
    "antiques": {
        "count": 4,
        "detail": [
            {
                "name": "Старина",
                "shop": "antiques"
            },
            {
                "name": "Антиквариат",
                "opening_hours": "11:00-19:00",
                "shop": "antiques",
                "website": "http://skupka-expert.ru/"
            },
            {
                "name": "Старина",
                "opening_hours": "11:00-19:00",
                "shop": "antiques"
            },
            {
                "name": "Русский модерн",
                "opening_hours": "Tu-Sa 11:00-19:00",
                "shop": "antiques",
                "website": "http://modernru.com/"
            }
        ]
    },
    "car_repair": {
        "count": 1,
        "detail": [
            {
                "shop": "car_repair",
                "service": "tyres",
                "opening_hours": "Mo-Fr 10:00-21:00; Sa-Su 12:00-22:00"
            }
        ]
    },
    "stationery": {
        "count": 1,
        "detail": [
            {
                "contact:vk": "https://vk.com/grafit_spb",
                "name": "Графит",
                "opening_hours": "Mo-Fr 10:00-20:00; Sa-Su 11:00-19:00",
                "shop": "stationery",
                "website": "http://www.grafitspb.com/"
            }
        ]
    },
    "playground": {
        "count": 4,
        "detail": [
            {
                "leisure": "playground"
            },
            {
                "leisure": "playground"
            },
            {
                "leisure": "playground"
            },
            {
                "leisure": "playground"
            }
        ]
    },
    "dentist": {
        "count": 5,
        "detail": [
            {
                "amenity": "dentist",
                "contact:vk": "https://vk.com/zmclinic",
                "healthcare": "dentist",
                "name": "Клиника доктора Захарова",
                "opening_hours": "Mo-Sa 09:30-21:00",
                "website": "https://www.zm-clinic.com/"
            },
            {
                "amenity": "dentist",
                "contact:vk": "https://vk.com/intan",
                "healthcare": "dentist",
                "name": "Интан",
                "opening_hours": "Mo-Sa 09:00-22:00; Su 10:00-20:00",
                "website": "https://intan.ru/kontacty/voznesenskiy_25/"
            },
            {
                "amenity": "dentist",
                "contact:vk": "https://vk.com/orthosstom",
                "healthcare": "dentist",
                "name": "Центр функциональной ортодонтии и протезирования",
                "note": "вход под аркой",
                "website": "http://orthos.ru/"
            },
            {
                "amenity": "dentist",
                "healthcare": "dentist",
                "name": "Forum International Technology",
                "website": "http://clinicdent.ru/"
            },
            {
                "addr:housenumber": "34",
                "addr:letter": "Г",
                "addr:street": "Вознесенский проспект",
                "amenity": "dentist",
                "building": "yes",
                "building:levels": "4",
                "healthcare": "dentist",
                "name": "Городская детская стоматологическая поликлиника №6"
            }
        ]
    },
    "greengrocer": {
        "count": 1,
        "detail": [
            {
                "contact:vk": "https://vk.com/worldfruits",
                "name": "Мир фруктов",
                "shop": "greengrocer"
            }
        ]
    },
    "variety_store": {
        "count": 2,
        "detail": [
            {
                "name": "Петроторг",
                "note": "Разные промтовары",
                "opening_hours": "Mo-Fr 10:00-19:00; Sa-Su 11:00-19:00",
                "shop": "variety_store",
                "website": "http://www.петроторг-атк.рф/"
            },
            {
                "name": "Всё от 39 рублей",
                "shop": "variety_store"
            }
        ]
    },
    "ticket": {
        "count": 1,
        "detail": [
            {
                "contact:vk": "https://vk.com/bileter",
                "name": "Театральная касса",
                "opening_hours": "10:00-21:00; 15:00-16:00 off",
                "shop": "ticket",
                "tickets:theatre": "yes",
                "website": "https://www.bileter.ru/"
            }
        ]
    },
    "clothes": {
        "count": 9,
        "detail": [
            {
                "contact:vk": "https://vk.com/secondhandroom2",
                "name": "Room",
                "opening_hours": "11:00-20:00",
                "second_hand": "yes",
                "shop": "clothes"
            },
            {
                "contact:vk": "https://vk.com/lyyk_store",
                "level": "-1",
                "name": "Луук",
                "opening_hours": "11:00-23:00",
                "shop": "clothes",
                "website": "http://www.lyyk.ru/",
                "wheelchair": "no"
            },
            {
                "clothes": "workwear",
                "contact:vk": "https://vk.com/4doctors_spb",
                "name": "4Doctors",
                "opening_hours": "10:00-20:00",
                "shop": "clothes",
                "website": "https://4doctors.ru/where-to-buy/spb/m-sadovaya-spasskaya-sennaya-ploshchad-voznesenskiy-prospekt-21/"
            },
            {
                "name": "Трикотаж",
                "opening_hours": "Mo-Fr 11:00-20:00; Sa-Su 11:00-19:00",
                "shop": "clothes"
            },
            {
                "name": "Ареола",
                "note": "нет на https://www.areolarus.ru/",
                "opening_hours": "10:00-19:00",
                "shop": "clothes"
            },
            {
                "clothes": "underwear",
                "contact:vk": "https://vk.com/krilonyshop",
                "name": "Крилони",
                "shop": "clothes",
                "website": "https://www.krilony.ru/"
            },
            {
                "contact:vk": "https://vk.com/eleven_spb",
                "name": "Eleven",
                "shop": "clothes"
            },
            {
                "shop": "clothes"
            },
            {
                "craft": "tailor",
                "name": "Батист",
                "shop": "clothes"
            }
        ]
    },
    "pub": {
        "count": 1,
        "detail": [
            {
                "amenity": "pub",
                "contact:phone": "+7 921 5752234",
                "contact:vk": "https://vk.com/myfriendspub",
                "contact:website": "http://myfriendspub.ru",
                "name": "My friends"
            }
        ]
    },
    "recycling": {
        "count": 1,
        "detail": [
            {
                "amenity": "recycling",
                "fixme": "уточнить положение",
                "name": "Экобокс",
                "recycling:batteries": "yes",
                "recycling:fluorescent_tubes": "yes",
                "recycling:hazardous_waste": "yes",
                "recycling:hydrargyrum": "yes",
                "recycling:low_energy_bulbs": "yes",
                "recycling_type": "container"
            }
        ]
    },
    "gift": {
        "count": 4,
        "detail": [
            {
                "contact:vk": "https://vk.com/merci.gift",
                "name": "Мерси",
                "opening_hours": "12:00-19:00",
                "shop": "gift",
                "website": "http://www.merci.gift/"
            },
            {
                "name": "Подарки",
                "note": "также http://batist-spb.ru/",
                "opening_hours": "Mo-Fr 11:00-20:00; Sa-Su 11:00-18:00",
                "shop": "gift",
                "website": "http://nevapodarki.ru/"
            },
            {
                "level": "-1",
                "name": "Кладенец",
                "shop": "gift"
            },
            {
                "shop": "gift"
            }
        ]
    },
    "alcohol": {
        "count": 3,
        "detail": [
            {
                "amenity": "bar",
                "name": "РосАл",
                "opening_hours": "24/7",
                "shop": "alcohol",
                "website": "http://www.rosal24.ru/"
            },
            {
                "name": "Живое пиво",
                "shop": "alcohol"
            },
            {
                "name": "Мир виски",
                "shop": "alcohol",
                "website": "https://whiskyworld.ru/saint-petersburg",
                "operator": "ООО \"Академия Виски\"",
                "opening_hours": "11:00-22:00"
            }
        ]
    },
    "training": {
        "count": 3,
        "detail": [
            {
                "amenity": "training",
                "contact:vk": "https://vk.com/ecolespb",
                "description": "Санкт-Петербургская Школа Красоты - это новый образовательный проект по обучению специалистов индустрии красоты и моды. Школа представляет 6 факультетов различных направлений. Занятия на 80% состоят из серьёзной практической подготовки.",
                "name": "Санкт-Петербургская школа красоты",
                "opening_hours": "10:00-22:00",
                "phone": "+7 812 6480083",
                "website": "https://ecolespb.ru/"
            },
            {
                "name": "ИнтЭгра",
                "amenity": "training",
                "website": "http://integraclub.com/",
                "contact:vk": "https://vk.com/integrapsy"
            },
            {
                "amenity": "training",
                "contact:vk": "https://vk.com/spbmrc",
                "name": "Санкт-Петербургский межрегиональный ресурсный центр",
                "website": "https://spbmrc.ru/"
            }
        ]
    },
    "farm": {
        "count": 1,
        "detail": [
            {
                "name": "ecofamily",
                "shop": "farm",
                "phone": "+7 812 9603267",
                "organic": "only",
                "website": "http://www.ecofamily.ru/",
                "operator": "Рудакова Ж.А.",
                "contact:vk": "https://vk.com/ecoem",
                "payment:visa": "yes",
                "opening_hours": "10:00-21:00",
                "payment:maestro": "yes",
                "payment:mastercard": "yes",
                "payment:visa_electron": "yes"
            }
        ]
    },
    "optician": {
        "count": 1,
        "detail": [
            {
                "name": "Оптика стиль",
                "opening_hours": "Mo-Fr 10:00-21:00; Sa-Su 11:00-20:00",
                "operator": "ИП \"Потоялло И.А.\"",
                "phone": "+7 812 3149456",
                "shop": "optician",
                "website": "http://opticstyle.spb.ru/"
            }
        ]
    },
    "post_box": {
        "count": 2,
        "detail": [
            {
                "amenity": "post_box",
                "collection_times": "Mo-Fr 07:10,18:25; Sa 09:30; Su 18:25",
                "design:year": "2010",
                "drive_through": "no",
                "operator": "Почта России",
                "post_box:design": "ЯПНМ-II-С",
                "post_box:type": "wall",
                "ref": "20"
            },
            {
                "amenity": "post_box",
                "collection_times": "Mo-Su 00:50",
                "design:year": "2010",
                "drive_through": "no",
                "operator": "Почта России",
                "post_box:design": "ЯПНМ-II-С",
                "post_box:type": "wall",
                "ref": "156"
            }
        ]
    },
    "outdoor": {
        "count": 1,
        "detail": [
            {
                "name": "Камуфляж",
                "opening_hours": "Mo-Fr 11:00-20:00; Sa 11:00-19:00; Su 11:00-18:00",
                "payment:credit_cards": "yes",
                "payment:debit_cards": "yes",
                "phone": "+7 812 5718644",
                "shop": "outdoor",
                "website": "http://camouflage78.ru/",
                "wheelchair": "no"
            }
        ]
    },
    "party": {
        "count": 1,
        "detail": [
            {
                "contact:vk": "https://vk.com/aeroburo_ru",
                "name": "Аэробюро",
                "shop": "party",
                "website": "https://www.aeroburo.ru/"
            }
        ]
    },
    "copyshop": {
        "count": 2,
        "detail": [
            {
                "name": "Вита Принт",
                "shop": "copyshop",
                "website": "http://www.vitaprint.spb.ru/",
                "opening_hours": "Mo-Fr 10:00-18:00"
            },
            {
                "shop": "copyshop"
            }
        ]
    },
    "kindergarten": {
        "count": 3,
        "detail": [
            {
                "amenity": "kindergarten",
                "contact:email": "dou38@adm-edu.spb.ru",
                "contact:phone": "+7 812 3125633",
                "contact:website": "https://ds38spb.nubex.ru",
                "name": "Детский сад № 38",
                "official_name": "Государственное бюджетное дошкольное образовательное учреждение Детский сад № 38 Адмиралтейского района Санкт-Петербурга",
                "ref": "38"
            },
            {
                "amenity": "kindergarten",
                "contact:email": "gbdou-12ar@yandex.ru",
                "contact:phone": "+7 812 3125273",
                "contact:vk": "https://vk.com/club65760625",
                "contact:website": "https://gbdou12arspb.ru",
                "name": "Детский сад № 12",
                "official_name": "Государственное бюджетное дошкольное образовательное учреждение детский сад № 12 Адмиралтейского района Санкт-Петербурга",
                "ref": "12"
            },
            {
                "addr:housenumber": "34",
                "addr:letter": "Б",
                "addr:street": "Вознесенский проспект",
                "building": "kindergarten",
                "building:levels": "2"
            }
        ]
    },
    "houseware": {
        "count": 1,
        "detail": [
            {
                "shop": "houseware"
            }
        ]
    },
    "car_parts": {
        "count": 1,
        "detail": [
            {
                "name": "Поиск",
                "opening_hours": "Mo-Fr 09:00-21:00; Sa 09:00-20:00; Su 10:00-20:00",
                "operator": "ЧП Иоффе",
                "shop": "car_parts"
            }
        ]
    },
    "cosmetics": {
        "count": 1,
        "detail": [
            {
                "contact:vk": "https://vk.com/dubaishop78",
                "name": "Dubaishop",
                "opening_hours": "11:00-20:00",
                "shop": "cosmetics",
                "website": "https://dubaishop78.ru/"
            }
        ]
    },
    "veterinary": {
        "count": 2,
        "detail": [
            {
                "amenity": "veterinary",
                "brand": "Royal Canin",
                "opening_hours": "Mo-Fr 10:00-21:00; Sa-Su,PH 10:00-20:00",
                "phone": "+7 812 5719204"
            },
            {
                "amenity": "veterinary",
                "name": "Ветеринарная станция Адмиралтейского района",
                "opening_hours": "09:00-21:00; 13:00-14:00 off",
                "website": "http://www.spbvet.ru/structure/station/gruppy-rayonov/moskovsky/ul-bolshaya-podyacheskaya-d-5-"
            }
        ]
    },
    "lighting": {
        "count": 1,
        "detail": [
            {
                "contact:vk": "https://vk.com/diodus_ru",
                "name": "Диодус",
                "opening_hours": "Mo-Fr 11:00-19:00; Sa 11:00-17:00",
                "shop": "lighting",
                "website": "https://diodus.ru/"
            }
        ]
    },
    "escape_game": {
        "count": 1,
        "detail": [
            {
                "contact:vk": "https://vk.com/doorbusters",
                "leisure": "escape_game",
                "name": "DoorBusters",
                "website": "http://doorbusters.ru/"
            }
        ]
    },
    "musical_instrument": {
        "count": 1,
        "detail": [
            {
                "name": "Love-Piano",
                "shop": "musical_instrument",
                "website": "https://love-piano.ru/",
                "contact:vk": "https://vk.com/lovepiano",
                "opening_hours": "09:30-21:00"
            }
        ]
    },
    "doctors": {
        "count": 4,
        "detail": [
            {
                "amenity": "doctors",
                "contact:vk": "https://vk.com/public105455698",
                "healthcare": "doctor",
                "health_specialty:dermatology": "yes",
                "health_specialty:gynaecology": "yes",
                "name": "Клиника Игнатовского",
                "opening_hours": "Mo-Fr 09:00-20:00; Sa 10:00-18:00",
                "operator": "ООО «Клиника Дерматологии и Репродуктивного здоровья доктора Игнатовского»",
                "website": "http://dermklinik.ru/"
            },
            {
                "amenity": "doctors",
                "healthcare": "doctor",
                "name": "МедПрофЭксперт",
                "opening_hours": "Mo-Fr 10:00-20:00; Sa 11:00-16:00",
                "website": "https://medprofexpert.ru/"
            },
            {
                "amenity": "doctors",
                "healthcare": "doctor",
                "name": "Травматологический пункт"
            },
            {
                "addr:housenumber": "54",
                "addr:street": "Казанская улица",
                "amenity": "doctors",
                "building": "yes",
                "building:levels": "4",
                "healthcare": "doctor",
                "name": "Поликлиника №81 «Максимилиановская»",
                "opening_hours": "Mo-Fr 08:00-20:00; Sa 09:00-15:00",
                "website": "http://maxi-med.spb.ru/"
            }
        ]
    },
    "travel_agency": {
        "count": 4,
        "detail": [
            {
                "name": "Союз",
                "opening_hours": "Mo-Fr 10:00-18:00",
                "shop": "travel_agency",
                "website": "http://www.souz.travel/"
            },
            {
                "name": "Ника",
                "shop": "travel_agency",
                "website": "http://www.nikatours.ru/"
            },
            {
                "contact:vk": "https://vk.com/kottedzhi_finlandia",
                "int_name": "Ecotour",
                "name": "Экотур",
                "shop": "travel_agency",
                "website": "http://www.ecotour-spb.ru/"
            },
            {
                "name": "Фиеста Гранд Тур",
                "note": "вход за воротами арки",
                "shop": "travel_agency",
                "website": "http://fiestagt.ru/",
                "contact:vk": "https://vk.com/fiestagtt",
                "opening_hours": "Mo-Fr 11:00-19:00"
            }
        ]
    },
    "second_hand": {
        "count": 1,
        "detail": [
            {
                "shop": "second_hand"
            }
        ]
    },
    "payment_centre": {
        "count": 1,
        "detail": [
            {
                "amenity": "payment_centre",
                "brand": "Петроэлектросбыт",
                "contact:facebook": "petroelektrosbyt",
                "contact:twitter": "zao_pes",
                "contact:vk": "petroelektrosbyt",
                "office": "energy_supplier",
                "opening_hours": "Mo-Sa 08:45-19:45; Su off",
                "operator": "АО «Петроэлектросбыт»",
                "phone": "+7 812 6792222",
                "website": "https://www.pes.spb.ru/"
            }
        ]
    },
    "medical_supply": {
        "count": 1,
        "detail": [
            {
                "name": "InvaMarket",
                "shop": "medical_supply",
                "website": "http://www.invamarket.ru/",
                "opening_hours": "Mo-Fr 10:00-20:00; Sa 11:00-18:00"
            }
        ]
    },
    "chemist": {
        "count": 1,
        "detail": [
            {
                "contact:vk": "https://vk.com/borodist",
                "name": "Borodist",
                "opening_hours": "Mo-Fr 12:00-20:00",
                "shop": "chemist",
                "website": "https://borodist.com/"
            }
        ]
    },
    "butcher": {
        "count": 1,
        "detail": [
            {
                "name": "Восход",
                "opening_hours": "10:00-21:00",
                "shop": "butcher"
            }
        ]
    },
    "police": {
        "count": 1,
        "detail": [
            {
                "amenity": "police",
                "name": "Управление уголовного розыска"
            }
        ]
    },
    "place_of_worship": {
        "count": 1,
        "detail": [
            {
                "amenity": "place_of_worship",
                "denomination": "baptist",
                "name": "Краеугольный камень",
                "note": "http://baptist.org.ru/churches/church/people_organization/142055",
                "religion": "christian"
            }
        ]
    },
    "shoes": {
        "count": 1,
        "detail": [
            {
                "contact:vk": "https://vk.com/hochu_kedi",
                "name": "ХочуКеды.РФ",
                "opening_hours": "12:00-20:00",
                "shop": "shoes",
                "website": "http://хочукеды.рф/"
            }
        ]
    },
    "coworking_space": {
        "count": 1,
        "detail": [
            {
                "amenity": "coworking_space",
                "contact:vk": "https://vk.com/praktik.work",
                "name": "Практик",
                "website": "https://praktik.work/workspace-griboedova-99"
            }
        ]
    },
    "jewelry": {
        "count": 1,
        "detail": [
            {
                "contact:vk": "https://vk.com/darkrain.store",
                "name": "Darkrain",
                "shop": "jewelry",
                "website": "https://darkrain.store/"
            }
        ]
    },
    "events_venue": {
        "count": 1,
        "detail": [
            {
                "name": "Room-101",
                "amenity": "events_venue",
                "contact:vk": "https://vk.com/art_room101"
            }
        ]
    },
    "bicycle_parking": {
        "count": 1,
        "detail": [
            {
                "amenity": "bicycle_parking",
                "bicycle_parking": "wall_loops",
                "capacity": "5",
                "covered": "no"
            }
        ]
    },
    "toys": {
        "count": 1,
        "detail": [
            {
                "name": "Ромашка",
                "opening_hours": "Mo-Fr 10:00-20:00; Sa-Su 11:00-19:00",
                "operator": "ИП Воронцов А.С.",
                "shop": "toys"
            }
        ]
    },
    "sports": {
        "count": 1,
        "detail": [
            {
                "name": "Sky Run",
                "opening_hours": "Mo-Su 10:00-19:00",
                "phone": "+7 812 4099591",
                "shop": "sports",
                "website": "https://sky-run.ru"
            }
        ]
    },
    "atm": {
        "count": 3,
        "detail": [
            {
                "amenity": "atm",
                "contact:email": "info@psbank.ru",
                "contact:phone": "+7 495 7873333;+7 800 3330303",
                "contact:website": "https://psbank.ru/",
                "opening_hours": "Mo-Fr 10:00-19:00",
                "operator": "Промсвязьбанк"
            },
            {
                "amenity": "atm",
                "contact:email": "info@psbank.ru",
                "contact:phone": "+7 495 7873333;+7 800 3330303",
                "contact:website": "https://psbank.ru/",
                "opening_hours": "Mo-Fr 10:00-19:00",
                "operator": "Промсвязьбанк"
            },
            {
                "amenity": "atm",
                "brand": "Сбербанк",
                "cash_in": "yes",
                "opening_hours": "24/7",
                "wheelchair": "no"
            }
        ]
    },
    "social_facility": {
        "count": 1,
        "detail": [
            {
                "addr:housenumber": "98",
                "addr:street": "набережная канала Грибоедова",
                "amenity": "social_facility",
                "building": "yes",
                "building:levels": "3",
                "name": "Дом ребёнка №13"
            }
        ]
    },
    "university": {
        "count": 1,
        "detail": [
            {
                "addr:housenumber": "1",
                "addr:postcode": "190068",
                "addr:street": "Средняя Подьяческая улица",
                "amenity": "university",
                "building": "yes",
                "building:levels": "2",
                "name": "Гуманитарный центр института внешнеэкономических связей, экономики и права"
            }
        ]
    },
    "service": {
        "count": 12,
        "detail": [
            {
                "power": "substation",
                "building": "service",
                "addr:letter": "Я",
                "addr:street": "набережная канала Грибоедова",
                "source:addr": "rgis",
                "building:levels": "1",
                "addr:housenumber": "87"
            },
            {
                "power": "substation",
                "building": "service",
                "building:levels": "1"
            },
            {
                "power": "substation",
                "building": "service",
                "building:levels": "1"
            },
            {
                "power": "substation",
                "building": "service",
                "substation": "minor_distribution",
                "building:levels": "1"
            },
            {
                "power": "substation",
                "building": "service",
                "building:levels": "1"
            },
            {
                "power": "substation",
                "building": "service",
                "building:levels": "1"
            },
            {
                "power": "substation",
                "building": "service",
                "addr:letter": "Я",
                "addr:street": "Вознесенский проспект",
                "building:levels": "1",
                "addr:housenumber": "34"
            },
            {
                "power": "substation",
                "building": "service",
                "building:levels": "1"
            },
            {
                "power": "substation",
                "building": "service"
            },
            {
                "power": "substation",
                "building": "service",
                "building:levels": "1"
            },
            {
                "power": "substation",
                "building": "service",
                "building:levels": "1"
            },
            {
                "power": "substation",
                "building": "service",
                "building:levels": "1"
            }
        ]
    }
}