{
    "convenience": {
        "count": 8,
        "detail": [
            {
                "drink:coffee": "served",
                "name": "Продукты",
                "opening_hours": "24/7",
                "shop": "convenience",
                "wheelchair": "no"
            },
            {
                "name": "Гастрономчик",
                "opening_hours": "08:00-23:00",
                "shop": "convenience"
            },
            {
                "name": "Продукты",
                "shop": "convenience",
                "opening_hours": "24/7"
            },
            {
                "drink:coffee": "served",
                "name": "Гастроном",
                "opening_hours": "24/7",
                "payment:credit_cards": "yes",
                "payment:debit_cards": "yes",
                "shop": "convenience",
                "wheelchair": "limited"
            },
            {
                "name": "Продукты",
                "opening_hours": "24/7",
                "shop": "convenience"
            },
            {
                "drink:coffee": "served",
                "name": "Продукты",
                "opening_hours": "08:00-23:00",
                "operator": "ИП Соломина Елена Юрьевна",
                "shop": "convenience",
                "wheelchair": "no"
            },
            {
                "contact:vk": "https://vk.com/produkty.ermolino",
                "name": "Ермолино",
                "shop": "convenience",
                "website": "https://www.ermolino-produkty.ru/"
            },
            {
                "name": "Продукты",
                "shop": "convenience"
            }
        ]
    },
    "supermarket": {
        "count": 2,
        "detail": [
            {
                "name": "РеалЪ",
                "shop": "supermarket",
                "website": "http://www.tdreal.spb.ru/?page=54",
                "contact:vk": "https://vk.com/real_svezhie_produkty",
                "opening_hours": "09:00-23:00"
            },
            {
                "brand": "Пятёрочка",
                "brand:wikidata": "Q1768969",
                "contact:vk": "https://vk.com/pyaterochka_shop",
                "name": "Пятёрочка",
                "note": "нет на сайте",
                "opening_hours": "09:00-23:00",
                "operator": "ООО «Агроторг»",
                "shop": "supermarket",
                "website": "https://5ka.ru/"
            }
        ]
    },
    "residents": 8739,
    "bus_stop": {
        "count": 8,
        "detail": [
            {
                "bench": "yes",
                "bin": "yes",
                "bus": "yes",
                "highway": "bus_stop",
                "local_ref": "49;181",
                "name": "Площадь Тургенева",
                "passenger_information_display": "yes",
                "public_transport": "platform",
                "shelter": "yes"
            },
            {
                "bus": "yes",
                "highway": "bus_stop",
                "local_ref": "49;181",
                "name": "Набережная реки Фонтанки",
                "public_transport": "platform"
            },
            {
                "bench": "yes",
                "bin": "yes",
                "bus": "yes",
                "highway": "bus_stop",
                "local_ref": "49",
                "name": "Садовая улица",
                "name:ru": "Садовая улица",
                "public_transport": "platform",
                "shelter": "yes"
            },
            {
                "bench": "yes",
                "bus": "yes",
                "highway": "bus_stop",
                "local_ref": "49;181",
                "name": "Площадь Тургенева",
                "public_transport": "platform",
                "shelter": "yes"
            },
            {
                "bus": "yes",
                "name": "Садовая улица",
                "name:ru": "Садовая улица",
                "public_transport": "stop_position"
            },
            {
                "bus": "yes",
                "name": "Набережная реки Фонтанки",
                "public_transport": "stop_position"
            },
            {
                "bus": "yes",
                "name": "Площадь Тургенева",
                "public_transport": "stop_position"
            },
            {
                "bus": "yes",
                "name": "Площадь Тургенева",
                "public_transport": "stop_position"
            }
        ]
    },
    "playground": {
        "count": 5,
        "detail": [
            {
                "leisure": "playground"
            },
            {
                "leisure": "playground"
            },
            {
                "leisure": "playground"
            },
            {
                "leisure": "playground"
            },
            {
                "leisure": "playground"
            }
        ]
    },
    "alcohol": {
        "count": 3,
        "detail": [
            {
                "contact:vk": "https://vk.com/ts_norman",
                "name": "Норман",
                "opening_hours": "11:00-22:00",
                "operator": "ООО «Норман СПб»",
                "shop": "alcohol",
                "website": "http://norman-spb.ru/"
            },
            {
                "brand": "Красное & Белое",
                "brand:en": "Red & White",
                "brand:wikidata": "Q24933790",
                "brand:wikipedia": "en:Krasnoe & Beloe",
                "contact:vk": "https://vk.com/krasnoebeloe",
                "name": "Красное & Белое",
                "name:en": "Red & White",
                "note": "нет на сайте",
                "opening_hours": "09:00-22:05",
                "operator": "ООО «Альфа-М»",
                "payment:credit_cards": "yes",
                "payment:debit_cards": "yes",
                "shop": "alcohol",
                "website": "https://krasnoeibeloe.ru/",
                "wheelchair": "no"
            },
            {
                "name": "РосАл24",
                "shop": "alcohol"
            }
        ]
    },
    "waste_disposal": {
        "count": 9,
        "detail": [
            {
                "amenity": "waste_disposal"
            },
            {
                "amenity": "waste_disposal"
            },
            {
                "amenity": "waste_disposal"
            },
            {
                "amenity": "waste_disposal"
            },
            {
                "amenity": "waste_disposal"
            },
            {
                "amenity": "waste_disposal"
            },
            {
                "amenity": "waste_disposal"
            },
            {
                "amenity": "waste_disposal"
            },
            {
                "amenity": "waste_disposal"
            }
        ]
    },
    "bakery": {
        "count": 2,
        "detail": [
            {
                "name": "Дукани",
                "payment:credit_cards": "yes",
                "payment:debit_cards": "yes",
                "shop": "bakery",
                "wheelchair": "no"
            },
            {
                "contact:vk": "https://vk.com/lavka_pekarya",
                "drink:coffee": "served",
                "drink:tea": "served",
                "level": "-1",
                "name": "Лавка Пекаря",
                "opening_hours": "08:00-21:00",
                "operator": "АО «Паляница»",
                "payment:credit_cards": "yes",
                "payment:debit_cards": "yes",
                "shop": "bakery",
                "website": "http://www.lavkapekarya.ru/",
                "wheelchair": "no"
            }
        ]
    },
    "doctors": {
        "count": 2,
        "detail": [
            {
                "amenity": "doctors",
                "healthcare": "doctor",
                "name": "МедЭкспресс+",
                "opening_hours": "09:00-21:00",
                "website": "http://www.medexpress-med.ru/"
            },
            {
                "addr:housenumber": "3",
                "addr:street": "улица Циолковского",
                "amenity": "doctors",
                "building": "yes",
                "building:levels": "7",
                "full_name": "Клиника высоких медицинских технологий им. Н. И. Пирогова (поликлиника, стационар) Санкт-Петербургского государственного университета",
                "healthcare": "doctor",
                "healthcare:speciality": "surgery;proctology;gynaecology;nephrology",
                "name": "Клиника высоких медицинских технологий им. Н. И. Пирогова",
                "website": "http://www.gosmed.ru/"
            }
        ]
    },
    "restaurant": {
        "count": 1,
        "detail": [
            {
                "amenity": "restaurant",
                "contact:vk": "https://vk.com/club5674994",
                "diet:vegetarian": "no",
                "name": "Два Му",
                "opening_hours": "Mo-Su,PH 10:00-23:00",
                "website": "https://dvamu.ru/",
                "wheelchair": "no"
            }
        ]
    },
    "chemist": {
        "count": 2,
        "detail": [
            {
                "brand": "Watsons",
                "brand:wikidata": "Q7974785",
                "brand:wikipedia": "en:Watsons",
                "contact:vk": "https://vk.com/watsonsrussia",
                "name": "Watsons",
                "opening_hours": "09:00-22:00",
                "shop": "chemist",
                "website": "https://www.watsons.com.ru/",
                "wheelchair": "limited"
            },
            {
                "name": "Дезинфектор",
                "opening_hours": "Mo-Fr 11:00-19:00",
                "shop": "chemist",
                "website": "http://www.klop2.ru/"
            }
        ]
    },
    "cafe": {
        "count": 4,
        "detail": [
            {
                "amenity": "cafe",
                "contact:vk": "https://vk.com/gustigiusti",
                "cuisine": "italian; sicilian",
                "diet:vegetarian": "yes",
                "email": "gustigiusti.russia@gmail.com",
                "level": "-1",
                "name": "Gusti Giusti",
                "payment:credit_cards": "yes",
                "payment:debit_cards": "yes",
                "phone": "+7 981 9436995",
                "takeaway": "yes",
                "website": "http://www.gustigiusti.ru/",
                "wheelchair": "no"
            },
            {
                "amenity": "cafe",
                "name": "Relax"
            },
            {
                "amenity": "cafe",
                "cuisine": "russian",
                "delivery": "yes",
                "description": "Чебуречная",
                "name": "Ржавая подкова",
                "opening_hours": "10:00-23:00",
                "takeaway": "yes"
            },
            {
                "amenity": "cafe",
                "cuisine": "grill",
                "internet_access": "wlan",
                "name": "Дым",
                "opening_hours": "Mo-Fr 11:00-22:00; Sa, Su 12:00-22:00"
            }
        ]
    },
    "pastry": {
        "count": 1,
        "detail": [
            {
                "amenity": "cafe",
                "internet_access": "wlan",
                "level": "0",
                "note": "бывший Север-Метрополь",
                "opening_hours": "09:00-22:00",
                "operator": "ИП Долгобородов Вадим Германович",
                "shop": "pastry",
                "takeaway": "yes",
                "wheelchair": "limited"
            }
        ]
    },
    "houseware": {
        "count": 1,
        "detail": [
            {
                "level": "0",
                "name": "Всё для дома",
                "opening_hours": "Mo-Fr 11:00-20:00; Sa-Su 11:00-19:00",
                "payment:credit_cards": "yes",
                "payment:debit_cards": "yes",
                "shop": "houseware",
                "wheelchair": "no"
            }
        ]
    },
    "stationery": {
        "count": 1,
        "detail": [
            {
                "name": "Акварель",
                "shop": "stationery",
                "wheelchair": "no"
            }
        ]
    },
    "general": {
        "count": 1,
        "detail": [
            {
                "shop": "general",
                "level": "-1",
                "origin": "finnish",
                "opening_hours": "Mo-Fr 10:00-20:00; Sa-Su 11:00-19:00"
            }
        ]
    },
    "butcher": {
        "count": 1,
        "detail": [
            {
                "name": "Фермерское хозяйство",
                "note": "в основном мясные продукты, присутствуют отделы с мочными продуктами и овощами",
                "opening_hours": "10:00-21:00",
                "shop": "butcher",
                "wheelchair": "no"
            }
        ]
    },
    "fast_food": {
        "count": 1,
        "detail": [
            {
                "amenity": "fast_food",
                "cuisine": "doner",
                "drink:beer": "yes",
                "opening_hours": "24/7",
                "takeaway": "yes",
                "toilets": "yes",
                "toilets:wheelchair": "no",
                "wheelchair": "limited"
            }
        ]
    },
    "hairdresser": {
        "count": 2,
        "detail": [
            {
                "name": "Шанель",
                "operator": "ИП Сухова Н.Ю.",
                "shop": "hairdresser",
                "wheelchair": "no"
            },
            {
                "contact:vk": "https://vk.com/spb.sergio",
                "internet_access": "wlan",
                "name": "Sergio",
                "opening_hours": "10:00-21:00",
                "operator": "ЧП \"Бубович С.Э.\"",
                "phone": "+7 812 7142775",
                "shop": "hairdresser",
                "wheelchair": "no"
            }
        ]
    },
    "theatre": {
        "count": 1,
        "detail": [
            {
                "name": "Рок-опера",
                "amenity": "theatre",
                "website": "http://rock-opera.ru/"
            }
        ]
    },
    "bench": {
        "count": 21,
        "detail": [
            {
                "amenity": "bench"
            },
            {
                "amenity": "bench"
            },
            {
                "amenity": "bench",
                "backrest": "yes"
            },
            {
                "amenity": "bench",
                "backrest": "yes"
            },
            {
                "amenity": "bench",
                "backrest": "yes"
            },
            {
                "amenity": "bench",
                "backrest": "yes"
            },
            {
                "amenity": "bench",
                "backrest": "yes"
            },
            {
                "amenity": "bench",
                "backrest": "yes"
            },
            {
                "amenity": "bench",
                "backrest": "yes"
            },
            {
                "amenity": "bench",
                "backrest": "yes"
            },
            {
                "amenity": "bench",
                "backrest": "yes"
            },
            {
                "amenity": "bench",
                "backrest": "yes"
            },
            {
                "amenity": "bench",
                "backrest": "yes"
            },
            {
                "amenity": "bench",
                "backrest": "yes"
            },
            {
                "amenity": "bench",
                "backrest": "yes"
            },
            {
                "amenity": "bench",
                "backrest": "yes"
            },
            {
                "amenity": "bench",
                "backrest": "yes"
            },
            {
                "amenity": "bench",
                "backrest": "yes"
            },
            {
                "amenity": "bench",
                "backrest": "yes"
            },
            {
                "amenity": "bench",
                "backrest": "yes"
            },
            {
                "amenity": "bench",
                "backrest": "yes"
            }
        ]
    },
    "beauty": {
        "count": 2,
        "detail": [
            {
                "name": "Aphrodite",
                "shop": "beauty"
            },
            {
                "name": "Gastronom",
                "opening_hours": "10:00-22:00",
                "shop": "beauty",
                "website": "https://gastronomnail.ru/"
            }
        ]
    },
    "post_box": {
        "count": 2,
        "detail": [
            {
                "ref": "159",
                "amenity": "post_box",
                "operator": "Почта России",
                "design:year": "2010",
                "drive_through": "no",
                "post_box:type": "wall",
                "post_box:design": "ЯПНМ-II-С",
                "collection_times": "Mo-Fr 00:10,16:45; Sa 08:55; Su 16:45"
            },
            {
                "ref": "235",
                "indoor": "yes",
                "amenity": "post_box",
                "operator": "Почта России",
                "drive_through": "no",
                "opening_hours": "Mo-Fr 08:00-20:00; Sa 09:00-13:00,14:00-18:00; Su off",
                "post_box:type": "pillar",
                "post_box:design": "grey_pillar",
                "collection_times": "Mo-Sa 09:25"
            }
        ]
    },
    "greengrocer": {
        "count": 1,
        "detail": [
            {
                "building": "kiosk",
                "noname": "yes",
                "payment:cash": "yes",
                "payment:credit_cards": "no",
                "payment:debit_cards": "no",
                "shop": "greengrocer",
                "wheelchair": "yes"
            }
        ]
    },
    "tobacco": {
        "count": 1,
        "detail": [
            {
                "level": "-1",
                "shop": "tobacco"
            }
        ]
    },
    "pharmacy": {
        "count": 3,
        "detail": [
            {
                "amenity": "pharmacy",
                "healthcare": "pharmacy",
                "level": "-1",
                "name": "НеоБазис",
                "opening_hours": "09:00-21:00",
                "operator": "ООО «НеоБазис»",
                "website": "http://neobasis-spb.ru/",
                "wheelchair": "no"
            },
            {
                "name": "Радуга",
                "amenity": "pharmacy",
                "opening_hours": "Mo-Fr 09:00-17:30"
            },
            {
                "amenity": "pharmacy",
                "healthcare": "pharmacy",
                "name": "Невис",
                "opening_hours": "Mo-Su 09:00-21:00",
                "phone": "+7 812 7034530",
                "wheelchair": "no"
            }
        ]
    },
    "social_facility": {
        "count": 1,
        "detail": [
            {
                "name": "Комплексный центр социального обслуживания населения Адмиралтейского района",
                "amenity": "social_facility",
                "website": "http://kcson.admiral.gov.spb.ru/",
                "social_facility": "outreach"
            }
        ]
    },
    "antiques": {
        "count": 1,
        "detail": [
            {
                "name": "Меч и шлем",
                "shop": "antiques",
                "website": "http://www.swordandhelmet.ru/"
            }
        ]
    },
    "training": {
        "count": 2,
        "detail": [
            {
                "name": "Счастье Здесь!",
                "amenity": "training",
                "website": "http://kursykonditera.ru/",
                "contact:vk": "https://vk.com/kursykonditera",
                "description": "Школа кондитерского искусства"
            },
            {
                "amenity": "training",
                "contact:vk": "https://vk.com/laschastie",
                "name": "La Счастье",
                "note": "вход со двора?"
            }
        ]
    },
    "bicycle_parking": {
        "count": 2,
        "detail": [
            {
                "amenity": "bicycle_parking",
                "bicycle_parking": "rack",
                "capacity": "5",
                "covered": "no"
            },
            {
                "amenity": "bicycle_parking",
                "bicycle_parking": "stands",
                "capacity": "5",
                "covered": "no",
                "operator": "Лавка пекаря"
            }
        ]
    },
    "tiles": {
        "count": 1,
        "detail": [
            {
                "name": "Barberini",
                "opening_hours": "Mo-Fr 11:00-20:00; Sa 12:00-18:00",
                "operator": "ООО «СтройСантехКерамика»",
                "shop": "tiles",
                "website": "http://barberini-spb.ru/"
            }
        ]
    },
    "newsagent": {
        "count": 1,
        "detail": [
            {
                "building": "kiosk",
                "name": "Пресса",
                "shop": "newsagent"
            }
        ]
    },
    "waste_basket": {
        "count": 15,
        "detail": [
            {
                "amenity": "waste_basket"
            },
            {
                "amenity": "waste_basket"
            },
            {
                "amenity": "waste_basket"
            },
            {
                "amenity": "waste_basket"
            },
            {
                "amenity": "waste_basket"
            },
            {
                "amenity": "waste_basket"
            },
            {
                "amenity": "waste_basket"
            },
            {
                "amenity": "waste_basket"
            },
            {
                "amenity": "waste_basket"
            },
            {
                "amenity": "waste_basket"
            },
            {
                "amenity": "waste_basket"
            },
            {
                "amenity": "waste_basket"
            },
            {
                "amenity": "waste_basket"
            },
            {
                "amenity": "waste_basket"
            },
            {
                "amenity": "waste_basket"
            }
        ]
    },
    "clothes": {
        "count": 1,
        "detail": [
            {
                "shop": "clothes",
                "level": "-1",
                "second_hand": "yes"
            }
        ]
    },
    "recycling": {
        "count": 1,
        "detail": [
            {
                "amenity": "recycling",
                "name": "Экобокс",
                "recycling:batteries": "yes",
                "recycling:low_energy_bulbs": "yes",
                "recycling_type": "container"
            }
        ]
    },
    "clock": {
        "count": 1,
        "detail": [
            {
                "amenity": "clock",
                "date": "no",
                "display": "analog",
                "faces": "2",
                "support": "wall_mounted"
            }
        ]
    },
    "atm": {
        "count": 2,
        "detail": [
            {
                "amenity": "atm",
                "contact:email": "info@psbank.ru",
                "contact:phone": "+7 495 7873333;+7 800 3330303",
                "contact:website": "https://psbank.ru/",
                "opening_hours": "Mo-Su 09:00-20:00",
                "operator": "Промсвязьбанк"
            },
            {
                "amenity": "atm",
                "brand": "ВТБ",
                "note": "по времени работы клиники",
                "operator": "ПАО \"ВТБ\""
            }
        ]
    },
    "kindergarten": {
        "count": 2,
        "detail": [
            {
                "amenity": "kindergarten",
                "contact:email": "dou1.adm@obr.gov.spb.ru",
                "contact:phone": "+7 812 7146965;+7 812 7145131;+7 812 7145422",
                "contact:website": "http://dou1adm.petersburgedu.ru",
                "description": "Ясли",
                "name": "Детский сад № 1",
                "official_name": "Государственное бюджетное дошкольное образовательное учреждение детский сад № 1 Адмиралтейского района Санкт-Петербурга",
                "ref": "1"
            },
            {
                "building": "kindergarten",
                "addr:street": "набережная канала Грибоедова",
                "building:levels": "2",
                "addr:housenumber": "168"
            }
        ]
    },
    "parking_entrance": {
        "count": 1,
        "detail": [
            {
                "amenity": "parking_entrance"
            }
        ]
    },
    "clinic": {
        "count": 2,
        "detail": [
            {
                "addr:city": "Санкт-Петербург",
                "address:comment": "1—4 этаж Район Адмиралтейский",
                "addr:housenumber": "154",
                "addr:street": "набережная реки Фонтанки",
                "amenity": "clinic",
                "contact:facebook": "https://www.facebook.com/gosmed.ru",
                "contact:instagram": "https://www.instagram.com/gosmed.ru/",
                "contact:vk": "https://vk.com/pirogovcentrspb",
                "contact:youtube": "https://www.youtube.com/channel/UCfAdAx2oWQolpEV1gzgMAww",
                "healthcare": "clinic",
                "name": "Лечебно-диагностический комплекс на Фонтанке на метро Нарвская",
                "opening_hours": "Mo-Fr 08:00-21:00",
                "phone": "+78126762525",
                "website": "https://www.gosmed.ru/"
            },
            {
                "addr:city": "Санкт-Петербург",
                "addr:housenumber": "3",
                "addr:street": "улица Циолковского",
                "amenity": "clinic",
                "contact:facebook": "https://www.facebook.com/gosmed.ru",
                "contact:instagram": "https://www.instagram.com/gosmed.ru/",
                "contact:vk": "https://vk.com/pirogovcentrspb",
                "contact:website": "http://www.gosmed.ru",
                "contact:youtube": "https://www.youtube.com/channel/UCfAdAx2oWQolpEV1gzgMAww",
                "healthcare": "clinic",
                "name": "Лечебно-диагностический комплекс на Циолковского Клиники высоких медицинских технологий им. Пирогова СПбГУ",
                "opening_hours": "Mo-Sa 08:00-20:00",
                "phone": "+7 (812) 676-25-25;+7 (812) 676-25-21;+7 (812) 676-25-10;+7 (812) 676-25-77;+7 (812) 676-25-67"
            }
        ]
    },
    "school": {
        "count": 2,
        "detail": [
            {
                "addr:housenumber": "176",
                "addr:street": "набережная канала Грибоедова",
                "amenity": "school",
                "building": "yes",
                "building:levels": "4",
                "contact:email": "ctt@adm-edu.spb.ru",
                "contact:phone": "+7 812 6424415",
                "contact:website": "https://ctt-adm.ru",
                "name": "Центр технического творчества"
            },
            {
                "addr:housenumber": "33",
                "addr:postcode": "190121",
                "addr:street": "Канонерская улица",
                "amenity": "school",
                "building": "school",
                "building:architecture": "stalinist neoclassicism",
                "building:cladding": "brick",
                "building:levels": "4",
                "building:parts": "vertical",
                "contact:email": "sc234@adm-edu.spb.ru",
                "contact:phone": "+7 812 7142353;+7 812 7142752",
                "contact:website": "http://sc.adm-edu.spb.ru/234/",
                "design:code:SPb": "Шк-15_50е",
                "design:note": "С деталями неоклассического стиля",
                "name": "Школа № 234",
                "official_name": "Государственное бюджетное общеобразовательное учреждение средняя общеобразовательная школа № 234 Адмиралтейского района Санкт-Петербурга",
                "ref": "234"
            }
        ]
    },
    "service": {
        "count": 9,
        "detail": [
            {
                "power": "substation",
                "building": "service",
                "substation": "minor_distribution",
                "addr:letter": "Г",
                "addr:street": "Дерптский переулок",
                "building:levels": "1",
                "addr:housenumber": "3"
            },
            {
                "power": "substation",
                "building": "service",
                "substation": "minor_distribution",
                "building:levels": "1"
            },
            {
                "power": "substation",
                "building": "service",
                "substation": "minor_distribution",
                "building:levels": "1"
            },
            {
                "power": "substation",
                "building": "service",
                "substation": "minor_distribution",
                "building:levels": "1"
            },
            {
                "power": "substation",
                "building": "service",
                "substation": "minor_distribution",
                "building:levels": "1"
            },
            {
                "power": "substation",
                "building": "service",
                "substation": "minor_distribution",
                "building:levels": "1"
            },
            {
                "power": "substation",
                "building": "service",
                "substation": "minor_distribution",
                "addr:letter": "Я",
                "addr:street": "Садовая улица",
                "building:levels": "1",
                "addr:housenumber": "118"
            },
            {
                "building": "service"
            },
            {
                "building": "service"
            }
        ]
    },
    "place_of_worship": {
        "count": 1,
        "detail": [
            {
                "name": "Часовня в честь Воздвижения Креста Господня и Святой Царицы Елены",
                "amenity": "place_of_worship",
                "building": "yes",
                "religion": "christian",
                "denomination": "orthodox"
            }
        ]
    },
    "toilets": {
        "count": 1,
        "detail": [
            {
                "addr:housenumber": "1",
                "addr:street": "площадь Тургенева",
                "amenity": "toilets",
                "building": "yes",
                "charge": "30 RUB",
                "fee": "yes",
                "opening_hours": "09:00-21:00",
                "operator": "ГУП «Водоканал Санкт-Петербурга»",
                "website": "http://www.vodokanal.spb.ru/kanalizovanie/tualety/"
            }
        ]
    },
    "shelter": {
        "count": 1,
        "detail": [
            {
                "amenity": "shelter",
                "building": "yes",
                "shelter_type": "gazebo"
            }
        ]
    }
}