{
    "residents": 8145,
    "clothes": {
        "count": 16,
        "detail": [
            {
                "name": "Муха",
                "shop": "clothes",
                "contact:vk": "https://vk.com/muha_shop",
                "second_hand": "yes",
                "opening_hours": "11:00-20:00"
            },
            {
                "name": "Презент",
                "shop": "clothes",
                "operator": "ИП Бабинцев А.В."
            },
            {
                "name": "Еврофасон",
                "shop": "clothes",
                "clothes": "women",
                "opening_hours": "Mo-Su 11:00-20:00"
            },
            {
                "name": "Shifonier",
                "shop": "clothes",
                "website": "https://shifonier.ru/",
                "contact:vk": "https://vk.com/boutique_shifonier",
                "opening_hours": "Mo-Fr 10:00-20:00; Sa 12:00-18:00"
            },
            {
                "name": "Aureliya",
                "note": "вход через арку",
                "shop": "clothes",
                "contact:vk": "https://vk.com/aureliyaspb"
            },
            {
                "name": "Большой Мэн",
                "shop": "clothes",
                "clothes": "men;oversize",
                "website": "http://www.bolman.ru/",
                "operator": "ИП Чакалов А.М.",
                "contact:vk": "https://vk.com/bolmen",
                "opening_hours": "Mo-Sa 11:00-20:00"
            },
            {
                "name": "Stok",
                "shop": "clothes",
                "website": "https://vk.com/stilnaya_odegda_spb"
            },
            {
                "clothes": "underwear",
                "level": "-1",
                "opening_hours": "Mo-Fr 11:00-20:00; Sa 11:00-19:00; Su 11:00-18:00",
                "shop": "clothes"
            },
            {
                "name": "Allure",
                "shop": "clothes",
                "clothes": "wedding",
                "website": "http://www.allure-spb.ru/",
                "contact:vk": "https://vk.com/club13029215",
                "opening_hours": "12:00-20:00"
            },
            {
                "name": "Персона",
                "shop": "clothes",
                "clothes": "women",
                "website": "http://www.personne-spb.com/",
                "int_name": "Personne",
                "opening_hours": "Mo-Sa 11:00-20:00; Su 11:00-18:00"
            },
            {
                "brand": "Pierre Cardin",
                "brand:wikidata": "Q22921009",
                "name": "Pierre Cardin",
                "opening_hours": "11:00-21:00",
                "shop": "clothes",
                "website": "https://pierre-cardin.spb.ru/"
            },
            {
                "clothes": "women",
                "contact:vk": "https://vk.com/osome2someofficial",
                "name": "Osome2some",
                "opening_hours": "11:00-21:00",
                "operator": "ИП Андриенко А.А.",
                "phone": "+7 812 9624496",
                "shop": "clothes",
                "website": "http://osome2some.com/"
            },
            {
                "name": "Одежда дисконт",
                "shop": "clothes",
                "wheelchair": "no",
                "opening_hours": "Mo-Fr 11:00-19:30"
            },
            {
                "name": "Lamoda",
                "shop": "clothes",
                "website": "https://www.lamoda.ru/",
                "contact:vk": "https://vk.com/lamodaru",
                "reservation": "required",
                "opening_hours": "10:00-22:00"
            },
            {
                "name": "Тандем",
                "shop": "clothes",
                "opening_hours": "11:00-20:00"
            },
            {
                "name": "Mother Russia",
                "shop": "clothes",
                "website": "http://motherrussia.ru/",
                "contact:vk": "https://vk.com/brandrussia",
                "opening_hours": "11:00-20:00"
            }
        ]
    },
    "gift": {
        "count": 4,
        "detail": [
            {
                "name": "Мам, купи!",
                "shop": "gift",
                "website": "https://mamcupy.com/",
                "operator": "ИП Зарыковская Дарья Олеговна",
                "contact:vk": "https://vk.com/mam_cupy",
                "opening_hours": "10:00-20:00"
            },
            {
                "name": "Ну купи",
                "shop": "gift",
                "contact:vk": "https://vk.com/clubnukupi",
                "opening_hours": "11:00-20:00"
            },
            {
                "name": "Офис-экспресс",
                "shop": "gift",
                "website": "http://ofxp.ru/",
                "operator": "ООО «Офис-экспресс»",
                "description": "Корпоративные подарки и сувенирная продукция с логотипом",
                "opening_hours": "Mo-Fr 09:00-19:00"
            },
            {
                "name": "Остров сокровищ",
                "shop": "gift",
                "level": "-1",
                "contact:vk": "https://vk.com/treasure_island_ru"
            }
        ]
    },
    "fast_food": {
        "count": 14,
        "detail": [
            {
                "amenity": "fast_food",
                "brand": "Бургер Кинг",
                "brand:en": "Burger King",
                "brand:ru": "Бургер Кинг",
                "brand:wikidata": "Q177054",
                "brand:wikipedia": "en:Burger King",
                "contact:email": "FeedBack@burgerking.ru",
                "contact:phone": "+7 495 5445000",
                "contact:vk": "https://vk.com/burgerking",
                "contact:website": "https://burgerking.ru/",
                "cuisine": "burger",
                "int_name": "Burger King",
                "name": "Бургер Кинг",
                "name:en": "Burger King",
                "name:ru": "Бургер Кинг",
                "note": "нет на сайте",
                "opening_hours": "Mo-Su 10:00-22:00",
                "operator": "БУРГЕР РУС",
                "outdoor_seating": "no",
                "payment:maestro": "yes",
                "payment:mir": "yes",
                "payment:visa": "yes",
                "payment:visa_electron": "yes",
                "takeaway": "yes",
                "toilets": "yes"
            },
            {
                "amenity": "fast_food",
                "brand": "KFC",
                "brand:wikidata": "Q524757",
                "breakfast": "yes",
                "contact:facebook": "https://www.facebook.com/kfcrussia",
                "contact:vk": "https://vk.com/kfcrussia",
                "cuisine": "chicken;burger",
                "diet:vegetarian": "no",
                "drive_through": "no",
                "internet_access": "wlan",
                "level": "0",
                "name": "KFC Express",
                "name:en": "KFC Express",
                "name:ru": "КФЦ Экспресс",
                "opening_hours": "Mo-Su 07:00-05:00",
                "operator": "ООО «АмРест»",
                "phone": "+7 812 3835025",
                "website": "https://www.kfc.ru/",
                "wheelchair": "yes"
            },
            {
                "amenity": "fast_food",
                "contact:vk": "https://vk.com/pizzamore",
                "fast_food": "Pizza",
                "level": "-1",
                "name": "Pizza-море",
                "website": "https://pizzamore.ru/k"
            },
            {
                "name": "Кинза",
                "amenity": "fast_food",
                "operator": "ООО «Бастион»",
                "fast_food": "cafeteria",
                "wheelchair": "no",
                "opening_hours": "09:00-21:00"
            },
            {
                "amenity": "fast_food",
                "brand": "Теремок",
                "brand:en": "Teremok",
                "brand:ru": "Теремок",
                "brand:wikidata": "Q4455593",
                "brand:wikipedia": "ru:Теремок (сеть быстрого питания)",
                "contact:vk": "https://vk.com/teremok",
                "cuisine": "crepe;russian",
                "level": "0",
                "name": "Теремок",
                "name:en": "Teremok",
                "name:ru": "Теремок",
                "opening_hours": "07:30-23:00",
                "operator": "ООО «Теремок — Русские Блины»",
                "payment:mastercard": "yes",
                "payment:visa": "yes",
                "phone": "+7 812 3632332",
                "takeaway": "yes",
                "website": "http://www.teremok.ru/"
            },
            {
                "amenity": "fast_food",
                "contact:vk": "https://vk.com/club128400987",
                "level": "-1",
                "name": "Вкусно & Сытно",
                "wheelchair": "no"
            },
            {
                "amenity": "fast_food",
                "building": "kiosk",
                "contact:vk": "https://vk.com/teplokitty",
                "cuisine": "coffee_shop; pancakes",
                "name": "Fenster",
                "payment:credit_cards": "yes",
                "payment:debit_cards": "yes",
                "takeaway": "only",
                "wheelchair": "yes"
            },
            {
                "amenity": "fast_food",
                "building": "kiosk",
                "takeaway": "only",
                "wheelchair": "no"
            },
            {
                "amenity": "fast_food",
                "building": "kiosk"
            },
            {
                "name": "Nevsky Coffee",
                "level": "-1",
                "amenity": "fast_food",
                "contact:instagram": "https://www.instagram.com/nevsky_coffee/"
            },
            {
                "name": "ЛанчБокс",
                "amenity": "fast_food",
                "website": "https://www.bistrolunchbox.ru/",
                "fast_food": "cafeteria",
                "contact:vk": "https://vk.com/bistrolunchbox"
            },
            {
                "alt_name": "Kentucky Fried Chicken",
                "amenity": "fast_food",
                "brand": "KFC",
                "brand:wikidata": "Q524757",
                "brand:wikipedia": "en:KFC",
                "breakfast": "yes",
                "contact:facebook": "https://www.facebook.com/kfcrussia",
                "contact:vk": "https://vk.com/kfcrussia",
                "cuisine": "chicken",
                "diet:vegetarian": "no",
                "drive_through": "no",
                "internet_access": "wlan",
                "level": "0",
                "name": "KFC",
                "name:en": "KFC",
                "name:ru": "КФЦ",
                "opening_hours": "Mo-Su 07:00-05:00",
                "operator": "ООО «АмРест»",
                "phone": "+7 812 3835025",
                "takeaway": "yes",
                "website": "https://www.kfc.ru/",
                "wheelchair": "yes"
            },
            {
                "amenity": "fast_food",
                "contact:instagram": "https://instagram.com/bistro.natarelke",
                "contact:phone": "+7 962 7142113",
                "name": "На тарелке",
                "opening_hours": "24/7",
                "operator": "На тарелке"
            },
            {
                "amenity": "fast_food",
                "contact:email": "info@tseh85.ru",
                "contact:instagram": "https://www.instagram.com/tseh85",
                "contact:phone": "+7 812 7757785",
                "contact:vk": "https://vk.com/tseh85",
                "contact:website": "https://tseh85.ru",
                "cuisine": "crepe",
                "name": "Блинная Батенька",
                "opening_hours": "Mo-Fr 08:00-21:00;Sa-Su 10:00-21:00",
                "operator": "Киреев"
            }
        ]
    },
    "atm": {
        "count": 11,
        "detail": [
            {
                "amenity": "atm",
                "opening_hours": "24/7",
                "operator": "Газпромбанк",
                "website": "https://www.gazprombank.ru/"
            },
            {
                "amenity": "atm",
                "opening_hours": "24/7",
                "operator": "Райффайзен Банк",
                "wheelchair": "no"
            },
            {
                "amenity": "atm",
                "operator": "Сбербанк",
                "website": "https://www.sberbank.ru/"
            },
            {
                "addr:city": "Санкт-Петербург",
                "addr:housenumber": "1",
                "addr:street": "Артиллерийская улица",
                "amenity": "atm",
                "cash_in": "no",
                "check_date": "2014-01-17",
                "description": "в помещении офиса Рускобанка",
                "opening_hours": "Mo-Fr 10:00-13:00,13:30-18:00",
                "operator": "Сбербанк России",
                "phone": "+7 800 5555550",
                "ref": "85421",
                "source": "survey",
                "website": "https://www.sberbank.ru/"
            },
            {
                "name": "ЮниКредит Банк",
                "brand": "ЮниКредит Банк",
                "amenity": "atm",
                "cash_in": "yes",
                "website": "http://unicredit.ru",
                "alt_name": "ЮниКредит Банк",
                "int_name": "UniCredit Bank",
                "operator": "ЮниКредит Банк",
                "addr:street": "Кирочная улица",
                "currency:EUR": "yes",
                "currency:USD": "yes",
                "opening_hours": "24/7",
                "addr:housenumber": "11"
            },
            {
                "amenity": "atm",
                "cash_in": "no",
                "indoor": "yes",
                "opening_hours": "00:00-00:25,05:48-24:00",
                "operator": "ВТБ",
                "phone": "+7 800 1002424",
                "ref": "392528",
                "website": "https://www.vtb.ru/"
            },
            {
                "amenity": "atm",
                "brand": "Санкт-Петербург",
                "cash_in": "no",
                "contact:email": "cc@bspb.ru",
                "contact:facebook": "https://www.facebook.com/bspb/",
                "contact:instagram": "https://instagram.com/bank_spb",
                "contact:ok": "https://ok.ru/bspb",
                "contact:phone": "+7 800 2225050;+7 812 3295050",
                "contact:twitter": "https://twitter.com/bank_spb",
                "contact:vk": "https://vk.com/bspb",
                "contact:website": "https://www.bspb.ru/",
                "currency:RUB": "yes",
                "indoor": "yes",
                "opening_hours": "Mo-Fr 09:30-20:00;Sa 10:00-18:00",
                "operator": "ПАО Банк Санкт-Петербург",
                "telegram": "https://t.me/mybspb"
            },
            {
                "indoor": "yes",
                "amenity": "atm",
                "cash_in": "no",
                "operator": "Промсвязьбанк",
                "opening_hours": "00:00-00:25,05:48-24:00"
            },
            {
                "indoor": "yes",
                "amenity": "atm",
                "cash_in": "no",
                "operator": "Балтийский банк",
                "opening_hours": "00:00-00:25,05:48-24:00"
            },
            {
                "amenity": "atm",
                "brand": "Санкт-Петербург",
                "cash_in": "no",
                "contact:email": "cc@bspb.ru",
                "contact:facebook": "https://www.facebook.com/bspb/",
                "contact:instagram": "https://instagram.com/bank_spb",
                "contact:ok": "https://ok.ru/bspb",
                "contact:phone": "+7 800 2225050;+7 812 3295050",
                "contact:twitter": "https://twitter.com/bank_spb",
                "contact:vk": "https://vk.com/bspb",
                "contact:website": "https://www.bspb.ru/",
                "currency:RUB": "yes",
                "indoor": "yes",
                "opening_hours": "Mo-Su 05:38-00:25",
                "operator": "ПАО Банк Санкт-Петербург",
                "telegram": "https://t.me/mybspb"
            },
            {
                "amenity": "atm",
                "brand": "Санкт-Петербург",
                "contact:email": "cc@bspb.ru",
                "contact:facebook": "https://www.facebook.com/bspb/",
                "contact:instagram": "https://instagram.com/bank_spb",
                "contact:ok": "https://ok.ru/bspb",
                "contact:phone": "+7 800 2225050;+7 812 3295050",
                "contact:twitter": "https://twitter.com/bank_spb",
                "contact:vk": "https://vk.com/bspb",
                "contact:website": "https://www.bspb.ru/",
                "currency:RUB": "yes",
                "opening_hours": "Mo-Fr 10:00-18:00",
                "operator": "ПАО Банк Санкт-Петербург",
                "telegram": "https://t.me/mybspb"
            }
        ]
    },
    "optician": {
        "count": 3,
        "detail": [
            {
                "name": "100%",
                "shop": "optician",
                "level": "0",
                "website": "http://optika100.com/",
                "contact:vk": "https://vk.com/optika_100",
                "opening_hours": "09:00-20:00"
            },
            {
                "check_date:opening_hours": "2020-09-01",
                "name": "ШБ",
                "opening_hours": "Mo-Sa 10:00-20:00; Su 11:00-19:00",
                "operator": "ООО \"Взгляд\"",
                "shop": "optician"
            },
            {
                "name": "LensGo.ru",
                "shop": "optician",
                "website": "http://lensgo.ru/contacts/saint-petersburg/kirochnaya",
                "contact:vk": "https://vk.com/lensgo",
                "opening_hours": "09:00-20:00"
            }
        ]
    },
    "cafe": {
        "count": 25,
        "detail": [
            {
                "amenity": "cafe",
                "contact:vk": "https://vk.com/telepizza",
                "cuisine": "pizza",
                "entrance": "yes",
                "internet_access": "wlan",
                "int_name": "Telepizza",
                "name": "Телепицца",
                "name:ru": "Телепицца",
                "opening_hours": "Mo-Th, Su 11:00-23:00; Fr, Sa 11:00-24:00",
                "operator": "Мошков Дмитрий Васильевич",
                "payment:cash": "yes",
                "payment:credit_cards": "yes",
                "payment:debit_cards": "yes",
                "payment:mastercard": "yes",
                "payment:visa": "yes",
                "phone": "+7 812 3354040",
                "smoking": "no",
                "website": "https://telepizza-russia.ru/",
                "wheelchair": "limited"
            },
            {
                "amenity": "cafe",
                "contact:website": "https://dimsumnow.ru/",
                "cuisine": "asian",
                "name": "Dim Sum Now"
            },
            {
                "name": "Е.Д.А и кофе",
                "amenity": "cafe",
                "website": "http://edaikofe.ru/",
                "operator": "ООО \"Мультипасс\"",
                "contact:vk": "https://vk.com/edaikofe",
                "opening_hours": "Mo-Sa 10:00-23:00; Su 12:00-23:00"
            },
            {
                "addr:housenumber": "56",
                "addr:street": "улица Маяковского",
                "amenity": "cafe",
                "contact:vk": "https://vk.com/hachapuriivino",
                "cuisine": "georgian",
                "email": "hpvino9@gmail.com",
                "internet_access": "wlan",
                "name": "Хачапури и вино",
                "opening_hours": "Su-Th 11:30-24:00; Fr-Sa 11:30-01:00",
                "outdoor_seating": "no",
                "phone": "+7 812 2736797",
                "website": "http://hachapuriivino.ru/",
                "wheelchair": "no"
            },
            {
                "amenity": "cafe",
                "contact:vk": "https://vk.com/chainikoff_cafe",
                "int_name": "Chainikoff",
                "name": "Чайникофф",
                "opening_hours": "24/7",
                "operator": "ООО «Кофейня 24»",
                "outdoor_seating": "yes",
                "website": "https://chainikoff.ru/"
            },
            {
                "name": "Кофе & сливки",
                "amenity": "cafe",
                "cuisine": "european",
                "contact:vk": "https://vk.com/cofe_slivki",
                "opening_hours": "Mo-Fr 09:00-22:00; Sa 10:00-22:00",
                "internet_access": "wlan",
                "outdoor_seating": "yes"
            },
            {
                "name": "Cake and Breakfast",
                "phone": "+7 921 8660029",
                "amenity": "cafe",
                "cuisine": "breakfast",
                "operator": "ООО «Клеверклуб»",
                "contact:vk": "https://vk.com/cakeandbreakfast",
                "wheelchair": "no",
                "opening_hours": "Mo-Su 08:00-21:00",
                "diet:vegetarian": "yes",
                "outdoor_seating": "yes",
                "payment:debit_cards": "yes",
                "payment:credit_cards": "yes"
            },
            {
                "amenity": "cafe",
                "contact:vk": "https://vk.com/cafe_lindfors",
                "cuisine": "russian",
                "email": "k17@lindfors.ru",
                "int_name": "Lindfors",
                "level": "0",
                "name": "Линдфорс",
                "opening_hours": "Mo-Su 08:00-21:00",
                "operator": "ООО «Полтава»",
                "phone": "+7 812 2411547",
                "website": "https://spb.lindfors.ru/restorany/ul-kirochnaya-d-17",
                "wheelchair": "no"
            },
            {
                "name": "Пончкофф",
                "phone": "+7 812 6556147",
                "amenity": "cafe",
                "cuisine": "coffee_shop",
                "website": "https://www.ponchkoff.ru/",
                "operator": "ООО «Ганеша»",
                "contact:vk": "https://vk.com/ponchkoff",
                "opening_hours": "Mo-Fr 09:00-21:00; Sa-Su 09:00-22:00"
            },
            {
                "name": "Huqqa",
                "level": "-1",
                "amenity": "cafe",
                "contact:vk": "https://vk.com/huqqa_spb"
            },
            {
                "amenity": "cafe",
                "contact:facebook": "paradnayacafe",
                "contact:instagram": "paradnayaspb",
                "cuisine": "coffee_shop",
                "internet_access": "no",
                "name": "Парадная",
                "name:ru": "Парадная",
                "opening_hours": "Mo-Fr 09:00-21:00; Sa-Su,PH 10:00-22:00"
            },
            {
                "name": "Дом шавермы",
                "amenity": "cafe",
                "name:ru": "Дом шавермы",
                "internet_access": "wlan"
            },
            {
                "amenity": "cafe",
                "contact:vk": "https://vk.com/tucanocoffee_spb",
                "cuisine": "coffee",
                "diet:vegan": "yes",
                "diet:vegetarian": "yes",
                "internet_access": "wlan",
                "name": "Tucano Coffee Ecuador",
                "opening_hours": "Mo-Fr 08:00-22:00; Sa, Su 09:00-23:00",
                "operator": "ООО «Вкус Кофе»",
                "outdoor_seating": "yes",
                "website": "http://tucanocoffee.com/ru/locations/russia/?city=62"
            },
            {
                "amenity": "cafe",
                "contact:vk": "https://vk.com/bakemeuppls",
                "name": "Bake Me Up",
                "opening_hours": "08:00-21:00",
                "website": "http://www.bakemeup.spb.ru/",
                "wheelchair": "no"
            },
            {
                "amenity": "cafe"
            },
            {
                "name": "кофе с собой",
                "amenity": "cafe",
                "name:en": "coffee to go"
            },
            {
                "name": "Pita's",
                "amenity": "cafe",
                "cuisine": "doner; falafel",
                "operator": "ООО \"Мэл Гибсон\"",
                "diet:vegan": "yes",
                "wheelchair": "no",
                "opening_hours": "Mo-Su 11:00-23:00",
                "diet:vegetarian": "yes"
            },
            {
                "name": "Австерия",
                "amenity": "cafe",
                "website": "http://avsteria.ru/",
                "contact:vk": "https://vk.com/cafeavsteria"
            },
            {
                "amenity": "cafe",
                "name:en": "Birch",
                "opening_hours": "Mo-Su 13:00-00:00"
            },
            {
                "amenity": "cafe",
                "cuisine": "coffee_shop",
                "name": "Etlon Coffee"
            },
            {
                "addr:postcode": "191014",
                "amenity": "cafe",
                "cuisine": "breakfast;coffee_shop",
                "name": "Cake and Breakfast",
                "name:en": "Cake & Breakfast",
                "opening_hours": "Mo-Su 08:00-21:00"
            },
            {
                "amenity": "cafe",
                "contact:email": "info@bagginscoffee.ru",
                "contact:phone": "+7 800 6007015",
                "contact:website": "https://bagginscoffee.ru/",
                "name": "Baggins Coffee",
                "opening_hours": "Mo-Su 08:00-22:00",
                "operator": "ИП Вильдянов Рамиль Саярович"
            },
            {
                "addr:housenumber": "37Г",
                "addr:postcode": "191123",
                "addr:street": "улица Маяковского",
                "amenity": "cafe",
                "cuisine": "breakfast;burger;coffee_shop",
                "name": "Кофе-Нарушители",
                "name:en": "Coffee-breakers",
                "opening_hours": "Mo-Su 09:00-23:00",
                "phone": "+79046402055",
                "website": "https://instagram.com/breakerscoffee"
            },
            {
                "amenity": "cafe",
                "name": "Пуд хлеба"
            },
            {
                "amenity": "cafe",
                "name": "Бульк"
            }
        ]
    },
    "bus_stop": {
        "count": 4,
        "detail": [
            {
                "bus": "yes",
                "fixme": "расположение примерное",
                "highway": "bus_stop",
                "name": "станция метро «Чернышевская»",
                "public_transport": "platform"
            },
            {
                "bus": "yes",
                "fixme": "расположение примерное",
                "highway": "bus_stop",
                "name": "станция метро «Чернышевская»",
                "public_transport": "platform"
            },
            {
                "bus": "yes",
                "highway": "bus_stop",
                "local_ref": "46",
                "name": "Кирочная улица",
                "public_transport": "platform",
                "shelter": "no",
                "trolleybus": "yes"
            },
            {
                "bus": "yes",
                "name": "Кирочная улица",
                "public_transport": "stop_position",
                "trolleybus": "yes"
            }
        ]
    },
    "telephone": {
        "count": 1,
        "detail": [
            {
                "phone": "+7 812 7198556",
                "amenity": "telephone"
            }
        ]
    },
    "bar": {
        "count": 3,
        "detail": [
            {
                "name": "Кальян-бар",
                "phone": "+7 812 2735906",
                "amenity": "bar",
                "operator": "ООО «Лейбл»",
                "opening_hours": "Mo-Fr 12:00-01:00, Sa-Su 14:00-01:00",
                "contact:instagram": "https://www.instagram.com/kaliyan_bar_spb/"
            },
            {
                "amenity": "bar",
                "contact:vk": "https://vk.com/bar_derzhis",
                "name": "DERЖИСЬ",
                "opening_hours": "Mo-Th 13:00-02:00, Fr-Sa 15:00-05:00, Su 16:00-02:00",
                "website": "http://www.derzhis.ru/",
                "wheelchair": "no"
            },
            {
                "addr:city": "Санкт-Петербург",
                "addr:housenumber": "11",
                "addr:street": "проспект Чернышевского",
                "amenity": "bar",
                "contact:vk": "https://vk.com/kontaktbar",
                "internet_access": "wlan",
                "level": "1",
                "name": "Контакт бар",
                "opening_hours": "Mo-Su 12:00-02:00",
                "phone": "+7 812 9453213",
                "website": "https://kontaktbar.ru/",
                "wheelchair": "no"
            }
        ]
    },
    "dentist": {
        "count": 3,
        "detail": [
            {
                "amenity": "dentist",
                "contact:vk": "https://vk.com/clinikadoctordent",
                "healthcare": "dentist",
                "name": "Доктор Дент",
                "opening_hours": "09:00-21:00",
                "phone": "+7 812 5793333",
                "website": "https://www.clinikadoctordent.ru/"
            },
            {
                "amenity": "dentist",
                "healthcare": "dentist"
            },
            {
                "amenity": "dentist",
                "email": "info@perfectsmile.pro",
                "healthcare": "dentist",
                "name": "PerfectSmile",
                "opening_hours": "Mo-Sa 09:00-21:00",
                "phone": "+7 812 2732427;+7 911 9230082",
                "website": "https://www.perfectsmile.pro/"
            }
        ]
    },
    "furniture": {
        "count": 2,
        "detail": [
            {
                "name": "Демидов А.",
                "shop": "furniture",
                "level": "0",
                "website": "http://www.demidov-mebel.com/",
                "contact:vk": "https://vk.com/demidov.mebel",
                "opening_hours": "11:00-20:00"
            },
            {
                "name": "Мебель",
                "shop": "furniture",
                "opening_hours": "Mo-Fr 10:00-20:00; Sa-Su 11:00-19:00"
            }
        ]
    },
    "restaurant": {
        "count": 17,
        "detail": [
            {
                "amenity": "restaurant",
                "contact:vk": "https://vk.com/madloba_spb",
                "cuisine": "georgian",
                "name": "Мадлоба"
            },
            {
                "amenity": "restaurant",
                "name": "Монтана",
                "opening_hours": "Su-Th 12:00-24:00, Fr-Sa 12:00-02:00",
                "phone": "+7 812 2727035",
                "website": "http://triton-restoran.ru/restaurants/montana/about",
                "wheelchair": "limited"
            },
            {
                "name": "Добрый грузин",
                "phone": "+7 921 0972525",
                "amenity": "restaurant",
                "cuisine": "georgian",
                "website": "dobriygruzin.ru",
                "delivery": "yes",
                "operator": "Группа компаний \"АВАБ\"",
                "contact:vk": "https://vk.com/dobriygruzin",
                "wheelchair": "no",
                "opening_hours": "Mo-Su 12:00-01:00",
                "outdoor_seating": "yes"
            },
            {
                "addr:housenumber": "8А",
                "addr:street": "Кирочная улица",
                "amenity": "restaurant",
                "email": "mail@duobar.ru",
                "name": "DUO гастробар",
                "opening_hours": "Mo-Su 13:00-24:00",
                "outdoor_seating": "yes",
                "phone": "+7 921 9945443",
                "website": "http://www.duobar.ru"
            },
            {
                "amenity": "restaurant",
                "breakfast": "Mo-Fr 09:00-12:00; Sa-Su,PH 11:00-13:00",
                "contact:facebook": "schengen.spb",
                "contact:instagram": "schengen_spb",
                "contact:vk": "schengen_spb",
                "cuisine": "french;seafood",
                "email": "schengen.rest@mail.ru",
                "internet_access": "wlan",
                "internet_access:fee": "no",
                "name": "Schengen",
                "opening_hours": "Mo-Fr 09:00-24:00; Sa-Su 11:00-24:00",
                "operator": "ООО «Хэнд Мэйд»",
                "phone": "+7 812 9221197",
                "reservation": "recommended",
                "website": "http://schengen.spb.ru/"
            },
            {
                "name": "Красный Лис",
                "phone": "+7 812 2754214",
                "amenity": "restaurant",
                "cuisine": "russian",
                "website": "http://rfjc.ru",
                "contact:vk": "https://vk.com/club257207",
                "wheelchair": "no",
                "description": "Джаз-клуб",
                "opening_hours": "Mo-Fr 10:00-23:00, Sa 13:30-23:00, Su 16:30-23:00",
                "internet_access": "wlan"
            },
            {
                "name": "Хаочи",
                "amenity": "restaurant",
                "cuisine": "chinese",
                "website": "http://hao-chi.ru/",
                "takeaway": "yes",
                "contact:vk": "https://vk.com/hao_chi",
                "wheelchair": "no",
                "payment:mir": "yes",
                "payment:visa": "yes",
                "opening_hours": "Mo-Su 11:00-23:30",
                "outdoor_seating": "no",
                "payment:maestro": "yes",
                "contact:instagram": "https://www.instagram.com/haochi_restaurant/",
                "payment:mastercard": "yes",
                "payment:visa_electron": "yes"
            },
            {
                "name": "Natakhtari",
                "amenity": "restaurant",
                "cuisine": "georgian",
                "website": "https://natakhtari.spb.ru/",
                "contact:vk": "https://vk.com/natakhtari_spb",
                "opening_hours": "Mo-Sa 11:00-24:00; Su 12:00-24:00"
            },
            {
                "name": "Джей Хинд",
                "amenity": "restaurant",
                "cuisine": "indian",
                "int_name": "Jai Hind",
                "contact:vk": "https://vk.com/jaihind2015",
                "contact:phone": "+7 812 2721990",
                "opening_hours": "Mo-Su 12:00-23:00",
                "contact:website": "http://rileeva.jaihind.ru/"
            },
            {
                "name": "Макао",
                "level": "-1",
                "amenity": "restaurant",
                "cuisine": "chinese"
            },
            {
                "amenity": "restaurant",
                "contact:vk": "https://vk.com/meatlodge",
                "name": "Мясонская Ложа",
                "opening_hours": "Mo-Th 13:00-23:00; Fr 13:00-01:00; Sa 14:00-01:00; Su 14:00-00:00",
                "website": "http://meatlodge.ru/"
            },
            {
                "amenity": "restaurant",
                "contact:facebook": "https://www.facebook.com/Birch-restaurant-537891119889496/",
                "name": "Birch",
                "opening_hours": "Su-Th 13:00-24:00, Fr-Sa 13:00-01:00",
                "operator": "ООО «Умами»",
                "phone": "+7 812 9203165"
            },
            {
                "amenity": "restaurant",
                "contact:facebook": "https://www.facebook.com/mr.bo.spb/",
                "name": "Mr. Bo",
                "opening_hours": "PH,Mo-Su 13:00-23:00"
            },
            {
                "name": "Арбат",
                "amenity": "restaurant",
                "website": "http://arbat-nord.ru/restoran-gostinicy/",
                "opening_hours": "07:30-24:00"
            },
            {
                "name": "Хозяин-Барин",
                "amenity": "restaurant",
                "website": "https://www.kochubeyclub.com/restoran"
            },
            {
                "addr:floor": "1",
                "amenity": "restaurant",
                "name": "Соль",
                "website": "https://hotelruss.spb.ru/restoran-sol"
            },
            {
                "addr:floor": "5",
                "amenity": "restaurant",
                "name": "Аист",
                "website": "http://aist.hotelruss.spb.ru/"
            }
        ]
    },
    "fountain": {
        "count": 1,
        "detail": [
            {
                "amenity": "fountain"
            }
        ]
    },
    "convenience": {
        "count": 6,
        "detail": [
            {
                "level": "-1",
                "name": "Лаванда",
                "opening_hours": "24/7",
                "operator": "Крунк",
                "payment:cash": "yes",
                "payment:maestro": "yes",
                "payment:mastercard": "yes",
                "payment:visa": "yes",
                "payment:visa_electron": "yes",
                "shop": "convenience",
                "wheelchair": "no"
            },
            {
                "food": "yes",
                "name": "Продукты",
                "name:ru": "Продукты",
                "opening_hours": "24/7",
                "shop": "convenience"
            },
            {
                "name": "Продукты",
                "shop": "convenience",
                "opening_hours": "24/7"
            },
            {
                "name": "Продукты",
                "shop": "convenience",
                "opening_hours": "24/7"
            },
            {
                "brand": "ВкусВилл",
                "brand:wikidata": "Q57271676",
                "brand:wikipedia": "ru:Вкусвилл",
                "name": "ВкусВилл",
                "opening_hours": "Mo-Su 08:00-23:00",
                "operator": "Вкусвилл",
                "payment:cash": "yes",
                "payment:maestro": "yes",
                "payment:mastercard": "yes",
                "payment:visa": "yes",
                "payment:visa_electron": "yes",
                "phone": "+7 921 5774586",
                "shop": "convenience",
                "website": "https://vkusvill.ru/",
                "wheelchair": "no"
            },
            {
                "name": "Продукты",
                "opening_hours": "24/7",
                "shop": "convenience"
            }
        ]
    },
    "music": {
        "count": 2,
        "detail": [
            {
                "name": "VinylForAll",
                "shop": "music",
                "website": "http://www.vinylforall.ru/",
                "description": "Виниловые пластинки и Hi-Fi, Hi-End аудиотехника",
                "opening_hours": "13:00-20:00"
            },
            {
                "name": "Rock Island",
                "shop": "music",
                "level": "-1",
                "website": "http://www.rockisland.spb.ru/",
                "wheelchair": "no",
                "description": "Магазин старого винила",
                "opening_hours": "Tu-Sa 11:00-19:00"
            }
        ]
    },
    "pub": {
        "count": 5,
        "detail": [
            {
                "name": "BlackWood",
                "level": "-1",
                "amenity": "pub",
                "website": "http://blackwoodpub.ru/",
                "operator": "ООО «Меркурий II»",
                "contact:vk": "https://vk.com/blackwoodspb",
                "opening_hours": "12:00+"
            },
            {
                "amenity": "pub",
                "contact:vk": "https://vk.com/myfriendspub",
                "name": "My friends",
                "opening_hours": "Mo-Fr 09:00-24:00; Sa, Su 14:00-24:00",
                "phone": "+7 812 9602534",
                "website": "http://myfriendspub.ru/"
            },
            {
                "name": "Pickwick",
                "note": "возможно занят BeardBeer или не работает",
                "amenity": "pub",
                "contact:vk": "https://vk.com/pickwick_pub"
            },
            {
                "addr:housenumber": "9",
                "addr:street": "Фурштатская улица",
                "amenity": "pub",
                "diet:pescetarian": "yes",
                "diet:vegan": "no",
                "diet:vegetarian": "no",
                "name": "Золотая пинта",
                "name:en": "Golden Pint",
                "name:ru": "Золотая пинта",
                "opening_hours": "Mo-Th 12:00-23:00; Fr, Sa 12:00-01:00; Su 13:00-23:00",
                "phone": "+7 812 7196015",
                "website": "http://www.goldenpint.ru/"
            },
            {
                "addr:floor": "3",
                "amenity": "pub",
                "contact:instagram": "https://www.instagram.com/biliard_po_sharam/",
                "name": "По шарам",
                "opening_hours": "12:00-02:00",
                "sport": "billiards"
            }
        ]
    },
    "travel_agency": {
        "count": 10,
        "detail": [
            {
                "name": "Курортное агентство плюс",
                "shop": "travel_agency",
                "level": "0",
                "website": "http://www.ka-plus.ru/",
                "opening_hours": "Mo-Fr 09:00-20:00; Sa 11:00-18:00"
            },
            {
                "name": "Моби Дик",
                "shop": "travel_agency",
                "website": "http://mobydicktravel.ru/",
                "opening_hours": "Mo-Fr 10:00-19:00"
            },
            {
                "name": "Вилегия",
                "shop": "travel_agency",
                "website": "http://vilegia.ru/"
            },
            {
                "name": "Дэир Тур",
                "note": "нет на сайте",
                "shop": "travel_agency",
                "website": "http://deir-tour.ru/"
            },
            {
                "name": "Путёвочка",
                "shop": "travel_agency",
                "website": "http://putevochka.travel/",
                "contact:vk": "https://vk.com/putevochka.travel"
            },
            {
                "name": "Академия туризма",
                "shop": "travel_agency",
                "website": "http://academtur.ru/",
                "contact:vk": "https://vk.com/academturspb",
                "opening_hours": "Mo-Fr 10:00-20:00"
            },
            {
                "name": "Mouzenidis Travel",
                "shop": "travel_agency",
                "website": "https://www.mouzenidis-travel.ru/",
                "operator": "ООО «Музенидис Северо-Запад»",
                "contact:vk": "https://vk.com/mouzenidis.travel",
                "opening_hours": "Mo-Fr 09:00-20:00; Sa 10:00-17:00; Su 10:00-16:00"
            },
            {
                "name": "Нево-Стиль.Клуб",
                "shop": "travel_agency",
                "website": "http://www.nsclub.ru/",
                "contact:vk": "https://vk.com/nevostyle"
            },
            {
                "name": "Арктик Роуд",
                "shop": "travel_agency",
                "phone": "+7 812 7197450",
                "wheelchair": "no",
                "opening_hours": "Mo-Fr 11:00-19:30"
            },
            {
                "name": "E-Tickets",
                "shop": "travel_agency",
                "website": "https://e-tickets.ru/",
                "contact:vk": "https://vk.com/eticketsru"
            }
        ]
    },
    "second_hand": {
        "count": 1,
        "detail": [
            {
                "shop": "second_hand"
            }
        ]
    },
    "hairdresser": {
        "count": 7,
        "detail": [
            {
                "shop": "hairdresser"
            },
            {
                "name": "Студия причёсок Юлии Шкредовой",
                "shop": "hairdresser",
                "phone": "+7 921 9118560",
                "contact:vk": "https://vk.com/studiaprichesok",
                "wheelchair": "no",
                "opening_hours": "10:00-22:00"
            },
            {
                "shop": "hairdresser"
            },
            {
                "name": "OldBoy",
                "shop": "hairdresser",
                "website": "https://oldboybarbershop.com/spb/kirochnaya",
                "contact:vk": "https://vk.com/piter_oldboy",
                "opening_hours": "10:00-21:00"
            },
            {
                "name": "BeardBeer",
                "shop": "hairdresser",
                "contact:vk": "https://vk.com/beardbeerbs",
                "opening_hours": "12:00-22:00"
            },
            {
                "name": "Имидж студия Дениса Осипова",
                "shop": "hairdresser",
                "website": "http://osipovstudiof18.ru/",
                "contact:vk": "https://vk.com/osipovstudiof18"
            },
            {
                "contact:email": "drzoidbergshop@yandex.ru",
                "contact:instagram": "https://instagram.com/drzoidbergshop",
                "contact:phone": "+7 931 3290251",
                "contact:website": "https://drzoidbergshop.ru/",
                "name": "Dr.Zoidberg",
                "opening_hours": "Mo-Su 11:00-21:00",
                "operator": "Норкина М.А.",
                "shop": "hairdresser"
            }
        ]
    },
    "dry_cleaning": {
        "count": 2,
        "detail": [
            {
                "shop": "dry_cleaning"
            },
            {
                "addr:city": "Санкт-Петербург",
                "addr:housenumber": "2",
                "addr:postcode": "191028",
                "addr:street": "Манежный переулок",
                "name": "ГарантЪ",
                "opening_hours": "09:00-20:00",
                "phone": "+7 (812) 425-01-22",
                "shop": "dry_cleaning",
                "website": "http://www.himchistka-garant.ru"
            }
        ]
    },
    "pastry": {
        "count": 3,
        "detail": [
            {
                "addr:housenumber": "26",
                "addr:street": "Кирочная улица",
                "amenity": "restaurant",
                "contact:vk": "https://vk.com/dunord1834",
                "name": "Du Nord 1834",
                "opening_hours": "Mo-Su 09:00-23:00",
                "operator": "ООО «Кафе Дю Норд 1834»",
                "shop": "pastry",
                "website": "http://www.dunord.spb.ru/",
                "wheelchair": "limited"
            },
            {
                "name": "Север-Метрополь",
                "shop": "pastry",
                "phone": "+7 812 2728273",
                "amenity": "cafe",
                "name:en": "Sever-Metropol",
                "website": "http://sever.spb.su/wheretobuy/2862/",
                "operator": "Софит",
                "wheelchair": "no",
                "payment:visa": "yes",
                "opening_hours": "Mo-Fr 07:00-23:00; Sa-Su 08:00-23:00",
                "payment:mastercard": "yes"
            },
            {
                "name": "Север-Метрополь",
                "note": "нет на sever.spb.su",
                "shop": "pastry",
                "opening_hours": "09:00-21:00"
            }
        ]
    },
    "bag": {
        "count": 1,
        "detail": [
            {
                "name": "el bolso",
                "shop": "bag",
                "operator": "ООО \"Март\"",
                "description": "сумки, ремни, зонты, перчатки",
                "opening_hours": "Mo-Fr 10:00-20:00; Sa 11:00-20:00; Su 11:00-19:00"
            }
        ]
    },
    "military": {
        "count": 1,
        "detail": [
            {
                "name": "Армейскiй магазинъ",
                "shop": "military",
                "operator": "ИП Иванова С.А.",
                "opening_hours": "10:00-20:00"
            }
        ]
    },
    "doctors": {
        "count": 17,
        "detail": [
            {
                "amenity": "doctors",
                "description": "Центр китайской медицины",
                "healthcare": "doctor",
                "name": "Бай Юнь",
                "opening_hours": "Mo-Sa 10:00-20:00",
                "operator": "ООО \"Бай Юнь\""
            },
            {
                "amenity": "doctors",
                "healthcare": "doctor",
                "name": "Talio",
                "opening_hours": "07:00-23:00",
                "website": "http://www.talio-lab.ru/"
            },
            {
                "amenity": "doctors",
                "healthcare": "doctor",
                "name": "Скорая помощь",
                "opening_hours": "Mo-Fr 08:30-20:30; Sa-Su 10:00-18:00",
                "operator": "ООО «Медцентр «Скорая помощь»",
                "website": "https://med-sp.com/"
            },
            {
                "amenity": "doctors",
                "contact:vk": "https://vk.com/ramiclinic",
                "healthcare": "doctor",
                "name": "РАМИ",
                "opening_hours": "Mo-Sa 08:00-21:00; Su 10:00-19:00",
                "operator": "ЗАО «Медицинский центр «РАМИ»",
                "phone": "+7 812 2722666",
                "website": "http://www.rami-spb.ru/"
            },
            {
                "amenity": "doctors",
                "contact:vk": "https://vk.com/clinicadrvoita",
                "healthcare": "doctor",
                "name": "Клиника доктора Войта",
                "opening_hours": "Mo-Fr 09:00-21:00; Sa 09:00-19:00",
                "website": "https://clinica-voita.ru/"
            },
            {
                "amenity": "doctors",
                "contact:vk": "https://vk.com/volkovabeauty",
                "healthcare": "doctor",
                "name": "Центр медицинской косметологии Оксаны Волковой",
                "opening_hours": "10:00-20:00",
                "operator": "ООО «Бьюти»",
                "website": "http://volkovabeauty.ru/"
            },
            {
                "alt_name": "Ньюмед",
                "amenity": "doctors",
                "contact:vk": "https://vk.com/academia_tkm",
                "healthcare": "doctor",
                "medical_system:chinese": "yes",
                "name": "Ли Вест",
                "website": "http://www.newmed-portal.ru/"
            },
            {
                "amenity": "doctors",
                "contact:vk": "https://vk.com/krasotamed",
                "healthcare": "doctor",
                "name": "Бионика",
                "opening_hours": "10:00-21:00",
                "operator": "ООО «Планета красоты»",
                "website": "http://www.krasotamed.ru/"
            },
            {
                "amenity": "doctors",
                "contact:vk": "https://vk.com/club95046756",
                "healthcare": "doctor",
                "name": "ИммуноБиоСервис",
                "opening_hours": "Mo-Fr 08:00-19:00",
                "operator": "ООО НПП «ИммуноБиоСервис»",
                "website": "http://www.immunobios.ru/"
            },
            {
                "amenity": "doctors",
                "contact:vk": "https://vk.com/clinica_gromovoi",
                "healthcare": "doctor",
                "name": "Клиника Громовой С.Б.",
                "opening_hours": "09:00-21:00",
                "website": "http://clinica-gromovoi.ru/"
            },
            {
                "amenity": "doctors",
                "healthcare": "doctor",
                "name": "Преображение",
                "note": "вход во дворе",
                "website": "http://preobragenie.spb.ru/"
            },
            {
                "amenity": "doctors",
                "contact:vk": "https://vk.com/clinica_tibet",
                "healthcare": "doctor",
                "medical_system:tibetan": "yes",
                "name": "Тибет",
                "opening_hours": "09:00-21:00",
                "website": "https://www.clinica-tibet.ru/"
            },
            {
                "amenity": "doctors",
                "contact:vk": "https://vk.com/amilamedi",
                "healthcare": "doctor",
                "name": "Амила-Меди",
                "website": "https://www.amilamedi.com/"
            },
            {
                "amenity": "doctors",
                "contact:vk": "https://vk.com/clinicadrvoita",
                "healthcare": "doctor",
                "name": "Клиника доктора Войта",
                "website": "https://clinica-voita.ru/"
            },
            {
                "amenity": "doctors",
                "contact:vk": "https://vk.com/gruzdev_clinic",
                "healthcare": "doctor",
                "name": "Клиника доктора Груздева",
                "opening_hours": "09:00-21:00",
                "website": "https://www.gruzdevclinic.ru/"
            },
            {
                "amenity": "doctors",
                "healthcare": "doctor",
                "name": "Центр лечения волос",
                "opening_hours": "Mo-Fr 11:00-21:00; Sa 11:00-19:00",
                "website": "http://www.doctorvolos-spb.ru/"
            },
            {
                "amenity": "doctors",
                "contact:vk": "https://vk.com/helenbirkofficial",
                "name": "Helen Birk",
                "opening_hours": "10:00-20:00",
                "operator": "ООО «Монплезир»",
                "website": "https://helenbirk.ru/"
            }
        ]
    },
    "butcher": {
        "count": 1,
        "detail": [
            {
                "brand": "Великолукский мясокомбинат",
                "brand:wikidata": "Q18401767",
                "brand:wikipedia": "ru:Великолукский мясокомбинат",
                "name": "Великолукский мясокомбинат",
                "opening_hours": "Mo 10:00-22:00; Tu-Sa 09:00-22:00; Su 09:00-21:00",
                "operator": "ООО «Меркурий»",
                "shop": "butcher"
            }
        ]
    },
    "doityourself": {
        "count": 1,
        "detail": [
            {
                "description": "Подарки, хоз. товары",
                "name": "Всё для дома",
                "opening_hours": "Mo-Fr 08:30-22:00; Sa-Su 08:30-21:00",
                "shop": "doityourself"
            }
        ]
    },
    "stationery": {
        "count": 1,
        "detail": [
            {
                "brand": "Комус",
                "brand:en": "Komus",
                "brand:wikidata": "Q4230314",
                "brand:wikipedia": "en:Komus (company)",
                "contact:vk": "https://vk.com/komus_club",
                "int_name": "Komus",
                "name": "Комус",
                "name:en": "Komus",
                "opening_hours": "Mo-Fr 09:00-21:00; Sa-Su 10:00-20:00",
                "operator": "ООО «Комус-Петербург»",
                "shop": "stationery",
                "website": "https://www.komus.ru/store/sankt-peterburg/tts-nekrasovskij/s/54/",
                "wheelchair": "no"
            }
        ]
    },
    "beauty": {
        "count": 15,
        "detail": [
            {
                "name": "Парадиз",
                "shop": "beauty",
                "website": "https://paradiz2000.ru/",
                "contact:vk": "https://vk.com/paradiz_salon"
            },
            {
                "name": "Lookas",
                "note": "вход через арку",
                "shop": "beauty",
                "website": "http://salonlookas.ru/",
                "contact:vk": "https://vk.com/lookas"
            },
            {
                "name": "Alkazar",
                "shop": "beauty",
                "website": "https://alkazar.biz/",
                "contact:vk": "https://vk.com/alkazarsalon",
                "wheelchair": "no",
                "opening_hours": "Mo-Su 10:00-21:00"
            },
            {
                "contact:email": "kistochki.life@gmail.com",
                "contact:instagram": "https://instagram.com/kistochki_life_spb",
                "contact:phone": "+7 981 9961313",
                "contact:vk": "https://vk.com/kistochki_nails",
                "contact:website": "https://kistochki.ru/",
                "description": "Маникюр, педикюр",
                "name": "Kistochki",
                "opening_hours": "Mo-Su 09:00-23:00",
                "operator": "KISTOCHKI",
                "shop": "beauty"
            },
            {
                "name": "Magnifique",
                "shop": "beauty",
                "contact:vk": "https://vk.com/magnifiquebeauty",
                "opening_hours": "11:00-22:00"
            },
            {
                "contact:vk": "https://vk.com/radosty_spb",
                "name": "Радости",
                "opening_hours": "Mo-Su 10:00-22:00",
                "shop": "beauty"
            },
            {
                "name": "Avanti",
                "shop": "beauty",
                "phone": "+7 812 9343037",
                "website": "https://avantistudio.ru/",
                "contact:vk": "https://vk.com/club146826605",
                "addr:street": "Манежный переулок",
                "opening_hours": "Mo-Su 10:00-21:00",
                "internet_access": "wlan",
                "addr:housenumber": "5"
            },
            {
                "name": "Сандал",
                "shop": "beauty",
                "contact:vk": "https://vk.com/club31517280",
                "opening_hours": "10:00-21:00"
            },
            {
                "alt_name": "Пилки",
                "check_date:opening_hours": "2020-09-01",
                "contact:vk": "https://vk.com/pilkinail",
                "name": "ПиLки",
                "opening_hours": "09:00-23:00",
                "operator": "ИП Сенина Н.В.",
                "shop": "beauty",
                "website": "https://pilkinail.ru/"
            },
            {
                "name": "Kabinet",
                "shop": "beauty",
                "reservation": "required",
                "contact:instagram": "https://www.instagram.com/kabinet_hair_sevil/"
            },
            {
                "name": "Ля Руж",
                "shop": "beauty",
                "contact:vk": "https://vk.com/larougespb",
                "opening_hours": "10:00-22:00"
            },
            {
                "name": "Клео",
                "shop": "beauty",
                "operator": "ООО «Клео»",
                "opening_hours": "Mo-Fr 10:00-21:00; Sa-Su 10:00-20:00"
            },
            {
                "contact:facebook": "mamsterdamspb",
                "contact:instagram": "mamsterdam.spb",
                "contact:vk": "mamsterdamspb",
                "kids_area": "yes",
                "name": "Мамстердам",
                "note": "вход под аркой",
                "opening_hours": "10:00-21:00",
                "phone": "+7 981 1332828",
                "shop": "beauty",
                "website": "http://mamsterdam.ru/"
            },
            {
                "name": "SunPoint",
                "shop": "beauty",
                "website": "https://sunpoint.ru/",
                "contact:vk": "https://vk.com/sunpoint"
            },
            {
                "name": "Симметрия",
                "shop": "beauty",
                "website": "http://simmetriyaspa.ru/",
                "contact:vk": "https://vk.com/simmetriyaspa"
            }
        ]
    },
    "mobile_phone": {
        "count": 4,
        "detail": [
            {
                "brand": "МТС",
                "brand:en": "MTS",
                "brand:wikidata": "Q1368919",
                "brand:wikipedia": "en:MTS (network provider)",
                "contact:vk": "https://vk.com/mts",
                "name": "МТС",
                "name:en": "MTS",
                "opening_hours": "09:00-22:00",
                "shop": "mobile_phone",
                "website": "https://spb.mts.ru/",
                "wheelchair": "no"
            },
            {
                "name": "Центр связи",
                "shop": "mobile_phone",
                "website": "https://centrsvyazi.ru/",
                "contact:vk": "https://vk.com/centrsvyazi",
                "wheelchair": "no",
                "opening_hours": "11:00-21:00"
            },
            {
                "name": "iService",
                "shop": "mobile_phone",
                "website": "https://shop.9282922.ru/",
                "contact:vk": "https://vk.com/iservice.club",
                "opening_hours": "Mo-Fr 10:00-20:00; Sa 11:00-20:00; Su 11:00-19:00"
            },
            {
                "brand": "Tele2",
                "brand:wikidata": "Q309865",
                "brand:wikipedia": "en:Tele2",
                "contact:vk": "https://vk.com/tele2",
                "name": "Tele2",
                "opening_hours": "09:00-21:00",
                "shop": "mobile_phone",
                "website": "https://spb.tele2.ru/"
            }
        ]
    },
    "chemist": {
        "count": 1,
        "detail": [
            {
                "name": "Скарлетт",
                "opening_hours": "09:00-22:00",
                "shop": "chemist",
                "website": "http://scarlett-group.ru/",
                "wheelchair": "no"
            }
        ]
    },
    "bank": {
        "count": 5,
        "detail": [
            {
                "amenity": "bank",
                "branch": "Отделение \"Кирочная улица\"",
                "brand": "Райффайзен",
                "brand:en": "Raiffeisenbank",
                "brand:ru": "Райффайзен",
                "brand:wikidata": "Q4389244",
                "brand:wikipedia": "en:Raiffeisenbank (Russia)",
                "name": "Райффайзен",
                "name:en": "Raiffeisenbank",
                "name:ru": "Райффайзен",
                "opening_hours": "Mo-Fr 11:00-20:00; Sa 11:00-17:00",
                "operator": "Райффайзен",
                "website": "https://raiffeisen.ru/",
                "wheelchair": "no"
            },
            {
                "name": "НеваСтройИнвест",
                "amenity": "bank",
                "website": "http://www.nsvbank.ru/",
                "opening_hours": "Mo-Th 10:00-19:00; Fr 10:00-17:45"
            },
            {
                "alt_name": "ЮниКредит Банк",
                "amenity": "bank",
                "atm": "yes",
                "brand": "UniCredit",
                "brand:wikidata": "Q45568",
                "brand:wikipedia": "en:UniCredit",
                "contact:vk": "https://vk.com/unicreditbank",
                "int_name": "UniCredit Bank",
                "name": "ЮниКредит Банк",
                "opening_hours": "Mo-Th 09:00-20:00; Fr 09:00-19:00; Sa 10:00-17:00",
                "operator": "АО «ЮниКредит Банк»",
                "operator:wikidata": "Q727011",
                "website": "https://www.unicreditbank.ru/"
            },
            {
                "amenity": "bank",
                "brand": "Росбанк",
                "brand:en": "Rosbank",
                "brand:ru": "Росбанк",
                "brand:wikidata": "Q1119857",
                "brand:wikipedia": "en:Rosbank",
                "contact:vk": "https://vk.com/rosbank",
                "name": "Росбанк",
                "name:en": "Rosbank",
                "name:ru": "Росбанк",
                "opening_hours": "24/7",
                "website": "https://www.rosbank.ru/ru/offices/detail/sankt-peterburg_i_leningradskaya_oblast1/CHernyshevskij/",
                "wheelchair": "no"
            },
            {
                "name": "Вологжанин",
                "amenity": "bank",
                "website": "https://bankvl.ru/",
                "contact:vk": "https://vk.com/bankvl",
                "opening_hours": "Mo-Th 09:00-17:00; Fr 09:00-16:00; 13:00-13:45 off"
            }
        ]
    },
    "supermarket": {
        "count": 2,
        "detail": [
            {
                "name": "РеалЪ",
                "shop": "supermarket",
                "website": "http://www.tdreal.spb.ru/?page=20",
                "operator": "ООО «Торговый дом «Реалъ»",
                "contact:vk": "https://vk.com/real_svezhie_produkty",
                "opening_hours": "24/7"
            },
            {
                "contact:vk": "https://vk.com/nipponsupermarket",
                "delivery": "yes",
                "description": "японский супермаркет",
                "name": "Nippon",
                "name:ru": "Ниппон",
                "opening_hours": "10:00-22:00",
                "origin": "japanese",
                "payment:credit_cards": "yes",
                "payment:debit_cards": "yes",
                "shop": "supermarket",
                "website": "https://nippononline.ru/",
                "wheelchair": "no"
            }
        ]
    },
    "fabric": {
        "count": 3,
        "detail": [
            {
                "name": "Швейные машины",
                "shop": "fabric",
                "description": "также нитки, пуговицы, товары для шитья"
            },
            {
                "name": "Mia Moda",
                "shop": "fabric",
                "website": "https://tkanimiamoda.ru/",
                "contact:vk": "https://vk.com/tkanimiamoda",
                "opening_hours": "10:00-21:00"
            },
            {
                "name": "Ткани №13",
                "shop": "fabric",
                "website": "https://tkani13.ru/",
                "int_name": "Numero Tredici",
                "contact:vk": "https://vk.com/numero_tredici",
                "opening_hours": "Mo-Fr 10:00-20:00; Sa-Su 11:00-19:00"
            }
        ]
    },
    "waste_disposal": {
        "count": 4,
        "detail": [
            {
                "amenity": "waste_disposal"
            },
            {
                "amenity": "waste_disposal"
            },
            {
                "amenity": "waste_disposal"
            },
            {
                "amenity": "waste_disposal"
            }
        ]
    },
    "copyshop;gift": {
        "count": 1,
        "detail": [
            {
                "name": "HiStudio",
                "shop": "copyshop;gift",
                "craft": "photographer",
                "website": "http://histudio.ru/",
                "alt_name": "Simplyprint;ToDigit",
                "opening_hours": "Mo-Fr 10:00-20:00; Sa-Su 11:00-19:00"
            }
        ]
    },
    "alcohol": {
        "count": 6,
        "detail": [
            {
                "addr:housenumber": "1/14",
                "addr:street": "Фурштатская улица",
                "name": "Каудаль",
                "opening_hours": "Mo-Sa 11:00-22:00; Su 11:00-21:00",
                "operator": "ООО \"Каудаль-СПб\"",
                "shop": "alcohol",
                "website": "https://caudal.ru/piter2",
                "wheelchair": "no"
            },
            {
                "alt_name": "Калейдоскоп напитков мира",
                "contact:vk": "https://vk.com/napitkimiracom",
                "name": "Напитки мира",
                "opening_hours": "10:00-22:00",
                "shop": "alcohol",
                "website": "https://www.napitkimira.com/magaziny/kaleydoskop-na-furshtatskoy-3/"
            },
            {
                "name": "Merula",
                "shop": "alcohol",
                "contact:vk": "https://vk.com/merulaspb",
                "wheelchair": "no",
                "opening_hours": "Su-Th 14:00-00:00, Fr-Sa 14:00-02:00"
            },
            {
                "name": "Градусы всего мира",
                "shop": "alcohol",
                "website": "http://www.gradusi.net/shops/spb/567/",
                "operator": "ООО «Брют»",
                "contact:vk": "https://vk.com/gradusi_market",
                "wheelchair": "no",
                "opening_hours": "Mo-Su,PH 09:00-22:00"
            },
            {
                "brand": "Красное & Белое",
                "brand:en": "Red&White",
                "brand:wikidata": "Q24933790",
                "brand:wikipedia": "en:Krasnoe & Beloe",
                "name": "Красное & Белое",
                "name:en": "Red&White",
                "opening_hours": "Mo-Su 09:00-22:05",
                "shop": "alcohol",
                "website": "https://krasnoeibeloe.ru/"
            },
            {
                "brand": "Красное & Белое",
                "brand:en": "Red&White",
                "brand:wikidata": "Q24933790",
                "brand:wikipedia": "en:Krasnoe & Beloe",
                "name": "Красное & Белое",
                "name:en": "Red&White",
                "opening_hours": "Mo-Su 09:00-22:05",
                "shop": "alcohol"
            }
        ]
    },
    "pet": {
        "count": 3,
        "detail": [
            {
                "name": "Вака",
                "shop": "pet",
                "website": "http://www.vaka.ru/all-zoomagazin-vaka/351-vaka10",
                "operator": "ООО «Биосфера»",
                "contact:vk": "https://vk.com/zoomagazinvaka",
                "opening_hours": "10:00-21:00"
            },
            {
                "name": "Филя",
                "shop": "pet",
                "website": "https://www.zootovar-spb.ru/magazin/kirochnaya-7.htm",
                "operator": "ИП Дреничев А.А.",
                "contact:vk": "https://vk.com/zootovarfilya",
                "opening_hours": "Mo-Su,PH 10:00-21:00"
            },
            {
                "name": "Petshop.ru",
                "shop": "pet",
                "website": "https://www.petshop.ru/",
                "contact:vk": "https://vk.com/club57",
                "opening_hours": "09:00-22:00"
            }
        ]
    },
    "fishing": {
        "count": 1,
        "detail": [
            {
                "name": "OK Lures",
                "shop": "fishing",
                "operator": "ИП Ефимов И.А.",
                "addr:city": "Санкт-Петербург",
                "addr:postcode": "191028",
                "opening_hours": "09:00-21:00",
                "contact:website": "https://vk.com/oklures"
            }
        ]
    },
    "shoes": {
        "count": 1,
        "detail": [
            {
                "name": "The Bootleggers",
                "shop": "shoes",
                "website": "http://the-bootleggers.ru/",
                "contact:vk": "https://vk.com/the_bootleggers",
                "wheelchair": "no",
                "opening_hours": "Mo-Su 12:00-21:00"
            }
        ]
    },
    "medical_supply": {
        "count": 2,
        "detail": [
            {
                "name": "Кладовая здоровья",
                "shop": "medical_supply",
                "phone": "+7 800 3334111",
                "website": "https://kladzdor.ru/adresa-magazinov/sankt-peterburg/kirochnaya-ul-d-13/",
                "contact:vk": "https://vk.com/kladovaya_zdorovya",
                "opening_hours": "Mo-Fr 10:00-21:00; Sa 10:00-20:00; Su 11:00-20:00",
                "medical_supply": "orthopedic"
            },
            {
                "contact:email": "bonneclinique@bn-cl.ru",
                "contact:instagram": "https://instagram.com/bonne.clinique",
                "contact:phone": "+7 812 9038008",
                "contact:vk": "https://vk.com/bonne_clinique",
                "contact:website": "https://www.bn-cl.ru/",
                "name": "Bonne Clinique",
                "opening_hours": "Mo-Su 10:00-20:00",
                "operator": "Bonne Clinique",
                "shop": "medical_supply"
            }
        ]
    },
    "coffee": {
        "count": 2,
        "detail": [
            {
                "name": "Мир Эспрессо",
                "shop": "coffee",
                "website": "https://www.mirespresso.ru/shops/shop-spb3.php",
                "contact:vk": "https://vk.com/spbespresso",
                "opening_hours": "Mo-Fr 09:00-20:00; Sa-Su 10:00-20:00"
            },
            {
                "name": "Унция",
                "shop": "coffee",
                "level": "0",
                "website": "https://www.chay.info/",
                "contact:vk": "https://vk.com/teaounce",
                "opening_hours": "Mo-Su 10:00-22:00"
            }
        ]
    },
    "toys": {
        "count": 1,
        "detail": [
            {
                "name": "Коллекция игрушек",
                "shop": "toys",
                "website": "http://www.toycollection.ru/",
                "operator": "ООО «Коллекция»",
                "opening_hours": "10:00-21:00"
            }
        ]
    },
    "florist": {
        "count": 5,
        "detail": [
            {
                "name": "Цветочный блюз",
                "shop": "florist",
                "operator": "ИП \"Погорелова И.В.\"",
                "contact:vk": "https://vk.com/fantasysp",
                "opening_hours": "24/7"
            },
            {
                "name": "#F42",
                "shop": "florist",
                "website": "https://www.f42.co/",
                "contact:vk": "https://vk.com/spbf42",
                "opening_hours": "10:00-20:00"
            },
            {
                "building": "kiosk",
                "shop": "florist",
                "wheelchair": "no"
            },
            {
                "name": "Лавка цветов",
                "shop": "florist",
                "website": "http://www.lavkafl.ru/",
                "contact:vk": "https://vk.com/lavka_of_flowers"
            },
            {
                "name": "Дом Цветов",
                "shop": "florist",
                "website": "http://www.dcvetov.ru/",
                "contact:vk": "https://vk.com/dcvetov",
                "opening_hours": "09:00-21:00"
            }
        ]
    },
    "cosmetics": {
        "count": 3,
        "detail": [
            {
                "check_date:opening_hours": "2020-09-22",
                "contact:vk": "https://vk.com/industry_of_beauty",
                "description": "Косметика для волос",
                "name": "Индустрия красоты",
                "name:en": "Industry of Beauty",
                "name:ru": "Индустрия красоты",
                "opening_hours": "10:00-21:00",
                "operator": "ООО «Индустрия красоты»",
                "shop": "cosmetics",
                "website": "http://ib-spb.ru/"
            },
            {
                "brand": "Рив Гош",
                "brand:wikidata": "Q4394330",
                "check_date:opening_hours": "2020-09-01",
                "contact:vk": "https://vk.com/rivegauche",
                "name": "Рив Гош",
                "opening_hours": "Su-Th 10:00-21:00; Fr-Sa 10:00-22:00",
                "operator": "ООО «АромаЛюкс»",
                "payment:mastercard": "yes",
                "payment:visa": "yes",
                "phone": "+7 812 2735395",
                "shop": "cosmetics",
                "website": "http://www.rivegauche.ru/content/pr-chernyshevskogo-17a-3"
            },
            {
                "name": "Manly Pro",
                "shop": "cosmetics",
                "website": "https://www.manlycosmetics.ru/",
                "opening_hours": "11:00-20:00"
            }
        ]
    },
    "clinic": {
        "count": 2,
        "detail": [
            {
                "addr:city": "Санкт-Петербург",
                "addr:housenumber": "15",
                "addr:postcode": "191123",
                "addr:street": "улица Рылеева",
                "amenity": "clinic",
                "healthcare": "clinic",
                "name": "Росмед Плюс",
                "opening_hours": "Mo-Fr 08:00-20:00; Sa 10:00-17:00",
                "phone": "+7 812 4383338",
                "website": "http://rosmedplus.ru/"
            },
            {
                "amenity": "clinic",
                "contact:vk": "https://vk.com/linlineclinic",
                "healthcare": "clinic",
                "name": "Линлайн",
                "opening_hours": "09:00-21:00",
                "phone": "+7 800 7007911",
                "website": "https://www.linline-clinic.ru/st-petersburg/artilleriyskaya.html"
            }
        ]
    },
    "bench": {
        "count": 11,
        "detail": [
            {
                "seats": "4",
                "amenity": "bench",
                "backrest": "yes",
                "material": "wood"
            },
            {
                "seats": "4",
                "amenity": "bench",
                "backrest": "yes",
                "material": "wood"
            },
            {
                "seats": "4",
                "amenity": "bench",
                "backrest": "yes",
                "material": "wood"
            },
            {
                "seats": "4",
                "amenity": "bench",
                "backrest": "yes",
                "material": "wood"
            },
            {
                "seats": "4",
                "amenity": "bench",
                "backrest": "yes",
                "material": "wood"
            },
            {
                "seats": "4",
                "amenity": "bench",
                "backrest": "yes",
                "material": "wood"
            },
            {
                "seats": "4",
                "amenity": "bench",
                "backrest": "yes",
                "material": "wood"
            },
            {
                "seats": "4",
                "amenity": "bench",
                "backrest": "yes",
                "material": "wood"
            },
            {
                "seats": "4",
                "amenity": "bench",
                "backrest": "yes",
                "material": "wood"
            },
            {
                "amenity": "bench",
                "backrest": "yes"
            },
            {
                "amenity": "bench",
                "backrest": "no",
                "colour": "brown",
                "material": "wood",
                "seats": "3"
            }
        ]
    },
    "jewelry": {
        "count": 2,
        "detail": [
            {
                "name": "Стильное серебро",
                "shop": "jewelry",
                "website": "https://www.stilnoeserebro.ru/",
                "operator": "ИП Поленов Г.А.",
                "contact:vk": "https://vk.com/stilnoeserebro",
                "opening_hours": "Mo-Fr 10:00-21:00; Sa-Su 11:00-20:00"
            },
            {
                "name": "Albamonte Gioielli",
                "shop": "jewelry",
                "website": "http://www.albamonte.ru/",
                "opening_hours": "11:00-20:00"
            }
        ]
    },
    "bicycle_parking": {
        "count": 5,
        "detail": [
            {
                "fee": "no",
                "access": "yes",
                "amenity": "bicycle_parking",
                "bicycle_parking": "wall_loops"
            },
            {
                "amenity": "bicycle_parking",
                "bicycle_parking": "wall_loops",
                "capacity": "17",
                "covered": "yes"
            },
            {
                "amenity": "bicycle_parking",
                "bicycle_parking": "wall_loops",
                "capacity": "17",
                "covered": "yes"
            },
            {
                "amenity": "bicycle_parking",
                "bicycle_parking": "wall_loops",
                "capacity": "3",
                "covered": "no"
            },
            {
                "access": "yes",
                "amenity": "bicycle_parking",
                "capacity": "7",
                "covered": "no"
            }
        ]
    },
    "post_box": {
        "count": 4,
        "detail": [
            {
                "ref": "105",
                "amenity": "post_box",
                "operator": "Почта России",
                "design:year": "2010",
                "drive_through": "no",
                "post_box:type": "wall",
                "post_box:design": "ЯПНМ-II-С",
                "collection_times": "Mo-Fr 05:40,15:05; Sa 10:20; Su 15:05"
            },
            {
                "ref": "57",
                "amenity": "post_box",
                "operator": "Почта России",
                "design:year": "2010",
                "drive_through": "no",
                "post_box:type": "wall",
                "post_box:design": "ЯПНМ-II-С",
                "collection_times": "Mo-Fr 04:10,12:30; Sa 08:10; Su 12:30"
            },
            {
                "ref": "300",
                "indoor": "yes",
                "amenity": "post_box",
                "operator": "Почта России",
                "drive_through": "no",
                "opening_hours": "Mo-Fr 08:00-13:00,14:00-20:00; Sa 09:00-13:00,14:00-18:00; Su off",
                "post_box:type": "wall",
                "collection_times": "Mo-Sa 09:40"
            },
            {
                "amenity": "post_box",
                "collection_times": "Mo-Fr 05:50;15:15; Sa 10:30; Su 15:15",
                "design:year": "2010",
                "drive_through": "no",
                "operator": "Почта России",
                "post_box:design": "ЯПНМ-II-С",
                "post_box:type": "wall",
                "ref": "106"
            }
        ]
    },
    "clock": {
        "count": 2,
        "detail": [
            {
                "amenity": "clock",
                "display": "analog",
                "support": "wall_mounted"
            },
            {
                "amenity": "clock",
                "display": "analog",
                "support": "wall_mounted"
            }
        ]
    },
    "waste_basket": {
        "count": 2,
        "detail": [
            {
                "amenity": "waste_basket"
            },
            {
                "amenity": "waste_basket"
            }
        ]
    },
    "post_locker": {
        "count": 1,
        "detail": [
            {
                "amenity": "post_locker",
                "operator": "Почта России"
            }
        ]
    },
    "training": {
        "count": 3,
        "detail": [
            {
                "amenity": "training",
                "contact:vk": "https://vk.com/sfera_uspeha",
                "name": "Сфера успеха",
                "website": "https://sfera-uspeha.ru/"
            },
            {
                "name": "РасЦвет",
                "amenity": "training",
                "contact:vk": "https://vk.com/academstudia",
                "description": "студия живописи и рисунка для взрослых"
            },
            {
                "name": "Гигарт",
                "amenity": "training",
                "contact:vk": "https://vk.com/club29844921",
                "description": "Художественная школа для взрослых"
            }
        ]
    },
    "courthouse": {
        "count": 1,
        "detail": [
            {
                "amenity": "courthouse",
                "name": "Мировой судья, участок №200",
                "opening_hours": "Mo 10:00-13:00; We 14:00-18:00",
                "website": "https://mirsud.spb.ru/court-sites/200/"
            }
        ]
    },
    "massage": {
        "count": 1,
        "detail": [
            {
                "name": "Royal Thai",
                "shop": "massage",
                "massage": "thai",
                "website": "http://www.royalthai.ru/salons/royal-thai-furshtatskaya/",
                "contact:vk": "https://vk.com/royal_thai",
                "opening_hours": "10:00-22:00"
            }
        ]
    },
    "copyshop": {
        "count": 3,
        "detail": [
            {
                "email": "krot.rus@mail.ru",
                "internet_access": "terminal",
                "internet_access:fee": "yes",
                "name": "Фотокопировальный центр",
                "opening_hours": "Mo-Fr 09:30-18:00",
                "phone": "+7 911 9513772",
                "shop": "copyshop"
            },
            {
                "addr:housenumber": "17 литА",
                "addr:street": "проспект Чернышевского",
                "internet_access": "wlan",
                "level": "1",
                "name": "копигрупп.ру",
                "opening_hours": "Mo-Fr 09:00-21:00; Sa, Su 10:00-20:00",
                "phone": "+7 921 9774080",
                "shop": "copyshop"
            },
            {
                "shop": "copyshop",
                "craft": "photographer",
                "level": "-1",
                "contact:vk": "https://vk.com/foto.spb16"
            }
        ]
    },
    "flooring": {
        "count": 1,
        "detail": [
            {
                "name": "Legno",
                "shop": "flooring",
                "website": "http://legnospb.ru/"
            }
        ]
    },
    "kindergarten": {
        "count": 5,
        "detail": [
            {
                "name": "Детский сад №39",
                "amenity": "kindergarten",
                "website": "http://gbdou39.ru/"
            },
            {
                "name": "Детский сад №75",
                "amenity": "kindergarten",
                "website": "http://detsad75.ru/"
            },
            {
                "name": "Детский сад №72",
                "amenity": "kindergarten",
                "website": "http://dou72center.caduk.ru/"
            },
            {
                "amenity": "kindergarten"
            },
            {
                "addr:city": "Санкт-Петербург",
                "addr:country": "RU",
                "addr:housenumber": "2",
                "addr:street": "Сапёрный переулок",
                "amenity": "kindergarten",
                "building": "yes",
                "name": "Детский сад № 81",
                "website": "http://gbdou81.ru/"
            }
        ]
    },
    "greengrocer": {
        "count": 2,
        "detail": [
            {
                "shop": "greengrocer",
                "building": "kiosk"
            },
            {
                "name": "Фруктовый рай",
                "shop": "greengrocer"
            }
        ]
    },
    "computer": {
        "count": 1,
        "detail": [
            {
                "name": "ET Company",
                "opening_hours": "Mo-Fr 10:00-19:00",
                "shop": "computer",
                "website": "https://www.etcompany.ru/"
            }
        ]
    },
    "playground": {
        "count": 2,
        "detail": [
            {
                "leisure": "playground"
            },
            {
                "leisure": "playground"
            }
        ]
    },
    "police": {
        "count": 2,
        "detail": [
            {
                "name": "Отряд специального назначения «Гром»",
                "amenity": "police"
            },
            {
                "name": "Управление уголовного розыска",
                "amenity": "police"
            }
        ]
    },
    "art": {
        "count": 2,
        "detail": [
            {
                "name": "ArtExplorer",
                "shop": "art",
                "website": "https://www.artexplorer.ru/"
            },
            {
                "name": "Русский портрет",
                "shop": "art",
                "website": "http://rupo.ru/",
                "opening_hours": "10:00-20:00"
            }
        ]
    },
    "tea": {
        "count": 3,
        "detail": [
            {
                "name": "Чайный остров",
                "shop": "tea",
                "website": "http://tea-ostrov.ru/",
                "operator": "ИП Краснова Ольга Михайловна",
                "opening_hours": "Mo-Sa 09:00-21:00; Su 10:00-19:00"
            },
            {
                "name": "Море чая",
                "shop": "tea",
                "website": "http://morecha.ru/",
                "contact:vk": "https://vk.com/morecha",
                "opening_hours": "09:00-21:00"
            },
            {
                "addr:housenumber": "2/6",
                "addr:street": "улица Рылеева",
                "contact:instagram": "artoftearu",
                "contact:vk": "theartoftea",
                "name": "Art of Tea",
                "opening_hours": "Mo-Su 12:00-21:00",
                "payment:cash": "yes",
                "payment:credit_cards": "yes",
                "phone": "+7 800 301-85-88",
                "shop": "tea",
                "website": "https://artoftea.ru/"
            }
        ]
    },
    "confectionery": {
        "count": 1,
        "detail": [
            {
                "name": "Мечта",
                "shop": "confectionery",
                "opening_hours": "Mo-Sa 09:00-21:00; Su 10:00-19:00"
            }
        ]
    },
    "school": {
        "count": 3,
        "detail": [
            {
                "amenity": "school",
                "contact:vk": "https://vk.com/chastnayashkolaspb",
                "name": "Балтика-колледж",
                "website": "https://www.baltica-college.ru/"
            },
            {
                "addr:housenumber": "8 литБ",
                "addr:letter": "Б",
                "addr:postcode": "191028",
                "addr:street": "Кирочная улица",
                "amenity": "school",
                "building": "yes",
                "building:levels": "3",
                "contact:email": "info.lic239@obr.gov.spb.ru",
                "contact:phone": "+7 812 2729668",
                "contact:vk": "https://vk.com/club45",
                "contact:website": "http://www.239.ru",
                "name": "Физико-математический лицей № 239",
                "official_name": "Государственное бюджетное общеобразовательное учреждение «Президентский физико-математический лицей № 239»",
                "ref": "239"
            },
            {
                "building": "school",
                "addr:city": "Санкт-Петербург",
                "addr:street": "улица Пестеля",
                "addr:postcode": "191028",
                "building:levels": "4",
                "addr:housenumber": "16Б"
            }
        ]
    },
    "dance": {
        "count": 1,
        "detail": [
            {
                "name": "Орденанс",
                "leisure": "dance",
                "website": "http://ordenans.spb.ru/",
                "dance:teaching": "yes"
            }
        ]
    },
    "pharmacy": {
        "count": 1,
        "detail": [
            {
                "amenity": "pharmacy",
                "healthcare": "pharmacy",
                "level": "1",
                "name": "Аптекаръ",
                "opening_hours": "24/7",
                "payment:credit_cards": "yes",
                "payment:debit_cards": "yes",
                "phone": "+7 911 9208018",
                "wheelchair": "no"
            }
        ]
    },
    "sports": {
        "count": 1,
        "detail": [
            {
                "name": "Теннис",
                "opening_hours": "Mo-Fr 11:00-20:00; Sa,Su 12:00-19:00",
                "shop": "sports"
            }
        ]
    },
    "telecommunication": {
        "count": 1,
        "detail": [
            {
                "brand": "Ростелеком",
                "brand:wikidata": "Q1477012",
                "brand:wikipedia": "en:Rostelecom",
                "contact:vk": "https://vk.com/rostelecom",
                "name": "Ростелеком",
                "opening_hours": "09:00-21:00",
                "operator": "ООО «Ростелеком — Розничные Системы»",
                "shop": "telecommunication",
                "website": "https://spb.rt.ru/"
            }
        ]
    },
    "craft": {
        "count": 1,
        "detail": [
            {
                "name": "Scrapbooking",
                "shop": "craft",
                "website": "https://www.scrapbooksale.ru/",
                "contact:vk": "https://vk.com/scrapbooksale"
            }
        ]
    },
    "language_school": {
        "count": 1,
        "detail": [
            {
                "name": "Infinitive",
                "amenity": "language_school",
                "website": "https://infinitive-spb.ru/",
                "contact:vk": "https://vk.com/infinitive_school",
                "opening_hours": "Mo-Fr 10:00-22:00; Sa 10:00-14:00"
            }
        ]
    },
    "outdoor": {
        "count": 1,
        "detail": [
            {
                "name": "5.11 Tactical",
                "shop": "outdoor",
                "brand": "5.11 Tactical",
                "website": "https://11tactical.ru/",
                "contact:vk": "https://vk.com/11tactical",
                "opening_hours": "09:00-21:00",
                "brand:wikidata": "Q16158685"
            }
        ]
    },
    "sewing": {
        "count": 1,
        "detail": [
            {
                "name": "Клубок",
                "shop": "sewing",
                "contact:vk": "https://vk.com/klubokrukodelie"
            }
        ]
    },
    "driving_school": {
        "count": 1,
        "detail": [
            {
                "name": "Движение",
                "amenity": "driving_school",
                "website": "https://www.3342221.ru/adresa-obucheniya/furshtatskaya/",
                "contact:vk": "https://vk.com/club45148964",
                "opening_hours": "Mo-Fr 12:00-20:00"
            }
        ]
    },
    "dairy": {
        "count": 1,
        "detail": [
            {
                "name": "Сырный сомелье",
                "shop": "dairy",
                "website": "https://chesom.com/",
                "contact:vk": "https://vk.com/chesomspb",
                "opening_hours": "10:00-22:00"
            }
        ]
    },
    "events_venue": {
        "count": 2,
        "detail": [
            {
                "name": "Кочубей Клуб",
                "amenity": "events_venue",
                "website": "https://www.kochubeyclub.com/",
                "contact:vk": "https://vk.com/kochubeyclub"
            },
            {
                "name": "Дом Гнома",
                "amenity": "events_venue",
                "operator": "ООО «Уютный дом»",
                "contact:vk": "https://vk.com/domgnomaclub",
                "opening_hours": "Mo-Fr 11:00-19:00"
            }
        ]
    },
    "video_games": {
        "count": 1,
        "detail": [
            {
                "name": "GameLife",
                "shop": "video_games",
                "level": "-1",
                "website": "https://gamelifeshop.ru/",
                "contact:vk": "https://vk.com/gameliferucom"
            }
        ]
    },
    "arts_centre": {
        "count": 1,
        "detail": [
            {
                "name": "Винсент",
                "amenity": "arts_centre",
                "website": "http://www.курсы-рисования-спб.рф/",
                "alt_name": "Винцент",
                "int_name": "Vincent",
                "contact:vk": "https://vk.com/vincentspb"
            }
        ]
    },
    "hookah_lounge": {
        "count": 1,
        "detail": [
            {
                "amenity": "hookah_lounge",
                "cuisine": "local",
                "email": "serega-lebedev-2013@mail.ru",
                "internet_access": "wlan",
                "name": "HookahMania",
                "name:en": "HookahMania",
                "opening_hours": "Mo-Fr 15:00-02:00; Sa-Su 16:00-03:00",
                "operator": "Сергей",
                "phone": "+7 981 8027688"
            }
        ]
    },
    "parking_entrance": {
        "count": 1,
        "detail": [
            {
                "amenity": "parking_entrance",
                "parking": "underground"
            }
        ]
    },
    "university": {
        "count": 1,
        "detail": [
            {
                "amenity": "university",
                "contact:email": "client@spbmrc.ru",
                "contact:phone": "+7 812 3264275",
                "contact:website": "https://spbmrc.ru",
                "name": "Санкт-Петербургский межрегиональный ресурсный центр"
            }
        ]
    },
    "theatre": {
        "count": 1,
        "detail": [
            {
                "amenity": "theatre",
                "email": "t.karlssonhaus@yandex.ru",
                "name": "Театр Karlsson Haus на Фурштатской",
                "opening_hours": "Mo-Su 10:00-18:00",
                "operator": "Театр Karlsson Haus",
                "phone": "+7 812 3095601",
                "ref:mkrf_theaters": "39024",
                "website": "http://www.karlssonhaus.ru/furshtatskaya.php"
            }
        ]
    },
    "outpost": {
        "count": 1,
        "detail": [
            {
                "brand": "Wildberries",
                "brand:wikidata": "Q24933714",
                "contact:vk": "https://vk.com/wildberries_shop",
                "name": "Wildberries",
                "operator": "ООО «Вайлдберриз»",
                "reservation": "required",
                "shop": "outpost",
                "website": "https://www.wildberries.ru/"
            }
        ]
    },
    "electronics": {
        "count": 1,
        "detail": [
            {
                "contact:vk": "https://vk.com/gsmstore",
                "name": "GSM-Store",
                "shop": "electronics",
                "website": "https://gsm-store.ru/"
            }
        ]
    },
    "sauna": {
        "count": 1,
        "detail": [
            {
                "contact:vk": "https://vk.com/clubbanniy",
                "leisure": "sauna",
                "name": "АртиШок",
                "opening_hours": "24/7",
                "website": "http://artishok-sauna.ru/"
            }
        ]
    },
    "place_of_worship": {
        "count": 2,
        "detail": [
            {
                "addr:housenumber": "8 литВ",
                "addr:letter": "В",
                "addr:street": "Кирочная улица",
                "alt_name": "Анненкирхе",
                "amenity": "place_of_worship",
                "architect": "Ю. М. Фельтен",
                "building": "yes",
                "building:architecture": "neoclassicism",
                "building:levels": "2",
                "denomination": "lutheran",
                "heritage": "2",
                "name": "Лютеранская церковь Святой Анны",
                "name:en": "St. Ann's Church",
                "name:fi": "Pyhän Annan luterilainen kirkko",
                "name:fr": "Église Sainte-Anne",
                "phone": "+7 905 2771779",
                "religion": "christian",
                "start_date": "1775",
                "website": "http://www.st-anna.ru/",
                "wikidata": "Q279122",
                "wikipedia": "ru:Лютеранская церковь Святой Анны"
            },
            {
                "addr:housenumber": "1А",
                "addr:street": "Преображенская площадь",
                "amenity": "place_of_worship",
                "building": "chapel",
                "denomination": "russian_orthodox",
                "religion": "christian",
                "wheelchair": "yes"
            }
        ]
    },
    "community_centre": {
        "count": 1,
        "detail": [
            {
                "name": "Дом офицеров Западного военного округа",
                "amenity": "community_centre",
                "building": "yes",
                "old_name": "здание Офицерского собрания",
                "wikidata": "Q18755204",
                "contact:vk": "https://vk.com/dozvo",
                "addr:street": "Литейный проспект",
                "addr:street2": "Кирочная улица",
                "building:levels": "5",
                "addr:housenumber": "20/1"
            }
        ]
    },
    "commercial": {
        "count": 1,
        "detail": [
            {
                "addr:city": "Санкт-Петербург",
                "addr:country": "RU",
                "addr:housenumber": "8",
                "addr:street": "Кирочная улица",
                "building": "commercial",
                "building:levels": "5"
            }
        ]
    },
    "service": {
        "count": 2,
        "detail": [
            {
                "power": "substation",
                "source": "rgis",
                "building": "service",
                "addr:city": "Санкт-Петербург",
                "addr:street": "Артиллерийская улица",
                "addr:country": "RU",
                "addr:housenumber": "12"
            },
            {
                "power": "substation",
                "source": "rgis",
                "building": "service",
                "addr:city": "Санкт-Петербург",
                "addr:letter": "Б",
                "addr:street": "Манежный переулок",
                "addr:country": "RU",
                "building:levels": "1",
                "addr:housenumber": "7"
            }
        ]
    }
}