{
    "residents": 8669,
    "electronics": {
        "count": 2,
        "detail": [
            {
                "brand": "Эльдорадо",
                "brand:wikidata": "Q4531492",
                "brand:wikipedia": "ru:Эльдорадо (сеть магазинов)",
                "contact:email": "customer@eldorado.ru",
                "contact:facebook": "https://www.facebook.com/Eldorado.Stores",
                "contact:instagram": "https://instagram.com/eldorado_stores",
                "contact:ok": "https://ok.ru/eldorado.stores",
                "contact:phone": "+7 800 2502525",
                "contact:vk": "https://vk.com/eldorado_stores",
                "contact:website": "https://www.eldorado.ru/",
                "contact:youtube": "https://www.youtube.com/user/eldoradovideo",
                "name": "Эльдорадо",
                "opening_hours": "Mo-Su 10:00-22:00",
                "operator": "Эльдорадо — ООО \"МВМ\"",
                "shop": "electronics",
                "wheelchair": "limited"
            },
            {
                "contact:email": "ac.sredniypr.spb@re-store.ru",
                "contact:facebook": "https://www.facebook.com/restore.ru",
                "contact:instagram": "https://instagram.com/restore_ru",
                "contact:phone": "+7 812 6778905",
                "contact:vk": "https://vk.com/re_store",
                "contact:website": "https://www.re-store.ru/",
                "contact:youtube": "https://www.youtube.com/user/restoreapr",
                "name": "re:Store",
                "name:en": "re:Store",
                "opening_hours": "Mo-Su 10:00-22:00",
                "operator": "реСтор",
                "shop": "electronics",
                "telegram": "https://t.me/restore_ru"
            }
        ]
    },
    "doctors": {
        "count": 2,
        "detail": [
            {
                "amenity": "doctors",
                "name": "Женская консультация № 16",
                "opening_hours": "Mo-Fr 08:00-20:00; Sa, Su 09:00-15:00"
            },
            {
                "amenity": "doctors",
                "name": "Мужская консультация № 16",
                "opening_hours": "Mo-Fr 09:00-19:00",
                "phone": "+7 967 9671616"
            }
        ]
    },
    "cafe": {
        "count": 21,
        "detail": [
            {
                "name": "Квартирка",
                "amenity": "cafe",
                "wheelchair": "no"
            },
            {
                "amenity": "cafe",
                "cuisine": "regional",
                "name": "Теремок",
                "name:ru": "Теремок",
                "opening_hours": "Mo-Su 07:30-23:00",
                "website": "http://teremok.ru/",
                "wheelchair": "yes"
            },
            {
                "name": "Marketplace",
                "phone": "+7 981 7849814",
                "amenity": "cafe",
                "website": "http://market-place.me/ru/spb/",
                "delivery": "no",
                "takeaway": "yes",
                "addr:city": "Санкт-Петербург",
                "wheelchair": "no",
                "addr:street": "7-я линия В.О.",
                "opening_hours": "08:30-23:00",
                "addr:housenumber": "34/2"
            },
            {
                "amenity": "cafe",
                "name": "Домино'с",
                "opening_hours": "Mo-Su 12:00-23:00",
                "operator": "ООО «Тетсони»"
            },
            {
                "name": "Ливанская шаверма",
                "amenity": "cafe",
                "description": "КАФЕ * КАЛЬЯН"
            },
            {
                "amenity": "cafe",
                "name": "Учкудук",
                "opening_hours": "24/7",
                "wheelchair": "no"
            },
            {
                "amenity": "cafe",
                "opening_hours": "Mo-Fr 09:00-21:00"
            },
            {
                "amenity": "cafe",
                "description": "Бистро",
                "name": "Под гвоздём",
                "opening_hours": "Mo-Fr 09:00-23:00; Sa-Su 10:00-23:00"
            },
            {
                "amenity": "cafe",
                "description": "кофейня",
                "name": "Чайникофф",
                "opening_hours": "24/7",
                "wheelchair": "no"
            },
            {
                "amenity": "cafe",
                "name": "Complimenti",
                "wheelchair": "no"
            },
            {
                "name": "Бистро Василеостровское",
                "amenity": "cafe"
            },
            {
                "amenity": "cafe",
                "name": "Мясо & хлеб",
                "wheelchair": "no"
            },
            {
                "amenity": "cafe",
                "cuisine": "oriental",
                "internet_access": "wlan",
                "name": "Жемчужина Востока"
            },
            {
                "amenity": "cafe",
                "brand": "Шоколадница",
                "brand:en": "Chocolate",
                "brand:wikidata": "Q30891188",
                "brand:wikipedia": "ru:Шоколадница (сеть кофеен)",
                "cuisine": "coffee_shop",
                "name": "Шоколадница",
                "name:en": "Shokoladnitsa",
                "name:ru": "Шоколадница",
                "opening_hours": "Mo-Su 08:00-23:00",
                "phone": "+7 812 6771305",
                "takeaway": "yes",
                "website": "https://shoko.ru/"
            },
            {
                "amenity": "cafe",
                "cuisine": "coffee_shop",
                "name": "Чеховъ",
                "opening_hours": "Mo-Fr 08:30-21:00; Sa-Su 10:00-21:00"
            },
            {
                "amenity": "cafe",
                "cuisine": "coffee_shop",
                "name": "Cup",
                "name:ru": "Cup N Cup"
            },
            {
                "amenity": "cafe",
                "name:en": "Supramen"
            },
            {
                "amenity": "cafe",
                "contact:email": "info@bagginscoffee.ru",
                "contact:phone": "+7 800 6007015;+7 905 2504424",
                "contact:website": "https://bagginscoffee.ru/",
                "name": "Baggins Coffee",
                "opening_hours": "Mo-Fr 08:00-21:00;Sa-Su 09:00-21:00",
                "operator": "ИП Суарез Абреу Наталия Николаевна"
            },
            {
                "amenity": "cafe",
                "contact:email": "info@bagginscoffee.ru",
                "contact:phone": "+7 800 6007015;+7 905 2504443",
                "contact:website": "https://bagginscoffee.ru/",
                "name": "Baggins Coffee",
                "opening_hours": "Mo-Fr 08:00-21:00;Sa-Su 09:00-20:00",
                "operator": "ИП Борисов Алексей Вадимович"
            },
            {
                "amenity": "cafe",
                "name": "Joly Woo",
                "opening_hours": "11:00-23:00"
            },
            {
                "amenity": "cafe",
                "name": "секретная кофейня"
            }
        ]
    },
    "waste_disposal": {
        "count": 6,
        "detail": [
            {
                "amenity": "waste_disposal"
            },
            {
                "amenity": "waste_disposal"
            },
            {
                "amenity": "waste_disposal"
            },
            {
                "amenity": "waste_disposal"
            },
            {
                "amenity": "waste_disposal"
            },
            {
                "amenity": "waste_disposal"
            }
        ]
    },
    "fast_food": {
        "count": 10,
        "detail": [
            {
                "amenity": "fast_food",
                "name": "Felicita"
            },
            {
                "amenity": "fast_food",
                "cuisine": "donut",
                "name": "Пышки",
                "opening_hours": "Mo-Fr 08:00-20:00; Sa 10:00-20:00; Su 11:00-20:00",
                "wheelchair": "limited"
            },
            {
                "alt_name": "Kentucky Fried Chicken",
                "amenity": "fast_food",
                "brand": "KFC",
                "brand:wikidata": "Q524757",
                "brand:wikipedia": "en:KFC",
                "breakfast": "yes",
                "cuisine": "chicken",
                "drive_through": "no",
                "internet_access": "wlan",
                "int_name": "KFC",
                "name": "KFC",
                "name:de": "KFC",
                "name:en": "KFC",
                "old_name": "Ростик’с-KFC / Ростикс",
                "opening_hours": "06:00-04:00",
                "operator": "ООО «АмРест»",
                "phone": "+7 812 6005182",
                "takeaway": "yes",
                "website": "http://www.kfc.ru/",
                "wheelchair": "no"
            },
            {
                "amenity": "fast_food",
                "brand": "Бургер Кинг",
                "brand:en": "Burger King",
                "brand:ru": "Бургер Кинг",
                "brand:wikidata": "Q177054",
                "brand:wikipedia": "en:Burger King",
                "contact:email": "bk-217@burgerking.ru",
                "contact:phone": "+7 981 8834579",
                "contact:website": "https://burgerking.ru",
                "cuisine": "burger",
                "internet_access": "wlan",
                "internet_access:fee": "no",
                "name": "Бургер Кинг",
                "name:en": "Burger King",
                "name:ru": "Бургер Кинг",
                "opening_hours": "08:00-03:00",
                "outdoor_seating": "no",
                "ref": "217",
                "takeaway": "yes"
            },
            {
                "amenity": "fast_food",
                "description": "Столовая",
                "fast_food": "cafeteria",
                "name": "Ложка",
                "opening_hours": "Mo-Fr 10:00-21:00; Sa-Su 10:00-20:00"
            },
            {
                "amenity": "fast_food",
                "cuisine": "kebab",
                "name": "Кебаб Хаус",
                "wheelchair": "limited"
            },
            {
                "amenity": "fast_food",
                "brand": "Теремок",
                "brand:en": "Teremok",
                "brand:ru": "Теремок",
                "brand:wikidata": "Q4455593",
                "brand:wikipedia": "ru:Теремок (сеть быстрого питания)",
                "cuisine": "crepe;russian",
                "delivery": "yes",
                "internet_access": "wlan",
                "name": "Теремок",
                "name:en": "Teremok",
                "name:ru": "Теремок",
                "opening_hours": "Mo-Su 07:30-23:00",
                "operator": "Теремок - Русские Блины",
                "payment:cash": "yes",
                "payment:maestro": "yes",
                "payment:mastercard": "yes",
                "payment:visa": "yes",
                "payment:visa_electron": "yes",
                "phone": "+7 812 3632332",
                "takeaway": "yes",
                "website": "http://www.teremok.ru",
                "wheelchair": "no"
            },
            {
                "amenity": "fast_food",
                "brand": "Carl's Jr.",
                "brand:wikidata": "Q1043486",
                "brand:wikipedia": "en:Carl's Jr.",
                "contact:instagram": "https://www.instagram.com/carlsjr_russia/",
                "contact:phone": "+7 812 6449288",
                "contact:vk": "https://vk.com/carls_jr",
                "contact:website": "http://carlsjr.ru/adresa/spb/30264/",
                "cuisine": "burger",
                "level": "1",
                "name": "Carl's Jr.",
                "opening_hours": "Su-Th 10:00-23:00, Fr-Sa 10:00-04:00",
                "operator": "ООО «Реал Фуд»",
                "takeaway": "yes"
            },
            {
                "amenity": "fast_food",
                "brand": "Додо Пицца",
                "brand:en": "Dodo Pizza",
                "brand:ru": "Додо Пицца",
                "brand:wikidata": "Q61949318",
                "brand:wikipedia": "ru:Додо Пицца",
                "cuisine": "pizza",
                "name": "Додо Пицца",
                "name:en": "Dodo Pizza",
                "name:ru": "Додо Пицца",
                "takeaway": "yes"
            },
            {
                "amenity": "fast_food",
                "contact:vk": "https://vk.com/falafeln1",
                "cuisine": "falafel",
                "diet:vegetarian": "only",
                "level": "0",
                "name": "БобКульт Харе Кришна",
                "opening_hours": "11:00-21:00"
            }
        ]
    },
    "phone_repair": {
        "count": 1,
        "detail": [
            {
                "note": "Ремонт телефонов; скупка-продажа",
                "shop": "phone_repair",
                "opening_hours": "Mo-Su 08:00-22:00"
            }
        ]
    },
    "waste_basket": {
        "count": 27,
        "detail": [
            {
                "amenity": "waste_basket",
                "check_date": "2021-05-02"
            },
            {
                "amenity": "waste_basket",
                "check_date": "2021-05-02"
            },
            {
                "amenity": "waste_basket",
                "check_date": "2021-05-02"
            },
            {
                "amenity": "waste_basket"
            },
            {
                "amenity": "waste_basket",
                "check_date": "2021-05-02"
            },
            {
                "amenity": "waste_basket",
                "check_date": "2021-05-02"
            },
            {
                "amenity": "waste_basket"
            },
            {
                "amenity": "waste_basket",
                "check_date": "2021-05-02"
            },
            {
                "amenity": "waste_basket"
            },
            {
                "amenity": "waste_basket"
            },
            {
                "amenity": "waste_basket"
            },
            {
                "amenity": "waste_basket"
            },
            {
                "amenity": "waste_basket"
            },
            {
                "amenity": "waste_basket"
            },
            {
                "amenity": "waste_basket"
            },
            {
                "amenity": "waste_basket"
            },
            {
                "amenity": "waste_basket"
            },
            {
                "amenity": "waste_basket"
            },
            {
                "amenity": "waste_basket"
            },
            {
                "amenity": "waste_basket"
            },
            {
                "amenity": "waste_basket"
            },
            {
                "amenity": "waste_basket"
            },
            {
                "amenity": "waste_basket"
            },
            {
                "amenity": "waste_basket"
            },
            {
                "amenity": "waste_basket"
            },
            {
                "amenity": "waste_basket"
            },
            {
                "amenity": "waste_basket"
            }
        ]
    },
    "clothes": {
        "count": 16,
        "detail": [
            {
                "name": "Седьмая линия",
                "shop": "clothes",
                "description": "меха",
                "opening_hours": "11:00-21:00"
            },
            {
                "name": "Камея",
                "shop": "clothes",
                "description": "Дом медицинской одежды",
                "opening_hours": "Mo-Fr 10:00-20:00; Sa-Su 11:00-19:00"
            },
            {
                "name": "Брюки",
                "shop": "clothes"
            },
            {
                "name": "Каменное солнце",
                "shop": "clothes",
                "description": "Рок-магазин: рок-атрибутика, обувь, одежда",
                "opening_hours": "Mo-Su 10:00-20:00"
            },
            {
                "name": "Невский престиж",
                "shop": "clothes",
                "wheelchair": "limited"
            },
            {
                "name": "Хласт",
                "opening_hours": "Mo-Sa 11:00-21:00; Su 13:00-20:00",
                "shop": "clothes",
                "wheelchair": "no"
            },
            {
                "name": "Мадонна",
                "shop": "clothes",
                "wheelchair": "no"
            },
            {
                "name": "Глеже",
                "opening_hours": "Mo-Su 11:00-20:00",
                "shop": "clothes",
                "wheelchair": "yes"
            },
            {
                "description": "Салон женского белья",
                "name": "Milavitsa",
                "opening_hours": "Mo-Su 10:00-21:00",
                "shop": "clothes",
                "wheelchair": "no"
            },
            {
                "shop": "clothes"
            },
            {
                "name": "Одежда Дисконт",
                "opening_hours": "Mo-Fr 11:00-20:00; Sa-Su 12:00-19:00",
                "shop": "clothes"
            },
            {
                "name": "Бескозырка",
                "shop": "clothes",
                "description": "Товары для военнослужащих: армии, флота, МВД",
                "opening_hours": "Mo-Su 10:00-21:00"
            },
            {
                "name": "Вестфалика",
                "shop": "clothes"
            },
            {
                "addr:city": "Санкт-Петербург",
                "addr:housenumber": "41",
                "addr:street": "Большой проспект В.О.",
                "clothes": "Женская_одежда",
                "name": "Империя платья",
                "opening_hours": "Mo-Su 10:00-21:00",
                "payment:cards": "yes",
                "payment:cash": "yes",
                "payment:contactless": "yes",
                "payment:credit_cards": "yes",
                "payment:debit_cards": "yes",
                "payment:maestro": "yes",
                "payment:mastercard": "yes",
                "payment:telephone_cards": "yes",
                "payment:visa": "yes",
                "phone": "+7 951 643 45 16",
                "shop": "clothes",
                "website": "https://vk.com/imperiaplatya"
            },
            {
                "name": "Лучшее белье",
                "shop": "clothes"
            },
            {
                "name": "Calzedonia",
                "opening_hours": "10:00-22:00",
                "shop": "clothes",
                "wheelchair": "limited"
            }
        ]
    },
    "second_hand": {
        "count": 1,
        "detail": [
            {
                "shop": "second_hand",
                "operator": "ЧП Баранова Л.Л.",
                "description": "Модная одежда из Европы",
                "addr:postcode": "199004"
            }
        ]
    },
    "gambling": {
        "count": 1,
        "detail": [
            {
                "name": "Лото",
                "amenity": "gambling"
            }
        ]
    },
    "health_food": {
        "count": 1,
        "detail": [
            {
                "addr:city": "Санкт-Петербург",
                "addr:housenumber": "38",
                "addr:postcode": "199004",
                "addr:street": "7-я линия В.О.",
                "diet:vegan": "yes",
                "diet:vegetarian": "yes",
                "email": "b12veganshop@gmail.com",
                "level": "0",
                "name": "B12",
                "opening_hours": "Mo-Su 12:00-21:00",
                "operator": "ИП Калугина О.С.",
                "payment:american_express": "yes",
                "payment:cards": "yes",
                "payment:cash": "yes",
                "payment:contactless": "yes",
                "payment:credit_cards": "yes",
                "payment:debit_cards": "yes",
                "payment:maestro": "yes",
                "payment:mastercard": "yes",
                "payment:visa": "yes",
                "phone": "+7 981 9725452",
                "shop": "health_food",
                "website": "http://b12veganshop.ru",
                "wheelchair": "limited"
            }
        ]
    },
    "shoes": {
        "count": 5,
        "detail": [
            {
                "contact:email": "info@ecco-ros.ru",
                "contact:facebook": "https://www.facebook.com/eccoru",
                "contact:instagram": "https://instagram.com/ecco_ru",
                "contact:ok": "https://ok.ru/eccoru",
                "contact:phone": "+7 495 6412525;+7 800 4442525;+7 812 6080527",
                "contact:vk": "https://vk.com/eccoru",
                "contact:website": "https://www.ecco-shoes.ru/",
                "name": "Ecco",
                "opening_hours": "10:00-22:00",
                "operator": "«Экко-Рос»",
                "shop": "shoes",
                "wheelchair": "limited"
            },
            {
                "name": "Sofia",
                "shop": "shoes",
                "operator": "ИП Черток А.Я.",
                "opening_hours": "Mo-Su 11:00-21:00"
            },
            {
                "name": "Respect Yourself",
                "shop": "shoes",
                "operator": "ООО «Рес-О»",
                "opening_hours": "Mo-Su 10:00-21:00"
            },
            {
                "name": "Zenden",
                "shop": "shoes"
            },
            {
                "name": "Footbox",
                "opening_hours": "10:00-22:00",
                "shop": "shoes",
                "wheelchair": "limited"
            }
        ]
    },
    "beauty": {
        "count": 9,
        "detail": [
            {
                "name": "Kistochki",
                "shop": "beauty"
            },
            {
                "name": "Заноза",
                "shop": "beauty",
                "amenity": "beauty",
                "description": "салон красоты, ателье",
                "opening_hours": "Mo-Sa 10:00-21:00; Su 11:00-19:00"
            },
            {
                "name": "Glori",
                "shop": "beauty",
                "wheelchair": "no"
            },
            {
                "name": "Нимфа",
                "shop": "beauty"
            },
            {
                "addr:street": "10-11-я линии В.О.",
                "name": "Fаворит",
                "shop": "beauty"
            },
            {
                "description": "Центр медицинской косметологии",
                "description:en": "Center of Medical Cosmetology",
                "name": "Posh",
                "shop": "beauty"
            },
            {
                "name": "Парадиз",
                "opening_hours": "Mo-Su 09:00-21:00",
                "shop": "beauty",
                "wheelchair": "no"
            },
            {
                "addr:city": "Санкт-Петербург",
                "addr:housenumber": "34",
                "addr:postcode": "199004",
                "addr:street": "7-я линия В.О.",
                "contact:phone": "+7 812 4072934",
                "contact:website": "http://denis-osipov.ru",
                "name": "Студия Дениса Осипова",
                "opening_hours": "10:00-22:00",
                "shop": "beauty"
            },
            {
                "alt_name": "Пилки",
                "contact:vk": "https://vk.com/pilkinail",
                "level": "1",
                "name": "ПиLки",
                "opening_hours": "09:00-23:00",
                "shop": "beauty",
                "website": "https://pilkinail.ru/",
                "wheelchair": "no"
            }
        ]
    },
    "hairdresser": {
        "count": 3,
        "detail": [
            {
                "name": "Салон причёсок",
                "shop": "hairdresser",
                "opening_hours": "Mo-Su 10:00-21:00"
            },
            {
                "contact:email": "in.skill@yandex.ru",
                "contact:instagram": "https://instagram.com/in_skill_spb",
                "contact:phone": "+7 812 4095385",
                "contact:vk": "https://vk.com/inskillspb",
                "contact:website": "https://inskillclub.com/",
                "contact:youtube": "https://youtube.com/channel/UCjKFmoAlBdF9isx2SS2u1GQ",
                "name": "In Skill",
                "opening_hours": "Mo-Su 10:00-22:00",
                "operator": "In Skill",
                "shop": "hairdresser"
            },
            {
                "addr:city": "Санкт-Петербург",
                "addr:housenumber": "36",
                "addr:postcode": "199178",
                "addr:street": "9-я линия В.О.",
                "name": "IN SKILL Барбершоп",
                "opening_hours": "10:00-22:00",
                "phone": "+7(812) 409-53-85",
                "shop": "hairdresser",
                "website": "https://www.inskillclub.com/?utm_source=pinbox&utm_medium=cpc&utm_campaign=geo#барбершоп"
            }
        ]
    },
    "photo": {
        "count": 4,
        "detail": [
            {
                "name": "Ремонт телефонов, ноутбуков, телевизоров, фотоаппаратов",
                "note": "фото за час",
                "shop": "photo",
                "email": "4925103@mail.ru",
                "phone": "+7 931 2473828",
                "website": "www.rem-mob.ru",
                "addr:street": "7-я линия В.О.",
                "opening_hours": "Mo-Su 11:00-20:00",
                "internet_access": "wlan",
                "addr:housenumber": "40"
            },
            {
                "contact:email": "info@yarkiy.ru",
                "contact:instagram": "https://www.instagram.com/yarkiy.ru/",
                "contact:phone": "+78126047772",
                "contact:vk": "https://vk.com/yarkiy",
                "contact:website": "https://www.yarkiy.ru",
                "name": "Яркий фотомаркет",
                "opening_hours": "Mo-Su 09:00-21:00",
                "operator": "ООО «Актив-фото»",
                "shop": "photo",
                "wheelchair": "limited"
            },
            {
                "name": "Фотолюкс",
                "shop": "photo",
                "operator": "ООО «Фотолюкс»",
                "opening_hours": "Mo-Fr 09:00-20:00; Sa-Su 11:00-18:00"
            },
            {
                "opening_hours": "Mo-Su 09:00-21:00",
                "phone": "+7812 3231263",
                "shop": "photo"
            }
        ]
    },
    "mobile_phone": {
        "count": 4,
        "detail": [
            {
                "shop": "mobile_phone",
                "operator": "ИП Шаромов",
                "opening_hours": "Mo-Su 10:00-22:00"
            },
            {
                "name": "Сотовая связь",
                "shop": "mobile_phone"
            },
            {
                "name": "Салон связи",
                "shop": "mobile_phone",
                "operator": "ООО «Орион»",
                "opening_hours": "Mo-Fr 11:00-21:00; Sa-Su 11:00-20:00"
            },
            {
                "brand": "Билайн",
                "brand:wikidata": "Q402880",
                "brand:wikipedia": "ru:Билайн",
                "contact:facebook": "https://www.facebook.com/Beelinerus",
                "contact:instagram": "https://www.instagram.com/beelinerus",
                "contact:ok": "https://ok.ru/beeline",
                "contact:phone": "+7 800 7000611",
                "contact:twitter": "https://twitter.com/Beeline_RUS",
                "contact:vk": "https://vk.com/beeline",
                "contact:website": "https://beeline.ru",
                "contact:youtube": "https://www.youtube.com/user/beelineru",
                "name": "Билайн",
                "name:en": "Beeline",
                "name:ru": "Билайн",
                "office": "telecommunication",
                "shop": "mobile_phone"
            }
        ]
    },
    "erotic": {
        "count": 1,
        "detail": [
            {
                "contact:email": "A027@pinkrabbit.ru",
                "contact:phone": "+7 911 9992614",
                "contact:website": "https://pinkrabbit.ru/",
                "name": "Pink Rabbit",
                "name:en": "Pink Rabbit",
                "name:ru": "Розовый кролик",
                "opening_hours": "Mo-Su 11:00-22:00",
                "operator": "Розовый Кролик",
                "shop": "erotic"
            }
        ]
    },
    "clothes_repair": {
        "count": 1,
        "detail": [
            {
                "note": "Меховое ателье",
                "shop": "clothes_repair",
                "phone": "+7 812 3234257"
            }
        ]
    },
    "convenience": {
        "count": 9,
        "detail": [
            {
                "contact:website": "https://av.ru/shops/7-ya-liniya-vasilevskogo-ostrova-d-42",
                "name": "АВ Daily",
                "opening_hours": "Mo-Su 07:00-24:00",
                "operator": "ООО «Городской супермаркет»",
                "ref:av": "358841",
                "shop": "convenience",
                "wheelchair": "no"
            },
            {
                "food": "yes",
                "name": "Продукты",
                "name:ru": "Продукты",
                "opening_hours": "24/7",
                "shop": "convenience",
                "wheelchair": "no"
            },
            {
                "name": "Золотой гвоздь",
                "opening_hours": "Mo-Su 10:00-22:00",
                "opening_hours:old": "24/7",
                "shop": "convenience"
            },
            {
                "brand": "ВкусВилл",
                "brand:wikidata": "Q57271676",
                "brand:wikipedia": "ru:Вкусвилл",
                "contact:phone": "+7 931 2572429",
                "contact:website": "https://spb.vkusvill.ru",
                "name": "ВкусВилл",
                "opening_hours": "Mo-Su 08:00-23:00",
                "shop": "convenience",
                "website": "https://spb.vkusvill.ru/"
            },
            {
                "food": "yes",
                "name": "Продукты",
                "name:ru": "Продукты",
                "shop": "convenience"
            },
            {
                "shop": "convenience"
            },
            {
                "name": "Здоровое питание",
                "shop": "convenience"
            },
            {
                "opening_hours": "24/7",
                "shop": "convenience"
            },
            {
                "name": "Продукты",
                "opening_hours": "Mo-Su 08:00-02:00",
                "shop": "convenience"
            }
        ]
    },
    "restaurant": {
        "count": 8,
        "detail": [
            {
                "amenity": "restaurant",
                "contact:phone": "+7 812 3237660",
                "contact:website": "http://reca.rest/restaurants/bbqrest",
                "cuisine": "barbecue;burger",
                "diet:meat": "yes",
                "name": "BBQ",
                "opening_hours": "Mo-Th,Su 12:00-01:00; Fr,Sa 12:00-03:00",
                "wheelchair": "no"
            },
            {
                "amenity": "restaurant",
                "cuisine": "chinese",
                "name": "Небесный дворец",
                "opening_hours": "12:00-23:30"
            },
            {
                "amenity": "restaurant",
                "brand": "Pizza Hut",
                "brand:wikidata": "Q191615",
                "brand:wikipedia": "en:Pizza Hut",
                "contact:email": "info@pizzahut.ru",
                "contact:facebook": "https://www.facebook.com/PizzaHutRussia",
                "contact:instagram": "https://www.instagram.com/pizzahutrussia/",
                "contact:phone": "+7 800 1001958",
                "contact:vk": "https://vk.com/pizzahutrussia",
                "contact:website": "https://spb.pizzahut.ru/",
                "cuisine": "pizza",
                "internet_access": "wlan",
                "name": "Pizza Hut",
                "name:de": "Pizza Hut",
                "opening_hours": "Mo-Su 10:00-22:00",
                "operator": "Амрест Пицца",
                "takeaway": "yes",
                "wheelchair": "no"
            },
            {
                "addr:street": "12-я линия В.О.",
                "amenity": "restaurant",
                "cuisine": "georgian",
                "name": "Сакартвело",
                "name:en": "Sakartvelo"
            },
            {
                "alt_name": "Мясоет",
                "amenity": "restaurant",
                "contact:instagram": "https://www.instagram.com/myaso_et",
                "contact:website": "http://myasoet.ru",
                "name": "Mяsoet",
                "opening_hours": "Mo-Su 11:00-24:00"
            },
            {
                "amenity": "restaurant",
                "cuisine": "fine_dining",
                "internet_access": "wlan",
                "name": "Абажур кафе",
                "name:en": "Abajour cafe",
                "opening_hours": "Mo-Su 13:00-23:00",
                "phone": "+7 812 4090039",
                "wheelchair": "no"
            },
            {
                "amenity": "restaurant",
                "name:en": "Pizzeria Castelsardo"
            },
            {
                "amenity": "restaurant",
                "cuisine": "american",
                "name": "Tootsie"
            }
        ]
    },
    "tea": {
        "count": 1,
        "detail": [
            {
                "contact:instagram": "https://www.instagram.com/chastudiospb",
                "contact:phone": "+7 999 0267497",
                "contact:vk": "https://vk.com/chastudiospb",
                "contact:website": "https://kitchai.ru",
                "name": "Чайная студия",
                "operator": "Торговый дом Сергеев и Ко",
                "shop": "tea",
                "wheelchair": "no"
            }
        ]
    },
    "furniture": {
        "count": 1,
        "detail": [
            {
                "name": "Частная коллекция",
                "shop": "furniture",
                "description": "подарки, предметы интерьера, светильники, мебель",
                "opening_hours": "Mo-Fr 09:00-21:00; Sa 10:00-20:00; Su 11:00-20:00"
            }
        ]
    },
    "tools": {
        "count": 1,
        "detail": [
            {
                "name": "Петербургский цирюльник",
                "shop": "tools",
                "phone": "+7 812 3230943",
                "description": "Продажа профессиональных средств по уходу за волосами, инструментов и оборудования для парикмахерских и салонов",
                "opening_hours": "Mo-Sa 10:00-20:00; Su 10:00-18:00"
            }
        ]
    },
    "post_box": {
        "count": 2,
        "detail": [
            {
                "amenity": "post_box",
                "collection_times": "Mo-Fr 00:55,17:30; Sa 09:40; Su 17:30",
                "design:year": "2010",
                "drive_through": "no",
                "operator": "Почта России",
                "post_box:design": "ЯПНМ-II-С",
                "post_box:type": "wall",
                "ref": "168"
            },
            {
                "amenity": "post_box",
                "collection_times": "Mo-Fr 01:00,17:35; Sa 09:45; Su 17:35",
                "design:year": "2010",
                "drive_through": "no",
                "operator": "Почта России",
                "post_box:design": "ЯПНМ-II-С",
                "post_box:type": "wall",
                "ref": "169"
            }
        ]
    },
    "kitchen": {
        "count": 1,
        "detail": [
            {
                "name": "Посуда",
                "shop": "kitchen",
                "opening_hours": "Mo-Su 10:00-20:00"
            }
        ]
    },
    "police": {
        "count": 2,
        "detail": [
            {
                "amenity": "police",
                "name": "Участковый пункт полиции №3/1",
                "opening_hours": "Mo,We 18:00-20:00; Sa 15:00-16:00",
                "phone": "+7 812 3231206"
            },
            {
                "addr:street": "10-11-я линии В.О.",
                "amenity": "police",
                "name": "Участковый пункт полиции №3",
                "opening_hours": "Tu,Th 18:00-20:00",
                "phone": "+7 812 3285748"
            }
        ]
    },
    "hardware": {
        "count": 1,
        "detail": [
            {
                "brand": "220 вольт",
                "brand:en": "220 Volt",
                "brand:ru": "220 вольт",
                "brand:wikidata": "Q18635304",
                "brand:wikipedia": "ru:220 Вольт (компания)",
                "contact:email": "mega-vas@220-volt.ru",
                "contact:facebook": "https://www.facebook.com/likevolt",
                "contact:instagram": "https://www.instagram.com/220volt.ru/",
                "contact:ok": "https://ok.ru/likevolt",
                "contact:phone": "+7 800 3339220;+7 812 3271943",
                "contact:twitter": "https://twitter.com/likevolt",
                "contact:vk": "https://vk.com/likevolt",
                "contact:website": "https://www.220-volt.ru/",
                "contact:youtube": "https://www.youtube.com/channel/UCnLPlH6bk0KDSSUVB8iseOg",
                "name": "220 вольт",
                "name:en": "220 Volt",
                "name:ru": "220 вольт",
                "opening_hours": "Mo-Su 10:00-20:00",
                "operator": "Торговый дом Северо-западный",
                "shop": "hardware"
            }
        ]
    },
    "bench": {
        "count": 19,
        "detail": [
            {
                "amenity": "bench"
            },
            {
                "amenity": "bench"
            },
            {
                "amenity": "bench",
                "backrest": "yes"
            },
            {
                "amenity": "bench",
                "backrest": "yes"
            },
            {
                "amenity": "bench",
                "backrest": "yes"
            },
            {
                "amenity": "bench",
                "backrest": "yes"
            },
            {
                "amenity": "bench",
                "backrest": "yes"
            },
            {
                "amenity": "bench",
                "backrest": "yes"
            },
            {
                "amenity": "bench"
            },
            {
                "amenity": "bench"
            },
            {
                "amenity": "bench",
                "backrest": "yes"
            },
            {
                "amenity": "bench",
                "backrest": "yes"
            },
            {
                "amenity": "bench",
                "backrest": "yes"
            },
            {
                "amenity": "bench",
                "backrest": "yes"
            },
            {
                "amenity": "bench",
                "backrest": "yes"
            },
            {
                "amenity": "bench"
            },
            {
                "amenity": "bench"
            },
            {
                "amenity": "bench"
            },
            {
                "amenity": "bench"
            }
        ]
    },
    "money_transfer": {
        "count": 1,
        "detail": [
            {
                "amenity": "money_transfer",
                "name": "Юнистрим",
                "opening_hours": "Mo-Su 09:00-14:00; 14:45-20:00"
            }
        ]
    },
    "video": {
        "count": 1,
        "detail": [
            {
                "name": "diskаунт",
                "shop": "video",
                "opening_hours": "Mo-Su 10:00-22:00"
            }
        ]
    },
    "bakery": {
        "count": 4,
        "detail": [
            {
                "name": "Русские пироги",
                "opening_hours": "Mo-Su 09:00-21:00",
                "shop": "bakery",
                "wheelchair": "limited"
            },
            {
                "name": "Теплое место",
                "shop": "bakery"
            },
            {
                "name": "ЛюдиЛюбят",
                "shop": "bakery",
                "website": "https://людилюбят.рф"
            },
            {
                "name:en": "Castella shop",
                "shop": "bakery"
            }
        ]
    },
    "dentist": {
        "count": 3,
        "detail": [
            {
                "amenity": "dentist",
                "healthcare": "dentist",
                "name": "Городская стоматологическая поликлиника №2",
                "wheelchair": "limited"
            },
            {
                "addr:postcode": "199004",
                "amenity": "dentist",
                "name": "МедИнфо",
                "name:en": "MedInfo",
                "opening_hours": "Mo-Fr 11:00-19:00",
                "phone": "+7 812 3235582",
                "website": "http://clinic-medinfo.ru",
                "wheelchair": "no"
            },
            {
                "amenity": "dentist",
                "name": "Вероника",
                "opening_hours": "Mo-Su 08:30-21:00"
            }
        ]
    },
    "watch": {
        "count": 1,
        "detail": [
            {
                "name": "Сититайм",
                "note": "Часовой салон",
                "shop": "watch",
                "opening_hours": "Mo-Sa 10:00-21:00; Su 11:00-20:00"
            }
        ]
    },
    "parking": {
        "count": 2,
        "detail": [
            {
                "access": "private",
                "amenity": "parking"
            },
            {
                "access": "private",
                "amenity": "parking"
            }
        ]
    },
    "pub": {
        "count": 3,
        "detail": [
            {
                "name": "Толстый фраер",
                "amenity": "pub",
                "opening_hours": "Su-Th 10:00-01:00; Fr-Sa 10:00-03:00"
            },
            {
                "amenity": "pub",
                "description": "belgian beer cafe",
                "internet_access": "wlan",
                "level": "-1",
                "name": "KwakInn",
                "opening_hours": "Su-Th 12:00-01:00; Fr-Sa 12:00-02:00",
                "operator": "ООО «Евробалт»",
                "payment:cash": "yes",
                "payment:mastercard": "yes",
                "payment:visa": "yes",
                "website": "http://kwakinn.ru/"
            },
            {
                "amenity": "pub",
                "contact:phone": "+7 812 6111110;+7 812 3233881;+7 911 8246398",
                "contact:tripadvisor": "https://www.tripadvisor.ru/Restaurant_Review-g298507-d6636914-Reviews-Brasserie_Kriek-St_Petersburg_Northwestern_District.html",
                "contact:website": "http://www.kriek.ru/contacts/restoran-na-shestoy-linii-vo/",
                "name": "Kriek",
                "name:en": "Kriek",
                "name:ru": "Крик",
                "opening_hours": "Mo-Th,Su 11:00-01:00, Fr-Sa 11:00-02:30",
                "wheelchair": "no"
            }
        ]
    },
    "newsagent": {
        "count": 3,
        "detail": [
            {
                "name": "Роспечать",
                "shop": "newsagent",
                "wheelchair": "yes"
            },
            {
                "brand": "Союзпечать",
                "brand:wikidata": "Q4430611",
                "brand:wikipedia": "ru:Союзпечать",
                "name": "Союзпечать",
                "note": "oddly enough, но именно так: союзпечать",
                "shop": "newsagent"
            },
            {
                "building": "kiosk",
                "name": "Роспечать",
                "shop": "newsagent"
            }
        ]
    },
    "antiques": {
        "count": 2,
        "detail": [
            {
                "description": "Антиквариат, живопись",
                "name": "Стеклянное небо",
                "shop": "antiques"
            },
            {
                "name": "Лавка старьевщика",
                "opening_hours": "Mo-Fr 11:00-18:00; Sa 11:00-15:00",
                "operator": "ООО «Лавка старьевщика»",
                "shop": "antiques",
                "wheelchair": "no"
            }
        ]
    },
    "atm": {
        "count": 7,
        "detail": [
            {
                "amenity": "atm",
                "operator": "Уралсиб"
            },
            {
                "amenity": "atm",
                "operator": "Петрокоммерц"
            },
            {
                "amenity": "atm",
                "opening_hours": "11:00-21:00",
                "operator": "Газпромбанк",
                "website": "https://www.gazprombank.ru/"
            },
            {
                "amenity": "atm",
                "operator": "Бинбанк"
            },
            {
                "amenity": "atm",
                "opening_hours": "24/7",
                "operator": "Райффайзен Банк",
                "website": "https://www.raiffeisen.ru/"
            },
            {
                "brand": "ЮниКредит Банк",
                "amenity": "atm",
                "cash_in": "yes",
                "website": "http://unicredit.ru",
                "operator": "ЮниКредит Банк",
                "addr:street": "Средний проспект В.О.",
                "currency:EUR": "yes",
                "currency:RUB": "yes",
                "currency:USD": "yes",
                "opening_hours": "24/7",
                "addr:housenumber": "49"
            },
            {
                "amenity": "atm",
                "brand": "Санкт-Петербург",
                "contact:email": "cc@bspb.ru",
                "contact:facebook": "https://www.facebook.com/bspb/",
                "contact:instagram": "https://instagram.com/bank_spb",
                "contact:ok": "https://ok.ru/bspb",
                "contact:phone": "+7 800 2225050;+7 812 3295050",
                "contact:twitter": "https://twitter.com/bank_spb",
                "contact:vk": "https://vk.com/bspb",
                "contact:website": "https://www.bspb.ru/",
                "currency:RUB": "yes",
                "opening_hours": "24/7",
                "operator": "ПАО Банк Санкт-Петербург",
                "telegram": "https://t.me/mybspb"
            }
        ]
    },
    "fabric": {
        "count": 1,
        "detail": [
            {
                "description": "салон интерьерных тканей, ателье",
                "name": "etoff",
                "opening_hours": "Mo-Fr 11:00-19:00; Sa 12:00-18:00",
                "shop": "fabric",
                "website": "http://www.etoff.ru/",
                "wheelchair": "no"
            }
        ]
    },
    "tobacco": {
        "count": 1,
        "detail": [
            {
                "name": "Табакерка",
                "shop": "tobacco"
            }
        ]
    },
    "supermarket": {
        "count": 2,
        "detail": [
            {
                "addr:country": "RU",
                "addr:housenumber": "39/40",
                "addr:street": "Средний проспект В.О.",
                "brand": "Перекрёсток",
                "brand:en": "Perekryostok",
                "brand:wikidata": "Q1684639",
                "brand:wikipedia": "en:Perekrestok (supermarket chain)",
                "name": "Перекрёсток",
                "opening_hours": "24/7",
                "operator": "Торговый дом \"ПЕРЕКРЕСТОК\"",
                "phone": "+7 812 4483010",
                "shop": "supermarket",
                "website": "https://www.perekrestok.ru/"
            },
            {
                "brand": "Дикси",
                "brand:en": "Dixy",
                "brand:wikidata": "Q4161561",
                "brand:wikipedia": "ru:Дикси (сеть магазинов)",
                "contact:phone": "+7 800 3330201",
                "contact:vk": "https://vk.com/dixyclub",
                "contact:youtube": "https://www.youtube.com/user/DixyChannel",
                "name": "Дикси",
                "name:ru": "Дикси",
                "opening_hours": "Mo-Su 08:00-23:00",
                "shop": "supermarket",
                "website": "https://dixy.ru/"
            }
        ]
    },
    "bar": {
        "count": 3,
        "detail": [
            {
                "amenity": "bar",
                "description": "Кальян-бар",
                "name": "Амазонка"
            },
            {
                "name": "Бюро",
                "phone": "+7 812 9038473",
                "amenity": "bar",
                "cuisine": "burger",
                "website": "http://barbureau.ru/",
                "opening_hours": "Mo-Th 08:00-01:00; Fr 08:00-03:00; Sa 12:00-03:00; Su 12:00-01:00",
                "internet_access": "no"
            },
            {
                "amenity": "bar",
                "contact:instagram": "https://www.instagram.com/spb_bar/",
                "contact:vk": "https://vk.com/barspb_official",
                "level": "2",
                "name": "SПБ",
                "opening_hours": "Su-Th 13:00-01:00, Fr-Sa 13:00-03:00",
                "operator": "ООО «Авангард»",
                "website": "http://www.barspb.ru/"
            }
        ]
    },
    "credit": {
        "count": 1,
        "detail": [
            {
                "amenity": "credit",
                "branch": "Кредитно-кассовый офис «Санкт-Петербург Василеостровский»",
                "int_name": "Renaissance Credit",
                "name": "Ренессанс Кредит",
                "opening_hours": "Mo-Fr 10:00-20:00; Sa 10:00-17:00",
                "phone": "+7 812 6002149",
                "website": "https://rencredit.ru/"
            }
        ]
    },
    "dance": {
        "count": 1,
        "detail": [
            {
                "leisure": "dance",
                "name": "Studio 77"
            }
        ]
    },
    "shoe_repair": {
        "count": 2,
        "detail": [
            {
                "shop": "shoe_repair"
            },
            {
                "description": "Центр бытовых услуг",
                "name": "Золотой гвоздь",
                "opening_hours": "Mo-Fr 09:00-20:00; Sa 10:00-19:00",
                "services": "ремонт обуви, часов, кожгалантереи; изготовление ключей",
                "shop": "shoe_repair"
            }
        ]
    },
    "bank": {
        "count": 6,
        "detail": [
            {
                "addr:city": "Санкт-Петербург",
                "addr:housenumber": "18",
                "addr:street": "9-я линия В.О.",
                "amenity": "bank",
                "atm": "yes",
                "name": "Совкомбанк",
                "opening_hours": "Mo-Fr 10:00-20:00; Sa 10:00-17:00",
                "website": "https://sovcombank.ru",
                "wheelchair": "limited"
            },
            {
                "amenity": "bank",
                "name": "Открытие",
                "opening_hours": "Mo-Fr 10:00-20:00; Sa 10:00-17:00",
                "phone": "+7 800 2005075",
                "website": "https://www.binbank.ru/"
            },
            {
                "addr:housenumber": "49",
                "addr:street": "Средний проспект В.О.",
                "alt_name": "ЮниКредит Банк",
                "amenity": "bank",
                "atm": "yes",
                "contact:email": "unicredit@unicredit.ru",
                "contact:phone": "+7 495 2587200;+7 800 7001020",
                "contact:twitter": "https://twitter.com/unicreditrussia",
                "contact:vk": "https://vk.com/unicreditbank",
                "contact:website": "https://www.unicreditbank.ru/",
                "contact:youtube": "https://www.youtube.com/user/unicreditbankrussia",
                "int_name": "UniCredit Bank",
                "name": "ЮниКредит Банк",
                "opening_hours": "Mo-Fr 10:00-20:00",
                "operator": "ЮниКредит Банк"
            },
            {
                "amenity": "bank",
                "atm": "no",
                "name": "Офис «Авангард-Экспресс» № 0263",
                "opening_hours": "Mo-Fr 9:30-15:00, 15:40-21:15",
                "website": "https://www.avangard.ru"
            },
            {
                "amenity": "bank",
                "bic": "SABRRUMM",
                "branch": "Северо-Западный банк",
                "contact:facebook": "https://www.facebook.com/sberbank",
                "contact:instagram": "https://instagram.com/sberbank",
                "contact:ok": "https://ok.ru/sberbank",
                "contact:phone": "+7 800 5555550",
                "contact:twitter": "https://twitter.com/sberbank",
                "contact:vk": "https://vk.com/sberbank",
                "contact:website": "https://www.sberbank.ru",
                "contact:youtube": "https://www.youtube.com/sberbank",
                "drive_through": "no",
                "name": "Сбербанк",
                "name:en": "Sberbank",
                "name:ru": "Сбербанк",
                "opening_hours": "Mo-Fr 10:00-19:00",
                "operator": "ПАО Сбербанк",
                "operator:wikidata": "Q205012",
                "operator:wikipedia": "ru:Сбербанк России",
                "ref": "9055/0500",
                "wheelchair": "no"
            },
            {
                "amenity": "bank",
                "contact:email": "info@mkb.ru",
                "contact:facebook": "https://www.facebook.com/mkb.ru",
                "contact:instagram": "https://www.instagram.com/bankmkb/",
                "contact:phone": "+7 495 7774888;+7 495 7974242;+7 800 1004888;+7 800 7755152",
                "contact:twitter": "https://twitter.com/bankmkb",
                "contact:vk": "https://vk.com/bankmkb",
                "contact:website": "https://mkb.ru/",
                "name": "Московский кредитный банк",
                "opening_hours": "Mo-Sa 10:00-21:00",
                "operator": "Московский кредитный банк"
            }
        ]
    },
    "optician": {
        "count": 4,
        "detail": [
            {
                "name": "Невская оптика",
                "opening_hours": "Mo-Sa 11:00-20:00; Su 11:00-18:00",
                "shop": "optician",
                "wheelchair": "no"
            },
            {
                "name": "Очки",
                "shop": "optician",
                "opening_hours": "Mo-Fr 10:30-19:30; Sa 11:00-19:00"
            },
            {
                "contact:email": "otzyv@happylook.ru",
                "contact:facebook": "https://www.facebook.com/happylook.ru/",
                "contact:instagram": "https://www.instagram.com/happylook.ru/",
                "contact:phone": "+7 812 3170003 ext. 0275",
                "contact:vk": "https://vk.com/happylook_ru",
                "contact:website": "https://happylook.ru/",
                "contact:youtube": "https://www.youtube.com/channel/UCY1OkGBHKrWjswV7MRxtEXQ",
                "name": "Счастливый взгляд",
                "opening_hours": "Mo-Su 10:00-20:00",
                "operator": "Веритас Вью",
                "shop": "optician"
            },
            {
                "contact:email": "otzyv@happylook.ru",
                "contact:facebook": "https://www.facebook.com/happylook.ru/",
                "contact:instagram": "https://www.instagram.com/happylook.ru/",
                "contact:phone": "+7 812 3170003 ext. 0281",
                "contact:vk": "https://vk.com/happylook_ru",
                "contact:website": "https://happylook.ru/",
                "contact:youtube": "https://www.youtube.com/channel/UCY1OkGBHKrWjswV7MRxtEXQ",
                "name": "Счастливый взгляд",
                "opening_hours": "Mo-Su 10:00-20:00",
                "operator": "Веритас Вью",
                "shop": "optician"
            }
        ]
    },
    "alcohol": {
        "count": 2,
        "detail": [
            {
                "name": "Ароматный мир",
                "opening_hours": "Mo-Su 10:00-22:00",
                "operator": "ООО «Торговый дом «Арома»",
                "phone": "+7 812 3239040",
                "shop": "alcohol",
                "wheelchair": "no"
            },
            {
                "brand": "Ароматный мир",
                "contact:facebook": "https://www.facebook.com/amwine.ru",
                "contact:instagram": "https://www.instagram.com/amwine.ru",
                "contact:twitter": "https://twitter.com/amwineru",
                "contact:vk": "https://vk.com/amwineru",
                "contact:website": "https://amwine.ru",
                "drink:beer": "bottled",
                "drink:cider": "bottled",
                "drink:cognac": "bottled",
                "drink:soft_drink": "bottled",
                "drink:sparkling_wine": "bottled",
                "drink:vodka": "bottled",
                "drink:whisky": "bottled",
                "drink:wine": "bottled",
                "name": "Ароматный мир",
                "name:ru": "Ароматный мир",
                "shop": "alcohol"
            }
        ]
    },
    "books": {
        "count": 4,
        "detail": [
            {
                "brand": "Буквоед",
                "brand:wikidata": "Q4098549",
                "brand:wikipedia": "ru:Буквоед",
                "name": "Буквоед",
                "opening_hours": "Mo-Su 09:00-22:00",
                "shop": "books",
                "wheelchair": "limited"
            },
            {
                "name": "Академкнига",
                "shop": "books"
            },
            {
                "name": "Академкнига",
                "opening_hours": "Mo-Sa 10:00-19:00",
                "shop": "books"
            },
            {
                "contact:email": "terrabook-nt@mail.ru",
                "contact:instagram": "https://instagram.com/territoria.spb",
                "contact:phone": "+7 812 9981687",
                "name": "Территория",
                "opening_hours": "Mo-Su 10:00-21:00",
                "operator": "Территория",
                "shop": "books"
            }
        ]
    },
    "language_school": {
        "count": 1,
        "detail": [
            {
                "amenity": "language_school",
                "name": "Курсы иностранных языков",
                "phone": "+7 812 3280482"
            }
        ]
    },
    "embassy": {
        "count": 1,
        "detail": [
            {
                "amenity": "embassy",
                "country": "LV",
                "name": "Генеральное консульство Латвийской республики в Санкт-Петербурге",
                "name:lv": "Latvijas Republikas ģenerālkonsulāts Sanktpēterburgā",
                "phone": "+7 812 3363454",
                "website": "http://www.latviaspb.ru/"
            }
        ]
    },
    "bag": {
        "count": 3,
        "detail": [
            {
                "name": "Baggins",
                "shop": "bag"
            },
            {
                "name": "Золотой замок",
                "shop": "bag",
                "operator": "ООО «Золотой замок»",
                "opening_hours": "Mo-Su 11:00-21:00"
            },
            {
                "name": "Дом Сумок",
                "shop": "bag"
            }
        ]
    },
    "college": {
        "count": 1,
        "detail": [
            {
                "addr:housenumber": "3/30",
                "addr:street": "10-я линия В.О.",
                "amenity": "college",
                "building": "yes",
                "name": "Факультет довузовского образования",
                "opening_hours": "Mo-Fr 09:30-18:00",
                "operator": "Государственный университет Высшая школа экономики",
                "website": "https://spb.hse.ru/"
            }
        ]
    },
    "printing_establishment": {
        "count": 1,
        "detail": [
            {
                "amenity": "printing_establishment",
                "description": "основана в 1727 году",
                "name": "Первая академическая типография «Наука»"
            }
        ]
    },
    "social_facility": {
        "count": 1,
        "detail": [
            {
                "name": "Отделение экстренной психологической помощи гражданам пожилого возраста «Тревожная кнопка»",
                "amenity": "social_facility",
                "operator": "Комплексный центр социального обслуживания населения Василеостровского района",
                "social_facility": "outreach"
            }
        ]
    },
    "school": {
        "count": 1,
        "detail": [
            {
                "name": "Детская вокально-театральная студия «Интермедия»",
                "phone": "+7 812 4486920",
                "amenity": "school",
                "website": "http://www.intermediastudio.narod.ru/"
            }
        ]
    },
    "gift": {
        "count": 1,
        "detail": [
            {
                "name": "Glamour",
                "shop": "gift",
                "operator": "ООО «Гламур-Спб»",
                "description": "Бижутерия, аксессуары",
                "opening_hours": "Mo-Su 10:00-22:00"
            }
        ]
    },
    "pawnbroker": {
        "count": 2,
        "detail": [
            {
                "name": "Антиквариат Ломбард",
                "shop": "pawnbroker",
                "operator": "ООО «Янус»",
                "opening_hours": "Mo-Su 11:00-19:00"
            },
            {
                "shop": "pawnbroker"
            }
        ]
    },
    "toilets": {
        "count": 2,
        "detail": [
            {
                "male": "yes",
                "female": "yes",
                "amenity": "toilets"
            },
            {
                "amenity": "toilets",
                "opening_hours": "24/7",
                "operator": "Бургер кинг"
            }
        ]
    },
    "payment_centre": {
        "count": 1,
        "detail": [
            {
                "amenity": "payment_centre",
                "brand": "Петроэлектросбыт",
                "contact:facebook": "petroelektrosbyt",
                "contact:twitter": "zao_pes",
                "contact:vk": "petroelektrosbyt",
                "office": "energy_supplier",
                "opening_hours": "Mo-Sa 09:15-20:15; Su off",
                "operator": "АО «Петроэлектросбыт»",
                "phone": "+7 812 6792222",
                "website": "https://www.pes.spb.ru/"
            }
        ]
    },
    "bus_stop": {
        "count": 10,
        "detail": [
            {
                "bus": "yes",
                "highway": "bus_stop",
                "local_ref": "Маршрутные такси 6к,62,124,350,359",
                "name": "8 и 9 линии В.О.(Средний проспект В.О.)",
                "name:ru": "Средний проспект В.О.",
                "public_transport": "platform",
                "wheelchair": "limited"
            },
            {
                "bus": "yes",
                "name": "Средний проспект В.О.",
                "name:ru": "Средний проспект В.О.",
                "public_transport": "stop_position"
            },
            {
                "bus": "yes",
                "name": "8-я и 9-я линии В.О.",
                "operator": "СПб ГУП \"Организатор перевозок\"",
                "public_transport": "stop_position",
                "share_taxi": "yes",
                "tactile_paving": "no",
                "trolleybus": "yes"
            },
            {
                "bench": "yes",
                "bin": "yes",
                "bus": "yes",
                "highway": "bus_stop",
                "name": "8-я и 9-я линии В.О.",
                "passenger_information_display": "yes",
                "public_transport": "platform",
                "shelter": "yes",
                "tactile_paving": "no",
                "wheelchair": "limited"
            },
            {
                "alt_name": "8-9-я линии В.О.",
                "bus": "yes",
                "name": "Большой проспект В.О.",
                "name:ru": "Большой проспект В.О.",
                "public_transport": "stop_position"
            },
            {
                "alt_name": "8-9-я линии В.О.",
                "bus": "yes",
                "highway": "bus_stop",
                "local_ref": "1;24;42;128;151",
                "name": "Большой проспект В.О.",
                "name:ru": "Большой проспект В.О.",
                "public_transport": "platform",
                "wheelchair": "limited"
            },
            {
                "bus": "yes",
                "name": "8-9-я линии В.О.",
                "operator": "СПб ГУП \"Организатор перевозок\"",
                "public_transport": "stop_position",
                "ref": "6;10;11",
                "share_taxi": "yes",
                "tactile_paving": "no"
            },
            {
                "alt_name": "8-9-я линии В.О.",
                "bench": "yes",
                "bin": "yes",
                "bus": "yes",
                "highway": "bus_stop",
                "name": "Большой проспект В.О.",
                "name:ru": "Большой проспект В.О.",
                "public_transport": "platform",
                "shelter": "yes"
            },
            {
                "bus": "yes",
                "ref": "6;10;11",
                "name": "12-я и 13-я линии В.О.",
                "operator": "СПб ГУП \"Организатор перевозок\"",
                "share_taxi": "yes",
                "trolleybus": "yes",
                "tactile_paving": "no",
                "public_transport": "stop_position"
            },
            {
                "highway": "bus_stop",
                "name": "8-я и 9-я линии В.О.",
                "public_transport": "platform",
                "trolleybus": "yes"
            }
        ]
    },
    "pharmacy": {
        "count": 8,
        "detail": [
            {
                "amenity": "pharmacy",
                "healthcare": "pharmacy",
                "name": "Оптика"
            },
            {
                "amenity": "pharmacy",
                "name": "Озерки",
                "wheelchair": "yes"
            },
            {
                "amenity": "pharmacy",
                "healthcare": "pharmacy",
                "name": "Горздрав"
            },
            {
                "amenity": "pharmacy",
                "name": "Первая помощь",
                "opening_hours": "24/7"
            },
            {
                "amenity": "pharmacy",
                "healthcare": "pharmacy",
                "name": "Мелодия здоровья",
                "opening_hours": "Mo-Fr 08:00-21:00; Sa, Su 10:00-21:00",
                "phone": "+7 812 4077371",
                "website": "http://spb.melzdrav.ru/"
            },
            {
                "amenity": "pharmacy",
                "contact:facebook": "http://facebook.com/aptekivita",
                "contact:instagram": "https://www.instagram.com/vita_express/",
                "contact:phone": "+7 800 7550003",
                "contact:vk": "https://vk.com/aptekivita",
                "contact:website": "https://vitaexpress.ru/",
                "name": "Вита экспресс",
                "opening_hours": "Mo-Fr 08:00-22:00;Sa-Su 09:00-22:00"
            },
            {
                "amenity": "pharmacy",
                "healthcare": "pharmacy",
                "name": "Для бережливых"
            },
            {
                "amenity": "pharmacy",
                "dispensing": "yes",
                "healthcare": "pharmacy"
            }
        ]
    },
    "stationery": {
        "count": 1,
        "detail": [
            {
                "name": "Комус",
                "opening_hours": "Mo-Fr 09:00-21:00; Sa-Su 10:00-20:00",
                "shop": "stationery",
                "website": "https://www.komus.ru/"
            }
        ]
    },
    "sports": {
        "count": 2,
        "detail": [
            {
                "name": "Strongart.ru",
                "shop": "sports"
            },
            {
                "email": "im@stdin.ru",
                "level": "0",
                "name": "Мегаспорт",
                "name:en": "Megasport",
                "opening_hours": "Mo-Su 09:00-21:00",
                "phone": "+7 495 7751975",
                "shop": "sports",
                "website": "https://stdin.ru/"
            }
        ]
    },
    "greengrocer": {
        "count": 1,
        "detail": [
            {
                "name": "Фруктовая лавка",
                "shop": "greengrocer"
            }
        ]
    },
    "clock": {
        "count": 2,
        "detail": [
            {
                "amenity": "clock",
                "display": "analog",
                "support": "wall_mounted"
            },
            {
                "amenity": "clock",
                "display": "analog",
                "faces": "2"
            }
        ]
    },
    "sports_centre": {
        "count": 1,
        "detail": [
            {
                "name": "Танцевальная студия",
                "leisure": "sports_centre"
            }
        ]
    },
    "jewelry": {
        "count": 2,
        "detail": [
            {
                "addr:city": "Санкт-Петербург",
                "addr:housenumber": "36/40",
                "addr:street": "Средний проспект В.О.",
                "name": "Яшма золото",
                "opening_hours": "Mo-Su 10:00-20:00",
                "shop": "jewelry",
                "website": "http://udyashma.ru/"
            },
            {
                "addr:city": "Санкт-Петербург",
                "addr:housenumber": "46",
                "addr:postcode": "199178",
                "addr:street": "Средний проспект В.О.",
                "email": "info@moggem.ru",
                "level": "0",
                "name": "Moggem, ювелирная лаборатория",
                "opening_hours": "Mo-Fr 10:00-20:00, Sa-Su 12:00-18:00",
                "opening_hours:covid19": "open",
                "phone": "+7 (812) 425 56 09",
                "shop": "jewelry",
                "website": "https://moggem.ru"
            }
        ]
    },
    "medical_supply": {
        "count": 1,
        "detail": [
            {
                "addr:city": "Санкт-Петербург",
                "addr:housenumber": "36/40",
                "addr:street": "Средний проспект В.О.",
                "brand": "Ортека",
                "brand:wikidata": "Q62393660",
                "contact:email": "info@orteka.ru",
                "contact:facebook": "https://www.facebook.com/orteka.rus",
                "contact:instagram": "https://www.instagram.com/orteka_rus",
                "contact:phone": "+7 800 3333112",
                "contact:vk": "https://vk.com/orteka_ru",
                "contact:website": "https://orteka.ru/salon/orteka-vasileostrovskaya.php",
                "name": "Ортека",
                "name:ru": "Ортека",
                "opening_hours": "Mo-Su 09:00-22:00",
                "operator": "НИКАМЕД",
                "shop": "medical_supply"
            }
        ]
    },
    "toys": {
        "count": 1,
        "detail": [
            {
                "brand": "Детский мир",
                "brand:en": "Detskiy Mir",
                "brand:wikidata": "Q16643324",
                "brand:wikipedia": "en:Detsky Mir",
                "name": "Детский мир",
                "name:en": "Detskiy Mir",
                "shop": "toys"
            }
        ]
    },
    "florist": {
        "count": 2,
        "detail": [
            {
                "name": "Цветовик",
                "opening_hours": "24/7",
                "shop": "florist",
                "wheelchair": "no"
            },
            {
                "name": "АртФлора",
                "shop": "florist"
            }
        ]
    },
    "training": {
        "count": 1,
        "detail": [
            {
                "amenity": "training",
                "description": "многоотраслевой центр обучения",
                "name": "ЦНТИ Прогресс",
                "name:ru": "ЦНТИ Прогресс",
                "phone": "+7 812 3318888",
                "website": "http://www.cntiprogress.ru/"
            }
        ]
    },
    "coffee": {
        "count": 1,
        "detail": [
            {
                "name": "coffee4you",
                "shop": "coffee",
                "fixme": "там и не кафе, и не магазин, а окно, откуда дают кофе с собой"
            }
        ]
    },
    "money_lender": {
        "count": 1,
        "detail": [
            {
                "contact:facebook": "https://www.facebook.com/moscowzaimexpress/",
                "contact:instagram": "https://www.instagram.com/zaimexpress/",
                "contact:ok": "https://ok.ru/zaim.express",
                "contact:phone": "+7 800 3330202",
                "contact:twitter": "https://twitter.com/zaimexpres",
                "contact:vk": "https://vk.com/z_express",
                "contact:website": "https://www.zaim-express.ru/",
                "name": "Займ-Экспресс",
                "name:ru": "Займ-Экспресс",
                "operator": "ООО Займ-Экспресс",
                "shop": "money_lender"
            }
        ]
    },
    "e-cigarette": {
        "count": 1,
        "detail": [
            {
                "name": "VAPE",
                "shop": "e-cigarette"
            }
        ]
    },
    "bicycle_parking": {
        "count": 4,
        "detail": [
            {
                "amenity": "bicycle_parking"
            },
            {
                "amenity": "bicycle_parking",
                "bicycle_parking": "rack",
                "covered": "no",
                "operator": "Marketplace"
            },
            {
                "amenity": "bicycle_parking",
                "bicycle_parking": "stands",
                "capacity": "6",
                "covered": "no",
                "operator": "Теремок"
            },
            {
                "amenity": "bicycle_parking",
                "bicycle_parking": "stands",
                "capacity": "4",
                "covered": "no",
                "operator": "Mяsoet"
            }
        ]
    },
    "theatre": {
        "count": 2,
        "detail": [
            {
                "amenity": "theatre",
                "contact:phone": "+7 812 3215996",
                "contact:website": "http://www.teatrvo.ru/",
                "full_name": "Государственный драматический театр на Васильевском",
                "name": "Театр на Васильевском",
                "opening_hours": "Tu-Su 11:00-22:00",
                "operator": "ГБУК «Драматический театр на Васильевском»",
                "ref:mkrf_theaters": "12473"
            },
            {
                "amenity": "theatre",
                "email": "clowndepartment@comic-trust.com",
                "name": "Театр «Комик-Трест»",
                "opening_hours": "Mo-Su 10:00-22:00",
                "operator": "АНО Театральное товарищество «Комик-Трест»",
                "phone": "+7 812 3281619",
                "ref:mkrf_theaters": "38931",
                "website": "https://www.comic-trust.com"
            }
        ]
    },
    "honey": {
        "count": 1,
        "detail": [
            {
                "name": "Мёд Алтая",
                "shop": "honey"
            }
        ]
    },
    "craft": {
        "count": 1,
        "detail": [
            {
                "addr:city": "Санкт-Петербург",
                "addr:housenumber": "38 к1",
                "addr:street": "Средний проспект В.О.",
                "name": "Арт-Квартал",
                "opening_hours": "Mo-Su 09:00-21:00",
                "operator": "https://artkvartal.ru/",
                "shop": "craft"
            }
        ]
    },
    "recycling": {
        "count": 1,
        "detail": [
            {
                "amenity": "recycling",
                "name": "Экобокс",
                "name:en": "Eco-box"
            }
        ]
    },
    "butcher": {
        "count": 2,
        "detail": [
            {
                "name": "Ладоград",
                "opening_hours": "Mo-Su 09:00-21:00",
                "shop": "butcher"
            },
            {
                "name": "Великолукский мясокомбинат",
                "opening_hours": "Mo 10:00-22:00; Tu-Sa 09:00-22:00; Su 09:00-21:00",
                "operator": "ООО \"Аркада\"",
                "shop": "butcher"
            }
        ]
    },
    "clinic": {
        "count": 1,
        "detail": [
            {
                "addr:city": "Санкт-Петербург",
                "addr:housenumber": "13",
                "addr:street": "10-я линии В.О.",
                "amenity": "clinic",
                "email": "suggestions@medlabspb.ru",
                "healthcare": "clinic",
                "healthcare:speciality": "gynaecology;urology;neurology;clinic;general;endocrinologist;gastroenterologist;gastroenterology;cardiology;diagnostic_radiology",
                "name": "МедЛаб",
                "opening_hours": "Mo-Fr 07:30-20:00; Sa 08:00-18:00; Su 09:00-15:00",
                "operator": "Сеть медицинских центров и лабораторий \"МедЛаб\"",
                "payment:cash": "yes",
                "payment:credit_cards": "yes",
                "payment:debit_cards": "yes",
                "payment:mastercard": "yes",
                "payment:visa": "yes",
                "phone": "+7 812 3216401;+7 812 6002210",
                "start_date": "2012",
                "website": "https://medlabspb.ru/medcentry/medlab-vasilevskij"
            }
        ]
    },
    "parking_entrance": {
        "count": 2,
        "detail": [
            {
                "amenity": "parking_entrance"
            },
            {
                "amenity": "parking_entrance"
            }
        ]
    },
    "pastry": {
        "count": 1,
        "detail": [
            {
                "name": "ТХПО",
                "shop": "pastry"
            }
        ]
    },
    "chemist": {
        "count": 1,
        "detail": [
            {
                "name": "Скарлетт",
                "shop": "chemist"
            }
        ]
    },
    "kindergarten": {
        "count": 1,
        "detail": [
            {
                "amenity": "kindergarten",
                "contact:email": "vasdou011@obr.gov.spb.ru",
                "contact:phone": "+7 812 3215128",
                "contact:website": "http://ds11.voadm.gov.spb.ru",
                "name": "Детский сад № 11",
                "official_name": "Государственное бюджетное дошкольное образовательное учреждение детский сад № 11 общеразвивающего вида Василеостровского района Санкт-Петербурга"
            }
        ]
    },
    "library": {
        "count": 1,
        "detail": [
            {
                "amenity": "library",
                "name": "Центральная районная детская библиотека",
                "opening_hours": "Mo-Fr 11:00-19:00; Sa 11:00-18:00"
            }
        ]
    },
    "yes": {
        "count": 1,
        "detail": [
            {
                "description": "Индийские товары",
                "level": "1",
                "name": "Аюрведа",
                "shop": "yes"
            }
        ]
    },
    "confectionery": {
        "count": 1,
        "detail": [
            {
                "addr:postcode": "199178",
                "addr:street": "10-11-я линии В.О.",
                "name": "St.Lewis Кофейня-кондитерская",
                "name:en": "St.Lewis",
                "opening_hours": "Mo-Fr 08:30-20:00; Sa 10:00-21:00; Su 10:00-20:00",
                "phone": "+7 (981) 103-84-75",
                "shop": "confectionery",
                "website": "https://www.instagram.com/st.lewiscafe/"
            }
        ]
    },
    "service": {
        "count": 5,
        "detail": [
            {
                "ref": "1215",
                "power": "substation",
                "source": "rgis.spb.ru",
                "building": "service",
                "building:levels": "1"
            },
            {
                "ref": "1348",
                "power": "substation",
                "building": "service",
                "building:levels": "1"
            },
            {
                "addr:housenumber": "28",
                "addr:letter": "Т",
                "addr:street": "9-я линия В.О.",
                "building": "service",
                "building:levels": "1",
                "power": "substation",
                "ref": "1348"
            },
            {
                "note": "номера нигде нет",
                "power": "substation",
                "source": "rgis",
                "building": "service",
                "addr:street": "6-я линия В.О.",
                "addr:housenumber": "25 к3"
            },
            {
                "addr:city": "Санкт-Петербург",
                "addr:country": "RU",
                "addr:housenumber": "34",
                "addr:letter": "А",
                "addr:street": "13-я линия В.О.",
                "building": "service",
                "source": "rgis"
            }
        ]
    },
    "hospital": {
        "count": 1,
        "detail": [
            {
                "addr:city": "Санкт-Петербург",
                "addr:country": "RU",
                "addr:housenumber": "19",
                "addr:street": "15-я линия В.О.",
                "amenity": "hospital",
                "building": "yes",
                "building:levels": "6",
                "name": "Родильный дом №1",
                "phone": "+7 812 3213342",
                "source": "rgis",
                "website": "http://1rd.spb.ru/"
            }
        ]
    },
    "university": {
        "count": 1,
        "detail": [
            {
                "name": "Институт наук о Земле СПбГУ",
                "source": "rgis",
                "amenity": "university",
                "name:ru": "Институт наук о Земле СПбГУ",
                "website": "http://www.earth.spbu.ru",
                "building": "yes",
                "addr:street": "Средний проспект В.О.",
                "building:levels": "5",
                "addr:housenumber": "41",
                "building:architecture": "stalinist neoclassicism"
            }
        ]
    }
}