{
    "residents": 13893,
    "convenience": {
        "count": 9,
        "detail": [
            {
                "drink:coffee": "served",
                "name": "Продукты",
                "opening_hours": "24/7",
                "shop": "convenience",
                "wheelchair": "no"
            },
            {
                "drink:coffee": "served",
                "name": "Гастроном",
                "opening_hours": "24/7",
                "payment:credit_cards": "yes",
                "payment:debit_cards": "yes",
                "shop": "convenience",
                "wheelchair": "limited"
            },
            {
                "name": "Продукты",
                "opening_hours": "24/7",
                "shop": "convenience"
            },
            {
                "name": "Продукты",
                "opening_hours": "24/7",
                "shop": "convenience"
            },
            {
                "name": "Продукты",
                "shop": "convenience"
            },
            {
                "name": "Продукты",
                "shop": "convenience",
                "opening_hours": "24/7"
            },
            {
                "drink:coffee": "served",
                "name": "Продукты",
                "opening_hours": "08:00-23:00",
                "operator": "ИП Соломина Елена Юрьевна",
                "shop": "convenience",
                "wheelchair": "no"
            },
            {
                "name": "Продукты",
                "shop": "convenience"
            },
            {
                "name": "Продукты",
                "opening_hours": "24/7",
                "shop": "convenience"
            }
        ]
    },
    "bus_stop": {
        "count": 8,
        "detail": [
            {
                "bench": "yes",
                "bin": "yes",
                "bus": "yes",
                "highway": "bus_stop",
                "name": "Площадь Репина",
                "public_transport": "platform",
                "shelter": "yes",
                "tactile_paving": "no",
                "wheelchair": "limited"
            },
            {
                "bench": "yes",
                "bin": "yes",
                "bus": "yes",
                "highway": "bus_stop",
                "name": "Площадь Репина",
                "public_transport": "platform",
                "shelter": "yes",
                "tactile_paving": "no",
                "wheelchair": "limited"
            },
            {
                "bus": "yes",
                "ref": "2;6;22;71",
                "name": "Площадь Репина",
                "share_taxi": "yes",
                "public_transport": "stop_position"
            },
            {
                "bus": "yes",
                "ref": "2;6;22;70;181",
                "name": "Площадь Репина",
                "operator": "СПб ГУП \"Организатор перевозок\"",
                "share_taxi": "yes",
                "tactile_paving": "no",
                "public_transport": "stop_position"
            },
            {
                "bus": "yes",
                "highway": "bus_stop",
                "local_ref": "49;181",
                "name": "Набережная реки Фонтанки",
                "public_transport": "platform"
            },
            {
                "bench": "yes",
                "bin": "yes",
                "bus": "yes",
                "highway": "bus_stop",
                "local_ref": "49",
                "name": "Садовая улица",
                "name:ru": "Садовая улица",
                "public_transport": "platform",
                "shelter": "yes"
            },
            {
                "bus": "yes",
                "name": "Садовая улица",
                "name:ru": "Садовая улица",
                "public_transport": "stop_position"
            },
            {
                "bus": "yes",
                "name": "Набережная реки Фонтанки",
                "public_transport": "stop_position"
            }
        ]
    },
    "library": {
        "count": 1,
        "detail": [
            {
                "amenity": "library",
                "name": "Библиотека СПбГМТУ"
            }
        ]
    },
    "playground": {
        "count": 5,
        "detail": [
            {
                "leisure": "playground"
            },
            {
                "leisure": "playground"
            },
            {
                "leisure": "playground"
            },
            {
                "leisure": "playground"
            },
            {
                "leisure": "playground"
            }
        ]
    },
    "alcohol": {
        "count": 2,
        "detail": [
            {
                "brand": "Красное & Белое",
                "brand:en": "Red & White",
                "brand:wikidata": "Q24933790",
                "brand:wikipedia": "en:Krasnoe & Beloe",
                "contact:vk": "https://vk.com/krasnoebeloe",
                "name": "Красное & Белое",
                "name:en": "Red & White",
                "opening_hours": "09:00-22:05",
                "operator": "ООО «Альфа-М»",
                "shop": "alcohol",
                "website": "https://krasnoeibeloe.ru/"
            },
            {
                "contact:vk": "https://vk.com/krasnoebeloe",
                "name": "Красное & Белое",
                "opening_hours": "09:00-22:05",
                "operator": "ООО «Бета Ижевск»",
                "shop": "alcohol",
                "website": "https://krasnoeibeloe.ru/"
            }
        ]
    },
    "supermarket": {
        "count": 1,
        "detail": [
            {
                "brand": "Пятёрочка",
                "brand:wikidata": "Q1768969",
                "contact:vk": "https://vk.com/pyaterochka_shop",
                "name": "Пятёрочка",
                "note": "нет на сайте",
                "opening_hours": "09:00-23:00",
                "operator": "ООО «Агроторг»",
                "shop": "supermarket",
                "website": "https://5ka.ru/"
            }
        ]
    },
    "bench": {
        "count": 9,
        "detail": [
            {
                "amenity": "bench"
            },
            {
                "amenity": "bench"
            },
            {
                "amenity": "bench"
            },
            {
                "amenity": "bench"
            },
            {
                "amenity": "bench"
            },
            {
                "amenity": "bench"
            },
            {
                "amenity": "bench"
            },
            {
                "amenity": "bench"
            },
            {
                "amenity": "bench"
            }
        ]
    },
    "cafe": {
        "count": 4,
        "detail": [
            {
                "amenity": "cafe",
                "name": "Relax"
            },
            {
                "amenity": "cafe",
                "cuisine": "russian",
                "delivery": "yes",
                "description": "Чебуречная",
                "name": "Ржавая подкова",
                "opening_hours": "10:00-23:00",
                "takeaway": "yes"
            },
            {
                "amenity": "cafe",
                "opening_hours": "24/7"
            },
            {
                "amenity": "cafe",
                "int_name": "Three Rivers",
                "name": "Три реки"
            }
        ]
    },
    "florist": {
        "count": 1,
        "detail": [
            {
                "name": "Цветы. Подарки",
                "shop": "florist"
            }
        ]
    },
    "waste_disposal": {
        "count": 3,
        "detail": [
            {
                "amenity": "waste_disposal",
                "check_date": "2013-04-23"
            },
            {
                "amenity": "waste_disposal"
            },
            {
                "amenity": "waste_disposal"
            }
        ]
    },
    "doityourself": {
        "count": 1,
        "detail": [
            {
                "contact:vk": "https://vk.com/etm_company",
                "name": "ЭТМ",
                "opening_hours": "Mo-Fr 09:00-20:00; Sa 10:00-18:00; Su 10:00-17:00",
                "operator": "ООО «ТД «Электротехмонтаж»",
                "shop": "doityourself",
                "website": "https://www.etm.ru/"
            }
        ]
    },
    "chemist": {
        "count": 1,
        "detail": [
            {
                "shop": "chemist"
            }
        ]
    },
    "college": {
        "count": 1,
        "detail": [
            {
                "name": "Институт \"Влада\"",
                "amenity": "college",
                "website": "http://vlada-hair.ru/"
            }
        ]
    },
    "beauty": {
        "count": 2,
        "detail": [
            {
                "name": "Aphrodite",
                "shop": "beauty"
            },
            {
                "name": "Gastronom",
                "opening_hours": "10:00-22:00",
                "shop": "beauty",
                "website": "https://gastronomnail.ru/"
            }
        ]
    },
    "fast_food": {
        "count": 2,
        "detail": [
            {
                "name": "Восток",
                "amenity": "fast_food",
                "fast_food": "cafeteria"
            },
            {
                "name": "Пирожковая сказка",
                "amenity": "fast_food"
            }
        ]
    },
    "bank": {
        "count": 1,
        "detail": [
            {
                "amenity": "bank",
                "brand": "Промсвязьбанк",
                "brand:wikidata": "Q649100",
                "contact:vk": "https://vk.com/psbank_ru",
                "name": "Промсвязьбанк",
                "note": "нет на сайте, возможно не работает; \"дополнительный офис \"Кассовый центр\"",
                "website": "https://www.psbank.ru/"
            }
        ]
    },
    "restaurant": {
        "count": 3,
        "detail": [
            {
                "amenity": "restaurant",
                "contact:vk": "https://vk.com/club28313329",
                "cuisine": "georgian",
                "name": "Чито Гврито",
                "opening_hours": "11:00-23:00",
                "website": "http://chitogvrito.ru/contacts/item/rimskogo-korsakova-pr-109.html"
            },
            {
                "amenity": "restaurant",
                "contact:vk": "https://vk.com/vesenniy",
                "internet_access": "wlan",
                "name": "Весенний",
                "opening_hours": "12:00-20:00",
                "reservation": "required",
                "website": "https://vesenniy.com/restorany-dlya-svadby/rimskogo.php"
            },
            {
                "amenity": "restaurant",
                "contact:vk": "https://vk.com/2banket",
                "name": "Фламбе",
                "opening_hours": "11:00-23:00",
                "reservation": "required",
                "website": "https://2banket.ru/banketnyj-zal-flambe/"
            }
        ]
    },
    "doctors": {
        "count": 1,
        "detail": [
            {
                "amenity": "doctors",
                "emergency": "yes",
                "healthcare": "doctor",
                "name": "Отделение \"Скорой помощи\""
            }
        ]
    },
    "bicycle": {
        "count": 1,
        "detail": [
            {
                "addr:city": "Санкт-Петербург",
                "addr:housenumber": "93",
                "addr:postcode": "190121",
                "addr:street": "проспект Римского-Корсакова",
                "name": "BikeTrip",
                "opening_hours": "10:00-24:00",
                "operator": "BikeTripSpb",
                "phone": "+7 999 2021493;+7 900 6476093",
                "reservation": "required",
                "service:bicycle:repair": "yes",
                "shop": "bicycle"
            }
        ]
    },
    "post_box": {
        "count": 1,
        "detail": [
            {
                "ref": "27",
                "amenity": "post_box",
                "operator": "Почта России",
                "design:year": "2010",
                "drive_through": "no",
                "post_box:type": "wall",
                "post_box:design": "ЯПНМ-II-С",
                "collection_times": "Mo-Fr 07:55,19:10; Sa 10:15; Su 19:10"
            }
        ]
    },
    "kindergarten": {
        "count": 4,
        "detail": [
            {
                "amenity": "kindergarten",
                "contact:email": "dou22.adm@obr.gov.spb.ru",
                "contact:phone": "+7 812 7144198",
                "contact:website": "https://ds22.admiral.gov.spb.ru",
                "name": "Детский сад №22",
                "official_name": "Государственное бюджетное дошкольное образовательное учреждение детский сад №22 Адмиралтейского района Санкт-Петербурга",
                "ref": "22"
            },
            {
                "amenity": "kindergarten",
                "contact:email": "admiraldou6@yandex.ru",
                "contact:phone": "+7 812 7136913",
                "contact:website": "http://dou6-spb.ucoz.ru",
                "name": "Детский сад № 6",
                "official_name": "Государственное бюджетное дошкольное образовательное учреждение детский сад № 6 Адмиралтейского района Санкт-Петербурга",
                "ref": "6"
            },
            {
                "building": "kindergarten",
                "addr:street": "набережная канала Грибоедова",
                "building:levels": "2",
                "addr:housenumber": "168"
            },
            {
                "building": "kindergarten",
                "addr:street": "набережная реки Пряжки",
                "building:levels": "2",
                "design:code:SPb": "ДС-34",
                "addr:housenumber": "58-60"
            }
        ]
    },
    "newsagent": {
        "count": 1,
        "detail": [
            {
                "building": "kiosk",
                "building:levels": "1",
                "shop": "newsagent"
            }
        ]
    },
    "hairdresser": {
        "count": 1,
        "detail": [
            {
                "opening_hours": "11:00-21:00",
                "phone": "+7 931 5929394",
                "shop": "hairdresser"
            }
        ]
    },
    "waste_basket": {
        "count": 3,
        "detail": [
            {
                "amenity": "waste_basket"
            },
            {
                "amenity": "waste_basket"
            },
            {
                "amenity": "waste_basket"
            }
        ]
    },
    "recycling": {
        "count": 1,
        "detail": [
            {
                "amenity": "recycling",
                "recycling_type": "container",
                "recycling:batteries": "yes",
                "recycling:low_energy_bulbs": "yes"
            }
        ]
    },
    "outpost": {
        "count": 1,
        "detail": [
            {
                "brand": "Ozon.ru",
                "brand:wikidata": "Q2365235",
                "contact:vk": "https://vk.com/ozon",
                "name": "Ozon.ru",
                "opening_hours": "Mo-Fr 11:00-20:00",
                "shop": "outpost",
                "website": "https://www.ozon.ru/"
            }
        ]
    },
    "curtain": {
        "count": 1,
        "detail": [
            {
                "name": "WaltzEmbroidery's",
                "opening_hours": "11:00-20:00",
                "operator": "ИП Володин В.В.",
                "shop": "curtain"
            }
        ]
    },
    "atm": {
        "count": 1,
        "detail": [
            {
                "amenity": "atm",
                "brand": "ВТБ",
                "note": "по времени работы клиники",
                "operator": "ПАО \"ВТБ\""
            }
        ]
    },
    "training": {
        "count": 1,
        "detail": [
            {
                "amenity": "training",
                "contact:vk": "https://vk.com/laschastie",
                "name": "La Счастье",
                "note": "вход со двора?"
            }
        ]
    },
    "parking_entrance": {
        "count": 1,
        "detail": [
            {
                "amenity": "parking_entrance"
            }
        ]
    },
    "school": {
        "count": 4,
        "detail": [
            {
                "addr:housenumber": "176",
                "addr:street": "набережная канала Грибоедова",
                "amenity": "school",
                "building": "yes",
                "building:levels": "4",
                "contact:email": "ctt@adm-edu.spb.ru",
                "contact:phone": "+7 812 6424415",
                "contact:website": "https://ctt-adm.ru",
                "name": "Центр технического творчества"
            },
            {
                "building": "school",
                "addr:city": "Санкт-Петербург",
                "addr:street": "Витебская улица",
                "building:levels": "4",
                "addr:housenumber": "6-8"
            },
            {
                "addr:city": "Санкт-Петербург",
                "addr:housenumber": "11",
                "addr:street": "Мясная улица",
                "amenity": "school",
                "building": "school",
                "building:levels": "4",
                "contact:email": "diplomatschool@mail.ru",
                "contact:phone": "+7 812 7140424",
                "contact:vk": "https://vk.com/diplomatschool",
                "contact:website": "http://diplomatschool.ru",
                "name": "Частная школа «Дипломат»",
                "note": "на сайте майнер www.sparechange.io",
                "official_name": "Частное общеобразовательное учреждение \"Школа \"ДИПЛОМАТ\""
            },
            {
                "addr:housenumber": "33",
                "addr:postcode": "190121",
                "addr:street": "Канонерская улица",
                "amenity": "school",
                "building": "school",
                "building:architecture": "stalinist neoclassicism",
                "building:cladding": "brick",
                "building:levels": "4",
                "building:parts": "vertical",
                "contact:email": "sc234@adm-edu.spb.ru",
                "contact:phone": "+7 812 7142353;+7 812 7142752",
                "contact:website": "http://sc.adm-edu.spb.ru/234/",
                "design:code:SPb": "Шк-15_50е",
                "design:note": "С деталями неоклассического стиля",
                "name": "Школа № 234",
                "official_name": "Государственное бюджетное общеобразовательное учреждение средняя общеобразовательная школа № 234 Адмиралтейского района Санкт-Петербурга",
                "ref": "234"
            }
        ]
    },
    "service": {
        "count": 8,
        "detail": [
            {
                "power": "substation",
                "building": "service",
                "substation": "minor_distribution",
                "addr:street": "улица Володи Ермака",
                "building:levels": "1",
                "addr:housenumber": "9-11"
            },
            {
                "power": "substation",
                "building": "service",
                "substation": "minor_distribution",
                "addr:street": "Дровяной переулок",
                "building:levels": "1",
                "addr:housenumber": "7"
            },
            {
                "power": "substation",
                "building": "service",
                "substation": "minor_distribution",
                "addr:street": "набережная реки Пряжки",
                "building:levels": "1",
                "addr:housenumber": "52"
            },
            {
                "power": "substation",
                "building": "service",
                "substation": "minor_distribution",
                "addr:letter": "Г",
                "addr:street": "Лоцманская улица",
                "building:levels": "1",
                "addr:housenumber": "20"
            },
            {
                "power": "substation",
                "building": "service",
                "substation": "minor_distribution",
                "building:levels": "1"
            },
            {
                "power": "substation",
                "building": "service",
                "substation": "minor_distribution",
                "building:levels": "1"
            },
            {
                "power": "substation",
                "building": "service",
                "substation": "minor_distribution",
                "building:levels": "1"
            },
            {
                "power": "substation",
                "building": "service",
                "substation": "minor_distribution",
                "building:levels": "1"
            }
        ]
    },
    "sauna": {
        "count": 1,
        "detail": [
            {
                "name": "Лоцманские бани",
                "leisure": "sauna",
                "website": "http://лоцманские.рф/",
                "building": "yes",
                "addr:letter": "В",
                "addr:street": "Лоцманская улица",
                "building:levels": "4",
                "addr:housenumber": "20"
            }
        ]
    },
    "car_repair": {
        "count": 1,
        "detail": [
            {
                "building": "yes",
                "building:levels": "1",
                "opening_hours": "24/7",
                "shop": "car_repair"
            }
        ]
    }
}