{
    "doctors": {
        "count": 1,
        "detail": [
            {
                "amenity": "doctors",
                "contact:vk": "https://vk.com/amclinic_spb",
                "name": "Американская Медицинская Клиника",
                "name:en": "American Medical Clinic",
                "name:fr": "Clinique américaine",
                "name:ru": "Американская Медицинская Клиника",
                "opening_hours": "09:00-20:00",
                "operator": "ООО «Американская Медицинская Клиника»",
                "website": "http://amclinic.ru/"
            }
        ]
    },
    "convenience": {
        "count": 1,
        "detail": [
            {
                "food": "yes",
                "name": "Продукты",
                "note": "Продукты - это название с вывески. Не надо уничтожать данные в базе, замените их на иные. Обьекты POI без name очень сложно искать на данный момент",
                "shop": "convenience",
                "name:ru": "Продукты",
                "opening_hours": "09:00-21:00"
            }
        ]
    },
    "cafe": {
        "count": 15,
        "detail": [
            {
                "name": "Столовая на Почтамтской",
                "amenity": "cafe",
                "opening_hours": "09:00-21:00"
            },
            {
                "name": "Папарацци",
                "level": "-0.5",
                "amenity": "cafe",
                "operator": "ЗАО \"Лига\"",
                "opening_hours": "11:00-23:00"
            },
            {
                "alt_name": "Ресторан Дома Художников",
                "amenity": "cafe",
                "contact:vk": "https://vk.com/club112938909",
                "name": "Арт-Буфет",
                "name:en": "Art-Buffet",
                "opening_hours": "10:00-22:00",
                "phone": "+7 921 9970738",
                "website": "http://artbufet.com/"
            },
            {
                "amenity": "cafe",
                "cuisine": "international",
                "name": "Сеновал",
                "opening_hours": "11:30-23:30",
                "phone": "+7 812 5711086",
                "website": "https://www.senoval-traktir.ru/",
                "wifi": "free"
            },
            {
                "name": "Бизе",
                "amenity": "cafe",
                "website": "http://bize.spb.ru/",
                "contact:vk": "https://vk.com/bize_spb",
                "opening_hours": "Mo-Fr 08:30-23:00; Sa-Su 10:00-23:00"
            },
            {
                "amenity": "cafe",
                "contact:vk": "https://vk.com/schastyelove",
                "name": "Счастье",
                "opening_hours": "Mo-Th 09:00-01:00, Fr-Sa 09:00-02:00, Su 09:00-00:00",
                "website": "http://schastye.com/restaurants/isakiy",
                "wheelchair": "no"
            },
            {
                "amenity": "cafe",
                "contact:vk": "https://vk.com/cats_republic",
                "name": "Республика кошек",
                "opening_hours": "Mo-Su 10:00-22:00",
                "phone": "+7 812 3120487",
                "website": "https://www.catsrepublic.ru/"
            },
            {
                "name": "Яблоко Room",
                "amenity": "cafe",
                "website": "https://bistroappleroom.ru/",
                "opening_hours": "Mo-Fr 10:00-19:00"
            },
            {
                "amenity": "cafe",
                "contact:phone": "+7 812 3120343",
                "contact:vk": "https://vk.com/barbaris_spb_cafe",
                "name": "Печка"
            },
            {
                "amenity": "cafe",
                "operator": "ООО \"Коннект\"",
                "description": "Кафетерий в музее",
                "opening_hours": "Mo-Sa 11:00-17:00"
            },
            {
                "amenity": "cafe",
                "contact:vk": "https://vk.com/cafedecabrist",
                "name": "Декабрист",
                "opening_hours": "Mo-Fr 08:00-23:00; Sa-Su,PH 09:00-23:00",
                "operator": "ООО \"Декабрист\"",
                "website": "https://www.decabrist.net/cafe"
            },
            {
                "amenity": "cafe",
                "contact:instagram": "https://www.instagram.com/garconspb",
                "contact:phone": "+7 812 3128192",
                "contact:website": "https://www.garcon.ru",
                "level": "-1",
                "name": "Garçon",
                "name:ru": "Гарсон",
                "opening_hours": "11:00-19:00; Th off"
            },
            {
                "name": "WöD",
                "amenity": "cafe"
            },
            {
                "addr:city": "Санкт-Петербург",
                "addr:housenumber": "74",
                "addr:street": "набережная реки Мойки",
                "amenity": "cafe",
                "contact:facebook": "https://www.facebook.com/hlebnasushny.ru",
                "contact:instagram": "https://www.instagram.com/hlebnasushny.ru",
                "email": "CallCenter@hlebnasushny.ru",
                "name": "Drive Cafe",
                "opening_hours": "Mo-Fr 08:00-19:00",
                "phone": "+7 495 9894560",
                "website": "https://hlebnasushny.ru/"
            },
            {
                "amenity": "cafe",
                "name": "Rotonda Lounge",
                "website": "https://www.roccofortehotels.com/hotels-and-resorts/hotel-astoria/restaurants-and-bars/rotonda-lounge/"
            }
        ]
    },
    "residents": 3357,
    "restaurant": {
        "count": 13,
        "detail": [
            {
                "amenity": "restaurant",
                "contact:vk": "https://vk.com/club_tokyocity",
                "cuisine": "japanese;sushi",
                "name": "Токио-City",
                "name:en": "Tokyo-City",
                "name:ru": "Токио-Сити",
                "opening_hours": "Su-Th 11:00-03:00; Fr-Sa 11:00-06:00",
                "operator": "ООО «Кизил»",
                "outdoor_seating": "no",
                "payment:credit_cards": "yes",
                "payment:debit_cards": "yes",
                "payment:mastercard": "yes",
                "payment:visa": "yes",
                "phone": "+7 812 6777062",
                "website": "https://www.tokyo-city.ru/",
                "wheelchair": "yes"
            },
            {
                "amenity": "restaurant",
                "contact:facebook": "teplorestaurant",
                "contact:instagram": "teplorestaurant",
                "delivery": "yes",
                "email": "mrevzina@mail.ru",
                "name": "Тепло",
                "name:en": "Teplo",
                "name:ja": "テプロ",
                "opening_hours": "Su-Fr 09:00-24:00; Sa 12:00-24:00",
                "operator": "Эридан",
                "outdoor_seating": "yes",
                "payment:cash": "yes",
                "payment:maestro": "yes",
                "payment:mastercard": "yes",
                "payment:visa": "yes",
                "payment:visa_electron": "yes",
                "phone": "+7 812 9009434",
                "reservation": "yes",
                "takeaway": "yes",
                "website": "http://v-teple.ru/"
            },
            {
                "amenity": "restaurant",
                "contact:vk": "https://vk.com/restarcobaleno",
                "cuisine": "italian",
                "internet_access": "wlan",
                "name": "Arcobaleno",
                "opening_hours": "Mo-Su 07:00-11:00, 12:00-23:00",
                "outdoor_seating": "no",
                "phone": "+7 812 3851292",
                "website": "https://spb.dominarussia.com/restaurant-and-bar/arcobaleno-restaurant/"
            },
            {
                "name": "Долма",
                "amenity": "restaurant"
            },
            {
                "amenity": "restaurant",
                "diet:lactose_free": "yes",
                "diet:vegetarian": "yes",
                "level": "5",
                "name": "Мансарда",
                "opening_hours": "Mo-Fr 12:00-24:00; Sa-Su 12:00-01:00",
                "operator": "Панорама",
                "outdoor_seating": "yes",
                "payment:cash": "yes",
                "payment:maestro": "yes",
                "payment:mastercard": "yes",
                "payment:visa": "yes",
                "payment:visa_electron": "yes",
                "phone": "+7 812 6401616",
                "website": "http://ginza.ru/spb/restaurant/mansarda"
            },
            {
                "amenity": "restaurant",
                "contact:facebook": "madeinchinacafe",
                "contact:instagram": "madeinchinacafe",
                "name": "Made In China",
                "opening_hours": "Mo-Th 09:00-24:00; Fr 09:00-02:00; Sa 12:00-02:00; Su 12:00-24:00",
                "operator": "Мальчики и девочки",
                "outdoor_seating": "yes",
                "payment:cash": "yes",
                "payment:maestro": "yes",
                "payment:mastercard": "yes",
                "payment:visa": "yes",
                "payment:visa_electron": "yes",
                "phone": "+7 812 9055135",
                "website": "https://madeinchina-spb.ru/"
            },
            {
                "amenity": "restaurant",
                "int_name": "The Idiot",
                "name": "Идиот",
                "opening_hours": "11:00-01:00",
                "website": "https://idiot-spb.com/"
            },
            {
                "name": "Дом",
                "amenity": "restaurant",
                "website": "http://rest-dom.ru/",
                "contact:facebook": "https://www.facebook.com/restdom"
            },
            {
                "amenity": "restaurant",
                "name": "Astoria Restaurant",
                "website": "https://www.roccofortehotels.com/hotels-and-resorts/hotel-astoria/restaurants-and-bars/astoria-restaurant/"
            },
            {
                "amenity": "restaurant",
                "int_name": "Borsalino",
                "name": "Борсалино",
                "website": "https://www.angleterrehotel.com/borsalino",
                "wheelchair": "limited"
            },
            {
                "amenity": "restaurant",
                "name": "ЕМ",
                "website": "http://emrestaurant.ru/"
            },
            {
                "amenity": "restaurant",
                "name": "The idiot"
            },
            {
                "amenity": "restaurant",
                "contact:instagram": "rterracespb",
                "level": "5",
                "name": "Rterrace",
                "opening_hours": "unknown-23:00",
                "phone": "+7 812 3804000",
                "reservation": "recommended"
            }
        ]
    },
    "library": {
        "count": 2,
        "detail": [
            {
                "amenity": "library",
                "contact:vk": "https://vk.com/pushkinlib",
                "name": "Центральная городская детская библиотека имени А. С. Пушкина",
                "opening_hours": "Mo-Fr 10:00-20:00; Sa-Su 10:00-18:00",
                "website": "http://new.pushkinlib.spb.ru/about/cgdb-im-a-s-pushkina/"
            },
            {
                "name": "Книжная Капелла",
                "amenity": "library",
                "website": "https://capellabook.ru/"
            }
        ]
    },
    "fountain": {
        "count": 1,
        "detail": [
            {
                "amenity": "fountain"
            }
        ]
    },
    "bus_stop": {
        "count": 10,
        "detail": [
            {
                "bus": "yes",
                "highway": "bus_stop",
                "local_ref": "3;22;27",
                "name": "ДК Связи",
                "public_transport": "platform",
                "tactile_paving": "no"
            },
            {
                "bench": "yes",
                "bus": "yes",
                "highway": "bus_stop",
                "local_ref": "3;22;27",
                "name": "Исаакиевская площадь",
                "passenger_information_display": "yes",
                "public_transport": "platform",
                "shelter": "yes",
                "tactile_paving": "no"
            },
            {
                "bus": "yes",
                "name": "ДК Связи",
                "public_transport": "stop_position"
            },
            {
                "bus": "yes",
                "name": "Исаакиевская площадь",
                "public_transport": "stop_position"
            },
            {
                "bus": "yes",
                "name": "Исаакиевская площадь",
                "public_transport": "stop_position"
            },
            {
                "bus": "yes",
                "highway": "bus_stop",
                "local_ref": "10;70",
                "name": "Исаакиевская площадь",
                "public_transport": "platform",
                "tactile_paving": "no"
            },
            {
                "bench": "yes",
                "bin": "yes",
                "bus": "yes",
                "highway": "bus_stop",
                "name": "улица Якубовича",
                "public_transport": "platform",
                "shelter": "yes",
                "trolleybus": "yes"
            },
            {
                "bus": "yes",
                "name": "улица Якубовича",
                "name:ru": "улица Якубовича",
                "trolleybus": "yes",
                "public_transport": "stop_position"
            },
            {
                "bus": "yes",
                "name": "Исаакиевская площадь",
                "public_transport": "stop_position"
            },
            {
                "bench": "yes",
                "bus": "yes",
                "highway": "bus_stop",
                "local_ref": "10;71",
                "name": "Исаакиевская площадь",
                "public_transport": "platform",
                "shelter": "yes",
                "tactile_paving": "no"
            }
        ]
    },
    "training": {
        "count": 1,
        "detail": [
            {
                "amenity": "training",
                "name": "Региональный учебный центр ФГУП «Почта России»"
            }
        ]
    },
    "post_box": {
        "count": 4,
        "detail": [
            {
                "ref": "151",
                "amenity": "post_box",
                "operator": "Почта России",
                "design:year": "2010",
                "drive_through": "no",
                "post_box:type": "wall",
                "post_box:design": "ЯПНМ-II-С",
                "collection_times": "Mo-Fr 16:10,23:35; Sa 08:20; Su 16:10"
            },
            {
                "ref": "389",
                "amenity": "post_box",
                "operator": "Почта России",
                "drive_through": "no",
                "post_box:type": "pillar",
                "post_box:design": "rounded_pillar",
                "collection_times": "Mo-Fr 08:00,19:15; Sa 10:20; Su 19:15"
            },
            {
                "ref": "500",
                "amenity": "post_box",
                "operator": "Почта России",
                "post_box:type": "wall",
                "collection_times": "Tu-Sa 12:00"
            },
            {
                "ref": "152",
                "amenity": "post_box",
                "operator": "Почта России",
                "design:year": "2010",
                "drive_through": "no",
                "post_box:type": "wall",
                "post_box:design": "ЯПНМ-II-С",
                "collection_times": "Mo-Th 16:15,23:40; Fr 16:15; Sa 08:25; Su 16:15,23:40"
            }
        ]
    },
    "art": {
        "count": 2,
        "detail": [
            {
                "name": "La Petite Opéra",
                "opening_hours": "09:00-21:00",
                "shop": "art",
                "website": "https://lapetiteopera.com/"
            },
            {
                "name": "Art Holding",
                "shop": "art",
                "tourism": "gallery",
                "alt_name": "Арт Холдинг Татьяны Никитиной",
                "opening_hours": "Mo-Fr 10:00-20:00"
            }
        ]
    },
    "post_office": {
        "count": 1,
        "detail": [
            {
                "ref": "190107",
                "name": "Санкт-Петербург 190107",
                "fixme": "Необходима проверка на местности.",
                "phone": "+7 812 5703471",
                "amenity": "post_office",
                "website": "https://www.pochta.ru",
                "operator": "Почта России",
                "addr:postcode": "190107",
                "opening_hours": "Mo-Fr 09:00-12:00,13:00-17:00; Sa-Su off"
            }
        ]
    },
    "bank": {
        "count": 2,
        "detail": [
            {
                "alt_name": "Imperia",
                "amenity": "bank",
                "name": "Imperiя",
                "opening_hours": "Mo-Fr 10:00-19:00",
                "operator": "Русский Стандарт",
                "website": "https://imperia.rsb.ru/"
            },
            {
                "name": "Nordea",
                "amenity": "bank",
                "website": "https://www.nordea.ru/",
                "contact:vk": "https://vk.com/nordea_bank_russia",
                "opening_hours": "Mo-Fr 09:00-18:00"
            }
        ]
    },
    "car": {
        "count": 1,
        "detail": [
            {
                "name": "Rolls-Royce Motor Cars",
                "shop": "car",
                "brand": "Rolls-Royce",
                "website": "http://www.rolls-roycemotorcars-spb.ru/"
            }
        ]
    },
    "waste_disposal": {
        "count": 2,
        "detail": [
            {
                "amenity": "waste_disposal"
            },
            {
                "amenity": "waste_disposal"
            }
        ]
    },
    "parking_entrance": {
        "count": 3,
        "detail": [
            {
                "amenity": "parking_entrance"
            },
            {
                "amenity": "parking_entrance"
            },
            {
                "access": "private",
                "amenity": "parking_entrance"
            }
        ]
    },
    "recycling": {
        "count": 2,
        "detail": [
            {
                "name": "Экобокс",
                "fixme": "уточнить положение",
                "amenity": "recycling",
                "recycling_type": "container",
                "recycling:batteries": "yes",
                "recycling:hydrargyrum": "yes",
                "recycling:hazardous_waste": "yes",
                "recycling:low_energy_bulbs": "yes",
                "recycling:fluorescent_tubes": "yes"
            },
            {
                "name": "Экобокс",
                "fixme": "уточнить положение",
                "amenity": "recycling",
                "recycling_type": "container",
                "recycling:batteries": "yes",
                "recycling:hydrargyrum": "yes",
                "recycling:hazardous_waste": "yes",
                "recycling:low_energy_bulbs": "yes",
                "recycling:fluorescent_tubes": "yes"
            }
        ]
    },
    "cinema": {
        "count": 1,
        "detail": [
            {
                "amenity": "cinema",
                "contact:facebook": "https://www.facebook.com/AngleterreCinema",
                "contact:vk": "https://vk.com/angleterrecinema",
                "description": "Movies in original language with Russian subtitles. Russian movies with English subtitles.",
                "name": "Кино&Театр Англетер",
                "name:en": "Angleterre Cinema Lounge",
                "payment:cash": "yes",
                "payment:credit_cards": "yes",
                "website": "https://www.angleterrecinema.ru/"
            }
        ]
    },
    "bench": {
        "count": 38,
        "detail": [
            {
                "amenity": "bench",
                "backrest": "yes"
            },
            {
                "amenity": "bench",
                "backrest": "yes"
            },
            {
                "amenity": "bench",
                "backrest": "yes"
            },
            {
                "amenity": "bench",
                "backrest": "yes"
            },
            {
                "amenity": "bench",
                "backrest": "yes"
            },
            {
                "amenity": "bench",
                "backrest": "yes"
            },
            {
                "amenity": "bench",
                "backrest": "yes"
            },
            {
                "amenity": "bench",
                "backrest": "yes"
            },
            {
                "amenity": "bench",
                "backrest": "yes"
            },
            {
                "amenity": "bench",
                "backrest": "yes"
            },
            {
                "amenity": "bench",
                "backrest": "yes"
            },
            {
                "amenity": "bench",
                "backrest": "yes"
            },
            {
                "amenity": "bench",
                "backrest": "yes"
            },
            {
                "amenity": "bench",
                "backrest": "yes"
            },
            {
                "amenity": "bench",
                "backrest": "yes"
            },
            {
                "amenity": "bench",
                "backrest": "yes"
            },
            {
                "amenity": "bench",
                "backrest": "yes"
            },
            {
                "amenity": "bench",
                "backrest": "yes"
            },
            {
                "amenity": "bench",
                "backrest": "yes"
            },
            {
                "amenity": "bench",
                "backrest": "yes"
            },
            {
                "amenity": "bench",
                "backrest": "yes"
            },
            {
                "amenity": "bench",
                "backrest": "yes"
            },
            {
                "amenity": "bench",
                "backrest": "yes"
            },
            {
                "amenity": "bench",
                "backrest": "yes"
            },
            {
                "amenity": "bench",
                "backrest": "yes"
            },
            {
                "amenity": "bench",
                "backrest": "yes"
            },
            {
                "amenity": "bench"
            },
            {
                "amenity": "bench"
            },
            {
                "amenity": "bench"
            },
            {
                "amenity": "bench"
            },
            {
                "amenity": "bench",
                "backrest": "yes"
            },
            {
                "amenity": "bench",
                "backrest": "yes"
            },
            {
                "amenity": "bench",
                "backrest": "yes"
            },
            {
                "amenity": "bench",
                "backrest": "yes"
            },
            {
                "amenity": "bench",
                "backrest": "yes"
            },
            {
                "amenity": "bench",
                "backrest": "yes"
            },
            {
                "amenity": "bench",
                "backrest": "yes"
            },
            {
                "amenity": "bench",
                "backrest": "yes"
            }
        ]
    },
    "waste_basket": {
        "count": 15,
        "detail": [
            {
                "amenity": "waste_basket"
            },
            {
                "amenity": "waste_basket"
            },
            {
                "amenity": "waste_basket"
            },
            {
                "amenity": "waste_basket"
            },
            {
                "amenity": "waste_basket"
            },
            {
                "amenity": "waste_basket"
            },
            {
                "amenity": "waste_basket"
            },
            {
                "amenity": "waste_basket"
            },
            {
                "amenity": "waste_basket"
            },
            {
                "amenity": "waste_basket"
            },
            {
                "amenity": "waste_basket"
            },
            {
                "amenity": "waste_basket"
            },
            {
                "amenity": "waste_basket"
            },
            {
                "amenity": "waste_basket"
            },
            {
                "amenity": "waste_basket"
            }
        ]
    },
    "gift": {
        "count": 1,
        "detail": [
            {
                "contact:email": "salon.spb@marka-art.ru",
                "contact:phone": "+7 812 3207307",
                "contact:website": "http://rusmarka.ru",
                "name": "Марка",
                "opening_hours": "Mo-Su 10:00-20:00",
                "shop": "gift"
            }
        ]
    },
    "hifi": {
        "count": 1,
        "detail": [
            {
                "name": "Ultima",
                "shop": "hifi",
                "website": "http://ultima-shop.ru/"
            }
        ]
    },
    "bar": {
        "count": 6,
        "detail": [
            {
                "name": "Мясная лавка",
                "amenity": "bar",
                "website": "https://m-lvk.ru/",
                "contact:vk": "https://vk.com/m_lavka"
            },
            {
                "amenity": "bar",
                "contact:vk": "https://vk.com/bar.nove",
                "name": "Nove",
                "website": "https://dominarussia.com/dining-and-events/nove"
            },
            {
                "amenity": "bar",
                "name": "Lichfield",
                "phone": "+7 812 4945757",
                "website": "https://www.roccofortehotels.com/hotels-and-resorts/hotel-astoria/restaurants-and-bars/lichfield-bar/"
            },
            {
                "name": "Prof. Freud",
                "level": "0",
                "amenity": "bar"
            },
            {
                "amenity": "bar",
                "contact:phone": "+7 812 3361000",
                "contact:website": "https://www.lottehotel.com/stpetersburg-hotel/ru/dining/bar-l-terrasa.html",
                "name": "L Terrasa",
                "opening_hours": "Mo-Su 15:00-02:00; Oct-Apr off"
            },
            {
                "amenity": "bar"
            }
        ]
    },
    "hairdresser": {
        "count": 1,
        "detail": [
            {
                "contact:vk": "https://vk.com/hannibalbs",
                "description": "Мастерская мужских стрижек",
                "int_name": "Hannibal",
                "name": "Ганнибал",
                "opening_hours": "10:00-22:00",
                "operator": "ИП Бутенков Ю.И.",
                "shop": "hairdresser",
                "website": "https://hannibalbs.ru/"
            }
        ]
    },
    "arts_centre": {
        "count": 1,
        "detail": [
            {
                "name": "Дом композиторов",
                "phone": "+7 812 5710262",
                "amenity": "arts_centre",
                "website": "http://www.spb-composers.ru/"
            }
        ]
    },
    "clothes": {
        "count": 2,
        "detail": [
            {
                "name": "Castello d'Oro",
                "shop": "clothes",
                "website": "http://www.castellodoro.com/",
                "operator": "ООО «Санпиетро»",
                "opening_hours": "Mo-Sa 10:00-21:00; Su 10:00-20:00"
            },
            {
                "contact:instagram": "https://www.instagram.com/vincenzo_brandonisio/",
                "name": "Vincenzo Brandonisio",
                "opening_hours": "09:00-21:00",
                "shop": "clothes",
                "website": "http://vincenzobrandonisio.com/"
            }
        ]
    },
    "fast_food": {
        "count": 1,
        "detail": [
            {
                "amenity": "fast_food"
            }
        ]
    },
    "telephone": {
        "count": 1,
        "detail": [
            {
                "amenity": "telephone"
            }
        ]
    },
    "interior_decoration": {
        "count": 1,
        "detail": [
            {
                "alt_name": "Galerie Quarante-Six",
                "brand": "Boffi / Minotti",
                "contact:email": "shop@galerie46.com",
                "contact:phone": "+7 812 3127141",
                "name": "Galerie 46",
                "shop": "interior_decoration",
                "website": "https://galerie46.com/"
            }
        ]
    },
    "antiques": {
        "count": 2,
        "detail": [
            {
                "name": "Старый Петербург",
                "shop": "antiques",
                "website": "http://antikspb.ru/",
                "opening_hours": "Mo-Sa 11:00-19:00"
            },
            {
                "name": "Старый альбом",
                "opening_hours": "We-Su 11:00-19:00",
                "shop": "antiques",
                "website": "https://old-album.ru/"
            }
        ]
    },
    "furniture": {
        "count": 2,
        "detail": [
            {
                "contact:instagram": "https://www.instagram.com/ralphlaurenhome_russia/",
                "name": "Ralph Lauren Home",
                "shop": "furniture",
                "website": "https://ralphlaurenhome.spb.ru/"
            },
            {
                "alt_name": "Galerie Quarante-Six",
                "brand": "Rimadesio",
                "name": "Galerie 46",
                "shop": "furniture",
                "website": "https://galerie46.com/"
            }
        ]
    },
    "school": {
        "count": 2,
        "detail": [
            {
                "amenity": "school",
                "contact:email": "bortschool94@gmail.com",
                "contact:phone": "+7 812 3160118",
                "contact:website": "https://bortschool.spb.muzkult.ru",
                "name": "Детская школа искусств им. Д. С. Бортнянского",
                "official_name": "Санкт-Петербургское государственное бюджетное учреждение дополнительного образования «Санкт-Петербургская детская школа искусств им. Д.С. Бортнянского»"
            },
            {
                "addr:housenumber": "4",
                "addr:postcode": "190000",
                "addr:street": "Фонарный переулок",
                "building": "school",
                "building:levels": "4"
            }
        ]
    },
    "dry_cleaning": {
        "count": 1,
        "detail": [
            {
                "shop": "dry_cleaning",
                "craft": "tailor;upholsterer",
                "phone": "+7 921 7960895",
                "opening_hours": "Mo-Fr 10:30-19:00"
            }
        ]
    },
    "bakery": {
        "count": 2,
        "detail": [
            {
                "amenity": "cafe",
                "contact:vk": "https://vk.com/club52932043",
                "name": "Гарсон",
                "opening_hours": "09:00-21:00",
                "shop": "bakery",
                "website": "https://www.garcon.ru/",
                "wheelchair": "no"
            },
            {
                "contact:email": "service@hlebnasushny.ru",
                "contact:facebook": "https://www.facebook.com/hlebnasushny.ru",
                "contact:instagram": "https://www.instagram.com/hlebnasushny.ru",
                "contact:phone": "+7 962 7244770",
                "contact:website": "https://hlebnasushny.ru/",
                "name": "Drive Café",
                "opening_hours": "Mo-Fr 08:00-19:00",
                "operator": "Наш Хлеб Насущный АЗС Сервис",
                "shop": "bakery"
            }
        ]
    },
    "nutrition_supplements": {
        "count": 1,
        "detail": [
            {
                "name": "Рецепты здоровья",
                "shop": "nutrition_supplements",
                "website": "https://www.pobedi2.ru/buy/kupit-v-peterburge/",
                "alt_name": "Центр Соколинского",
                "contact:vk": "https://vk.com/sokolinskycenter",
                "opening_hours": "Mo-Fr 10:00-20:00; Sa 11:00-18:00"
            }
        ]
    },
    "veterinary": {
        "count": 1,
        "detail": [
            {
                "name": "Viva Vet",
                "amenity": "veterinary",
                "contact:vk": "https://vk.com/viva_vet",
                "contact:phone": "+7 812 3148415",
                "opening_hours": "Mo-Su 10:00-20:00",
                "contact:website": "http://vivavet.spb.ru"
            }
        ]
    },
    "vending_machine": {
        "count": 2,
        "detail": [
            {
                "amenity": "vending_machine",
                "vending": "coin"
            },
            {
                "amenity": "vending_machine",
                "payment:notes": "only",
                "vending": "coin",
                "website": "http://museumrus.ru/"
            }
        ]
    },
    "bicycle_parking": {
        "count": 3,
        "detail": [
            {
                "amenity": "bicycle_parking",
                "bicycle_parking": "stands",
                "capacity": "8",
                "covered": "no",
                "fee": "no"
            },
            {
                "amenity": "bicycle_parking",
                "bicycle_parking": "stands",
                "capacity": "8",
                "covered": "no",
                "fee": "no"
            },
            {
                "amenity": "bicycle_parking",
                "bicycle_parking": "rack",
                "capacity": "6",
                "covered": "no"
            }
        ]
    },
    "clock": {
        "count": 2,
        "detail": [
            {
                "amenity": "clock",
                "display": "analog",
                "support": "wall_mounted"
            },
            {
                "amenity": "clock",
                "display": "analog",
                "support": "wall_mounted"
            }
        ]
    },
    "events_venue": {
        "count": 1,
        "detail": [
            {
                "addr:postcode": "190000",
                "alt_name": "Особняк Половцева",
                "amenity": "events_venue",
                "contact:email": "arcunion@mail.ru",
                "contact:phone": "+7 962 7237179",
                "contact:vk": "https://vk.com/dom_arhitektora_spb",
                "contact:website": "http://www.arcunionspb.ru/o-nas/dom-arhitektora/",
                "name": "Дом архитектора",
                "name:ru": "Дом архитектора",
                "opening_hours": "Sa 11:00-12:00; Su 12:00-13:00"
            }
        ]
    },
    "playground": {
        "count": 1,
        "detail": [
            {
                "leisure": "playground",
                "wheelchair": "yes"
            }
        ]
    },
    "smoking_area": {
        "count": 1,
        "detail": [
            {
                "amenity": "smoking_area",
                "bench": "yes",
                "bin": "yes",
                "shelter": "no"
            }
        ]
    },
    "gym": {
        "count": 1,
        "detail": [
            {
                "amenity": "gym",
                "contact:email": "kazanskaya@ilove-sport.ru",
                "contact:instagram": "https://instagram.com/ils_challenge",
                "contact:phone": "+7 812 7791585",
                "contact:vk": "https://vk.com/m.challenge",
                "contact:website": "https://fitness.m-challenge.ru/",
                "name": "ILS Challenge",
                "opening_hours": "Mo-Fr 08:00-23:00;Sa-Su 09:00-22:00",
                "operator": "ILS Challenge"
            }
        ]
    },
    "sauna": {
        "count": 1,
        "detail": [
            {
                "contact:email": "info@fonari.ru",
                "contact:instagram": "https://www.instagram.com/fonari_banya",
                "contact:phone": "+7 812 3170343",
                "contact:website": "https://fonari.ru",
                "leisure": "sauna",
                "name": "Фонарные бани"
            }
        ]
    },
    "place_of_worship": {
        "count": 1,
        "detail": [
            {
                "name": "Храм святителя Николая Чудотворца на Вознесенском проспекте",
                "amenity": "place_of_worship",
                "website": "http://nikola-hram.ru/",
                "building": "yes",
                "religion": "christian",
                "contact:vk": "https://vk.com/nikola_hram_ru",
                "addr:street": "Казанская улица",
                "denomination": "russian_orthodox",
                "opening_hours": "09:00-19:00",
                "building:levels": "1",
                "addr:housenumber": "37"
            }
        ]
    },
    "service": {
        "count": 2,
        "detail": [
            {
                "power": "substation",
                "building": "service",
                "building:levels": "1"
            },
            {
                "name": "НВУ 519 бис",
                "height": "6",
                "building": "service",
                "man_made": "mineshaft",
                "operator": "ГУП \"Петербургский метрополитен\"",
                "addr:street": "набережная реки Мойки",
                "source:addr": "rgis",
                "mineshaft_type": "air",
                "building:levels": "1",
                "addr:housenumber": "80"
            }
        ]
    },
    "ticket": {
        "count": 1,
        "detail": [
            {
                "building": "yes",
                "building:levels": "1",
                "opening_hours": "10:00-17:30",
                "operator": "Государственный музей-памятник \"Исаакиевский собор\"",
                "payment:cash": "yes",
                "payment:maestro": "yes",
                "payment:mastercard": "yes",
                "payment:visa": "yes",
                "payment:visa_electron": "yes",
                "shop": "ticket",
                "website": "https://cathedral.ru/"
            }
        ]
    }
}