{
    "residents": 990,
    "bus_stop": {
        "count": 7,
        "detail": [
            {
                "bus": "yes",
                "highway": "bus_stop",
                "name": "Ломоносов, вокзал",
                "public_transport": "platform"
            },
            {
                "bus": "yes",
                "highway": "bus_stop",
                "name": "Ломоносов, вокзал",
                "note": "ещё автобусы: 671А, 691, 691А, 502, 689",
                "public_transport": "platform",
                "shelter": "yes"
            },
            {
                "bench": "yes",
                "highway": "bus_stop",
                "name": "Михайловская улица",
                "public_transport": "platform",
                "shelter": "yes",
                "tactile_paving": "no"
            },
            {
                "bench": "no",
                "bin": "no",
                "bus": "yes",
                "highway": "bus_stop",
                "name": "Рынок",
                "public_transport": "platform",
                "shelter": "no"
            },
            {
                "bus": "yes",
                "name": "Михайловская улица",
                "public_transport": "stop_position"
            },
            {
                "bus": "yes",
                "name": "Рынок",
                "public_transport": "stop_position"
            },
            {
                "bus": "yes",
                "name": "Ломоносов, вокзал",
                "public_transport": "stop_position"
            }
        ]
    },
    "toilets": {
        "count": 1,
        "detail": [
            {
                "amenity": "toilets"
            }
        ]
    },
    "convenience": {
        "count": 1,
        "detail": [
            {
                "shop": "convenience"
            }
        ]
    },
    "bus_station": {
        "count": 1,
        "detail": [
            {
                "name": "Ломоносов",
                "amenity": "bus_station"
            }
        ]
    },
    "waste_disposal": {
        "count": 4,
        "detail": [
            {
                "amenity": "waste_disposal"
            },
            {
                "amenity": "waste_disposal"
            },
            {
                "amenity": "waste_disposal"
            },
            {
                "amenity": "waste_disposal"
            }
        ]
    },
    "pharmacy": {
        "count": 1,
        "detail": [
            {
                "amenity": "pharmacy",
                "dispensing": "yes",
                "name": "Невис",
                "opening_hours": "Mo-Su 08:00-20:00"
            }
        ]
    },
    "waste_basket": {
        "count": 1,
        "detail": [
            {
                "amenity": "waste_basket"
            }
        ]
    },
    "alcohol": {
        "count": 1,
        "detail": [
            {
                "name": "Норман",
                "opening_hours": "Mo-Su 11:00-22:00",
                "shop": "alcohol"
            }
        ]
    },
    "furniture": {
        "count": 1,
        "detail": [
            {
                "name": "Мебель",
                "shop": "furniture"
            }
        ]
    },
    "kiosk": {
        "count": 2,
        "detail": [
            {
                "name": "Сувениры",
                "shop": "kiosk"
            },
            {
                "name": "Свежее пиво",
                "shop": "kiosk"
            }
        ]
    },
    "restaurant": {
        "count": 1,
        "detail": [
            {
                "amenity": "restaurant",
                "cuisine": "international",
                "delivery": "yes",
                "name": "Есть охота",
                "opening_hours": "Mo-Su 12:00-00:00",
                "phone": "+7 812 422-06-92",
                "website": "https://ohotaest.ru/"
            }
        ]
    },
    "cafe": {
        "count": 4,
        "detail": [
            {
                "name": "Вояж",
                "amenity": "cafe"
            },
            {
                "name": "Гаечка",
                "amenity": "cafe",
                "cuisine": "international"
            },
            {
                "amenity": "cafe",
                "cuisine": "pastry; russian",
                "diet:vegetarian": "yes",
                "name": "Пирожковая",
                "opening_hours": "Mo-Su 08:00-19:00",
                "operator": "ООО \"Рэтро\"",
                "payment:cash": "yes",
                "payment:credit_cards": "no",
                "payment:debit_cards": "no",
                "toilets": "yes",
                "wheelchair": "no"
            },
            {
                "name": "Бабушкина кухня",
                "amenity": "cafe",
                "opening_hours": "Mo-Su 11:00-19:00"
            }
        ]
    },
    "supermarket": {
        "count": 1,
        "detail": [
            {
                "name": "Дикси",
                "shop": "supermarket",
                "brand": "Дикси",
                "name:ru": "Дикси",
                "website": "https://dixy.ru/",
                "contact:vk": "https://vk.com/dixyclub",
                "contact:phone": "+7 800 3330201",
                "opening_hours": "Mo-Su 09:00-22:00",
                "brand:wikidata": "Q4161561",
                "brand:wikipedia": "ru:Дикси (сеть магазинов)",
                "contact:youtube": "https://www.youtube.com/user/DixyChannel"
            }
        ]
    },
    "car_parts": {
        "count": 1,
        "detail": [
            {
                "name": "Автозапчасти",
                "shop": "car_parts"
            }
        ]
    },
    "car_wash": {
        "count": 3,
        "detail": [
            {
                "name": "Автомойка",
                "amenity": "car_wash"
            },
            {
                "name": "Автомойка",
                "amenity": "car_wash"
            },
            {
                "name": "Мойка от 50 руб.",
                "amenity": "car_wash",
                "building": "yes"
            }
        ]
    },
    "car_repair": {
        "count": 1,
        "detail": [
            {
                "shop": "car_repair",
                "service": "tyres"
            }
        ]
    },
    "hardware": {
        "count": 2,
        "detail": [
            {
                "name": "Удачная покупка",
                "shop": "hardware"
            },
            {
                "name": "Саморезик",
                "shop": "hardware"
            }
        ]
    },
    "mobile_phone": {
        "count": 2,
        "detail": [
            {
                "name": "Связной",
                "shop": "mobile_phone"
            },
            {
                "name": "Евросеть",
                "shop": "mobile_phone",
                "building": "yes"
            }
        ]
    },
    "recycling": {
        "count": 1,
        "detail": [
            {
                "name": "Экобокс",
                "fixme": "уточнить положение(в прокуратуре Петродворцового района)",
                "amenity": "recycling",
                "recycling_type": "container",
                "recycling:batteries": "yes",
                "recycling:hydrargyrum": "yes",
                "recycling:hazardous_waste": "yes",
                "recycling:low_energy_bulbs": "yes",
                "recycling:fluorescent_tubes": "yes"
            }
        ]
    },
    "seafood": {
        "count": 1,
        "detail": [
            {
                "name": "Рыбный магазин \"Дельфин\"",
                "shop": "seafood"
            }
        ]
    },
    "travel_agency": {
        "count": 1,
        "detail": [
            {
                "name": "Турфирма \"Ломкор\"",
                "shop": "travel_agency",
                "phone": "+7 812 4234126",
                "website": "http://lomcor.ru",
                "poi:addr:city": "Ломоносов",
                "poi:addr:street": "Дворцовый проспект",
                "poi:addr:housenumber": "59"
            }
        ]
    },
    "pub": {
        "count": 1,
        "detail": [
            {
                "amenity": "pub",
                "name": "Виктория"
            }
        ]
    },
    "shoes": {
        "count": 1,
        "detail": [
            {
                "name": "Обувь",
                "shop": "shoes"
            }
        ]
    },
    "bathroom_furnishing": {
        "count": 1,
        "detail": [
            {
                "name": "Сантехника",
                "shop": "bathroom_furnishing"
            }
        ]
    },
    "public_service": {
        "count": 1,
        "detail": [
            {
                "addr:city": "Ломоносов",
                "addr:housenumber": "57/11",
                "addr:postcode": "198412",
                "addr:street": "Дворцовый проспект",
                "amenity": "public_service",
                "government": "public_service",
                "level": "1",
                "name": "МФЦ Ленинградской области",
                "office": "government",
                "opening_hours": "09:00-21:00",
                "phone": "+7 800 3014747",
                "short_name": "МФЦ",
                "website": "http://mfc47.ru/",
                "wheelchair": "yes"
            }
        ]
    },
    "clothes": {
        "count": 1,
        "detail": [
            {
                "name": "Секонд хенд",
                "shop": "clothes"
            }
        ]
    },
    "optician": {
        "count": 1,
        "detail": [
            {
                "name": "Оптика 2000",
                "shop": "optician"
            }
        ]
    },
    "doctors": {
        "count": 1,
        "detail": [
            {
                "amenity": "doctors",
                "email": "info@invitro.ru",
                "name": "Инвитро лаборатория",
                "name:en": "Invitro",
                "phone": "+7 812 3633630,8 800 2003630",
                "website": "http://invitro.ru"
            }
        ]
    },
    "atm": {
        "count": 1,
        "detail": [
            {
                "amenity": "atm",
                "contact:email": "cc@bspb.ru",
                "contact:facebook": "https://www.facebook.com/bspb/",
                "contact:instagram": "https://instagram.com/bank_spb",
                "contact:ok": "https://ok.ru/bspb",
                "contact:phone": "+7 800 2225050;+7 812 3295050",
                "contact:twitter": "https://twitter.com/bank_spb",
                "contact:vk": "https://vk.com/bspb",
                "contact:website": "https://www.bspb.ru/",
                "opening_hours": "24/7",
                "operator": "Санкт Петербург",
                "telegram": "https://t.me/mybspb"
            }
        ]
    },
    "bench": {
        "count": 2,
        "detail": [
            {
                "amenity": "bench",
                "backrest": "yes"
            },
            {
                "amenity": "bench",
                "backrest": "yes"
            }
        ]
    },
    "place_of_worship": {
        "count": 5,
        "detail": [
            {
                "amenity": "place_of_worship",
                "name": "Софийская церковь"
            },
            {
                "name": "Собор Архангела Михаила",
                "amenity": "place_of_worship",
                "building": "yes",
                "religion": "christian",
                "addr:street": "Дворцовый проспект",
                "denomination": "orthodox",
                "addr:postcode": "198412",
                "addr:housenumber": "61"
            },
            {
                "name": "Баптистская церковь",
                "amenity": "place_of_worship",
                "building": "yes",
                "religion": "christian",
                "addr:street": "Еленинская улица",
                "addr:postcode": "198412",
                "building:levels": "2",
                "addr:housenumber": "16",
                "building:cladding": "wood"
            },
            {
                "name": "Храм Спиридона Тримифунтского",
                "amenity": "place_of_worship",
                "website": "http://www.spyridon.spb.ru",
                "building": "yes",
                "religion": "christian",
                "addr:letter": "А",
                "addr:street": "Иликовский проспект",
                "denomination": "russian_orthodox",
                "addr:postcode": "198412",
                "addr:housenumber": "1 литА"
            },
            {
                "amenity": "place_of_worship",
                "building": "yes",
                "denomination": "orthodox",
                "fixme": "geometry",
                "religion": "christian"
            }
        ]
    },
    "bakery": {
        "count": 1,
        "detail": [
            {
                "name": "Пирожковая",
                "operator": "ООО \"Рэтро\"",
                "shop": "bakery"
            }
        ]
    },
    "ticket": {
        "count": 1,
        "detail": [
            {
                "contact:phone": "+7 812 5765555",
                "contact:vk": "https://vk.com/marshrut_spb",
                "contact:website": "http://orgp.spb.ru",
                "opening_hours": "08:00-13:00,14:00-20:00",
                "operator": "Организатор перевозок",
                "shop": "ticket",
                "tickets:public_transport": "yes"
            }
        ]
    },
    "hospital": {
        "count": 2,
        "detail": [
            {
                "addr:housenumber": "2",
                "addr:postcode": "198412",
                "addr:street": "Михайловская улица",
                "amenity": "hospital",
                "building": "yes",
                "building:levels": "4"
            },
            {
                "name": "Родильный дом",
                "amenity": "hospital",
                "building": "yes",
                "addr:letter": "В",
                "addr:street": "Иликовский проспект",
                "addr:postcode": "198412",
                "addr:housenumber": "1/3 литВ"
            }
        ]
    },
    "fire_station": {
        "count": 1,
        "detail": [
            {
                "ref": "51-ПЧ",
                "name": "Пожарная часть № 51",
                "amenity": "fire_station",
                "alt_name": "Пожарная часть № 51 Ломоносовского района",
                "building": "yes",
                "operator": "37-ОФПС по Ленинградской области",
                "addr:street": "Дворцовый проспект",
                "addr:postcode": "198412",
                "official_name": "51-я пожарная часть 37-го отряда Федеральной Противопожарной Службы МЧС по Ленинградской области",
                "addr:housenumber": "65",
                "fire_station:type": "fpo"
            }
        ]
    },
    "service": {
        "count": 2,
        "detail": [
            {
                "power": "substation",
                "building": "service",
                "addr:street": "Дворцовый проспект"
            },
            {
                "power": "substation",
                "building": "service",
                "addr:street": "Еленинская улица",
                "addr:postcode": "198412",
                "building:levels": "1",
                "addr:housenumber": "7А"
            }
        ]
    },
    "clinic": {
        "count": 1,
        "detail": [
            {
                "amenity": "clinic",
                "building": "yes",
                "healthcare": "clinic",
                "addr:letter": "В",
                "addr:street": "Еленинская улица",
                "addr:postcode": "198412",
                "addr:housenumber": "13А"
            }
        ]
    },
    "doityourself": {
        "count": 1,
        "detail": [
            {
                "name": "Электротовары",
                "shop": "doityourself",
                "building": "yes",
                "addr:city": "Ломоносов",
                "addr:street": "1-я Нижняя улица",
                "building:levels": "2",
                "addr:housenumber": "11А"
            }
        ]
    }
}