{
    "fast_food": {
        "count": 7,
        "detail": [
            {
                "amenity": "fast_food",
                "brand": "Pizza Hut",
                "brand:wikidata": "Q191615",
                "brand:wikipedia": "en:Pizza Hut",
                "contact:email": "info@pizzahut.ru",
                "contact:facebook": "https://www.facebook.com/PizzaHutRussia",
                "contact:instagram": "https://www.instagram.com/pizzahutrussia/",
                "contact:phone": "+7 800 1001958",
                "contact:vk": "https://vk.com/pizzahutrussia",
                "contact:website": "https://spb.pizzahut.ru/",
                "cuisine": "pizza",
                "drive_through": "no",
                "name": "Pizza Hut",
                "opening_hours": "Fr-Su 11:00-22:00;Mo-Th 11:00-20:00",
                "operator": "Амрест Пицца",
                "outdoor_seating": "no",
                "takeaway": "yes"
            },
            {
                "name": "Два перца",
                "amenity": "fast_food",
                "website": "http://www.dvaperca.com/obedennye-zaly-dva-pertsa-ul-malaya-morskaya-d-16",
                "fast_food": "cafeteria",
                "opening_hours": "Mo-Fr 10:00-19:00; Sa-Su 11:00-20:00"
            },
            {
                "amenity": "fast_food",
                "contact:vk": "https://vk.com/club12879930",
                "fast_food": "cafeteria",
                "name": "Столовая №1",
                "name:en": "Diner #1",
                "note": "нет на сайте",
                "opening_hours": "24/7",
                "website": "https://st1.one/"
            },
            {
                "amenity": "fast_food",
                "name": "Шаурма",
                "opening_hours": "24/7"
            },
            {
                "alt_name": "Kentucky Fried Chicken",
                "amenity": "fast_food",
                "brand": "KFC",
                "brand:wikidata": "Q524757",
                "brand:wikipedia": "en:KFC",
                "breakfast": "no",
                "contact:vk": "https://vk.com/kfcrussia",
                "cuisine": "chicken",
                "drive_through": "no",
                "internet_access": "wlan",
                "name": "KFC",
                "opening_hours": "Mo-Fr 08:00-22:30; Sa-Su 09:00-22:30",
                "operator": "ООО «АмРест»",
                "outdoor_seating": "no",
                "phone": "+7 812 3831023",
                "takeaway": "yes",
                "website": "https://www.kfc.ru/restaurants/516"
            },
            {
                "amenity": "fast_food"
            },
            {
                "amenity": "fast_food",
                "contact:email": "hotline@coffee-like.com",
                "contact:vk": "https://vk.com/coffeelike78",
                "cuisine": "coffee_shop",
                "name": "Coffee Like",
                "website": "https://coffee-like.com/"
            }
        ]
    },
    "restaurant": {
        "count": 26,
        "detail": [
            {
                "amenity": "restaurant",
                "contact:vk": "https://vk.com/club_tokyocity",
                "cuisine": "japanese;sushi",
                "name": "Токио-City",
                "name:en": "Tokyo-City",
                "name:ru": "Токио-Сити",
                "opening_hours": "Su-Th 11:00-03:00; Fr-Sa 11:00-06:00",
                "operator": "ООО «Кизил»",
                "outdoor_seating": "no",
                "payment:credit_cards": "yes",
                "payment:debit_cards": "yes",
                "payment:mastercard": "yes",
                "payment:visa": "yes",
                "phone": "+7 812 6777062",
                "website": "https://www.tokyo-city.ru/",
                "wheelchair": "yes"
            },
            {
                "amenity": "restaurant",
                "contact:facebook": "https://www.facebook.com/jeromerestaurant/",
                "contact:phone": "+7 812 3146443",
                "contact:website": "https://jeromerestaurant.ru/",
                "cuisine": "french",
                "name": "Jérôme",
                "opening_hours": "Mo-Su 12:00-24:00"
            },
            {
                "amenity": "restaurant",
                "name": "Butcher House"
            },
            {
                "name": "Гоголь",
                "amenity": "restaurant",
                "cuisine": "regional",
                "contact:phone": "+7 812 3126097",
                "contact:website": "http://www.restaurant-gogol.ru"
            },
            {
                "amenity": "restaurant",
                "contact:vk": "https://vk.com/gdegosti",
                "name": "Гости",
                "name:en": "Gosti",
                "opening_hours": "Mo-Fr 08:30+; Sa-Su 09:00+",
                "payment:cash": "yes",
                "payment:maestro": "yes",
                "payment:mastercard": "yes",
                "payment:visa": "yes",
                "phone": "+7 812 3125820",
                "website": "https://www.gdegosti.com/"
            },
            {
                "amenity": "restaurant",
                "contact:instagram": "https://www.instagram.com/memo.rest/",
                "name": "Memo",
                "website": "https://memo.rest/"
            },
            {
                "amenity": "restaurant",
                "contact:vk": "https://vk.com/cleanplates",
                "email": "gorohovaya13@gmail.com",
                "name": "Общество чистых тарелок",
                "name:en": "Clean plates society",
                "opening_hours": "11:00-01:00",
                "payment:credit_cards": "yes",
                "payment:debit_cards": "yes",
                "phone": "+7 812 9349764",
                "website": "https://www.cleanplatescafe.com/"
            },
            {
                "amenity": "restaurant",
                "contact:facebook": "madeinchinacafe",
                "contact:instagram": "madeinchinacafe",
                "name": "Made In China",
                "opening_hours": "Mo-Th 09:00-24:00; Fr 09:00-02:00; Sa 12:00-02:00; Su 12:00-24:00",
                "operator": "Мальчики и девочки",
                "outdoor_seating": "yes",
                "payment:cash": "yes",
                "payment:maestro": "yes",
                "payment:mastercard": "yes",
                "payment:visa": "yes",
                "payment:visa_electron": "yes",
                "phone": "+7 812 9055135",
                "website": "https://madeinchina-spb.ru/"
            },
            {
                "amenity": "restaurant",
                "contact:vk": "https://vk.com/phalihinkali",
                "cuisine": "georgian",
                "name": "Пхали-Хинкали",
                "opening_hours": "11:00-23:00",
                "phone": "+7 812 9200012",
                "website": "https://phali-hinkali.ru/restoran/morskaya",
                "wheelchair": "yes"
            },
            {
                "amenity": "restaurant",
                "contact:instagram": "https://www.instagram.com/allseasonsrest/",
                "contact:vk": "https://vk.com/allseasonsrest",
                "cuisine": "fine_dining",
                "internet_access": "wlan",
                "name": "All Seasons",
                "opening_hours": "Mo-Su 12:45-22:45",
                "phone": "+7 812 2400508"
            },
            {
                "amenity": "restaurant",
                "contact:vk": "https://vk.com/tandoorspb",
                "cuisine": "indian",
                "int_name": "Tandoor",
                "name": "Тандур",
                "opening_hours": "Mo-Su 12:00-23:00",
                "phone": "+7 812 3123886",
                "website": "https://mytandoor.ru/",
                "wheelchair": "no"
            },
            {
                "amenity": "restaurant",
                "cuisine": "indian",
                "name": "Tandoori Nights",
                "opening_hours": "12:00-23:00",
                "phone": "+7 812 3128772",
                "website": "http://tandoorinightsspb.ru/",
                "wheelchair": "no"
            },
            {
                "amenity": "restaurant",
                "contact:facebook": "https://www.facebook.com/traktirspb/",
                "name": "Трактир на Гороховой"
            },
            {
                "name": "Trattoria Stefano",
                "phone": "+7 812 3146844",
                "amenity": "restaurant",
                "cuisine": "italian",
                "website": "http://trattoria-stefano.ru/",
                "opening_hours": "12:00-23:00"
            },
            {
                "name": "Проспект",
                "amenity": "restaurant",
                "website": "http://restaurant-prospekt.ru/",
                "operator": "ООО «Левин»",
                "opening_hours": "12:00-23:00"
            },
            {
                "amenity": "restaurant",
                "contact:facebook": "https://www.facebook.com/metel.rest",
                "name": "Метель",
                "website": "http://restaurant-metel.ru/"
            },
            {
                "name": "Kazan-Mangal",
                "amenity": "restaurant",
                "cuisine": "georgian;uzbek",
                "website": "http://reca.rest/restaurants/kazanmangal",
                "contact:vk": "https://vk.com/kazanmangalspb",
                "addr:street": "Малая Морская улица",
                "opening_hours": "Su-Th 11:00-01:00, Fr-Sa 11:00-03:00",
                "addr:housenumber": "13"
            },
            {
                "amenity": "restaurant",
                "contact:facebook": "https://www.facebook.com/MarioTrattoriaspb/",
                "contact:vk": "https://vk.com/public143234466",
                "name": "Mario",
                "opening_hours": "08:00-23:00",
                "operator": "ООО «Марио»",
                "website": "https://www.mariotrattoria.ru/",
                "wheelchair": "no"
            },
            {
                "amenity": "restaurant",
                "name": "Astoria Restaurant",
                "website": "https://www.roccofortehotels.com/hotels-and-resorts/hotel-astoria/restaurants-and-bars/astoria-restaurant/"
            },
            {
                "amenity": "restaurant",
                "int_name": "Borsalino",
                "name": "Борсалино",
                "website": "https://www.angleterrehotel.com/borsalino",
                "wheelchair": "limited"
            },
            {
                "amenity": "restaurant",
                "name": "Sintoho",
                "website": "https://www.sintoho.ru/"
            },
            {
                "amenity": "restaurant",
                "name": "Percorso",
                "website": "https://www.percorso.ru/"
            },
            {
                "amenity": "restaurant",
                "contact:vk": "https://vk.com/polniybalet",
                "name": "Полный Балет",
                "opening_hours": "13:00-23:00",
                "operator": "ООО «Союз»",
                "website": "https://hatgroup.ru/polniybalet/"
            },
            {
                "name": "Чичи-Бичи",
                "level": "-1",
                "amenity": "restaurant",
                "website": "https://www.chichi-bichi.ru/",
                "opening_hours": "12:00-24:00"
            },
            {
                "amenity": "restaurant",
                "contact:vk": "https://vk.com/petrovvodkin.rest",
                "name": "Petrov-Vodkin",
                "opening_hours": "12:00-00:00",
                "operator": "ООО «Си Продакт»",
                "website": "https://petrovvodkinrest.ru/"
            },
            {
                "amenity": "restaurant",
                "cuisine": "russian",
                "name": "Метель"
            }
        ]
    },
    "cafe": {
        "count": 18,
        "detail": [
            {
                "alt_name": "Ресторан Дома Художников",
                "amenity": "cafe",
                "contact:vk": "https://vk.com/club112938909",
                "name": "Арт-Буфет",
                "name:en": "Art-Buffet",
                "opening_hours": "10:00-22:00",
                "phone": "+7 921 9970738",
                "website": "http://artbufet.com/"
            },
            {
                "cafe": "time_cafe",
                "name": "12 Комнат",
                "email": "TWELVEROOMSSPB@GMAIL.COM",
                "level": "2",
                "amenity": "cafe",
                "cuisine": "coffee",
                "website": "http://www.12komnat.com/",
                "contact:vk": "https://vk.com/12rooms",
                "opening_hours": "10:00-06:00"
            },
            {
                "amenity": "cafe",
                "contact:vk": "https://vk.com/schastyelove",
                "name": "Счастье",
                "opening_hours": "Mo-Th 09:00-01:00, Fr-Sa 09:00-02:00, Su 09:00-00:00",
                "website": "http://schastye.com/restaurants/isakiy",
                "wheelchair": "no"
            },
            {
                "amenity": "cafe",
                "contact:vk": "https://vk.com/coffeeroomspb",
                "name": "Сoffee Room Street",
                "opening_hours": "Mo-Th 09:00-23:00, Fr 09:00-00:00, Sa-Su 10:00-00:00",
                "website": "https://www.coffeeroomspb.com/"
            },
            {
                "amenity": "cafe",
                "cafe": "time_cafe",
                "contact:vk": "https://vk.com/playloftgaga",
                "cuisine": "coffee",
                "email": "playloft@gaga.ru",
                "internet_access": "wlan",
                "name": "Playloft Gaga",
                "opening_hours": "12:00-23:00; Fr-Sa 12:00-06:00",
                "payment:cash": "yes",
                "phone": "+7 812 9248361",
                "smoking": "no",
                "takeaway": "no",
                "website": "https://playloftgaga.ru/"
            },
            {
                "amenity": "cafe",
                "contact:facebook": "https://www.facebook.com/biomybio.cafe/",
                "contact:instagram": "https://www.instagram.com/biomybio_foodlab/",
                "name": "Bio My Bio",
                "website": "https://biomybiodelivery.ru/"
            },
            {
                "addr:postcode": "191186",
                "amenity": "cafe",
                "contact:vk": "https://vk.com/sicafferussia",
                "name": "Sicaffe",
                "opening_hours": "Mo-Su 09:00-23:30",
                "phone": "+7 812 3852523",
                "website": "http://sicafferussia.com/"
            },
            {
                "amenity": "cafe",
                "contact:vk": "https://vk.com/coffeehouse_spb",
                "cuisine": "coffee_shop",
                "name": "Кофе Хауз",
                "website": "https://www.coffeehouse.ru/"
            },
            {
                "name": "Pizza Cafe Bistro",
                "amenity": "cafe"
            },
            {
                "amenity": "cafe",
                "contact:facebook": "https://www.facebook.com/perepizza.spb/",
                "contact:instagram": "https://www.instagram.com/perepizza/",
                "name": "Перелётные пиццы",
                "opening_hours": "11:00-23:00"
            },
            {
                "amenity": "cafe",
                "name": "Сибирь",
                "opening_hours": "Mo-Fr 11:00-23:00; Sa-Su 12:00-23:00",
                "website": "http://русская-забава.рф/"
            },
            {
                "amenity": "cafe",
                "contact:vk": "https://vk.com/yarumen",
                "cuisine": "japanese;ramen",
                "name": "Ярумэн",
                "name:en": "Yarumen",
                "opening_hours": "12:00-23:00",
                "operator": "ООО «Ярумэн»",
                "phone": "+7 812 3129771",
                "website": "https://www.yarumen.com/"
            },
            {
                "amenity": "cafe",
                "contact:email": "mamenaspb@gmail.com",
                "contact:instagram": "https://instagram.com/spb_ommane",
                "contact:phone": "+7 812 5716949",
                "contact:vk": "https://vk.com/ommane",
                "contact:website": "https://www.ommane.ru/",
                "cuisine": "korean",
                "int_name": "Ommane",
                "name": "Омманэ",
                "opening_hours": "Mo-Su 11:00-22:30",
                "operator": "Омманэ"
            },
            {
                "amenity": "cafe",
                "brand": "Cofix",
                "brand:en": "Cofix",
                "brand:he": "קפויקס",
                "brand:wikidata": "Q16132717",
                "brand:wikipedia": "he:קופיקס",
                "contact:email": "info@cofix.ru",
                "contact:facebook": "https://www.facebook.com/cofixrussia",
                "contact:instagram": "https://www.instagram.com/cofixrussia",
                "contact:phone": "+7 981 7009477",
                "contact:vk": "https://vk.com/cofixrussia",
                "contact:website": "https://spb.cofix.ru/",
                "cuisine": "coffee_shop",
                "delivery": "no",
                "name": "Cofix",
                "name:en": "Cofix",
                "name:he": "קופיקס",
                "opening_hours": "08:00-22:00",
                "operator": "ООО «Кофе-фикс»",
                "takeaway": "yes"
            },
            {
                "amenity": "cafe",
                "breakfast": "08:00-20:00",
                "contact:instagram": "cakeandbreakfast",
                "contact:vk": "cakeandbreakfast",
                "entrance": "yes",
                "name": "Cake and Breakfast",
                "opening_hours": "07:30-21:00",
                "operator": "Клевер клуб",
                "payment:cash": "yes",
                "payment:maestro": "yes",
                "payment:mastercard": "yes",
                "payment:visa": "yes",
                "payment:visa_electron": "yes",
                "phone": "+7 921 8660029"
            },
            {
                "amenity": "cafe",
                "contact:vk": "https://vk.com/coffitspb",
                "contact:website": "http://www.coffit.spb.ru",
                "cuisine": "coffee_shop",
                "name": "Coffit",
                "opening_hours": "24/7",
                "outdoor_seating": "no"
            },
            {
                "amenity": "cafe",
                "name": "Rotonda Lounge",
                "website": "https://www.roccofortehotels.com/hotels-and-resorts/hotel-astoria/restaurants-and-bars/rotonda-lounge/"
            },
            {
                "amenity": "cafe",
                "contact:vk": "https://vk.com/chocobar",
                "name": "Chocolate Bar",
                "website": "https://www.шоколадныйбар.рф/"
            }
        ]
    },
    "residents": 3030,
    "library": {
        "count": 1,
        "detail": [
            {
                "amenity": "library",
                "contact:vk": "https://vk.com/pushkinlib",
                "name": "Центральная городская детская библиотека имени А. С. Пушкина",
                "opening_hours": "Mo-Fr 10:00-20:00; Sa-Su 10:00-18:00",
                "website": "http://new.pushkinlib.spb.ru/about/cgdb-im-a-s-pushkina/"
            }
        ]
    },
    "jewelry": {
        "count": 5,
        "detail": [
            {
                "brand": "Ювелирторг",
                "contact:vk": "https://vk.com/juvelirtorg",
                "name": "Яхонт",
                "opening_hours": "11:00-20:00",
                "operator": "АО «Ювелирторг»",
                "shop": "jewelry",
                "website": "https://juvelirtorg.spb.ru/stores/sankt-peterburg/53"
            },
            {
                "name": "Diamant",
                "opening_hours": "Mo-Sa 11:00-20:00; Su 11:00-19:00",
                "shop": "jewelry",
                "website": "http://diamant-group.com/"
            },
            {
                "name": "Стильное серебро",
                "shop": "jewelry",
                "website": "https://www.stilnoeserebro.ru/",
                "contact:vk": "https://vk.com/stilnoeserebro",
                "opening_hours": "Mo-Fr 10:00-21:00; Sa-Su 11:00-21:00"
            },
            {
                "name": "Diadema",
                "opening_hours": "11:00-19:00",
                "operator": "ООО «Ретро»",
                "shop": "jewelry",
                "website": "http://diadema-spb.ru/diadema-diamond.ru/"
            },
            {
                "addr:housenumber": "4/1",
                "addr:postcode": "191186",
                "addr:street": "Малая Морская улица",
                "email": "yantarlavkaru@gmail.com",
                "internet_access": "wlan",
                "level": "2",
                "name": "Янтарная лавка",
                "name:en": "Amber shop",
                "opening_hours": "Mo-Su 10:00-22:00",
                "phone": "+7 996 7888923",
                "shop": "jewelry",
                "website": "https://www.yantarlavka.ru/"
            }
        ]
    },
    "pastry": {
        "count": 4,
        "detail": [
            {
                "amenity": "cafe",
                "brand": "Север",
                "brand:wikidata": "Q4411982",
                "contact:facebook": "https://www.facebook.com/sever.metropol.official",
                "contact:instagram": "https://www.instagram.com/sever_metropol/",
                "contact:phone": "+7 812 6151182",
                "contact:vk": "https://vk.com/sever.metropol.official",
                "contact:website": "https://sever-metropol.ru/wheretobuy/spb/kafe-konditerskie/bolshaya-morskaya-2312/",
                "name": "Север-Метрополь",
                "opening_hours": "Mo-Fr 08:00-21:00; Sa-Su 09:00-21:00",
                "shop": "pastry"
            },
            {
                "amenity": "cafe",
                "contact:vk": "https://vk.com/bushe.bakery",
                "name": "Буше",
                "name:en": "Bouchée",
                "name:fr": "Bouchée",
                "opening_hours": "Mo-Su 08:00-22:00",
                "phone": "+7 812 3155371",
                "shop": "pastry",
                "website": "http://bushe.ru/"
            },
            {
                "amenity": "cafe",
                "name": "Север-Метрополь",
                "note": "в данный момент без брендинга Север-Метрополь, на сайте тоже нет",
                "opening_hours": "07:00-23:00",
                "operator": "ООО «Контур»",
                "payment:cash": "yes",
                "payment:maestro": "yes",
                "payment:mastercard": "yes",
                "payment:visa": "yes",
                "payment:visa_electron": "yes",
                "phone": "+7 812 3128915;+7 812 3127637",
                "shop": "pastry",
                "website": "https://sever-metropol.ru/",
                "wheelchair": "yes"
            },
            {
                "amenity": "cafe",
                "contact:facebook": "konditerskayaspb",
                "contact:instagram": "konditerskaya1",
                "contact:vk": "citycakes",
                "cuisine": "coffee_shop;cake;pastry",
                "name": "Городские кондитерские №1",
                "opening_hours": "08:30-22:00",
                "operator": "ООО «Кизил»",
                "payment:cash": "yes",
                "payment:maestro": "yes",
                "payment:mastercard": "yes",
                "payment:visa": "yes",
                "payment:visa_electron": "yes",
                "phone": "+7 812 6777651",
                "shop": "pastry",
                "takeaway": "yes",
                "website": "https://www.konditer1.ru/"
            }
        ]
    },
    "furniture": {
        "count": 2,
        "detail": [
            {
                "contact:facebook": "https://www.facebook.com/rossigrandspb/",
                "name": "Rossi",
                "opening_hours": "Mo-Fr 11:00-20:00; Sa-Su 11:00-18:00",
                "operator": "ООО «Галерея дизайна»",
                "shop": "furniture",
                "website": "https://rossi-grand.ru/"
            },
            {
                "contact:instagram": "https://www.instagram.com/ralphlaurenhome_russia/",
                "name": "Ralph Lauren Home",
                "shop": "furniture",
                "website": "https://ralphlaurenhome.spb.ru/"
            }
        ]
    },
    "bank": {
        "count": 3,
        "detail": [
            {
                "amenity": "bank",
                "atm": "yes",
                "bic": "VTBRRUMM",
                "brand": "ВТБ",
                "brand:en": "VTB Bank",
                "brand:wikidata": "Q1549389",
                "brand:wikipedia": "en:VTB Bank",
                "contact:email": "info@vtb.ru",
                "contact:facebook": "https://www.facebook.com/vtbgroup",
                "contact:phone": "+7 800 2007799",
                "contact:twitter": "https://twitter.com/vtb",
                "contact:vk": "https://vk.com/vtb",
                "contact:website": "https://www.vtb.ru",
                "contact:youtube": "https://www.youtube.com/user/vtbgroup",
                "name": "ВТБ",
                "name:en": "VTB Bank",
                "name:ru": "ВТБ",
                "opening_hours": "Mo-Fr 10:00-18:00",
                "operator": "Банк ВТБ (публичное акционерное общество)",
                "operator:wikidata": "Q1549389",
                "operator:wikipedia": "ru:Банк ВТБ"
            },
            {
                "alt_name": "Imperia",
                "amenity": "bank",
                "name": "Imperiя",
                "opening_hours": "Mo-Fr 10:00-19:00",
                "operator": "Русский Стандарт",
                "website": "https://imperia.rsb.ru/"
            },
            {
                "amenity": "bank",
                "contact:vk": "https://vk.com/energotransbank",
                "name": "Энерготрансбанк",
                "website": "https://www.energotransbank.com/about/contacts/St.+Petersburg/St.+Petersburg/podrazdeleniya/spb/"
            }
        ]
    },
    "pharmacy": {
        "count": 3,
        "detail": [
            {
                "amenity": "pharmacy",
                "contact:vk": "https://vk.com/drstoletov",
                "healthcare": "pharmacy",
                "name": "Доктор Столетов",
                "opening_hours": "Mo-Fr 09:00-21:00; Sa-Su 10:00-21:00",
                "operator": "ООО «Эркафарм Санкт-Петербург»",
                "website": "https://stoletov.ru/",
                "wheelchair": "no"
            },
            {
                "amenity": "pharmacy",
                "contact:vk": "https://vk.com/drstoletov",
                "healthcare": "pharmacy",
                "level": "0",
                "name": "Доктор Столетов",
                "opening_hours": "24/7",
                "operator": "ООО «Эркафарм Санкт-Петербург»",
                "website": "https://stoletov.ru/"
            },
            {
                "name": "36,6",
                "brand": "36,6",
                "amenity": "pharmacy",
                "name:ru": "36,6",
                "contact:ok": "https://ok.ru/group/57486618853421",
                "contact:vk": "https://vk.com/apteka36i6",
                "healthcare": "pharmacy",
                "opening_hours": "08:00-22:00",
                "brand:wikidata": "Q226889",
                "brand:wikipedia": "ru:36,6 (аптечная сеть)",
                "contact:website": "https://366.ru/apteki/74809/",
                "contact:facebook": "https://www.facebook.com/apteka366/",
                "contact:instagram": "https://www.instagram.com/apteka366/"
            }
        ]
    },
    "waste_disposal": {
        "count": 4,
        "detail": [
            {
                "amenity": "waste_disposal"
            },
            {
                "amenity": "waste_disposal"
            },
            {
                "amenity": "waste_disposal"
            },
            {
                "amenity": "waste_disposal"
            }
        ]
    },
    "bus_stop": {
        "count": 22,
        "detail": [
            {
                "bench": "yes",
                "bus": "yes",
                "highway": "bus_stop",
                "local_ref": "3;22;27",
                "name": "Исаакиевская площадь",
                "passenger_information_display": "yes",
                "public_transport": "platform",
                "shelter": "yes",
                "tactile_paving": "no"
            },
            {
                "bench": "no",
                "bin": "no",
                "highway": "bus_stop",
                "name": "Малая Морская улица",
                "public_transport": "platform",
                "shelter": "no",
                "trolleybus": "yes"
            },
            {
                "bench": "yes",
                "bin": "yes",
                "highway": "bus_stop",
                "name": "станция метро «Адмиралтейская»",
                "public_transport": "platform",
                "shelter": "yes",
                "tactile_paving": "no",
                "trolleybus": "yes"
            },
            {
                "bench": "no",
                "bin": "no",
                "highway": "bus_stop",
                "name": "Малая Морская улица",
                "public_transport": "platform",
                "shelter": "no",
                "tactile_paving": "no",
                "trolleybus": "yes",
                "wheelchair": "yes"
            },
            {
                "bus": "yes",
                "name": "Исаакиевская площадь",
                "public_transport": "stop_position"
            },
            {
                "bus": "yes",
                "name": "Исаакиевский собор",
                "public_transport": "stop_position",
                "wikidata": "Q215423",
                "wikipedia": "ru:Исаакиевский собор"
            },
            {
                "bench": "yes",
                "bin": "yes",
                "bus": "yes",
                "highway": "bus_stop",
                "local_ref": "3;10;22;27",
                "name": "Исаакиевский собор",
                "public_transport": "platform",
                "shelter": "yes"
            },
            {
                "name": "Исаакиевская площадь",
                "public_transport": "stop_position",
                "trolleybus": "yes"
            },
            {
                "bench": "yes",
                "bus": "yes",
                "highway": "bus_stop",
                "local_ref": "3;10;22;27",
                "name": "станция метро «Адмиралтейская»",
                "name:en": "Admiralteyskaya metro station",
                "name:ru": "станция метро «Адмиралтейская»",
                "public_transport": "platform",
                "shelter": "yes",
                "tactile_paving": "no",
                "trolleybus": "yes"
            },
            {
                "bench": "no",
                "bin": "no",
                "highway": "bus_stop",
                "name": "Малая Морская улица",
                "public_transport": "platform",
                "shelter": "no",
                "tactile_paving": "no",
                "trolleybus": "yes",
                "wheelchair": "yes"
            },
            {
                "bus": "yes",
                "name": "Малая Морская улица",
                "operator": "СПб ГУП \"Организатор перевозок\"",
                "public_transport": "stop_position",
                "ref": "1;7;7;10;11;24;191",
                "tactile_paving": "no",
                "trolleybus": "yes"
            },
            {
                "bus": "yes",
                "name": "Малая Морская улица",
                "operator": "СПб ГУП \"Организатор перевозок\"",
                "public_transport": "stop_position",
                "ref": "7;10;11;24;191",
                "tactile_paving": "no",
                "trolleybus": "yes"
            },
            {
                "name": "Адмиралтейский проспект",
                "name:ru": "Адмиралтейский проспект",
                "public_transport": "stop_position",
                "trolleybus": "yes"
            },
            {
                "bench": "no",
                "bin": "yes",
                "highway": "bus_stop",
                "name": "Адмиралтейский проспект",
                "name:ru": "Адмиралтейский проспект",
                "public_transport": "platform",
                "shelter": "no",
                "trolleybus": "yes"
            },
            {
                "highway": "bus_stop",
                "name": "Большая Морская улица",
                "public_transport": "platform",
                "shelter": "no",
                "trolleybus": "yes"
            },
            {
                "bench": "no",
                "bin": "no",
                "highway": "bus_stop",
                "local_ref": "10",
                "name": "Адмиралтейский проспект",
                "name:ru": "Адмиралтейский проспект",
                "public_transport": "platform",
                "shelter": "no"
            },
            {
                "bus": "yes",
                "name": "Адмиралтейский проспект",
                "name:ru": "Адмиралтейский проспект",
                "public_transport": "stop_position"
            },
            {
                "bus": "yes",
                "name": "станция метро «Адмиралтейская»",
                "name:en": "Admiralteyskaya metro station",
                "name:ru": "станция метро «Адмиралтейская»",
                "public_transport": "stop_position",
                "trolleybus": "yes"
            },
            {
                "name": "станция метро «Адмиралтейская»",
                "public_transport": "stop_position",
                "trolleybus": "yes"
            },
            {
                "bus": "yes",
                "name": "Большая Морская улица",
                "trolleybus": "yes",
                "public_transport": "stop_position"
            },
            {
                "name": "Малая Морская улица",
                "public_transport": "stop_position",
                "trolleybus": "yes"
            },
            {
                "bench": "yes",
                "bin": "yes",
                "highway": "bus_stop",
                "name": "Исаакиевская площадь",
                "public_transport": "platform",
                "shelter": "yes",
                "trolleybus": "yes"
            }
        ]
    },
    "convenience": {
        "count": 5,
        "detail": [
            {
                "name": "Аркуда",
                "opening_hours": "08:30-22:00",
                "operator": "ООО \"Кредо\"",
                "shop": "convenience"
            },
            {
                "name": "Продукты",
                "opening_hours": "24/7",
                "shop": "convenience"
            },
            {
                "name": "Продукты",
                "name:en": "Food Market",
                "name:ru": "Продукты",
                "opening_hours": "24/7",
                "shop": "convenience"
            },
            {
                "name": "Продукты",
                "shop": "convenience",
                "wheelchair": "no",
                "opening_hours": "24/7"
            },
            {
                "name": "Food Market",
                "opening_hours": "24/7",
                "shop": "convenience"
            }
        ]
    },
    "ticket": {
        "count": 6,
        "detail": [
            {
                "name": "Главагентство",
                "shop": "ticket",
                "opening_hours": "Mo-Fr 09:00-13:00,13:30-20:00; Sa-Su 09:00-13:00,13:30-18:00"
            },
            {
                "name": "ДТЗК",
                "opening_hours": "Mo-Fr 10:00-13:00,13:30-16:30,17:00-22:00; Sa-Su 10:00-22:00",
                "operator": "Дирекция театрально-зрелищных касс",
                "payment:mastercard": "yes",
                "payment:visa": "yes",
                "phone": "+7 800 3338051;+7 812 3808050",
                "ref": "57",
                "shop": "ticket",
                "tickets:theatre": "yes",
                "website": "https://www.bileter.ru/"
            },
            {
                "shop": "ticket",
                "phone": "+7 812 4560565",
                "website": "https://www.infocdu.ru/",
                "contact:vk": "https://vk.com/cdu_tickets",
                "tickets:bus": "yes",
                "tickets:avia": "yes",
                "opening_hours": "10:00-18:30",
                "tickets:train": "yes"
            },
            {
                "contact:email": "info@nevatrip.ru",
                "contact:phone": "+7 812 2449824",
                "contact:website": "https://nevatrip.ru",
                "name": "Неватрип.ру",
                "name:en": "Nevatrip.ru",
                "opening_hours": "Mo-Su 11:00-19:00",
                "shop": "ticket"
            },
            {
                "shop": "ticket",
                "building": "yes"
            },
            {
                "building": "yes",
                "building:levels": "1",
                "opening_hours": "10:00-17:30",
                "operator": "Государственный музей-памятник \"Исаакиевский собор\"",
                "payment:cash": "yes",
                "payment:maestro": "yes",
                "payment:mastercard": "yes",
                "payment:visa": "yes",
                "payment:visa_electron": "yes",
                "shop": "ticket",
                "website": "https://cathedral.ru/"
            }
        ]
    },
    "art": {
        "count": 3,
        "detail": [
            {
                "name": "La Petite Opéra",
                "opening_hours": "09:00-21:00",
                "shop": "art",
                "website": "https://lapetiteopera.com/"
            },
            {
                "contact:vk": "https://vk.com/fossart",
                "name": "FoSSart",
                "opening_hours": "12:00-21:00",
                "shop": "art",
                "tourism": "gallery",
                "website": "http://www.fossart.org/"
            },
            {
                "contact:facebook": "https://www.facebook.com/ArtGalleryHinoy",
                "contact:instagram": "https://www.instagram.com/artgalleryhinoy/",
                "contact:phone": "+7 921 9395233",
                "contact:vk": "https://vk.com/art_gallery_hinoy",
                "name": "Hinoy",
                "opening_hours": "Mo-Su 12:00-22:00",
                "shop": "art"
            }
        ]
    },
    "craft": {
        "count": 4,
        "detail": [
            {
                "name": "Салон художника",
                "shop": "craft",
                "phone": "+7 812 3124434",
                "opening_hours": "Mo-Sa 10:00-20:00; Su 11:00-20:00",
                "contact:twitter": "https://twitter.com/salonhudozhnika"
            },
            {
                "opening_hours": "11:00-19:30",
                "shop": "craft"
            },
            {
                "name": "O'Bella",
                "note": "вход за воротами арки",
                "shop": "craft",
                "website": "http://obellaspb.ru/",
                "contact:vk": "https://vk.com/club101797430"
            },
            {
                "alt_name": "Невский 8",
                "amenity": "arts_centre",
                "contact:vk": "https://vk.com/nevsky8",
                "name": "Лавка художника",
                "opening_hours": "11:00-21:00",
                "shop": "craft",
                "website": "https://ginza.ru/spb/project/nevsky8",
                "wheelchair": "yes",
                "wikidata": "Q30889540"
            }
        ]
    },
    "car": {
        "count": 1,
        "detail": [
            {
                "name": "Rolls-Royce Motor Cars",
                "shop": "car",
                "brand": "Rolls-Royce",
                "website": "http://www.rolls-roycemotorcars-spb.ru/"
            }
        ]
    },
    "gift": {
        "count": 5,
        "detail": [
            {
                "name": "Amber",
                "shop": "gift",
                "phone": "+7 812 3121744",
                "website": "http://souvenirboutique.com/",
                "contact:vk": "https://vk.com/souvenirboutiquecom",
                "opening_hours": "10:00-21:00"
            },
            {
                "contact:vk": "https://vk.com/club144216822",
                "shop": "gift"
            },
            {
                "name": "Сувениры",
                "shop": "gift",
                "website": "http://tfsouvenir.ru/magaziny/8",
                "opening_hours": "10:00-22:00"
            },
            {
                "shop": "gift"
            },
            {
                "contact:phone": "+7 921 8993535",
                "contact:vk": "https://vk.com/spb_stories",
                "contact:website": "http://www.stories.ru.com",
                "level": "0",
                "name": "Matryoshka Studio",
                "shop": "gift"
            }
        ]
    },
    "bar": {
        "count": 10,
        "detail": [
            {
                "amenity": "bar",
                "contact:vk": "https://vk.com/tonycbar",
                "name": "ToNYc",
                "opening_hours": "Mo 12:00-01:00, Tu-Fr 12:00-02:00, Sa 13:00-02:00, Su 13:00-01:00",
                "website": "http://tonycbar.ru/"
            },
            {
                "amenity": "bar",
                "contact:instagram": "https://www.instagram.com/mama_fugu/",
                "name": "Mama Fugu",
                "opening_hours": "12:00-23:00",
                "operator": "ООО «Парус»"
            },
            {
                "amenity": "bar",
                "contact:instagram": "https://www.instagram.com/spbbarnanevskom/",
                "level": "1",
                "name": "SПБ",
                "opening_hours": "12:00-23:00",
                "operator": "ООО «Истсайд»",
                "phone": "+7 812 6556711",
                "website": "http://www.barspb.ru/"
            },
            {
                "amenity": "bar",
                "name": "Xander",
                "website": "https://www.fourseasons.com/stpetersburg/dining/lounges/xander_bar/"
            },
            {
                "amenity": "bar",
                "name": "Lichfield",
                "phone": "+7 812 4945757",
                "website": "https://www.roccofortehotels.com/hotels-and-resorts/hotel-astoria/restaurants-and-bars/lichfield-bar/"
            },
            {
                "cafe": "time_cafe",
                "name": "WTF",
                "amenity": "bar",
                "contact:vk": "https://vk.com/wtf_spb"
            },
            {
                "name": "Prof. Freud",
                "level": "0",
                "amenity": "bar"
            },
            {
                "amenity": "bar",
                "name": "Mixo"
            },
            {
                "amenity": "bar",
                "name:en": "Brewmen taproom"
            },
            {
                "amenity": "bar",
                "contact:instagram": "https://www.instagram.com/grenkiloftbar/",
                "name": "Grenki"
            }
        ]
    },
    "beauty": {
        "count": 4,
        "detail": [
            {
                "name": "Лаки Like",
                "shop": "beauty",
                "website": "http://luckylike.club/",
                "contact:vk": "https://vk.com/luckylike.club"
            },
            {
                "name": "Brow Buro",
                "shop": "beauty",
                "website": "http://www.browburo.ru/"
            },
            {
                "name": "Luceo Spa",
                "note": "на сайте написано, что находится в треугольном дворе",
                "shop": "beauty",
                "website": "https://www.fourseasons.com/stpetersburg/spa/"
            },
            {
                "contact:instagram": "https://www.instagram.com/diadema_beauty/",
                "name": "Diadema",
                "opening_hours": "Mo-Sa 09:00-21:00; Su 10:00-19:00",
                "shop": "beauty",
                "website": "http://diadema-beauty.ru/"
            }
        ]
    },
    "florist": {
        "count": 1,
        "detail": [
            {
                "name": "Цветы",
                "shop": "florist",
                "opening_hours": "09:00-22:00"
            }
        ]
    },
    "parking_entrance": {
        "count": 3,
        "detail": [
            {
                "amenity": "parking_entrance"
            },
            {
                "amenity": "parking_entrance"
            },
            {
                "amenity": "parking_entrance"
            }
        ]
    },
    "chemist": {
        "count": 1,
        "detail": [
            {
                "name": "Улыбка Радуги",
                "opening_hours": "Mo-Su 09:00-22:00",
                "shop": "chemist",
                "website": "https://www.r-ulybka.ru/"
            }
        ]
    },
    "bicycle_parking": {
        "count": 4,
        "detail": [
            {
                "fee": "no",
                "amenity": "bicycle_parking",
                "covered": "no",
                "capacity": "5",
                "bicycle_parking": "rack"
            },
            {
                "amenity": "bicycle_parking",
                "bicycle_parking": "wall_loops",
                "capacity": "7",
                "covered": "no",
                "fee": "no"
            },
            {
                "amenity": "bicycle_parking",
                "bicycle_parking": "wall_loops",
                "capacity": "10",
                "covered": "no"
            },
            {
                "amenity": "bicycle_parking",
                "bicycle_parking": "wall_loops",
                "capacity": "10",
                "covered": "no"
            }
        ]
    },
    "recycling": {
        "count": 1,
        "detail": [
            {
                "name": "Экобокс",
                "fixme": "уточнить положение",
                "amenity": "recycling",
                "recycling_type": "container",
                "recycling:batteries": "yes",
                "recycling:hydrargyrum": "yes",
                "recycling:hazardous_waste": "yes",
                "recycling:low_energy_bulbs": "yes",
                "recycling:fluorescent_tubes": "yes"
            }
        ]
    },
    "supermarket": {
        "count": 1,
        "detail": [
            {
                "contact:vk": "https://vk.com/real_svezhie_produkty",
                "name": "РеалЪ",
                "opening_hours": "08:00-22:00",
                "shop": "supermarket",
                "website": "http://www.tdreal.spb.ru/?page=63"
            }
        ]
    },
    "atm": {
        "count": 2,
        "detail": [
            {
                "name": "Кредит Европа Банк",
                "amenity": "atm",
                "website": "https://www.crediteurope.ru/",
                "operator": "Кредит Европа Банк"
            },
            {
                "amenity": "atm",
                "name": "Сбербанк",
                "operator": "ПАО Сбербанк",
                "operator:wikidata": "Q205012",
                "operator:wikipedia": "ru:Сбербанк России"
            }
        ]
    },
    "pub": {
        "count": 2,
        "detail": [
            {
                "name": "Oldham",
                "phone": "+7 812 9301150",
                "amenity": "pub",
                "website": "http://oldham-pub.ru/",
                "operator": "ООО «Гурмания»",
                "contact:vk": "https://vk.com/oldhamspb",
                "start_date": "2014-06-01",
                "opening_hours": "12:00-03:00",
                "internet_access": "wlan"
            },
            {
                "amenity": "pub",
                "contact:facebook": "https://www.facebook.com/radioirelandcenter",
                "contact:vk": "https://vk.com/radioireland",
                "name": "Radio Ireland",
                "wheelchair": "no"
            }
        ]
    },
    "telephone": {
        "count": 2,
        "detail": [
            {
                "amenity": "telephone",
                "payment:telephone_cards": "yes"
            },
            {
                "amenity": "telephone",
                "payment:telephone_cards": "yes"
            }
        ]
    },
    "books": {
        "count": 2,
        "detail": [
            {
                "name": "Мир Искусства",
                "note": "должно быть 2 зала - этот скорее всего книжный",
                "shop": "books",
                "website": "http://staraya-kniga.ru/nashi-magazinyi/nevskij-pr-3.html",
                "opening_hours": "Mo-Sa 11:00-19:00"
            },
            {
                "name": "Книга плюс",
                "shop": "books",
                "contact:vk": "https://vk.com/knigaplus_ru",
                "description": "букинист",
                "addr:postcode": "191186",
                "contact:phone": "+7 812 5704020",
                "opening_hours": "Mo-Fr 10:00-19:00; Sa-Su 11:00-18:00",
                "contact:website": "https://knigaplus.ru/"
            }
        ]
    },
    "department_store": {
        "count": 1,
        "detail": [
            {
                "name": "У Красного Моста",
                "shop": "department_store",
                "email": "customercare@aupontrouge.ru",
                "phone": "+7 812 3837788",
                "name:fr": "Au pont rouge",
                "website": "https://aupontrouge.ru/",
                "int_name": "Au Pont Rouge",
                "contact:vk": "https://vk.com/aupontrouge",
                "addr:postcode": "190000",
                "opening_hours": "Mo-Su 10:00-22:00"
            }
        ]
    },
    "hairdresser": {
        "count": 3,
        "detail": [
            {
                "name": "Ленинградская парикмахерская",
                "shop": "hairdresser",
                "phone": "+7 812 9810533",
                "name:en": "Leningrad barbershop",
                "website": "http://ленинградскаяпарикмахерская.рф",
                "contact:vk": "https://vk.com/myleningrad",
                "wheelchair": "yes",
                "addr:postcode": "191186",
                "opening_hours": "10:00-21:00"
            },
            {
                "contact:vk": "https://vk.com/ernestspb",
                "name": "Ernest",
                "note": "вход за воротами арки",
                "shop": "hairdresser",
                "website": "https://www.ernest.spb.ru/"
            },
            {
                "name": "ZanimaiMesto",
                "shop": "hairdresser",
                "website": "http://zanimaimesto.ru/",
                "contact:vk": "https://vk.com/zanimaimesto"
            }
        ]
    },
    "cinema": {
        "count": 1,
        "detail": [
            {
                "amenity": "cinema",
                "contact:facebook": "https://www.facebook.com/AngleterreCinema",
                "contact:vk": "https://vk.com/angleterrecinema",
                "description": "Movies in original language with Russian subtitles. Russian movies with English subtitles.",
                "name": "Кино&Театр Англетер",
                "name:en": "Angleterre Cinema Lounge",
                "payment:cash": "yes",
                "payment:credit_cards": "yes",
                "website": "https://www.angleterrecinema.ru/"
            }
        ]
    },
    "post_box": {
        "count": 1,
        "detail": [
            {
                "ref": "152",
                "amenity": "post_box",
                "operator": "Почта России",
                "design:year": "2010",
                "drive_through": "no",
                "post_box:type": "wall",
                "post_box:design": "ЯПНМ-II-С",
                "collection_times": "Mo-Th 16:15,23:40; Fr 16:15; Sa 08:25; Su 16:15,23:40"
            }
        ]
    },
    "bench": {
        "count": 112,
        "detail": [
            {
                "amenity": "bench",
                "backrest": "yes"
            },
            {
                "amenity": "bench",
                "backrest": "yes"
            },
            {
                "amenity": "bench",
                "backrest": "yes"
            },
            {
                "amenity": "bench",
                "backrest": "yes"
            },
            {
                "amenity": "bench",
                "backrest": "yes"
            },
            {
                "amenity": "bench",
                "backrest": "yes"
            },
            {
                "amenity": "bench",
                "backrest": "yes"
            },
            {
                "amenity": "bench",
                "backrest": "yes"
            },
            {
                "amenity": "bench",
                "backrest": "yes"
            },
            {
                "amenity": "bench",
                "backrest": "yes"
            },
            {
                "amenity": "bench",
                "backrest": "yes"
            },
            {
                "amenity": "bench",
                "backrest": "yes"
            },
            {
                "amenity": "bench",
                "backrest": "yes"
            },
            {
                "amenity": "bench",
                "backrest": "yes"
            },
            {
                "amenity": "bench",
                "backrest": "yes"
            },
            {
                "amenity": "bench",
                "backrest": "yes"
            },
            {
                "amenity": "bench",
                "backrest": "yes"
            },
            {
                "amenity": "bench",
                "backrest": "yes"
            },
            {
                "amenity": "bench",
                "backrest": "yes"
            },
            {
                "amenity": "bench",
                "backrest": "yes"
            },
            {
                "amenity": "bench",
                "backrest": "yes"
            },
            {
                "amenity": "bench",
                "backrest": "yes"
            },
            {
                "amenity": "bench",
                "backrest": "yes"
            },
            {
                "amenity": "bench",
                "backrest": "yes"
            },
            {
                "amenity": "bench",
                "backrest": "yes"
            },
            {
                "amenity": "bench",
                "backrest": "yes"
            },
            {
                "amenity": "bench"
            },
            {
                "amenity": "bench",
                "backrest": "yes"
            },
            {
                "amenity": "bench",
                "backrest": "yes"
            },
            {
                "amenity": "bench",
                "backrest": "yes"
            },
            {
                "amenity": "bench",
                "backrest": "yes"
            },
            {
                "amenity": "bench",
                "backrest": "yes"
            },
            {
                "amenity": "bench",
                "backrest": "yes"
            },
            {
                "amenity": "bench",
                "backrest": "yes"
            },
            {
                "amenity": "bench",
                "backrest": "yes"
            },
            {
                "amenity": "bench",
                "backrest": "yes"
            },
            {
                "amenity": "bench",
                "backrest": "yes"
            },
            {
                "amenity": "bench",
                "backrest": "yes"
            },
            {
                "amenity": "bench",
                "backrest": "yes"
            },
            {
                "amenity": "bench",
                "backrest": "yes"
            },
            {
                "amenity": "bench",
                "backrest": "yes"
            },
            {
                "amenity": "bench",
                "backrest": "yes"
            },
            {
                "amenity": "bench",
                "backrest": "yes"
            },
            {
                "amenity": "bench",
                "backrest": "yes"
            },
            {
                "amenity": "bench",
                "backrest": "yes"
            },
            {
                "amenity": "bench",
                "backrest": "yes"
            },
            {
                "amenity": "bench",
                "backrest": "yes"
            },
            {
                "amenity": "bench",
                "backrest": "yes"
            },
            {
                "amenity": "bench",
                "backrest": "yes"
            },
            {
                "amenity": "bench",
                "backrest": "yes"
            },
            {
                "amenity": "bench",
                "backrest": "yes"
            },
            {
                "amenity": "bench",
                "backrest": "yes"
            },
            {
                "amenity": "bench",
                "backrest": "yes"
            },
            {
                "amenity": "bench",
                "backrest": "yes"
            },
            {
                "amenity": "bench",
                "backrest": "yes"
            },
            {
                "amenity": "bench",
                "backrest": "yes"
            },
            {
                "amenity": "bench",
                "backrest": "yes"
            },
            {
                "amenity": "bench",
                "backrest": "yes"
            },
            {
                "amenity": "bench"
            },
            {
                "amenity": "bench",
                "backrest": "yes"
            },
            {
                "amenity": "bench",
                "backrest": "yes"
            },
            {
                "amenity": "bench",
                "backrest": "yes"
            },
            {
                "amenity": "bench",
                "backrest": "yes"
            },
            {
                "amenity": "bench",
                "backrest": "yes"
            },
            {
                "amenity": "bench",
                "backrest": "yes"
            },
            {
                "amenity": "bench",
                "backrest": "yes"
            },
            {
                "amenity": "bench",
                "backrest": "yes"
            },
            {
                "amenity": "bench",
                "backrest": "yes"
            },
            {
                "amenity": "bench",
                "backrest": "yes"
            },
            {
                "amenity": "bench",
                "backrest": "yes"
            },
            {
                "amenity": "bench",
                "backrest": "yes"
            },
            {
                "amenity": "bench",
                "backrest": "yes"
            },
            {
                "amenity": "bench",
                "backrest": "yes"
            },
            {
                "amenity": "bench",
                "backrest": "yes"
            },
            {
                "amenity": "bench",
                "backrest": "yes"
            },
            {
                "amenity": "bench",
                "backrest": "yes"
            },
            {
                "amenity": "bench",
                "backrest": "yes"
            },
            {
                "amenity": "bench",
                "backrest": "yes"
            },
            {
                "amenity": "bench",
                "backrest": "yes"
            },
            {
                "amenity": "bench",
                "backrest": "yes"
            },
            {
                "amenity": "bench",
                "backrest": "yes"
            },
            {
                "amenity": "bench",
                "backrest": "yes"
            },
            {
                "amenity": "bench",
                "backrest": "yes"
            },
            {
                "amenity": "bench",
                "backrest": "yes"
            },
            {
                "amenity": "bench",
                "backrest": "yes"
            },
            {
                "amenity": "bench",
                "backrest": "yes"
            },
            {
                "amenity": "bench",
                "backrest": "yes"
            },
            {
                "amenity": "bench",
                "backrest": "yes"
            },
            {
                "amenity": "bench",
                "backrest": "yes"
            },
            {
                "amenity": "bench",
                "backrest": "yes"
            },
            {
                "amenity": "bench",
                "backrest": "yes"
            },
            {
                "amenity": "bench",
                "backrest": "yes"
            },
            {
                "amenity": "bench",
                "backrest": "yes"
            },
            {
                "amenity": "bench",
                "backrest": "yes"
            },
            {
                "amenity": "bench",
                "backrest": "yes"
            },
            {
                "amenity": "bench",
                "backrest": "yes"
            },
            {
                "amenity": "bench",
                "backrest": "yes"
            },
            {
                "amenity": "bench"
            },
            {
                "amenity": "bench",
                "backrest": "yes"
            },
            {
                "amenity": "bench"
            },
            {
                "amenity": "bench"
            },
            {
                "amenity": "bench"
            },
            {
                "amenity": "bench"
            },
            {
                "amenity": "bench",
                "backrest": "yes"
            },
            {
                "amenity": "bench",
                "backrest": "yes"
            },
            {
                "amenity": "bench",
                "backrest": "yes"
            },
            {
                "amenity": "bench",
                "backrest": "yes"
            },
            {
                "amenity": "bench",
                "backrest": "yes"
            },
            {
                "amenity": "bench",
                "backrest": "yes"
            },
            {
                "amenity": "bench",
                "backrest": "yes"
            },
            {
                "amenity": "bench",
                "backrest": "yes"
            },
            {
                "amenity": "bench"
            }
        ]
    },
    "waste_basket": {
        "count": 45,
        "detail": [
            {
                "amenity": "waste_basket"
            },
            {
                "amenity": "waste_basket"
            },
            {
                "amenity": "waste_basket"
            },
            {
                "amenity": "waste_basket"
            },
            {
                "amenity": "waste_basket"
            },
            {
                "amenity": "waste_basket"
            },
            {
                "amenity": "waste_basket"
            },
            {
                "amenity": "waste_basket"
            },
            {
                "amenity": "waste_basket"
            },
            {
                "amenity": "waste_basket"
            },
            {
                "amenity": "waste_basket"
            },
            {
                "amenity": "waste_basket"
            },
            {
                "amenity": "waste_basket"
            },
            {
                "amenity": "waste_basket"
            },
            {
                "amenity": "waste_basket"
            },
            {
                "amenity": "waste_basket"
            },
            {
                "amenity": "waste_basket"
            },
            {
                "amenity": "waste_basket"
            },
            {
                "amenity": "waste_basket"
            },
            {
                "amenity": "waste_basket"
            },
            {
                "amenity": "waste_basket"
            },
            {
                "amenity": "waste_basket"
            },
            {
                "amenity": "waste_basket"
            },
            {
                "amenity": "waste_basket"
            },
            {
                "amenity": "waste_basket"
            },
            {
                "amenity": "waste_basket"
            },
            {
                "amenity": "waste_basket"
            },
            {
                "amenity": "waste_basket"
            },
            {
                "amenity": "waste_basket"
            },
            {
                "amenity": "waste_basket"
            },
            {
                "amenity": "waste_basket"
            },
            {
                "amenity": "waste_basket"
            },
            {
                "amenity": "waste_basket"
            },
            {
                "amenity": "waste_basket"
            },
            {
                "amenity": "waste_basket"
            },
            {
                "amenity": "waste_basket"
            },
            {
                "amenity": "waste_basket"
            },
            {
                "amenity": "waste_basket"
            },
            {
                "amenity": "waste_basket"
            },
            {
                "amenity": "waste_basket"
            },
            {
                "amenity": "waste_basket"
            },
            {
                "amenity": "waste_basket"
            },
            {
                "amenity": "waste_basket"
            },
            {
                "amenity": "waste_basket"
            },
            {
                "amenity": "waste_basket"
            }
        ]
    },
    "escape_game": {
        "count": 2,
        "detail": [
            {
                "contact:vk": "https://vk.com/mazeoffear",
                "leisure": "escape_game",
                "name": "Лабиринт страха",
                "opening_hours": "Mo-Su 12:00-24:00",
                "phone": "+7 812 4560684",
                "website": "https://mazeoffear.ru/"
            },
            {
                "contact:vk": "https://vk.com/mazeoffear",
                "leisure": "escape_game",
                "name": "Зеркальный лабиринт",
                "name:en": "Mirror maze",
                "opening_hours": "Mo-Su 12:00-24:00",
                "phone": "+7 812 4560684",
                "website": "https://pikabolo.ru/"
            }
        ]
    },
    "dentist": {
        "count": 3,
        "detail": [
            {
                "name": "Династия",
                "phone": "+7 812 3126055",
                "amenity": "dentist",
                "website": "dynastia-clinic.ru",
                "contact:vk": "https://vk.com/dinastie_clinique",
                "opening_hours": "Mo-Sa 10:00-21:00"
            },
            {
                "amenity": "dentist",
                "healthcare": "dentist",
                "name": "Миллениум",
                "opening_hours": "09:00-21:00",
                "website": "http://www.milldent.ru/"
            },
            {
                "alt_name": "Профидент",
                "amenity": "dentist",
                "healthcare": "dentist",
                "name": "Ivory",
                "opening_hours": "Mo-Sa 10:00-20:00",
                "phone": "+7 812 3128262"
            }
        ]
    },
    "bakery": {
        "count": 2,
        "detail": [
            {
                "brand": "Булочные Ф. Вольчека",
                "contact:email": "info@fvolchek.ru",
                "contact:phone": "+7 812 6420638",
                "contact:vk": "f.volchek",
                "contact:website": "http://fvolchek.ru/",
                "inscription": "Булочная № 53",
                "name": "Булочная Ф. Вольчека",
                "name:ru": "Булочная Ф. Вольчека",
                "opening_hours": "Mo-Su 08:00-22:00",
                "ref": "53",
                "shop": "bakery"
            },
            {
                "amenity": "cafe",
                "contact:vk": "https://vk.com/club52932043",
                "name": "Гарсон",
                "opening_hours": "09:00-21:00",
                "shop": "bakery",
                "website": "https://www.garcon.ru/",
                "wheelchair": "no"
            }
        ]
    },
    "optician": {
        "count": 1,
        "detail": [
            {
                "contact:facebook": "https://www.facebook.com/swissflexru/",
                "name": "Swissflex",
                "opening_hours": "11:00-20:00",
                "shop": "optician",
                "website": "https://swissflex-eyewear.ru/"
            }
        ]
    },
    "hearing_aids": {
        "count": 1,
        "detail": [
            {
                "contact:phone": "+7 812 3170707",
                "contact:vk": "https://vk.com/topfone",
                "contact:website": "http://www.topfone.ru",
                "name": "ТопФон",
                "opening_hours": "10:00-20:00",
                "shop": "hearing_aids"
            }
        ]
    },
    "clothes": {
        "count": 7,
        "detail": [
            {
                "name": "Castello d'Oro",
                "shop": "clothes",
                "website": "http://www.castellodoro.com/",
                "operator": "ООО «Санпиетро»",
                "opening_hours": "Mo-Sa 10:00-21:00; Su 10:00-20:00"
            },
            {
                "name": "Cocoshnick Headdress",
                "shop": "clothes",
                "website": "http://www.cocoshnick.ru/",
                "contact:vk": "https://vk.com/cocoshnick_headdress"
            },
            {
                "contact:instagram": "https://www.instagram.com/vincenzo_brandonisio/",
                "name": "Vincenzo Brandonisio",
                "opening_hours": "09:00-21:00",
                "shop": "clothes",
                "website": "http://vincenzobrandonisio.com/"
            },
            {
                "clothes": "wedding",
                "contact:vk": "https://vk.com/moe_svadebnoe_platie",
                "name": "Жюли",
                "shop": "clothes",
                "website": "https://julie-spb.ru/"
            },
            {
                "contact:vk": "https://vk.com/papaprint",
                "description": "Печать на футболках",
                "name": "Папа Принт",
                "shop": "clothes",
                "website": "https://papa-print.ru/"
            },
            {
                "brand": "Lee",
                "brand:wikidata": "Q1632681",
                "clothes": "denim",
                "contact:instagram": "https://www.instagram.com/lee.spb/",
                "name": "Lee",
                "opening_hours": "10:00-21:00",
                "phone": "+7 812 3158968",
                "shop": "clothes",
                "website": "https://lee-mustang.business.site/"
            },
            {
                "contact:vk": "https://vk.com/butikkomilfo",
                "name": "Komilfo",
                "shop": "clothes",
                "website": "https://komilfo-butik.com/"
            }
        ]
    },
    "dance": {
        "count": 1,
        "detail": [
            {
                "addr:street": "Малая Морская улица",
                "contact:phone": "+7 921 9997048",
                "contact:vk": "https://vk.com/dance.megapolis",
                "contact:website": "https://www.megapolis.dance",
                "dance:style": "Hustle;WCS;Yoga;Stretching",
                "dance:teaching": "yes",
                "description": "Школа современных парных танцев",
                "leisure": "dance",
                "name": "MEGAPOLIS"
            }
        ]
    },
    "dry_cleaning": {
        "count": 2,
        "detail": [
            {
                "name": "Чистякоф",
                "opening_hours": "Mo-Fr 10:00-19:00",
                "shop": "dry_cleaning",
                "website": "https://chistykof.ru/"
            },
            {
                "craft": "jeweller;key_cutter;photographer;shoemaker;tailor",
                "name": "Дом быта",
                "opening_hours": "Mo-Fr 10:00-20:00; Sa 11:00-18:00",
                "phone": "+7 812 5715762",
                "shop": "dry_cleaning"
            }
        ]
    },
    "training": {
        "count": 1,
        "detail": [
            {
                "name": "ФинКонт",
                "amenity": "training",
                "website": "https://www.fcaudit.ru/training/",
                "contact:vk": "https://vk.com/finkont"
            }
        ]
    },
    "language_school": {
        "count": 1,
        "detail": [
            {
                "name": "Globus International",
                "amenity": "language_school",
                "website": "http://spb.globus-int.ru/",
                "contact:vk": "https://vk.com/globusint_spb"
            }
        ]
    },
    "variety_store": {
        "count": 1,
        "detail": [
            {
                "name": "Tervetuloa 88",
                "note": "вход через кассы \"Главагентство\"",
                "shop": "variety_store",
                "website": "http://www.финские-товары.рф/",
                "contact:vk": "https://vk.com/terve_shop",
                "opening_hours": "Mo-Fr 11:00-20:00; Sa-Su 11:00-18:00"
            }
        ]
    },
    "travel_agency": {
        "count": 4,
        "detail": [
            {
                "contact:vk": "https://vk.com/classictravelspb",
                "name": "Классик Трэвел",
                "shop": "travel_agency",
                "website": "https://www.classictravel.spb.ru/"
            },
            {
                "name": "Триумф",
                "shop": "travel_agency",
                "website": "http://triumph-travel.ru/"
            },
            {
                "name": "ТМТ",
                "shop": "travel_agency",
                "brand": "Sunmar",
                "website": "http://tmtours.ru/",
                "contact:vk": "https://vk.com/tmtours"
            },
            {
                "name": "TrasTour",
                "shop": "travel_agency",
                "website": "http://www.trastour.ru/",
                "contact:vk": "https://vk.com/trastour"
            }
        ]
    },
    "kindergarten": {
        "count": 2,
        "detail": [
            {
                "amenity": "kindergarten",
                "contact:email": "dou27.centr@obr.gov.spb.ru",
                "contact:phone": "+7 812 3122439;+7 812 3126479;+7 812 2726473",
                "contact:website": "http://27dou-center.caduk.ru",
                "name": "Детский сад № 27",
                "official_name": "Государственное бюджетное дошкольное образовательное учреждение детский сад № 27 Центрального района Санкт-Петербурга",
                "ref": "27"
            },
            {
                "amenity": "kindergarten",
                "contact:email": "105@dou-center.spb.ru",
                "contact:phone": "+7 812 3129078",
                "contact:website": "http://gdouds105tsr.acentr.gov.spb.ru",
                "name": "Детский сад № 105",
                "official_name": "Государственное бюджетное дошкольное образовательное учреждение детский сад № 105 Центрального района Санкт-Петербурга",
                "ref": "105"
            }
        ]
    },
    "school": {
        "count": 1,
        "detail": [
            {
                "amenity": "school",
                "contact:email": "school@interschool.ru",
                "contact:phone": "+7 812 2757684;+7 812 3157442",
                "contact:website": "https://interschool.ru/?page_id=681",
                "description": "1-5 класс",
                "name": "Международная школа Герценовского университета",
                "official_name": "Автономная некоммерческая организация общеобразовательная «Международная школа Герценовского университета»"
            }
        ]
    },
    "antiques": {
        "count": 1,
        "detail": [
            {
                "name": "Мир Искусства",
                "note": "должно быть 2 зала - этот скорее всего антикварный",
                "shop": "antiques",
                "website": "http://staraya-kniga.ru/nashi-magazinyi/nevskij-pr-3.html",
                "opening_hours": "Mo-Sa 10:00-19:00; Su 11:00-19:00"
            }
        ]
    },
    "doctors": {
        "count": 3,
        "detail": [
            {
                "amenity": "doctors",
                "contact:vk": "https://vk.com/inst.kras",
                "healthcare": "doctor",
                "name": "Институт красоты на Гороховой",
                "opening_hours": "Mo-Fr 09:00-21:00; Sa 10:00-18:00; Su 10:00-15:00",
                "operator": "ОАО «Косметологическая поликлиника»",
                "website": "http://клиника-эстетики.рф/"
            },
            {
                "amenity": "doctors",
                "healthcare": "doctor",
                "name": "Городская поликлиника №37",
                "opening_hours": "Mo-Fr 09:00-18:00",
                "website": "http://gorpol37.spb.ru/"
            },
            {
                "alt_name": "Моя Клиника",
                "amenity": "doctors",
                "contact:vk": "https://vk.com/itsmyclinic",
                "healthcare": "doctor",
                "name": "My Clinic",
                "opening_hours": "Mo-Fr 08:30-21:00; Sa 10:00-16:00",
                "operator": "ООО «Медэкспресс-сервис»",
                "website": "https://www.myclinic.ru/klinika-na-gorokhovoy/"
            }
        ]
    },
    "embassy": {
        "count": 1,
        "detail": [
            {
                "amenity": "embassy",
                "consulate": "consulate_general",
                "country": "RO",
                "diplomatic": "consulate",
                "name": "Генеральное консульство Румынии",
                "office": "diplomatic",
                "website": "http://sanktpetersburg.mae.ro/"
            }
        ]
    },
    "nightclub": {
        "count": 1,
        "detail": [
            {
                "amenity": "nightclub",
                "contact:vk": "https://vk.com/musicbar_11",
                "name": "Music Bar 11",
                "opening_hours": "21:00-06:00",
                "operator": "ООО «Сопрано»",
                "website": "http://www.musicbar11.ru/"
            }
        ]
    },
    "bag": {
        "count": 1,
        "detail": [
            {
                "name": "#Hedonist",
                "shop": "bag",
                "website": "https://hedonistbali.ru/",
                "contact:vk": "https://vk.com/club17587135"
            }
        ]
    },
    "mobile_phone": {
        "count": 2,
        "detail": [
            {
                "brand": "Tele2",
                "brand:wikidata": "Q309865",
                "brand:wikipedia": "en:Tele2",
                "contact:facebook": "https://www.facebook.com/Tele2Russia/",
                "contact:ok": "https://ok.ru/tele2",
                "contact:twitter": "https://twitter.com/Tele2Russia",
                "contact:vk": "https://vk.com/tele2",
                "contact:youtube": "https://www.youtube.com/user/AfishaTele2",
                "name": "Tele2",
                "opening_hours": "08:00-22:00",
                "shop": "mobile_phone",
                "website": "https://spb.tele2.ru/"
            },
            {
                "brand": "Билайн",
                "brand:wikidata": "Q402880",
                "brand:wikipedia": "ru:Билайн",
                "contact:facebook": "https://www.facebook.com/Beelinerus",
                "contact:instagram": "https://www.instagram.com/beelinerus",
                "contact:ok": "https://ok.ru/beeline",
                "contact:phone": "+7 800 7000611",
                "contact:twitter": "https://twitter.com/Beeline_RUS",
                "contact:vk": "https://vk.com/beeline",
                "contact:website": "https://spb.beeline.ru/",
                "contact:youtube": "https://www.youtube.com/user/beelineru",
                "level": "0",
                "name": "Билайн",
                "name:en": "Beeline",
                "name:ru": "Билайн",
                "office": "telecommunication",
                "opening_hours": "09:00-22:00",
                "operator": "ПАО «ВымпелКом»",
                "shop": "mobile_phone"
            }
        ]
    },
    "music": {
        "count": 1,
        "detail": [
            {
                "name": "Hell Store",
                "shop": "music",
                "contact:vk": "https://vk.com/club562082",
                "opening_hours": "11:00-20:00"
            }
        ]
    },
    "ferry_terminal": {
        "count": 1,
        "detail": [
            {
                "addr:city": "Санкт-Петербург",
                "addr:housenumber": "56",
                "addr:street": "набережная реки Мойки",
                "amenity": "ferry_terminal",
                "ferry": "yes",
                "operator": "Нева-кронверк",
                "public_transport": "station"
            }
        ]
    },
    "nutrition_supplements": {
        "count": 1,
        "detail": [
            {
                "name": "Рецепты здоровья",
                "shop": "nutrition_supplements",
                "website": "https://www.pobedi2.ru/buy/kupit-v-peterburge/",
                "alt_name": "Центр Соколинского",
                "contact:vk": "https://vk.com/sokolinskycenter",
                "opening_hours": "Mo-Fr 10:00-20:00; Sa 11:00-18:00"
            }
        ]
    },
    "vending_machine": {
        "count": 10,
        "detail": [
            {
                "indoor": "yes",
                "amenity": "vending_machine",
                "vending": "public_transport_tickets",
                "operator": "Петербургский метрополитен",
                "payment:cash": "only"
            },
            {
                "indoor": "yes",
                "amenity": "vending_machine",
                "vending": "public_transport_tickets",
                "operator": "Петербургский метрополитен",
                "payment:cash": "only"
            },
            {
                "indoor": "yes",
                "amenity": "vending_machine",
                "vending": "public_transport_tickets",
                "operator": "Петербургский метрополитен",
                "payment:cash": "only"
            },
            {
                "indoor": "yes",
                "amenity": "vending_machine",
                "vending": "subway_tokens",
                "operator": "Петербургский метрополитен",
                "payment:cash": "yes",
                "payment:visa": "yes",
                "payment:maestro": "yes",
                "payment:mastercard": "yes",
                "payment:visa_electron": "yes"
            },
            {
                "indoor": "yes",
                "amenity": "vending_machine",
                "vending": "subway_tokens",
                "operator": "Петербургский метрополитен",
                "payment:cash": "yes",
                "payment:visa": "yes",
                "payment:maestro": "yes",
                "payment:mastercard": "yes",
                "payment:visa_electron": "yes"
            },
            {
                "indoor": "yes",
                "amenity": "vending_machine",
                "vending": "public_transport_tickets",
                "operator": "Петербургский метрополитен",
                "payment:cash": "yes",
                "payment:visa": "yes",
                "payment:maestro": "yes",
                "payment:mastercard": "yes",
                "payment:visa_electron": "yes"
            },
            {
                "ref": "5117",
                "indoor": "yes",
                "amenity": "vending_machine",
                "vending": "public_transport_tickets",
                "operator": "Петербургский метрополитен",
                "payment:cash": "yes",
                "payment:visa": "yes",
                "payment:maestro": "yes",
                "payment:mastercard": "yes",
                "payment:visa_electron": "yes"
            },
            {
                "indoor": "yes",
                "amenity": "vending_machine",
                "vending": "subway_tokens",
                "operator": "Петербургский метрополитен",
                "payment:cash": "yes",
                "payment:visa": "yes",
                "payment:maestro": "yes",
                "payment:mastercard": "yes",
                "payment:visa_electron": "yes"
            },
            {
                "indoor": "yes",
                "amenity": "vending_machine",
                "vending": "subway_tokens",
                "operator": "Петербургский метрополитен",
                "payment:cash": "yes",
                "payment:visa": "yes",
                "payment:maestro": "yes",
                "payment:mastercard": "yes",
                "payment:visa_electron": "yes"
            },
            {
                "amenity": "vending_machine",
                "payment:notes": "only",
                "vending": "coin",
                "website": "http://museumrus.ru/"
            }
        ]
    },
    "erotic": {
        "count": 1,
        "detail": [
            {
                "contact:vk": "https://vk.com/tochkalubvi",
                "name": "Точка любви",
                "opening_hours": "24/7",
                "operator": "ИП Шельтик Екатерина Юрьевна",
                "shop": "erotic",
                "website": "https://www.tochka-lubvi.ru/spgorohovaya"
            }
        ]
    },
    "doityourself": {
        "count": 3,
        "detail": [
            {
                "addr:city": "Санкт-Петербург",
                "addr:housenumber": "58",
                "addr:postcode": "190000",
                "addr:street": "набережная реки Мойки",
                "name": "Сваи Сервис",
                "opening_hours": "Пн. – Вс.: 9:00 - 21:00",
                "shop": "doityourself",
                "website": "https://spb.svai-servis.ru"
            },
            {
                "addr:city": "Санкт-Петербург",
                "addr:housenumber": "58",
                "addr:postcode": "191186",
                "addr:street": "набережная реки Мойки",
                "name": "Под-Усадку",
                "opening_hours": "Каждый день 10:00-20:00",
                "shop": "doityourself",
                "website": "http://pod-usadku.ru"
            },
            {
                "addr:city": "Санкт-Петербург",
                "addr:housenumber": "58",
                "addr:postcode": "190000",
                "addr:street": "набережная реки Мойки",
                "name": "Заборкин",
                "shop": "doityourself",
                "website": "https://spb.zaborkin.ru"
            }
        ]
    },
    "alcohol": {
        "count": 1,
        "detail": [
            {
                "contact:facebook": "https://www.facebook.com/amwine.ru/",
                "contact:instagram": "https://www.instagram.com/amwine.ru/",
                "contact:telegram": "https://t.me/amwineru",
                "contact:twitter": "https://twitter.com/amwineru",
                "contact:vk": "https://vk.com/amwineru",
                "name": "Ароматный мир",
                "opening_hours": "10:00-22:00",
                "operator": "ООО «АМ-СПб»",
                "shop": "alcohol",
                "website": "https://amwine.ru/customers/shops/detail/434481/"
            }
        ]
    },
    "toilets": {
        "count": 2,
        "detail": [
            {
                "access": "yes",
                "amenity": "toilets",
                "fee": "no"
            },
            {
                "addr:housenumber": "5",
                "addr:street": "Адмиралтейский проспект",
                "amenity": "toilets",
                "building": "yes",
                "building:levels": "1",
                "fee": "yes",
                "opening_hours": "09:00-21:00",
                "operator": "ГУП «Водоканал Санкт-Петербурга»",
                "website": "http://www.vodokanal.spb.ru/kanalizovanie/tualety/"
            }
        ]
    },
    "mall": {
        "count": 1,
        "detail": [
            {
                "addr:city": "Санкт-Петербург",
                "addr:country": "RU",
                "addr:housenumber": "4/1",
                "addr:postcode": "191186",
                "addr:street": "Малая Морская улица",
                "building": "yes",
                "building:colour": "#b3deb0",
                "building:levels": "5",
                "contact:vk": "https://vk.com/tkadmiral",
                "name": "ТРЦ «Адмирал»",
                "opening_hours": "10:00-22:00",
                "shop": "mall",
                "website": "http://trk-admiral.ru/"
            }
        ]
    },
    "commercial": {
        "count": 1,
        "detail": [
            {
                "building": "commercial",
                "addr:street": "набережная реки Мойки",
                "building:levels": "6",
                "addr:housenumber": "58"
            }
        ]
    },
    "service": {
        "count": 3,
        "detail": [
            {
                "power": "substation",
                "building": "service"
            },
            {
                "addr:housenumber": "25 литБ",
                "addr:street": "Большая Морская улица",
                "building": "service",
                "building:levels": "1"
            },
            {
                "power": "substation",
                "building": "service"
            }
        ]
    }
}