{
    "pub": {
        "count": 3,
        "detail": [
            {
                "food": "yes",
                "name": "Bier König",
                "amenity": "pub",
                "website": "http://www.bier-konig.ru/locations/bier-k%C3%B6nig-%D0%BD%D0%B0-%D0%B3%D0%BE%D1%80%D0%BE%D1%85%D0%BE%D0%B2%D0%BE%D0%B9",
                "operator": "ООО \"ТДЛ\"",
                "contact:vk": "https://vk.com/bierkoniig",
                "opening_hours": "Su-Th 12:00-01:00, Fr-Sa 12:00-02:00"
            },
            {
                "amenity": "pub",
                "contact:vk": "https://vk.com/jagerhaus",
                "name": "Jäger",
                "old_name": "Jager Haus",
                "opening_hours": "Su-Th 11:30-01:00, Fr-Sa 11:30-02:30",
                "operator": "ООО «Егерь»",
                "phone": "+7 812 3108270;+7 812 6111110",
                "website": "http://www.jagerhaus.ru/kontakty/restoran-na-gorohovoy/"
            },
            {
                "amenity": "pub",
                "contact:facebook": "https://www.facebook.com/Co-op-Garage-1426908077616771",
                "cuisine": "pizza",
                "internet_access": "wlan",
                "name": "Co-op Garage",
                "name:ru": "Кооп Гараж",
                "opening_hours": "Su-Th 12:00-24:00, Fr-Sa 12:00-02:00",
                "operator": "ООО «Мото»",
                "phone": "+7 965 0122222",
                "smoking": "outside",
                "website": "http://cooperativegarage.com/",
                "wheelchair": "limited"
            }
        ]
    },
    "bar": {
        "count": 8,
        "detail": [
            {
                "amenity": "bar",
                "contact:vk": "https://vk.com/bar_bermudy",
                "name": "Бермуды",
                "opening_hours": "Mo-Su 18:00-06:00"
            },
            {
                "amenity": "bar",
                "contact:vk": "https://vk.com/cafedecabrist",
                "name": "Декабрист",
                "opening_hours": "Mo-Su 12:00-23:30",
                "operator": "ООО \"Жарит Бар\"",
                "website": "https://www.decabrist.net/steakbar"
            },
            {
                "amenity": "bar",
                "contact:facebook": "https://www.facebook.com/winemespb/",
                "name": "Wine me",
                "opening_hours": "Mo-Th 12:00-23:00, Fr 12:00-01:00, Sa 13:00-01:00, Su 13:00-23:00",
                "website": "https://wineme.business.site/"
            },
            {
                "amenity": "bar",
                "contact:instagram": "https://www.instagram.com/svobodaspb/",
                "level": "-1",
                "name": "Свобода"
            },
            {
                "amenity": "bar",
                "contact:vk": "https://vk.com/bloodymarybar",
                "name": "Bloody Mary",
                "website": "https://bloodymarybar.ru/"
            },
            {
                "name": "Sabotage",
                "email": "sbtgbar@gmail.com",
                "phone": "+7 951 6764041",
                "amenity": "bar",
                "cuisine": "thai",
                "operator": "ООО «Гик»",
                "contact:vk": "https://vk.com/sbtgbar",
                "opening_hours": "Su-Th 16:00-01:00, Fr-Sa 15:00-02:00",
                "internet_access": "wlan",
                "contact:facebook": "https://www.facebook.com/sbtgbar"
            },
            {
                "amenity": "bar",
                "name": "Арт лаб Medovarus",
                "operator": "Medovarus"
            },
            {
                "addr:street": "Банковский переулок",
                "amenity": "bar",
                "name": "Менделеев",
                "name:en": "Mendeleev"
            }
        ]
    },
    "cinema": {
        "count": 1,
        "detail": [
            {
                "name": "Пик",
                "phone": "+7 911 9260035",
                "amenity": "cinema",
                "website": "http://kinopik.spb.ru"
            }
        ]
    },
    "convenience": {
        "count": 8,
        "detail": [
            {
                "name": "Любимый",
                "opening_hours": "Mo-Su 09:00-01:00",
                "operator": "БакЛэнд",
                "payment:cash": "yes",
                "payment:maestro": "yes",
                "payment:mastercard": "yes",
                "payment:visa": "yes",
                "payment:visa_electron": "yes",
                "shop": "convenience",
                "source": "survey",
                "wheelchair": "no"
            },
            {
                "name": "Продукты",
                "opening_hours": "24/7",
                "operator": "ООО \"Клён\"",
                "shop": "convenience",
                "wheelchair": "no"
            },
            {
                "name": "Продукты",
                "opening_hours": "24/7",
                "operator": "ООО\"Альфа-Василеостровский\"",
                "shop": "convenience"
            },
            {
                "name": "Продукты",
                "opening_hours": "24/7",
                "shop": "convenience",
                "wheelchair": "no"
            },
            {
                "entrance": "yes",
                "name": "Продукты",
                "shop": "convenience",
                "wheelchair": "limited"
            },
            {
                "contact:vk": "https://vk.com/ecobiomarket_organica",
                "name": "Organica",
                "opening_hours": "10:00-21:00",
                "operator": "ИП Зиганшина Ю.А.",
                "organic": "only",
                "shop": "convenience",
                "website": "https://supergreen.ru/"
            },
            {
                "brand": "ВкусВилл",
                "brand:wikidata": "Q57271676",
                "brand:wikipedia": "ru:Вкусвилл",
                "contact:facebook": "https://www.facebook.com/vkusvill.ru",
                "contact:instagram": "https://www.instagram.com/vkusvill_ru/",
                "contact:twitter": "https://twitter.com/we_are_vkusvill",
                "contact:vk": "https://vk.com/vkusvill_ru",
                "name": "ВкусВилл",
                "opening_hours": "08:00-23:00",
                "operator": "ООО «Вкусвилл»",
                "shop": "convenience",
                "website": "https://spb.vkusvill.ru/shops/?shop_id=7938",
                "wheelchair": "limited"
            },
            {
                "contact:vk": "https://vk.com/thegreenru",
                "name": "Зелёный",
                "opening_hours": "10:00-21:00",
                "operator": "ИП Логунов А.А.",
                "organic": "only",
                "shop": "convenience",
                "website": "https://the-green.ru/"
            }
        ]
    },
    "cafe": {
        "count": 35,
        "detail": [
            {
                "name": "Кемер",
                "amenity": "cafe",
                "contact:vk": "https://vk.com/club4515120"
            },
            {
                "name": "Кунак",
                "amenity": "cafe",
                "contact:vk": "https://vk.com/kunak_spb",
                "opening_hours": "11:00-23:00"
            },
            {
                "amenity": "cafe",
                "name": "Кофейня на Садовой",
                "opening_hours": "09:00-22:00",
                "operator": "ООО \"Энергия\""
            },
            {
                "alt_name": "Рада и К",
                "amenity": "cafe",
                "contact:vk": "https://vk.com/rada_v_spb",
                "cuisine": "curry",
                "diet:vegetarian": "yes",
                "internet_access": "wlan",
                "name": "Рада & K",
                "opening_hours": "11:00-22:00",
                "phone": "+7 812 3851226",
                "website": "https://www.rada-k.com/"
            },
            {
                "amenity": "cafe",
                "contact:instagram": "https://www.instagram.com/oh_mybowl/",
                "name": "О, мой боул!",
                "opening_hours": "Mo-Fr 08:30-20:00; Sa-Su 10:00-22:00"
            },
            {
                "amenity": "cafe",
                "contact:vk": "https://vk.com/surfcoffeespb",
                "name": "Surf Coffee",
                "opening_hours": "Mo-Fr 08:00-23:00; Sa-Su 10:00-00:00",
                "operator": "ООО «Ияиё»",
                "website": "http://vk.com/surfcoffeespb"
            },
            {
                "amenity": "cafe",
                "brand": "Чайникофф",
                "contact:vk": "chainikoff_cafe",
                "cuisine": "tea",
                "entrance": "yes",
                "opening_hours": "24/7",
                "operator": "ООО «Кофейня 24»",
                "website": "https://chainikoff.ru/",
                "wheelchair": "yes"
            },
            {
                "amenity": "cafe",
                "contact:vk": "https://vk.com/breadmeatbar",
                "name": "Bread & Meat"
            },
            {
                "amenity": "cafe",
                "contact:vk": "https://vk.com/ponchkoff",
                "name": "Пончкофф",
                "opening_hours": "10:00-22:00",
                "operator": "ООО «Ганеша»",
                "website": "https://www.ponchkoff.ru/"
            },
            {
                "addr:city": "Санкт-Петербург",
                "addr:housenumber": "27",
                "addr:street": "Апраксин переулок",
                "amenity": "cafe",
                "cuisine": "chinese",
                "internet_access": "no",
                "name": "Чуфальня",
                "opening_hours": "Mo-Su 07:00-22:00"
            },
            {
                "amenity": "cafe",
                "contact:instagram": "https://www.instagram.com/lareve_spb/",
                "name": "Lareve",
                "opening_hours": "Su-Th 12:00-20:00; 11:00-21:00",
                "operator": "ИП Жерновкова И.В.",
                "website": "https://lareve.ru/"
            },
            {
                "name": "Money Honey",
                "amenity": "cafe"
            },
            {
                "amenity": "cafe",
                "contact:vk": "https://vk.com/fabtogo",
                "cuisine": "coffee_shop;sandwich;ice_cream",
                "internet_access": "no",
                "level": "0",
                "name": "FAB to go",
                "payment:cash": "yes",
                "payment:credit_cards": "yes",
                "payment:debit_cards": "yes",
                "phone": "+7 81244 88310 (доб.1192)",
                "smoking": "outside",
                "website": "https://fabstore.ru/fab-go"
            },
            {
                "amenity": "cafe",
                "contact:vk": "https://vk.com/shaverma_giros_gorohovaya",
                "cuisine": "international;diner;turkish",
                "diet:vegan": "yes",
                "diet:vegetarian": "yes",
                "name": "Giros",
                "opening_hours": "Mo-Fr 11:00-22:00; Sa-Su 12:00-22:00"
            },
            {
                "amenity": "cafe",
                "contact:vk": "https://vk.com/nikalacafe",
                "name": "Никала",
                "wheelchair": "limited"
            },
            {
                "amenity": "cafe",
                "name": "Халол",
                "opening_hours": "24/7",
                "wheelchair": "no"
            },
            {
                "name": "Али",
                "amenity": "cafe",
                "opening_hours": "10:00-22:00"
            },
            {
                "amenity": "cafe",
                "contact:vk": "https://vk.com/grancoffeeplace",
                "name": "Grán",
                "opening_hours": "Mo-Fr 09:00-22:00; Sa-Su,PH 11:00-22:00",
                "operator": "ООО «Гран»",
                "phone": "+7 962 6888111",
                "website": "https://instagram.com/grancoffee"
            },
            {
                "name": "Сладкоежка",
                "amenity": "cafe",
                "website": "https://www.sladkoezka.com.ru/",
                "opening_hours": "Mo-Fr 08:00-21:00; Sa-Su 09:00-21:00"
            },
            {
                "name": "Gusto-Густо",
                "amenity": "cafe",
                "contact:vk": "https://vk.com/gustogustobar",
                "opening_hours": "Su-Th 11:00-23:00, Fr-Sa 11:00+"
            },
            {
                "amenity": "cafe",
                "contact:vk": "https://vk.com/v_gosti_restaurant_bar",
                "name": "Вгости"
            },
            {
                "addr:housenumber": "51",
                "addr:street": "Михайловский проезд",
                "amenity": "cafe",
                "name": "Китайское бистро",
                "name:ru": "Китайское бистро"
            },
            {
                "amenity": "cafe",
                "contact:vk": "https://vk.com/hinkalspb",
                "cuisine": "georgian;dumplings",
                "internet_access": "wlan",
                "name": "Хинкальная",
                "name:ru": "Хинкальная",
                "opening_hours": "Mo-Su 11:00-23:00",
                "phone": "+7 9052061208"
            },
            {
                "amenity": "cafe",
                "level": "0;1",
                "name": "Шаурма"
            },
            {
                "name": "Настоящая шаверма",
                "amenity": "cafe"
            },
            {
                "amenity": "cafe",
                "contact:vk": "https://vk.com/3gnoma",
                "name": "3 Гнома",
                "website": "http://3gnoma.spb.ru/kofejnya.html",
                "wheelchair": "no"
            },
            {
                "name": "Наше кафе",
                "amenity": "cafe",
                "contact:vk": "https://vk.com/nashekafe"
            },
            {
                "amenity": "cafe"
            },
            {
                "name": "Бухара",
                "amenity": "cafe",
                "addr:floor": "3"
            },
            {
                "amenity": "cafe",
                "brand": "Coffee Like",
                "brand:wikidata": "Q55662627",
                "brand:wikipedia": "ru:Coffee Like",
                "contact:email": "hotline@coffee-like.com",
                "contact:phone": "+7 341 2908292;+7 800 3334130",
                "contact:website": "https://coffee-like.com/",
                "cuisine": "coffee_shop",
                "name": "Coffee Like",
                "opening_hours": "Mo-Su 09:00-21:00",
                "operator": "Павловский М.Г.",
                "takeaway": "yes"
            },
            {
                "amenity": "cafe",
                "contact:vk": "https://vk.com/voskhodcoffee",
                "name": "Восход",
                "opening_hours": "08:30-21:00",
                "website": "https://voskhodcoffee.ru/"
            },
            {
                "amenity": "cafe",
                "name": "Чифанька"
            },
            {
                "amenity": "cafe",
                "name": "Мама Рома"
            },
            {
                "amenity": "cafe",
                "contact:email": "pochemunetspb@yandex.ru",
                "contact:instagram": "https://instagram.com/pochemu_net_sennaya",
                "contact:phone": "+7 911 8278384",
                "name": "Почему Нет?",
                "opening_hours": "Mo-Su 09:00-23:00",
                "operator": "Почему Нет?"
            },
            {
                "amenity": "cafe",
                "contact:vk": "https://vk.com/foodcupru",
                "name": "Food Cup",
                "website": "https://food-cup.ru/"
            }
        ]
    },
    "residents": 6414,
    "police": {
        "count": 1,
        "detail": [
            {
                "name": "Участковый пункт полиции",
                "amenity": "police",
                "opening_hours": "Tu,Th 18:00-20:00; Sa[2],Su[4] 12:00-14:00"
            }
        ]
    },
    "pharmacy": {
        "count": 4,
        "detail": [
            {
                "amenity": "pharmacy",
                "dispensing": "yes",
                "healthcare": "pharmacy",
                "name": "Петербургские аптеки",
                "opening_hours": "08:00-22:00",
                "operator": "АО «Петербургские аптеки»",
                "phone": "+7 812 7000303",
                "ref": "224",
                "website": "http://papteki.ru/apteki/apteka-48/",
                "wheelchair": "yes"
            },
            {
                "amenity": "pharmacy",
                "brand": "Эвалар",
                "brand:wikidata": "Q4529583",
                "contact:phone": "+7 812 5705500",
                "contact:vk": "https://vk.com/evalar_ru",
                "contact:website": "https://evalar.ru/",
                "healthcare": "pharmacy",
                "name": "Эвалар",
                "opening_hours": "Mo-Sa 08:00-23:00;Su 09:00-21:00",
                "operator": "Эвалар"
            },
            {
                "amenity": "pharmacy",
                "healthcare": "pharmacy",
                "name": "78 плюс",
                "opening_hours": "08:00-21:00",
                "operator": "ООО «Гранат»",
                "website": "https://apteka78plus.ru/",
                "wheelchair": "no"
            },
            {
                "amenity": "pharmacy",
                "healthcare": "pharmacy",
                "name": "ДИА-Фарм",
                "opening_hours": "Mo-Fr 09:00-22:00; Sa-Su 09:00-21:00",
                "website": "https://dia-f.ru/"
            }
        ]
    },
    "bag": {
        "count": 3,
        "detail": [
            {
                "name": "Baggins",
                "shop": "bag",
                "website": "https://baggins.ru/",
                "alt_name": "GaLanti",
                "contact:vk": "https://vk.com/bagginsru",
                "opening_hours": "10:00-20:00"
            },
            {
                "shop": "bag"
            },
            {
                "name": "Epol Bags",
                "note": "возможно epolbags.ru",
                "shop": "bag"
            }
        ]
    },
    "theatre": {
        "count": 3,
        "detail": [
            {
                "amenity": "theatre",
                "contact:vk": "https://vk.com/priut_komedianta",
                "email": "admin@pkteatr.ru",
                "name": "Приют комедианта",
                "operator": "СПб ГБУК «Государственный драматический театр «Приют комедианта»",
                "phone": "+7 812 3103309",
                "ref:mkrf_theaters": "26256",
                "website": "http://www.pkteatr.ru/"
            },
            {
                "name": "Камертон",
                "amenity": "theatre",
                "website": "http://www.momo78.ru/about/teatr-kamerton/"
            },
            {
                "addr:city": "Санкт-Петербург",
                "addr:country": "RU",
                "addr:housenumber": "65",
                "addr:postcode": "191023",
                "addr:street": "набережная реки Фонтанки",
                "alt_name": "БДТ",
                "amenity": "theatre",
                "building": "yes",
                "building:levels": "3",
                "contact:vk": "https://vk.com/bdtspb",
                "email": "bdtspbpr@gmail.com",
                "name": "Большой драматический театр имени Г. А. Товстоногова",
                "name:en": "Tovstonogov Great Drama Theater",
                "operator": "ФГБУК «Российский государственный академический Большой драматический театр имени Г. А. Товстоногова»",
                "phone": "+7 812 2441071",
                "ref:mkrf_theaters": "9233",
                "toilets:wheelchair": "yes",
                "website": "https://bdt.spb.ru/",
                "wheelchair": "limited",
                "wikidata": "Q1981162",
                "wikipedia": "ru:Большой драматический театр имени Г. А. Товстоногова"
            }
        ]
    },
    "restaurant": {
        "count": 9,
        "detail": [
            {
                "amenity": "restaurant",
                "contact:facebook": "conchita.bonita",
                "contact:instagram": "conchita_family",
                "contact:vk": "conchita.bonita",
                "cuisine": "mexican",
                "email": "info@conchita-bonita.ru",
                "entrance": "yes",
                "name": "Conchita Bonita",
                "opening_hours": "12:00-23:00",
                "phone": "+7 931 5765756",
                "reservation": "yes",
                "website": "http://conchita-bonita.ru/",
                "wheelchair": "limited"
            },
            {
                "amenity": "restaurant",
                "check_date:opening_hours": "2021-04-17",
                "contact:vk": "https://vk.com/club28313329",
                "cuisine": "georgian",
                "level": "0",
                "name": "Чито Гврито",
                "opening_hours": "11:00-23:00",
                "website": "http://chitogvrito.ru/"
            },
            {
                "amenity": "restaurant",
                "contact:vk": "https://vk.com/babjib",
                "cuisine": "korean",
                "name": "BabJib"
            },
            {
                "amenity": "restaurant",
                "website": "http://www.asteria.ru/restaurant/"
            },
            {
                "amenity": "restaurant",
                "contact:vk": "https://vk.com/tangrenspb",
                "cuisine": "chinese",
                "internet_access": "wlan",
                "name": "Тан Жен",
                "opening_hours": "Mo-Su 12:00-23:00",
                "operator": "ООО «Родос»",
                "website": "http://www.tang-ren.ru/page/restoran_na_gorohovoj.htm"
            },
            {
                "amenity": "restaurant",
                "contact:vk": "https://vk.com/barhorosho",
                "name": "Vsёхорошо",
                "opening_hours": "Su-Th 12:00-02:00; Fr-Sa 12:00-06:00",
                "website": "https://barhorosho.ru/restaurants/addresses/sadovaya-27/",
                "wheelchair": "no"
            },
            {
                "amenity": "restaurant",
                "contact:vk": "https://vk.com/nihao_spb",
                "name": "Нихао",
                "opening_hours": "12:00-23:00",
                "website": "http://www.nihaorest.com/",
                "wheelchair": "limited"
            },
            {
                "amenity": "restaurant",
                "contact:email": "ads@evrasia.spb.ru",
                "contact:phone": "+7 812 2443245",
                "contact:website": "https://evrasia.spb.ru/",
                "name": "Евразия",
                "opening_hours": "Fr-Sa 11:00-05:00; Su, Mo-Th 11:00-23:00",
                "operator": "А11-Каменноостровский"
            },
            {
                "amenity": "restaurant",
                "cuisine": "vietnamese",
                "internet_access": "wlan",
                "name": "Hoat",
                "name:en": "Hoat"
            }
        ]
    },
    "bus_stop": {
        "count": 12,
        "detail": [
            {
                "bus": "yes",
                "highway": "bus_stop",
                "local_ref": "49;181",
                "name": "Апраксин переулок, театр «Приют комедианта»",
                "public_transport": "platform"
            },
            {
                "bus": "yes",
                "highway": "bus_stop",
                "local_ref": "49;181",
                "name": "Апраксин переулок, театр «Приют комедианта»",
                "public_transport": "platform"
            },
            {
                "bus": "yes",
                "name": "Апраксин переулок, театр «Приют комедианта»",
                "public_transport": "stop_position"
            },
            {
                "bus": "yes",
                "name": "Апраксин переулок, театр «Приют комедианта»",
                "public_transport": "stop_position"
            },
            {
                "highway": "bus_stop",
                "name": "Садовая улица",
                "name:ru": "Садовая улица",
                "public_transport": "platform",
                "trolleybus": "yes"
            },
            {
                "bench": "no",
                "highway": "bus_stop",
                "name": "набережная реки Фонтанки",
                "name:ru": "набережная реки Фонтанки",
                "public_transport": "platform",
                "shelter": "no",
                "tactile_paving": "no",
                "trolleybus": "yes"
            },
            {
                "bench": "no",
                "highway": "bus_stop",
                "name": "Садовая улица",
                "name:ru": "Садовая улица",
                "public_transport": "platform",
                "shelter": "no",
                "tactile_paving": "no",
                "trolleybus": "yes"
            },
            {
                "bench": "no",
                "highway": "bus_stop",
                "name": "набережная реки Фонтанки",
                "name:ru": "набережная реки Фонтанки",
                "public_transport": "platform",
                "shelter": "no",
                "tactile_paving": "no",
                "trolleybus": "yes"
            },
            {
                "name": "Садовая улица",
                "name:ru": "Садовая улица",
                "trolleybus": "yes",
                "public_transport": "stop_position"
            },
            {
                "name": "Садовая улица",
                "name:ru": "Садовая улица",
                "public_transport": "stop_position",
                "trolleybus": "yes"
            },
            {
                "name": "набережная реки Фонтанки",
                "name:ru": "набережная реки Фонтанки",
                "trolleybus": "yes",
                "public_transport": "stop_position"
            },
            {
                "name": "набережная реки Фонтанки",
                "public_transport": "stop_position",
                "trolleybus": "yes"
            }
        ]
    },
    "bank": {
        "count": 6,
        "detail": [
            {
                "amenity": "bank",
                "name": "Траст",
                "opening_hours": "Mo-Fr 10:00-20:00; Sa 10:00-18:00",
                "website": "http://www.trust.ru/"
            },
            {
                "amenity": "bank",
                "brand": "Газпромбанк",
                "brand:en": "Gazprombank",
                "brand:wikidata": "Q1924338",
                "brand:wikipedia": "en:Gazprombank",
                "name": "Газпромбанк",
                "name:en": "Gazprombank",
                "opening_hours": "Mo-Fr 09:30-20:00; Sa 09:30-17:00",
                "operator": "«Газпромбанк» (Акционерное общество)",
                "operator:wikidata": "Q1924338",
                "website": "https://www.gazprombank.ru/"
            },
            {
                "amenity": "bank",
                "atm": "yes",
                "brand": "UniCredit",
                "brand:wikidata": "Q45568",
                "brand:wikipedia": "en:UniCredit",
                "contact:email": "unicredit@unicredit.ru",
                "contact:phone": "+7 495 2587200;+7 800 7001020",
                "contact:twitter": "https://twitter.com/unicreditrussia",
                "contact:vk": "https://vk.com/unicreditbank",
                "contact:website": "https://www.unicreditbank.ru/",
                "contact:youtube": "https://www.youtube.com/user/unicreditbankrussia",
                "int_name": "UniCredit Bank",
                "name": "ЮниКредит Банк",
                "opening_hours": "Mo-Fr 10:00-20:00",
                "operator": "ЮниКредит Банк",
                "operator:wikidata": "Q727011"
            },
            {
                "amenity": "bank",
                "name": "Балтийский Банк",
                "opening_hours": "Mo-Fr 09:30-20:00; Sa 10:00-18:00; Su 10:00-17:00",
                "website": "https://www.baltbank.ru/spb-tsentralnoe.html"
            },
            {
                "amenity": "bank",
                "brand": "Юнистрим",
                "brand:wikidata": "Q4534572",
                "contact:vk": "https://vk.com/unistreambank",
                "name": "Юнистрим",
                "opening_hours": "09:30-20:30",
                "website": "https://unistream.ru/",
                "wheelchair": "limited"
            },
            {
                "name": "Русфинанс Банк",
                "amenity": "bank",
                "website": "https://www.rusfinancebank.ru/",
                "contact:vk": "https://vk.com/rusfinancebank"
            }
        ]
    },
    "fast_food": {
        "count": 11,
        "detail": [
            {
                "amenity": "fast_food",
                "cuisine": "regional",
                "fast_food": "cafeteria",
                "name": "На Садовой",
                "opening_hours": "Mo-Su 09:00-22:00",
                "operator": "ООО \"Энергия\"",
                "website": "http://evro-stolovaya.ru/"
            },
            {
                "amenity": "fast_food",
                "contact:vk": "https://vk.com/brosburritos",
                "cuisine": "mexican",
                "name": "BroS BurritoS",
                "opening_hours": "Mo-Su 11:00-23:00"
            },
            {
                "amenity": "fast_food",
                "cuisine": "donut",
                "loc_name": "Пышки",
                "name": "Пышечная",
                "opening_hours": "Mo 09:00-18:00; Tu-Sa 09:00-19:30; Su 10:00-19:00",
                "wheelchair": "limited"
            },
            {
                "amenity": "fast_food",
                "brand": "Теремок",
                "brand:en": "Teremok",
                "brand:ru": "Теремок",
                "brand:wikidata": "Q4455593",
                "brand:wikipedia": "ru:Теремок (сеть быстрого питания)",
                "contact:vk": "https://vk.com/teremok",
                "cuisine": "crepe;russian",
                "fast_food": "cafeteria",
                "name": "Теремок",
                "name:en": "Teremok",
                "name:ru": "Теремок",
                "opening_hours": "07:30-22:00",
                "operator": "ООО «Теремок — Русские блины»",
                "takeaway": "yes",
                "website": "https://teremok.ru/places/r_sadovaya__32/",
                "wheelchair": "yes"
            },
            {
                "amenity": "fast_food",
                "contact:vk": "public84455935",
                "cuisine": "kebab",
                "email": "masterkebab.service@yandex.ru",
                "entrance": "yes",
                "name": "Мастер кебаб",
                "opening_hours": "Mo-Sa 07:00-06:00; Sa 07:00-07:00; Su 08:00-06:00",
                "website": "http://masterkebab.ru/",
                "wheelchair": "no"
            },
            {
                "amenity": "fast_food",
                "contact:vk": "https://vk.com/sushishop",
                "cuisine": "sushi",
                "name": "Сушишоп",
                "opening_hours": "10:00-23:00",
                "website": "https://www.sushishop.ru/"
            },
            {
                "amenity": "fast_food",
                "contact:vk": "https://vk.com/sabay_sabay",
                "name": "Сабай",
                "opening_hours": "11:00-22:00",
                "website": "http://sabaysabay.ru/"
            },
            {
                "amenity": "fast_food",
                "contact:vk": "https://vk.com/meshugagrill",
                "level": "0",
                "name": "Meshuga Grill",
                "opening_hours": "11:00-23:00"
            },
            {
                "amenity": "fast_food",
                "contact:vk": "https://vk.com/zernacafe",
                "cuisine": "coffee_shop",
                "name": "Зерна",
                "website": "http://zernacafe.com/",
                "wheelchair": "no"
            },
            {
                "amenity": "fast_food",
                "contact:vk": "https://vk.com/onepricecoffee60",
                "cuisine": "coffee_shop",
                "name": "One Price Coffee",
                "opening_hours": "08:00-21:00",
                "operator": "ООО «Азбука ритейла»",
                "website": "https://onepricecoffee.com/"
            },
            {
                "amenity": "fast_food",
                "cuisine": "shawarma",
                "takeaway": "yes"
            }
        ]
    },
    "nightclub": {
        "count": 1,
        "detail": [
            {
                "amenity": "nightclub",
                "contact:vk": "https://vk.com/frankiclub13",
                "food": "yes",
                "internet_access": "wlan",
                "name": "Franki",
                "opening_hours": "Fr-Su 21:00-33:00",
                "phone": "+7 812 9202827"
            }
        ]
    },
    "swimming_pool": {
        "count": 1,
        "detail": [
            {
                "sport": "swimming",
                "leisure": "swimming_pool"
            }
        ]
    },
    "supermarket": {
        "count": 3,
        "detail": [
            {
                "brand": "Дикси",
                "brand:en": "Dixy",
                "brand:wikidata": "Q4161561",
                "brand:wikipedia": "ru:Дикси (сеть магазинов)",
                "contact:phone": "+7 800 3330201",
                "contact:vk": "https://vk.com/dixyclub",
                "contact:youtube": "https://www.youtube.com/user/DixyChannel",
                "name": "Дикси",
                "name:ru": "Дикси",
                "opening_hours": "Mo-Su 10:00-23:00",
                "shop": "supermarket",
                "website": "https://dixy.ru/"
            },
            {
                "brand": "Дикси",
                "brand:en": "Dixy",
                "brand:wikidata": "Q4161561",
                "brand:wikipedia": "ru:Дикси (сеть магазинов)",
                "contact:phone": "+7 800 3330201",
                "contact:vk": "https://vk.com/dixyclub",
                "contact:youtube": "https://www.youtube.com/user/DixyChannel",
                "name": "Дикси",
                "name:ru": "Дикси",
                "opening_hours": "09:00-23:00",
                "operator": "АО «Дикси Юг»",
                "shop": "supermarket",
                "website": "https://dixy.ru/",
                "wheelchair": "limited"
            },
            {
                "brand": "Дикси",
                "brand:en": "Dixy",
                "brand:wikidata": "Q4161561",
                "brand:wikipedia": "ru:Дикси (сеть магазинов)",
                "contact:phone": "+7 800 3330201",
                "contact:vk": "https://vk.com/dixyclub",
                "contact:youtube": "https://www.youtube.com/user/DixyChannel",
                "name": "Дикси",
                "name:ru": "Дикси",
                "opening_hours": "24/7",
                "shop": "supermarket",
                "website": "https://dixy.ru/"
            }
        ]
    },
    "events_venue": {
        "count": 1,
        "detail": [
            {
                "amenity": "events_venue",
                "contact:vk": "https://vk.com/suzorpalace",
                "name": "Дворец Сюзора",
                "website": "http://suzorpalace.ru/"
            }
        ]
    },
    "atm": {
        "count": 3,
        "detail": [
            {
                "name": "ЮниКредит Банк",
                "brand": "ЮниКредит Банк",
                "amenity": "atm",
                "cash_in": "yes",
                "website": "http://unicredit.ru",
                "alt_name": "ЮниКредит Банк",
                "int_name": "UniCredit Bank",
                "operator": "ЮниКредит Банк",
                "addr:street": "улица Ефимова",
                "currency:EUR": "yes",
                "currency:USD": "yes",
                "opening_hours": "24/7",
                "addr:housenumber": "4А"
            },
            {
                "amenity": "atm",
                "contact:email": "info@psbank.ru",
                "contact:phone": "+7 495 7873333;+7 800 3330303",
                "contact:website": "https://psbank.ru/",
                "opening_hours": "Mo-Su 10:00-22:00",
                "operator": "Промсвязьбанк"
            },
            {
                "amenity": "atm",
                "brand": "Сбербанк",
                "description": "Возле гардероба",
                "operator": "Сбербанк России"
            }
        ]
    },
    "recycling": {
        "count": 1,
        "detail": [
            {
                "amenity": "recycling",
                "fixme": "уточнить положение(в управлении недвижимого имущества Центрального района)",
                "name": "Экобокс",
                "opening_hours": "Mo 14:00-17:00; Tu 10:00-13:00",
                "recycling:batteries": "yes",
                "recycling:fluorescent_tubes": "yes",
                "recycling:hazardous_waste": "yes",
                "recycling:hydrargyrum": "yes",
                "recycling:low_energy_bulbs": "yes",
                "recycling_type": "container"
            }
        ]
    },
    "electronics": {
        "count": 2,
        "detail": [
            {
                "name": "Redmond",
                "shop": "electronics",
                "level": "0",
                "website": "https://multivarka.pro/shops/sankt_peterburg/000007495/",
                "contact:vk": "https://vk.com/multipro",
                "opening_hours": "10:00-22:00"
            },
            {
                "brand": "Sony",
                "brand:wikidata": "Q41187",
                "brand:wikipedia": "en:Sony",
                "email": "sc.pik.spb@sc-store.ru",
                "name": "Sony",
                "name:en": "Sony",
                "opening_hours": "Mo-Su 10:00-22:00",
                "operator": "реСтор",
                "phone": "+7 812 4492460",
                "shop": "electronics",
                "shop_1": "electronics",
                "website": "https://www.sc-store.ru/"
            }
        ]
    },
    "clothes": {
        "count": 42,
        "detail": [
            {
                "contact:vk": "https://vk.com/spasiboshop",
                "name": "Спасибо!",
                "opening_hours": "Mo-Su 11:00-21:00",
                "operator": "ООО «Спасибо!»",
                "second_hand": "yes",
                "shop": "clothes",
                "website": "http://spasiboshop.org/shops/spasibo-na-goroxovoj/",
                "wheelchair": "no"
            },
            {
                "brand": "Tezenis",
                "brand:wikidata": "Q28056374",
                "clothes": "underwear",
                "contact:vk": "https://vk.com/tezenisofficial",
                "level": "0",
                "name": "Tezenis",
                "opening_hours": "10:00-22:00",
                "shop": "clothes",
                "website": "https://ru.tezenis.com/store/ST-PETERSBURG-SADOVAYA-38/8488.uts"
            },
            {
                "alt_name": "Мимо не проходим",
                "name": "Всё по 500 руб.",
                "opening_hours": "Mo-Su 10:00-22:00",
                "shop": "clothes"
            },
            {
                "contact:instagram": "https://www.instagram.com/ambarvintage/",
                "contact:vk": "https://vk.com/ambarstore",
                "name": "Ambar",
                "opening_hours": "11:00-20:00",
                "shop": "clothes",
                "wheelchair": "no"
            },
            {
                "contact:vk": "https://vk.com/gomanispb",
                "name": "ГоМани",
                "opening_hours": "10:00-20:00",
                "shop": "clothes",
                "website": "https://gomani.ru/"
            },
            {
                "contact:vk": "https://vk.com/dresscodewear",
                "name": "Dress Code",
                "opening_hours": "10:00-20:00",
                "shop": "clothes",
                "website": "https://d-o.ru/stores/dress_code_sennaya_ploshchad_diskont_magazin"
            },
            {
                "name": "Марианна",
                "shop": "clothes"
            },
            {
                "clothes": "wedding",
                "name": "Ирина-Люкс",
                "opening_hours": "Mo-Sa 11:00-20:00; Su 11:00-18:00",
                "shop": "clothes",
                "website": "http://irina-lux.ru/"
            },
            {
                "name": "Фабрика",
                "opening_hours": "Mo-Su 10:00-21:00",
                "shop": "clothes",
                "wheelchair": "limited"
            },
            {
                "brand": "Gloria Jeans",
                "brand:wikidata": "Q4139985",
                "brand:wikipedia": "ru:Глория Джинс",
                "contact:vk": "https://vk.com/gloria.jeans",
                "level": "0",
                "name": "Gloria Jeans",
                "opening_hours": "10:00-22:00",
                "operator": "АО «Глория Джинс»",
                "operator:wikidata": "Q4139985",
                "shop": "clothes",
                "website": "https://www.gloria-jeans.ru/",
                "wheelchair": "limited"
            },
            {
                "name": "MilaVitsa",
                "note": "нет на www.milavitsa.com",
                "shop": "clothes",
                "brand": "Milavitsa",
                "clothes": "underwear",
                "brand:wikidata": "Q3575265"
            },
            {
                "shop": "clothes",
                "level": "-1"
            },
            {
                "name": "Маша & Саша",
                "shop": "clothes",
                "level": "-1"
            },
            {
                "shop": "clothes"
            },
            {
                "contact:vk": "https://vk.com/miledi.club",
                "name": "Miledi",
                "opening_hours": "07:00-20:30",
                "shop": "clothes",
                "website": "http://miledi.club/",
                "wheelchair": "no"
            },
            {
                "clothes": "schoolwear",
                "contact:vk": "https://vk.com/shstranaru",
                "name": "Школьная страна",
                "opening_hours": "10:00-19:00",
                "shop": "clothes",
                "website": "https://www.shstrana.ru/",
                "wheelchair": "no"
            },
            {
                "contact:vk": "https://vk.com/mixupshopspb",
                "name": "Mix Up",
                "opening_hours": "Mo-Fr 12:00-20:00; Sa-Su,PH 12:00-19:00",
                "shop": "clothes"
            },
            {
                "clothes": "women",
                "name": "Е.В.А.",
                "opening_hours": "11:00-20:00",
                "shop": "clothes",
                "website": "http://евамода.рф/"
            },
            {
                "shop": "clothes"
            },
            {
                "contact:vk": "https://vk.com/dresscodewear",
                "name": "Dress Code",
                "opening_hours": "10:00-21:00",
                "shop": "clothes",
                "website": "https://d-o.ru/stores/dress_code_sennaya_ploshchad"
            },
            {
                "clothes": "women;underwear;lingerie;fashion",
                "email": "hello@fabstore.ru",
                "level": "-1",
                "name": "Wonderland",
                "opening_hours": "Mo-Su 12:00-21:00",
                "operator": "ООО «Чеширский кот»",
                "payment:cash": "yes",
                "payment:credit_cards": "yes",
                "payment:mastercard": "yes",
                "payment:visa": "yes",
                "phone": "+7 812 4488306",
                "shop": "clothes",
                "website": "https://fabstore.ru/"
            },
            {
                "contact:instagram": "https://www.instagram.com/basiladze_official/",
                "contact:vk": "https://vk.com/fashionbasiladzestore",
                "name": "Basiladze",
                "opening_hours": "Mo-Fr 11:00-22:00; Sa-Su 12:00-20:00",
                "operator": "ИП Басиладзе Г.Н.",
                "shop": "clothes"
            },
            {
                "name": "Всё по 1500 рублей",
                "shop": "clothes",
                "wheelchair": "limited"
            },
            {
                "name": "Milya",
                "shop": "clothes",
                "clothes": "women"
            },
            {
                "name": "Джинса",
                "shop": "clothes"
            },
            {
                "name": "Maxi Star",
                "shop": "clothes",
                "opening_hours": "10:00-20:00"
            },
            {
                "shop": "clothes",
                "clothes": "workwear",
                "website": "http://medimoda.ru/apraksin.php"
            },
            {
                "name": "AM'Werkstatt",
                "shop": "clothes",
                "website": "https://asyamalbershtein.com/",
                "contact:vk": "https://vk.com/amwerkstatt"
            },
            {
                "clothes": "underwear",
                "contact:vk": "https://vk.com/my_dear_petra_spb",
                "name": "Petra",
                "opening_hours": "Mo-Su 12:00-21:00",
                "shop": "clothes"
            },
            {
                "contact:vk": "https://vk.com/vintagency",
                "name": "Vintagency",
                "opening_hours": "Mo-Su 14:00-21:00",
                "shop": "clothes"
            },
            {
                "shop": "clothes",
                "clothes": "men"
            },
            {
                "name": "Салон белья",
                "shop": "clothes",
                "clothes": "underwear"
            },
            {
                "shop": "clothes"
            },
            {
                "name": "Оптово-розничный центр",
                "shop": "clothes",
                "opening_hours": "07:00-18:30"
            },
            {
                "name": "Павловопосадские платки",
                "note": "нет на сайте",
                "shop": "clothes",
                "website": "http://platki.ru/",
                "opening_hours": "10:00-20:00"
            },
            {
                "level": "1",
                "name": "Смешные цены",
                "shop": "clothes"
            },
            {
                "contact:instagram": "https://www.instagram.com/gusar.shop/",
                "level": "0",
                "name": "Gusar",
                "shop": "clothes"
            },
            {
                "clothes": "wedding",
                "contact:vk": "https://vk.com/salonprinces",
                "level": "-1",
                "name": "Принцесса",
                "opening_hours": "Mo-Su 11:00-19:00",
                "shop": "clothes",
                "website": "https://pfiona.ru/"
            },
            {
                "contact:vk": "https://vk.com/dens_shic",
                "level": "0",
                "name": "Дэнс-Шик",
                "shop": "clothes",
                "website": "https://костюмы-танец-живота.рф/"
            },
            {
                "level": "0",
                "name": "ZontShop, TiesShop",
                "shop": "clothes",
                "website": "https://www.zontshop.ru/",
                "website2": "http://www.tiesshop.ru/"
            },
            {
                "clothes": "women",
                "name": "Button",
                "opening_hours": "Mo-Fr 11:00-20:00; Sa-Su 11:00-19:00",
                "shop": "clothes"
            },
            {
                "clothes": "hats",
                "contact:instagram": "https://instagram.com/safi__nur",
                "contact:phone": "+7 967 5648407",
                "contact:vk": "https://vk.com/safi_nur",
                "name": "Safi nur",
                "opening_hours": "Mo-Su 11:00-19:00",
                "operator": "Safi__nur",
                "shop": "clothes"
            }
        ]
    },
    "fire_station": {
        "count": 1,
        "detail": [
            {
                "ref": "37-ПСЧ",
                "name": "Пожарно-спасательная часть № 37",
                "amenity": "fire_station",
                "alt_name": "Пожарная часть № 37 Центрального района",
                "operator": "ПСО ППС СПб по Центральному р-ну",
                "official_name": "37-я пожарно-спасательная часть Пожарно-спасательного отряда противопожарной службы Санкт-Петербурга по Центральному району Санкт-Петербурга",
                "fire_station:type": "spo"
            }
        ]
    },
    "shoes": {
        "count": 14,
        "detail": [
            {
                "clothes": "women;men;sports;denim;fashion",
                "contact:vk": "https://vk.com/club33",
                "email": "hello@fabstore.ru",
                "level": "0",
                "name": "Fab Store",
                "opening_hours": "Mo-Su 12:00-21:00",
                "operator": "ООО «Чеширский кот»",
                "payment:american_express": "yes",
                "payment:cash": "yes",
                "payment:credit_cards": "yes",
                "payment:debit_cards": "yes",
                "payment:maestro": "yes",
                "payment:mastercard": "yes",
                "payment:visa": "yes",
                "phone": "+7 812 4488306",
                "shop": "shoes",
                "start_date": "10.10.2008",
                "website": "https://fabstore.ru/"
            },
            {
                "name": "Galary",
                "opening_hours": "10:00-21:00; PH 10:00-22:00; Jun-Aug 10:00-22:00",
                "operator": "ИП Веселова",
                "phone": "+7 812 3108458",
                "shop": "shoes",
                "website": "https://vk.com/galary95"
            },
            {
                "check_date:opening_hours": "2021-04-11",
                "contact:vk": "https://vk.com/covanishoes",
                "name": "Covani",
                "opening_hours": "Mo-Su 10:00-21:00",
                "operator": "ИП Кисляков Г.А.",
                "shop": "shoes",
                "website": "http://www.covani-shoes.ru/",
                "wheelchair": "no"
            },
            {
                "name": "Opera",
                "shop": "shoes",
                "phone": "+7 981 8771455",
                "website": "https://vk.com/operashoes",
                "description": "Итальянская обувь"
            },
            {
                "contact:vk": "https://vk.com/deutscheschuhe",
                "entrance": "yes",
                "name": "Немецкая обувь",
                "opening_hours": "10:00-21:00",
                "operator": "ООО «Савва»",
                "shop": "shoes",
                "website": "https://www.немецкаяобувь.com/"
            },
            {
                "addr:housenumber": "6",
                "addr:street": "Банковский переулок",
                "contact:vk": "https://vk.com/fabstones",
                "email": "hello@fabstore.ru",
                "level": "0",
                "name": "FAB Stones",
                "opening_hours": "Mo-Su 12:00-21:00",
                "operator": "ООО «Чеширский кот»",
                "payment:cash": "yes",
                "payment:credit_cards": "yes",
                "payment:debit_cards": "yes",
                "phone": "+7 812 4488310",
                "shop": "shoes",
                "website": "https://fabstore.ru/fab-stones"
            },
            {
                "contact:vk": "https://vk.com/club142822864",
                "name": "Дёшево сердито",
                "opening_hours": "10:00-21:00",
                "shop": "shoes"
            },
            {
                "shop": "shoes",
                "level": "-1"
            },
            {
                "contact:vk": "https://vk.com/galary95",
                "name": "Galary",
                "opening_hours": "10:00-21:00",
                "operator": "ИП Веселова",
                "shop": "shoes"
            },
            {
                "name": "Krasotka",
                "shop": "shoes"
            },
            {
                "name": "Кроссовки24.рф",
                "shop": "shoes",
                "website": "http://кроссовки24.рф/",
                "contact:vk": "https://vk.com/krossiki24"
            },
            {
                "brand": "Converse",
                "brand:wikidata": "Q319515",
                "brand:wikipedia": "en:Converse (shoe company)",
                "email": "hello@fabstore.ru",
                "level": "0",
                "name": "Converse",
                "opening_hours": "Mo-Su 12:00-21:00",
                "operator": "ООО \"Синяя Гусеница\"",
                "payment:cash": "yes",
                "payment:credit_cards": "yes",
                "payment:debit_cards": "yes",
                "phone": "+7 812 44883061188",
                "shop": "shoes",
                "website": "https://fabstore.ru/catalog/brand/converse"
            },
            {
                "addr:street": "Банковский переулок",
                "brand": "Dr. Martens",
                "brand:wikidata": "Q1126126",
                "brand:wikipedia": "en:Dr. Martens",
                "email": "hello@fabstore.ru",
                "level": "0",
                "name": "Dr. Martens",
                "opening_hours": "Mo-Su 12:00-21:00",
                "operator": "ООО «Чеширский кот»",
                "payment:cash": "yes",
                "payment:credit_cards": "yes",
                "payment:debit_cards": "yes",
                "phone": "+7 812 4488306",
                "shop": "shoes",
                "website": "https://fabstore.ru/catalog/brand/dr-martens"
            },
            {
                "contact:vk": "https://vk.com/krossiki24",
                "name": "Кроссовки24.рф",
                "note": "на их vk написан всё ещё адрес Гороховая 49",
                "opening_hours": "11:00-20:00",
                "phone": "+7 812 4269303",
                "shop": "shoes"
            }
        ]
    },
    "hairdresser": {
        "count": 9,
        "detail": [
            {
                "contact:vk": "https://vk.com/2dvestolicy",
                "name": "Две столицы",
                "opening_hours": "10:00-21:00",
                "phone": "+7 812 3100404",
                "shop": "hairdresser",
                "website": "https://www.2stolici.com/"
            },
            {
                "alt_name": "Осипов",
                "contact:vk": "https://vk.com/capsula_byosipov",
                "name": "Capsula",
                "shop": "hairdresser",
                "website": "http://denis-osipov.ru/"
            },
            {
                "contact:vk": "https://vk.com/esendi_spb",
                "name": "Esendi",
                "opening_hours": "Mo-Fr 10:00-19:00; Sa-Su 11:00-17:00",
                "shop": "hairdresser",
                "website": "http://esendi.ru/",
                "wheelchair": "no"
            },
            {
                "contact:email": "parkbyosipchuk@gmail.com",
                "contact:facebook": "https://facebook.com/parkbyosipchuk",
                "contact:instagram": "https://instagram.com/parkbyosipchuk",
                "contact:phone": "+7 921 9612900",
                "contact:vk": "https://vk.com/parkbyosipchuk",
                "contact:website": "https://parkbyosipchuk.com/",
                "name": "Park By Osipchuk",
                "opening_hours": "Mo-Sa 10:00-22:00;Su 11:00-22:00",
                "operator": "PARK BY OSIPCHUK",
                "shop": "hairdresser",
                "wheelchair": "no"
            },
            {
                "name": "Blade",
                "shop": "hairdresser",
                "website": "http://www.my-blade.com/",
                "contact:vk": "https://vk.com/bladebarber"
            },
            {
                "addr:postcode": "191023",
                "email": "kvadratbarbarber@gmail.com",
                "internet_access": "wlan",
                "name": "Мастерская “Квадрат»",
                "name:en": "Kvadrat",
                "opening_hours": "Mo-Su 12:00-22:00",
                "phone": "+7 812 9821198",
                "shop": "hairdresser",
                "website": "https://kvadratbarber.ru/"
            },
            {
                "email": "evskup@yandex.ru",
                "internet_access": "wlan",
                "level": "-1",
                "name": "Барбершоп и тату студия Bad Girl",
                "name:en": "Barbershop & tattoo Bad Girl",
                "opening_hours": "Mo-Su 10:00-22:00",
                "phone": "+7 981 9693735",
                "shop": "hairdresser",
                "website": "http://badgirlspb.ru"
            },
            {
                "contact:instagram": "parikmaherskaya32",
                "level": "0",
                "name": "Parikmaherskaya",
                "shop": "hairdresser"
            },
            {
                "name": "Резидент",
                "opening_hours": "10:00-22:00",
                "shop": "hairdresser",
                "website": "http://residentmen.ru/"
            }
        ]
    },
    "bakery": {
        "count": 1,
        "detail": [
            {
                "amenity": "cafe",
                "contact:email": "info@tseh85.ru",
                "contact:instagram": "instagram.com/tseh85",
                "contact:phone": "+7 812 7757785",
                "contact:vk": "https://vk.com/tseh85",
                "contact:website": "http://tseh85.ru/",
                "delivery": "yes",
                "name": "Цех 85",
                "opening_hours": "Mo-Fr 08:00-21:00;Sa-Su 09:00-21:00",
                "operator": "Васин",
                "shop": "bakery"
            }
        ]
    },
    "gift": {
        "count": 3,
        "detail": [
            {
                "name": "Подарок на горошине",
                "opening_hours": "Mo-Sa 11:00-21:00; Su 11:00-20:00",
                "phone": "+7 812 3108506;+7 812 9822650",
                "shop": "gift",
                "website": "https://vk.com/podaroknagoroshine"
            },
            {
                "contact:vk": "https://vk.com/handland_spb",
                "name": "Hand Land",
                "shop": "gift"
            },
            {
                "name": "БронзаМания",
                "shop": "gift",
                "website": "https://bronzamania.ru/",
                "int_name": "BronzaMania",
                "contact:vk": "https://vk.com/bronzamania"
            }
        ]
    },
    "cosmetics": {
        "count": 3,
        "detail": [
            {
                "contact:vk": "https://vk.com/podrygkashop",
                "name": "Подружка",
                "opening_hours": "09:00-21:00",
                "shop": "cosmetics",
                "website": "https://www.podrygka.ru/shoplist/281_sankt_peterburg_na_sadovoy/"
            },
            {
                "name": "Beauty Colors",
                "shop": "cosmetics",
                "contact:vk": "https://vk.com/beauty.colors",
                "opening_hours": "10:00-20:00"
            },
            {
                "contact:vk": "https://vk.com/meitanapraksin10",
                "name": "МейТан",
                "opening_hours": "Mo-Sa 11:00-20:00; Su 11:00-17:00",
                "shop": "cosmetics",
                "website": "https://spb.meitan.ru/"
            }
        ]
    },
    "watches": {
        "count": 1,
        "detail": [
            {
                "contact:vk": "https://vk.com/slavawatch",
                "craft": "watchmaker",
                "email": "shop@slava.su",
                "name": "Русские часы",
                "opening_hours": "Mo-Su 10:00-21:00",
                "phone": "+7 800 5007648 (ext. 303)",
                "shop": "watches",
                "website": "https://slava.su/russkie-chasy-gorohovaya.html"
            }
        ]
    },
    "jewelry": {
        "count": 3,
        "detail": [
            {
                "name": "Серебро",
                "opening_hours": "Mo-Fr 10:00-21:00; Sa-Su 11:00-21:00",
                "shop": "jewelry",
                "website": "http://serebro-juvelir.com/"
            },
            {
                "contact:vk": "https://vk.com/zoloto585gold",
                "name": "585 Gold",
                "opening_hours": "10:00-21:00",
                "shop": "jewelry",
                "website": "https://zoloto585.ru/about/address/sankt-peterburg/64/",
                "wheelchair": "no"
            },
            {
                "contact:vk": "https://vk.com/gorohovaya34",
                "name": "Магия",
                "note": "также (или теперь только) скупка телефонов и т.п.",
                "shop": "jewelry"
            }
        ]
    },
    "mobile_phone": {
        "count": 8,
        "detail": [
            {
                "contact:vk": "https://vk.com/goodcom_pro",
                "name": "Хорошая связь",
                "opening_hours": "10:00-22:00",
                "shop": "mobile_phone",
                "website": "https://goodcom.ru/",
                "wheelchair": "no"
            },
            {
                "brand": "Билайн",
                "brand:en": "Beeline",
                "brand:wikidata": "Q402880",
                "brand:wikipedia": "en:Beeline (brand)",
                "contact:facebook": "https://www.facebook.com/Beelinerus",
                "contact:instagram": "https://www.instagram.com/beelinerus/",
                "contact:ok": "https://ok.ru/beeline",
                "contact:twitter": "https://twitter.com/Beeline_RUS",
                "contact:vk": "https://vk.com/beeline",
                "contact:youtube": "https://www.youtube.com/user/beelineru",
                "name": "Билайн",
                "name:en": "Beeline",
                "opening_hours": "09:00-21:00",
                "shop": "mobile_phone",
                "website": "https://spb.beeline.ru/",
                "wheelchair": "no"
            },
            {
                "brand": "Мегафон",
                "brand:en": "MegaFon",
                "brand:wikidata": "Q1720713",
                "brand:wikipedia": "en:MegaFon",
                "contact:vk": "https://vk.com/megafon",
                "name": "Мегафон",
                "name:en": "MegaFon",
                "opening_hours": "09:00-21:00",
                "operator": "АО «МегаФон Ритейл»",
                "shop": "mobile_phone",
                "website": "https://spb.megafon.ru/"
            },
            {
                "contact:vk": "https://vk.com/abusaxiyuzbru",
                "level": "0",
                "name": "Abu-Saxiy",
                "shop": "mobile_phone"
            },
            {
                "contact:vk": "https://vk.com/dontelefon",
                "name": "Дон Телефон",
                "shop": "mobile_phone",
                "website": "https://don-telefon.ru/outpost/sadovaja40"
            },
            {
                "brand": "Tele2",
                "brand:wikidata": "Q309865",
                "brand:wikipedia": "en:Tele2",
                "contact:vk": "https://vk.com/tele2",
                "name": "Tele2",
                "opening_hours": "08:00-21:00",
                "operator": "ООО «ФЕС»",
                "shop": "mobile_phone",
                "website": "https://spb.tele2.ru/"
            },
            {
                "level": "0",
                "shop": "mobile_phone"
            },
            {
                "contact:vk": "https://vk.com/mobilebutikspb",
                "level": "0",
                "name": "Mobile Butik",
                "shop": "mobile_phone",
                "website": "https://mobile-butik.ru/"
            }
        ]
    },
    "tobacco": {
        "count": 3,
        "detail": [
            {
                "alt_name": "Табак Сити",
                "contact:email": "Clin-2014-usatyuk2014@yandex.ru",
                "contact:phone": "+7 909 5794847;+7 911 2833245",
                "contact:website": "http://tabaksity.ru/",
                "name": "Табак Sity",
                "opening_hours": "08:00-22:00",
                "operator": "Табак Sity",
                "shop": "tobacco",
                "wheelchair": "no"
            },
            {
                "contact:vk": "https://vk.com/hookahmarket",
                "name": "Hookah Market",
                "opening_hours": "11:00-23:00",
                "shop": "tobacco",
                "website": "https://hookah.market/"
            },
            {
                "shop": "tobacco"
            }
        ]
    },
    "post_box": {
        "count": 5,
        "detail": [
            {
                "ref": "10",
                "amenity": "post_box",
                "operator": "Почта России",
                "design:year": "2010",
                "drive_through": "no",
                "post_box:type": "wall",
                "post_box:design": "ЯПНМ-II-С",
                "collection_times": "Mo-Fr 06:30,17:40; Sa 08:45; Su 17:40"
            },
            {
                "ref": "9",
                "amenity": "post_box",
                "operator": "Почта России",
                "design:year": "2010",
                "drive_through": "no",
                "post_box:type": "wall",
                "post_box:design": "ЯПНМ-II-С",
                "collection_times": "Mo-Fr 06:25,17:35; Sa 08:40; Su 17:35"
            },
            {
                "ref": "331",
                "indoor": "yes",
                "amenity": "post_box",
                "operator": "Почта России",
                "drive_through": "no",
                "opening_hours": "Mo-Fr 08:00-20:00; Sa 10:00-16:00; Su off",
                "post_box:type": "slot",
                "collection_times": "Mo-Fr 09:25; Sa 09:00"
            },
            {
                "ref": "242",
                "indoor": "yes",
                "amenity": "post_box",
                "operator": "Почта России",
                "drive_through": "no",
                "opening_hours": "Mo-Fr 08:00-20:00; Sa 09:00-13:00,14:00-18:00; Su off",
                "post_box:type": "pillar",
                "collection_times": "Mo-Sa 07:40"
            },
            {
                "ref": "19",
                "amenity": "post_box",
                "operator": "Почта России",
                "design:year": "2010",
                "drive_through": "no",
                "post_box:type": "wall",
                "post_box:design": "ЯПНМ-II-С",
                "collection_times": "Mo-Fr 06:20,17:30; Sa 08:35; Su 17:30"
            }
        ]
    },
    "books": {
        "count": 3,
        "detail": [
            {
                "name": "Книжная лавка",
                "opening_hours": "Mo-Fr 10:00-14:00, 15:00-19:00",
                "second_hand": "only",
                "shop": "books"
            },
            {
                "name": "РаскольниковЪ",
                "shop": "books",
                "contact:vk": "https://vk.com/r_raskolnikoff"
            },
            {
                "brand": "Express Publishing",
                "brand:wikidata": "Q25245289",
                "contact:vk": "https://vk.com/expresspublishing",
                "name": "Express Publishing",
                "opening_hours": "Mo-Fr 10:00-18:00; Sa 11:00-17:00",
                "operator": "ООО «Экспресс»",
                "shop": "books",
                "website": "https://expresspublishingspb.ru/"
            }
        ]
    },
    "doctors": {
        "count": 4,
        "detail": [
            {
                "amenity": "doctors",
                "contact:vk": "https://vk.com/krasotamed",
                "healthcare": "doctor",
                "level": "1",
                "name": "Бионика",
                "opening_hours": "10:00-21:00",
                "website": "https://www.krasotamed.ru/"
            },
            {
                "amenity": "doctors",
                "contact:vk": "https://vk.com/helix_lab",
                "health_facility:type": "laboratory",
                "healthcare": "doctor",
                "name": "Helix",
                "opening_hours": "Mo-Fr 07:00-21:00; Sa-Su 08:00-19:00",
                "website": "https://helix.ru/center/31443"
            },
            {
                "amenity": "doctors",
                "contact:vk": "https://vk.com/psycentre.nevsky",
                "healthcare": "doctor",
                "name": "Психологический центр",
                "website": "http://psycholog-spb.ru/"
            },
            {
                "amenity": "doctors",
                "description": "ДЦ Апраксин Лабораторной службы Хеликс",
                "healthcare": "doctor",
                "health_facility:type": "clinic",
                "health_person:type": "physician;therapist;physician_assitant",
                "medical_system": "western",
                "name": "Хеликс",
                "name:en": "Helix",
                "opening_hours": "Mo-Fr 7:30-19:00;Sa 9:00-16:00;Su 9:00-16:00",
                "operator": "Хеликс",
                "phone": "+78123091221;+7 800 7000303",
                "website": "https://helix.ru/center/25269"
            }
        ]
    },
    "nutrition_supplements": {
        "count": 1,
        "detail": [
            {
                "contact:vk": "https://vk.com/sport_pit_sale",
                "level": "0",
                "name": "SportpitSale.ru",
                "opening_hours": "Mo-Fr 10:00-20:00; Sa 10:00-18:00",
                "shop": "nutrition_supplements",
                "website": "https://sportpitsale.ru/"
            }
        ]
    },
    "antiques": {
        "count": 2,
        "detail": [
            {
                "name": "Русские традиции",
                "opening_hours": "10:00-20:00",
                "shop": "antiques",
                "website": "https://www.antiqspb.ru/",
                "wheelchair": "no"
            },
            {
                "name": "Камилла",
                "shop": "antiques"
            }
        ]
    },
    "optician": {
        "count": 2,
        "detail": [
            {
                "contact:facebook": "optisse",
                "contact:instagram": "noptica.ru",
                "contact:ok": "https://ok.ru/group/53535531008092",
                "contact:vk": "optisse",
                "entrance": "yes",
                "name": "Невская оптика",
                "opening_hours": "11:00-20:00",
                "phone": "+7 812 5882457",
                "shop": "optician",
                "website": "https://noptica.ru/saloni/nevskaya_optika_2/"
            },
            {
                "name": "Эксимер Оптикс",
                "opening_hours": "Mo-Sa 09:00-21:00; Su 10:00-19:00",
                "shop": "optician",
                "website": "http://excimeroptics.ru/spb.html",
                "wheelchair": "no"
            }
        ]
    },
    "toilets": {
        "count": 1,
        "detail": [
            {
                "amenity": "toilets"
            }
        ]
    },
    "confectionery": {
        "count": 2,
        "detail": [
            {
                "check_date:opening_hours": "2021-04-11",
                "name": "Кондитерский",
                "opening_hours": "Mo-Fr 09:00-21:00; Sa-Su 10:00-20:00",
                "operator": "ООО «Неженка»",
                "shop": "confectionery",
                "wheelchair": "yes"
            },
            {
                "name": "Мармеладная бочка",
                "shop": "confectionery",
                "wheelchair": "no"
            }
        ]
    },
    "health_food": {
        "count": 1,
        "detail": [
            {
                "contact:vk": "https://vk.com/eco_bio_market",
                "name": "Компас здоровья",
                "opening_hours": "09:00-22:00",
                "operator": "ИП Кузьмин Сергей Борисович",
                "shop": "health_food",
                "website": "http://www.smkfarm.ru/contacts/stores/rossiya/sank-peterburg/2942/",
                "wheelchair": "no"
            }
        ]
    },
    "school": {
        "count": 1,
        "detail": [
            {
                "amenity": "school",
                "contact:email": "info@sterh-school.ru",
                "contact:phone": "+7 812 3103827;+7 812 3102224",
                "contact:vk": "https://vk.com/sterh_school",
                "contact:website": "http://sterh-school.ru",
                "name": "Гимназия Стерх",
                "official_name": "Частное общеобразовательное учреждение «ГИМНАЗИЯ СТЕРХ»"
            }
        ]
    },
    "medical_supply": {
        "count": 2,
        "detail": [
            {
                "contact:vk": "https://vk.com/dealmed_spb",
                "name": "ДеалМед",
                "opening_hours": "Mo-Fr 09:00-18:00",
                "shop": "medical_supply",
                "website": "http://www.dealmed.ru/"
            },
            {
                "name": "Coream",
                "shop": "medical_supply",
                "website": "http://coream.ru/",
                "opening_hours": "Mo-Fr 08:00-18:00; Sa 08:00-14:00"
            }
        ]
    },
    "social_facility": {
        "count": 1,
        "detail": [
            {
                "amenity": "social_facility",
                "name": "Центр социальной помощи семье и детям Центрального района",
                "opening_hours": "Mo-Th 09:00-18:00; Fr 09:00-17:00",
                "website": "http://www.cspsd-cr-spb.ru/"
            }
        ]
    },
    "sewing": {
        "count": 1,
        "detail": [
            {
                "contact:vk": "https://vk.com/sew_world",
                "name": "Мир шитья",
                "shop": "sewing",
                "website": "https://www.sew-world.ru/magazines/?magazines=7"
            }
        ]
    },
    "music_school": {
        "count": 1,
        "detail": [
            {
                "amenity": "music_school",
                "contact:email": "gdmsh@yandex.ru",
                "contact:phone": "+7 812 3100462",
                "contact:website": "http://www.gdmsh.ru",
                "name": "Детская музыкальная школа имени С. С. Ляховицкой",
                "official_name": "Санкт-Петербургское государственное бюджетное учреждение дополнительного образования «Санкт-Петербургская городская детская музыкальная школа им. С. С. Ляховицкой»"
            }
        ]
    },
    "window_blind": {
        "count": 1,
        "detail": [
            {
                "name": "Уют",
                "shop": "window_blind",
                "website": "https://www.ujut.com/roznichnym-klientam/sankt-peterburg/?ELEMENT_ID=68",
                "contact:vk": "https://vk.com/zaoujut",
                "opening_hours": "Mo-Sa 11:00-20:00; Su 10:00-18:00"
            }
        ]
    },
    "florist": {
        "count": 3,
        "detail": [
            {
                "name": "Ile de fleurs",
                "shop": "florist",
                "website": "http://iledefleurs.ru/",
                "contact:vk": "https://vk.com/iledefleurs"
            },
            {
                "name": "Suzani",
                "shop": "florist",
                "contact:vk": "https://vk.com/suzani_studio",
                "opening_hours": "Mo-Sa 10:00-22:00; Su 12:00-22:00"
            },
            {
                "name": "Искусственные цветы",
                "shop": "florist"
            }
        ]
    },
    "paint": {
        "count": 1,
        "detail": [
            {
                "name": "Финнколор",
                "shop": "paint",
                "brand": "Tikkurila",
                "website": "http://krassok.ru/",
                "opening_hours": "Mo-Fr 10:00-19:00; Sa 10:00-18:00"
            }
        ]
    },
    "copyshop": {
        "count": 2,
        "detail": [
            {
                "contact:vk": "https://vk.com/printellect5707590",
                "name": "Printellect",
                "opening_hours": "Mo-Fr 10:00-19:00",
                "shop": "copyshop",
                "website": "http://www.printellect.ru/"
            },
            {
                "addr:city": "Санкт-Петербург",
                "addr:housenumber": "40",
                "addr:street": "Садовая улица",
                "contact:facebook": "https://www.facebook.com/groups/352211931620610",
                "contact:instagram": "https://www.instagram.com/oqprint/",
                "contact:vk": "https://vk.com/copyspbru",
                "name": "OQ — полиграфия",
                "opening_hours": "Mo-Su 09:00-21:00",
                "phone": "+7 812 7027070",
                "shop": "copyshop",
                "website": "http://copy.spb.ru/"
            }
        ]
    },
    "stationery": {
        "count": 1,
        "detail": [
            {
                "name": "Зодиак",
                "note": "возможно закрыт",
                "opening_hours": "Mo-Fr 10:00-19:00",
                "operator": "ООО \"Каданс\"",
                "shop": "stationery"
            }
        ]
    },
    "sports": {
        "count": 5,
        "detail": [
            {
                "name": "Fight-Evolution.ru",
                "shop": "sports",
                "website": "https://fight-evolution.ru/",
                "contact:vk": "https://vk.com/club40943001",
                "opening_hours": "Mo-Fr 11:00-20:00; Sa-Su 11:00-19:00"
            },
            {
                "contact:vk": "https://vk.com/amigostar",
                "name": "Амиго Стар",
                "opening_hours": "10:00-20:00",
                "shop": "sports",
                "website": "https://amigostar.ru/"
            },
            {
                "contact:vk": "https://vk.com/club8726917",
                "name": "Yogastuff",
                "opening_hours": "Mo-Su 10:30-20:30",
                "shop": "sports",
                "sport": "yoga",
                "website": "https://yogastuff.ru/"
            },
            {
                "name": "VeloShock",
                "shop": "sports",
                "opening_hours": "Mo-Su 10:00-19:00"
            },
            {
                "name": "Skvot",
                "shop": "sports",
                "phone": "+7 900 6572770",
                "sport": "skateboard",
                "addr:city": "Санкт-Петербург",
                "addr:street": "Садовая улица",
                "addr:postcode": "191023",
                "addr:housenumber": "28/30"
            }
        ]
    },
    "fabric": {
        "count": 3,
        "detail": [
            {
                "level": "0",
                "shop": "fabric"
            },
            {
                "shop": "fabric"
            },
            {
                "name": "Ткани",
                "shop": "fabric",
                "opening_hours": "10:00-19:00"
            }
        ]
    },
    "variety_store": {
        "count": 3,
        "detail": [
            {
                "name": "Всё от 39 рублей",
                "shop": "variety_store",
                "level": "0"
            },
            {
                "shop": "variety_store"
            },
            {
                "level": "0",
                "shop": "variety_store"
            }
        ]
    },
    "tea": {
        "count": 3,
        "detail": [
            {
                "name": "Чай-Кофе",
                "shop": "tea",
                "website": "http://www.tea-coffee.spb.ru/",
                "opening_hours": "Mo-Fr 09:00-20:00; Sa-Su 10:00-20:00"
            },
            {
                "name": "Teartroom",
                "shop": "tea",
                "contact:vk": "https://vk.com/teartroom_spb",
                "opening_hours": "11:00-21:00"
            },
            {
                "contact:vk": "https://vk.com/moychayspb",
                "name": "Мойчай.ру",
                "opening_hours": "11:00-23:00",
                "shop": "tea",
                "website": "https://spb.moychay.ru/",
                "wheelchair": "no"
            }
        ]
    },
    "motorcycle": {
        "count": 1,
        "detail": [
            {
                "name": "Русский мотор",
                "shop": "motorcycle",
                "website": "http://русскиймотор.рус/",
                "contact:vk": "https://vk.com/russkiymotor",
                "opening_hours": "09:30-18:00"
            }
        ]
    },
    "houseware": {
        "count": 3,
        "detail": [
            {
                "contact:vk": "https://vk.com/public109490849",
                "name": "Посудочка",
                "shop": "houseware",
                "website": "http://посудочка-спб.рф/"
            },
            {
                "shop": "houseware"
            },
            {
                "shop": "houseware",
                "building": "yes"
            }
        ]
    },
    "post_office": {
        "count": 2,
        "detail": [
            {
                "amenity": "post_office",
                "brand": "СДЭК",
                "brand:wikidata": "Q28665980",
                "brand:wikipedia": "ru:СДЭК",
                "contact:vk": "https://vk.com/cdek_express",
                "name": "СДЭК",
                "opening_hours": "Mo-Fr 10:00-20:00; Sa 10:00-16:00; Su 10:00-14:00",
                "website": "https://www.cdek.ru/contacts/sankt-peterburgul_apraksin_pereulok_5_af8n.html",
                "wheelchair": "no"
            },
            {
                "amenity": "post_office",
                "brand": "СДЭК",
                "brand:wikidata": "Q28665980",
                "brand:wikipedia": "ru:СДЭК",
                "contact:facebook": "edostavka",
                "contact:instagram": "cdek_official",
                "contact:vk": "cdek_express",
                "email": "smelkov.s@cdek.ru",
                "name": "СДЭК",
                "name:en": "CDEK",
                "name:ru": "СДЭК",
                "opening_hours": "Mo-Fr 10:00-20:00; Sa-Su 10:00-18:00",
                "operator": "Смелков Сергей Викторович",
                "phone": "+7 921 9955090",
                "ref": "SPB110",
                "website": "https://cdek.ru/"
            }
        ]
    },
    "fishing": {
        "count": 3,
        "detail": [
            {
                "name": "Всё для удачной рыбалки",
                "shop": "fishing"
            },
            {
                "name": "Рыбалка",
                "shop": "fishing"
            },
            {
                "shop": "fishing",
                "building": "yes"
            }
        ]
    },
    "outdoor": {
        "count": 2,
        "detail": [
            {
                "name": "Поиск кладов",
                "shop": "outdoor",
                "website": "http://wunderwald.ru/"
            },
            {
                "contact:vk": "https://vk.com/foresthome",
                "name": "Forest-Home",
                "shop": "outdoor",
                "website": "https://forest-home.ru/",
                "wheelchair": "no"
            }
        ]
    },
    "alcohol": {
        "count": 3,
        "detail": [
            {
                "name": "Винная лавка",
                "shop": "alcohol",
                "website": "http://www.winelavka.ru/shops/gorokhovaya",
                "operator": "ООО «Диско»",
                "opening_hours": "11:00-22:00"
            },
            {
                "brand": "Красное & Белое",
                "brand:en": "Red & White",
                "brand:wikidata": "Q24933790",
                "brand:wikipedia": "en:Krasnoe & Beloe",
                "contact:vk": "https://vk.com/krasnoebeloe",
                "name": "Красное & Белое",
                "name:en": "Red & White",
                "opening_hours": "09:00-22:05",
                "operator": "ООО «Альфа-М»",
                "shop": "alcohol",
                "website": "https://krasnoeibeloe.ru/",
                "wheelchair": "no"
            },
            {
                "amenity": "pub",
                "contact:vk": "https://vk.com/krebspub",
                "name": "Krebspub",
                "opening_hours": "13:00-24:00",
                "shop": "alcohol",
                "website": "http://krebspub.ru/",
                "wheelchair": "no"
            }
        ]
    },
    "bed": {
        "count": 2,
        "detail": [
            {
                "name": "Home Line",
                "shop": "bed",
                "craft": "tailor",
                "operator": "ИП Плакатнова О.В.",
                "opening_hours": "Mo-Sa 11:00-20:00; Su 11:00-19:00"
            },
            {
                "name": "Диана",
                "shop": "bed",
                "addr:floor": "2"
            }
        ]
    },
    "collector": {
        "count": 1,
        "detail": [
            {
                "shop": "collector"
            }
        ]
    },
    "spices": {
        "count": 1,
        "detail": [
            {
                "name": "Ади",
                "shop": "spices",
                "website": "http://adipro.ru/",
                "contact:vk": "https://vk.com/adi.magazin",
                "opening_hours": "11:00-21:00"
            }
        ]
    },
    "chemist": {
        "count": 1,
        "detail": [
            {
                "contact:vk": "https://vk.com/ulybka_radugi",
                "name": "Улыбка радуги",
                "opening_hours": "Mo-Su 09:00-22:00",
                "operator": "ООО «Петроградское»",
                "shop": "chemist",
                "website": "https://www.r-ulybka.ru/"
            }
        ]
    },
    "pastry": {
        "count": 1,
        "detail": [
            {
                "amenity": "cafe",
                "brand": "Север",
                "brand:wikidata": "Q4411982",
                "contact:vk": "https://vk.com/sever.metropol.official",
                "name": "Север-Метрополь",
                "opening_hours": "08:00-22:00",
                "operator": "ООО «Софит»",
                "shop": "pastry",
                "website": "https://sever-metropol.ru/wheretobuy/spb/kafe-konditerskie/sadovaya-d-29/"
            }
        ]
    },
    "general": {
        "count": 1,
        "detail": [
            {
                "name": "Петроторг",
                "opening_hours": "Mo-Fr 10:00-20:00; Sa-Su 11:00-19:00",
                "shop": "general",
                "website": "http://www.петроторг-атк.рф/"
            }
        ]
    },
    "travel_agency": {
        "count": 6,
        "detail": [
            {
                "contact:vk": "https://vk.com/travel812",
                "name": "Союз",
                "shop": "travel_agency"
            },
            {
                "contact:vk": "https://vk.com/club3828949",
                "name": "Арт-Тревел",
                "shop": "travel_agency",
                "website": "http://www.art-travel.ru/"
            },
            {
                "name": "Весна",
                "shop": "travel_agency",
                "contact:vk": "https://vk.com/club62875110",
                "opening_hours": "Mo-Fr 10:00-20:00; Sa-Su 11:00-19:00"
            },
            {
                "name": "Vista",
                "shop": "travel_agency",
                "website": "http://spb.vista-tour.ru/"
            },
            {
                "name": "Ambotis",
                "shop": "travel_agency",
                "website": "https://ambotis.ru/",
                "contact:vk": "https://vk.com/ambotistours"
            },
            {
                "name": "Мир вокруг",
                "shop": "travel_agency",
                "phone": "+7 812 6037711",
                "website": "https://putevki-tur.ru",
                "contact:vk": "https://vk.com/putevki_tur",
                "opening_hours": "Mo-Fr 11:00-20:00; Sa 12:00-18:00"
            }
        ]
    },
    "hairdresser_supply": {
        "count": 1,
        "detail": [
            {
                "contact:vk": "https://vk.com/hameleonmarket",
                "name": "HameleoNail",
                "opening_hours": "10:00-21:00",
                "operator": "ИП Михаиленко Е.С.",
                "shop": "hairdresser_supply",
                "website": "https://www.hameleon-market.ru/"
            }
        ]
    },
    "electrical": {
        "count": 1,
        "detail": [
            {
                "name": "СамРем",
                "shop": "electrical",
                "email": "samremspb@yandex.ru",
                "phone": "+7 812 9006162",
                "website": "http://samrem.ru/",
                "description": "запчасти для бытовой техники",
                "opening_hours": "Mo-Sa 10:00-21:00"
            }
        ]
    },
    "toys": {
        "count": 1,
        "detail": [
            {
                "name": "Idol",
                "shop": "toys",
                "website": "http://idol-store.ru/",
                "contact:vk": "https://vk.com/idol_spb"
            }
        ]
    },
    "training": {
        "count": 1,
        "detail": [
            {
                "amenity": "training",
                "contact:vk": "https://vk.com/spb.artphotoschool",
                "name": "Школа Академической Фотографии",
                "website": "https://spb.artphotoschool.ru/"
            }
        ]
    },
    "photo": {
        "count": 2,
        "detail": [
            {
                "name": "ФотоАптека",
                "shop": "photo",
                "website": "https://d-76.ru/"
            },
            {
                "name": "LiteFoto",
                "shop": "photo",
                "website": "https://litefoto.net/",
                "contact:vk": "https://vk.com/litefoto",
                "opening_hours": "12:00-21:00"
            }
        ]
    },
    "pyrotechnics": {
        "count": 3,
        "detail": [
            {
                "name": "Большой праздник",
                "shop": "pyrotechnics",
                "website": "http://www.bolshoy.ru/",
                "alt_name": "Планета фейерверков",
                "website2": "http://www.planetaf.ru/",
                "contact:vk": "https://vk.com/bolshoyru",
                "opening_hours": "10:00-21:00"
            },
            {
                "contact:email": "shop@planetaf.ru",
                "contact:phone": "+7 812 7033838",
                "contact:vk": "https://vk.com/planetafeyerverkov",
                "contact:website": "https://planetaf.ru/",
                "name": "Планета Фейерверков",
                "opening_hours": "Mo-Su 10:00-22:00",
                "operator": "ИП Шаров А.М.",
                "shop": "pyrotechnics"
            },
            {
                "contact:email": "lbv@bk.ru",
                "contact:phone": "+7 900 6399006;+7 911 0075088;+7 960 2760793;+7 963 3202338",
                "contact:website": "https://bigfest.shop/",
                "contact:youtube": "https://www.youtube.com/channel/UCyhVm1TIOpisZxBiaGXfsOw",
                "name": "Большой Фестиваль",
                "opening_hours": "Mo-Su 09:00-17:00",
                "operator": "Большой Фестиваль",
                "shop": "pyrotechnics"
            }
        ]
    },
    "beauty": {
        "count": 12,
        "detail": [
            {
                "name": "Lookluxe",
                "shop": "beauty",
                "website": "http://gkhair-salon.ru/",
                "contact:vk": "https://vk.com/salon_gkhair"
            },
            {
                "contact:vk": "https://vk.com/beautyroom_47",
                "name": "Beauty Room 47",
                "opening_hours": "Mo-Su 11:00-22:00",
                "shop": "beauty",
                "website": "https://room47.ru/"
            },
            {
                "name": "Feliz Studio",
                "shop": "beauty",
                "addr:floor": "4",
                "contact:vk": "https://vk.com/feliz_lashes"
            },
            {
                "name": "Eyes-n-Lips",
                "shop": "beauty",
                "website": "http://eyes-n-lips.ru/",
                "contact:vk": "https://vk.com/eyesnlips"
            },
            {
                "name": "Нико",
                "shop": "beauty"
            },
            {
                "contact:vk": "https://vk.com/bodywaxerspb",
                "name": "BodyWaxer",
                "shop": "beauty",
                "website": "https://bodywaxer.ru/"
            },
            {
                "level": "0",
                "name": "Коктейль",
                "opening_hours": "10:00-21:00",
                "shop": "beauty",
                "website": "http://www.salon-cocktail.ru/"
            },
            {
                "contact:instagram": "https://www.instagram.com/rakitina_krasit/",
                "name": "Raketa",
                "shop": "beauty"
            },
            {
                "addr:city": "Санкт-Петербург",
                "addr:housenumber": "11",
                "addr:postcode": "191023",
                "addr:street": "Апраксин переулок",
                "beauty": "cosmetic_studio",
                "brand": "Pilimpa",
                "level": "0",
                "name": "Pilimpa",
                "opening_hours": "Mo-Su 10:00-22:00",
                "operator": "Pilimpa",
                "payment:cards": "yes",
                "payment:cash": "yes",
                "phone": "+7 999 5239158",
                "shop": "beauty",
                "website": "https://www.instagram.com/pilimpa/"
            },
            {
                "contact:vk": "https://vk.com/novolaser_spb",
                "name": "NovoLaser",
                "opening_hours": "10:00-22:00",
                "shop": "beauty",
                "website": "https://novolazer.ru/spb"
            },
            {
                "contact:vk": "https://vk.com/2cub_permanent",
                "name": "2cub",
                "shop": "beauty",
                "website": "http://2cub.ru/"
            },
            {
                "contact:instagram": "https://www.instagram.com/oh_my_nails_spb_/",
                "name": "Oh My Nails",
                "opening_hours": "Mo-Su 10:00-22:00",
                "shop": "beauty"
            }
        ]
    },
    "money_lender": {
        "count": 1,
        "detail": [
            {
                "name": "Центр Займов",
                "shop": "money_lender",
                "website": "https://centrzaimov.ru/kontakty/spb/sadovaya/",
                "contact:vk": "https://vk.com/centrzaimov"
            }
        ]
    },
    "fitness_centre": {
        "count": 2,
        "detail": [
            {
                "contact:vk": "https://vk.com/backyardspb",
                "leisure": "fitness_centre",
                "name": "Backyard",
                "opening_hours": "Mo-Su 10:00-22:00",
                "sport": "boxing;workout;yoga",
                "website": "https://backyardboxing.ru/"
            },
            {
                "name": "Аштанга Йога Центр",
                "sport": "yoga",
                "leisure": "fitness_centre",
                "website": "https://yoga108.ru/",
                "contact:vk": "https://vk.com/ashtanga_yoga_center"
            }
        ]
    },
    "bookmaker": {
        "count": 1,
        "detail": [
            {
                "name": "1x",
                "shop": "bookmaker",
                "website": "https://1xstavka.ru/"
            }
        ]
    },
    "hookah_lounge": {
        "count": 2,
        "detail": [
            {
                "amenity": "hookah_lounge",
                "contact:instagram": "https://www.instagram.com/shanti.project_sennaya/",
                "name": "Shanti",
                "opening_hours": "Su-Th 12:00-02:00; Fr-Sa 12:00-04:00",
                "operator": "ООО «Аллон»",
                "website": "https://shantilounge.ru/"
            },
            {
                "amenity": "hookah_lounge",
                "contact:vk": "https://vk.com/ilovepled",
                "level": "-1",
                "name": "Pled",
                "website": "http://pled-cafe.ru/"
            }
        ]
    },
    "parking": {
        "count": 1,
        "detail": [
            {
                "amenity": "parking"
            }
        ]
    },
    "language_school": {
        "count": 1,
        "detail": [
            {
                "name": "Альянс",
                "amenity": "language_school",
                "website": "http://www.alliance-kurs.ru/",
                "contact:vk": "https://vk.com/alliancekurs"
            }
        ]
    },
    "curtain": {
        "count": 3,
        "detail": [
            {
                "shop": "curtain"
            },
            {
                "name": "Комфорт",
                "shop": "curtain"
            },
            {
                "name": "Одежда для окон",
                "shop": "curtain"
            }
        ]
    },
    "bicycle_parking": {
        "count": 1,
        "detail": [
            {
                "amenity": "bicycle_parking",
                "bicycle_parking": "stands",
                "covered": "no",
                "note": "нужно подняться по ступенькам"
            }
        ]
    },
    "waste_disposal": {
        "count": 13,
        "detail": [
            {
                "amenity": "waste_disposal"
            },
            {
                "amenity": "waste_disposal"
            },
            {
                "amenity": "waste_disposal"
            },
            {
                "amenity": "waste_disposal"
            },
            {
                "amenity": "waste_disposal"
            },
            {
                "amenity": "waste_disposal"
            },
            {
                "amenity": "waste_disposal"
            },
            {
                "amenity": "waste_disposal"
            },
            {
                "amenity": "waste_disposal"
            },
            {
                "amenity": "waste_disposal"
            },
            {
                "amenity": "waste_disposal",
                "waste": "mixed"
            },
            {
                "amenity": "waste_disposal"
            },
            {
                "amenity": "waste_disposal"
            }
        ]
    },
    "bench": {
        "count": 15,
        "detail": [
            {
                "amenity": "bench",
                "backrest": "yes"
            },
            {
                "amenity": "bench",
                "backrest": "yes"
            },
            {
                "amenity": "bench",
                "backrest": "yes"
            },
            {
                "amenity": "bench",
                "backrest": "yes"
            },
            {
                "amenity": "bench",
                "backrest": "yes"
            },
            {
                "amenity": "bench",
                "backrest": "yes"
            },
            {
                "amenity": "bench",
                "backrest": "yes"
            },
            {
                "amenity": "bench",
                "backrest": "yes"
            },
            {
                "amenity": "bench",
                "backrest": "yes"
            },
            {
                "amenity": "bench"
            },
            {
                "amenity": "bench"
            },
            {
                "amenity": "bench"
            },
            {
                "amenity": "bench"
            },
            {
                "amenity": "bench"
            },
            {
                "amenity": "bench"
            }
        ]
    },
    "waste_basket": {
        "count": 7,
        "detail": [
            {
                "amenity": "waste_basket"
            },
            {
                "amenity": "waste_basket"
            },
            {
                "amenity": "waste_basket"
            },
            {
                "amenity": "waste_basket"
            },
            {
                "amenity": "waste_basket"
            },
            {
                "amenity": "waste_basket"
            },
            {
                "amenity": "waste_basket"
            }
        ]
    },
    "tattoo": {
        "count": 1,
        "detail": [
            {
                "name": "Tattoo Station",
                "opening_hours": "Mo-Su 11:00-19:00",
                "shop": "tattoo",
                "website": "http://tattoostation.ru/"
            }
        ]
    },
    "laundry": {
        "count": 1,
        "detail": [
            {
                "contact:vk": "https://vk.com/prachkacom",
                "level": "0",
                "name": "Prachka.com",
                "opening_hours": "10:00-22:00",
                "shop": "laundry",
                "website": "https://prachka.com/addresses/ul-sadovaya-d-32/"
            }
        ]
    },
    "dentist": {
        "count": 2,
        "detail": [
            {
                "amenity": "dentist",
                "contact:vk": "https://vk.com/dentis_center",
                "healthcare": "dentist",
                "name": "Дентис",
                "opening_hours": "10:00-21:00"
            },
            {
                "amenity": "dentist",
                "contact:vk": "https://vk.com/clinikazybov",
                "healthcare": "dentist",
                "name": "ЗубовЪ",
                "website": "https://zybov.ru/"
            }
        ]
    },
    "coffee": {
        "count": 1,
        "detail": [
            {
                "contact:vk": "https://vk.com/kofcheg",
                "level": "0",
                "name": "Kofcheg.ru",
                "shop": "coffee",
                "website": "https://kofcheg.ru/"
            }
        ]
    },
    "music": {
        "count": 1,
        "detail": [
            {
                "level": "0",
                "shop": "music"
            }
        ]
    },
    "dry_cleaning": {
        "count": 2,
        "detail": [
            {
                "name:en": "Prachka.com",
                "shop": "dry_cleaning"
            },
            {
                "addr:city": "Санкт-Петербург",
                "addr:housenumber": "29",
                "addr:postcode": "191023",
                "addr:street": "Садовая улица",
                "name": "ГарантЪ",
                "opening_hours": "Mo-Su 09:00-20:00",
                "phone": "+7(812) 409-51-75",
                "shop": "dry_cleaning",
                "website": "http://www.himchistka-garant.ru"
            }
        ]
    },
    "dance": {
        "count": 1,
        "detail": [
            {
                "contact:vk": "https://vk.com/fonballet",
                "dance:teaching": "yes",
                "leisure": "dance",
                "name": "Балет на Фонтанке 85",
                "website": "https://fonballet.business.site/"
            }
        ]
    },
    "games": {
        "count": 1,
        "detail": [
            {
                "contact:email": "colizeum.pik@ya.ru",
                "contact:facebook": "https://facebook.com/colizeumpik",
                "contact:instagram": "https://instagram.com/colizeum_pik",
                "contact:phone": "+7 812 9292210",
                "contact:vk": "https://vk.com/colizeum_pik",
                "contact:website": "https://colizeumarena.com/",
                "name": "Colizeum",
                "opening_hours": "24/7",
                "operator": "COLIZEUM",
                "shop": "games"
            }
        ]
    },
    "leather": {
        "count": 1,
        "detail": [
            {
                "name": "Мир кожи",
                "shop": "leather"
            }
        ]
    },
    "sports_centre": {
        "count": 2,
        "detail": [
            {
                "addr:city": "Санкт-Петербург",
                "addr:housenumber": "13",
                "addr:street": "Апраксин переулок",
                "contact:vk": "https://vk.com/fcspbclub",
                "leisure": "sports_centre",
                "name": "Футбольная школа Санкт-Петербург в Центральном районе",
                "opening_hours": "Mo-Su 09:00-21:00",
                "phone": "+78129325262",
                "website": "http://fc-spb.club"
            },
            {
                "addr:city": "Санкт-Петербург",
                "addr:housenumber": "13",
                "addr:street": "Апраксин переулок",
                "building": "yes",
                "leisure": "sports_centre",
                "name": "Грифон",
                "sport": "swimming",
                "wheelchair": "no"
            }
        ]
    },
    "pawnbroker": {
        "count": 1,
        "detail": [
            {
                "name": "Просто 585",
                "opening_hours": "10:00-20:00",
                "shop": "pawnbroker",
                "website": "https://lombard.zoloto585.ru/"
            }
        ]
    },
    "clinic": {
        "count": 1,
        "detail": [
            {
                "name": "Эксимер",
                "phone": "+7 812 3255535",
                "amenity": "clinic",
                "website": "http://www.excimerclinic.ru/clinics/spb",
                "building": "hospital",
                "operator": "ООО Диагностический центр \"Зрение\"",
                "addr:city": "Санкт-Петербург",
                "contact:vk": "https://vk.com/excimer_clinics",
                "healthcare": "clinic",
                "wheelchair": "yes",
                "addr:street": "Апраксин переулок",
                "addr:postcode": "191023",
                "contact:email": "mail.spb@excimerclinic.ru",
                "official_name": "Офтальмологическая клиника Эксимер",
                "opening_hours": "Mo-Sa 09:00-21:00; Su 10:00-19:00",
                "building:levels": "6",
                "addr:housenumber": "6",
                "health_facility:type": "clinic",
                "health_specialty:ophthalmology": "yes"
            }
        ]
    },
    "commercial": {
        "count": 2,
        "detail": [
            {
                "source": "rgis.spb.ru",
                "building": "commercial"
            },
            {
                "addr:housenumber": "36",
                "addr:street": "набережная канала Грибоедова",
                "building": "commercial",
                "building:levels": "2"
            }
        ]
    },
    "mall": {
        "count": 1,
        "detail": [
            {
                "addr:housenumber": "2",
                "addr:postcode": "190031",
                "addr:street": "улица Ефимова",
                "building": "retail",
                "building:levels": "5",
                "contact:vk": "https://vk.com/trkpik",
                "name": "ТК Пик",
                "opening_hours": "Mo-Su 10:00-22:00",
                "shop": "mall",
                "website": "https://tk-pik.ru/"
            }
        ]
    },
    "service": {
        "count": 1,
        "detail": [
            {
                "ref": "5255",
                "power": "substation",
                "branch": "Кабельная Сеть",
                "building": "service",
                "location": "indoor",
                "operator": "Ленэнерго",
                "frequency": "50",
                "substation": "minor_distribution"
            }
        ]
    }
}