{
    "residents": 4271,
    "restaurant": {
        "count": 3,
        "detail": [
            {
                "amenity": "restaurant",
                "cuisine": "korean",
                "name": "Korean BBQ гриль",
                "opening_hours": "Mo-Su 11:00-23:00",
                "website": "http://koreanbbq.spb.ru/",
                "wheelchair": "no"
            },
            {
                "name": "Свет Востока",
                "amenity": "restaurant",
                "cuisine": "chinese",
                "smoking": "no",
                "website": "https://svet-vostoka.ru/",
                "operator": "ООО «Лон тхэн»",
                "takeaway": "yes",
                "contact:vk": "https://vk.com/restoran_svet_vostoka_spb",
                "addr:street": "Курляндская улица",
                "opening_hours": "11:30-23:30",
                "addr:housenumber": "36"
            },
            {
                "name": "La Casa",
                "amenity": "restaurant",
                "cuisine": "italian",
                "smoking": "no",
                "takeaway": "yes",
                "addr:city": "Санкт-Петербург",
                "addr:street": "Курляндская улица",
                "addr:housenumber": "35"
            }
        ]
    },
    "bus_stop": {
        "count": 13,
        "detail": [
            {
                "bench": "yes",
                "bin": "yes",
                "bus": "yes",
                "highway": "bus_stop",
                "local_ref": "2;6;35;66;",
                "name": "Старо-Петергофский проспект, 27",
                "public_transport": "platform",
                "shelter": "yes",
                "tactile_paving": "no",
                "wheelchair": "limited"
            },
            {
                "bus": "yes",
                "highway": "bus_stop",
                "local_ref": "65;67;67Б;70",
                "name": "набережная Обводного канала, 138",
                "public_transport": "platform",
                "shelter": "no"
            },
            {
                "bench": "no",
                "bin": "no",
                "bus": "yes",
                "highway": "bus_stop",
                "name": "Набережная Обводного канала",
                "public_transport": "platform",
                "shelter": "no",
                "tactile_paving": "no",
                "wheelchair": "limited"
            },
            {
                "bus": "yes",
                "highway": "bus_stop",
                "local_ref": "65;67;67Б;70",
                "name": "Старо-Петергофский проспект",
                "public_transport": "platform",
                "shelter": "no"
            },
            {
                "bus": "yes",
                "highway": "bus_stop",
                "local_ref": "65;67;67Б;71",
                "name": "Старо-Петергофский проспект",
                "public_transport": "platform",
                "shelter": "yes"
            },
            {
                "highway": "bus_stop",
                "local_ref": "65;67;67Б;71",
                "name": "набережная Обводного канала, 138",
                "public_transport": "platform",
                "shelter": "yes"
            },
            {
                "bus": "yes",
                "ref": "2;6;49",
                "name": "Курляндская улица",
                "operator": "СПб ГУП \"Организатор перевозок\"",
                "share_taxi": "yes",
                "tactile_paving": "no",
                "public_transport": "stop_position"
            },
            {
                "bus": "yes",
                "ref": "2;6;35;66",
                "name": "Старо-Петергофский проспект, 27",
                "operator": "СПб ГУП \"Организатор перевозок\"",
                "share_taxi": "yes",
                "tactile_paving": "no",
                "public_transport": "stop_position"
            },
            {
                "bus": "yes",
                "ref": "2;6;49;66",
                "name": "Набережная Обводного канала",
                "operator": "СПб ГУП \"Организатор перевозок\"",
                "share_taxi": "yes",
                "tactile_paving": "no",
                "public_transport": "stop_position"
            },
            {
                "bus": "yes",
                "name": "Старо-Петергофский проспект",
                "public_transport": "stop_position"
            },
            {
                "bus": "yes",
                "name": "набережная Обводного канала, 138",
                "public_transport": "stop_position"
            },
            {
                "bus": "yes",
                "name": "Старо-Петергофский проспект",
                "public_transport": "stop_position"
            },
            {
                "bus": "yes",
                "name": "набережная Обводного канала, 138",
                "public_transport": "stop_position"
            }
        ]
    },
    "waste_disposal": {
        "count": 3,
        "detail": [
            {
                "amenity": "waste_disposal"
            },
            {
                "amenity": "waste_disposal"
            },
            {
                "amenity": "waste_disposal"
            }
        ]
    },
    "police": {
        "count": 3,
        "detail": [
            {
                "name": "Отдел ГИБДД Адмиралтейского района",
                "amenity": "police"
            },
            {
                "name": "Отдел УФМС № 4 по СПб и ЛО",
                "office": "government",
                "amenity": "police",
                "government": "migration",
                "contact:website": "https://guvm.mvd.ru"
            },
            {
                "amenity": "police",
                "contact:phone": "+7 812 5730304",
                "contact:website": "https://адмирал.78.мвд.рф",
                "name": "Отдел полиции № 77",
                "operator": "УМВД России по Адмиралтейскому району г. Санкт‑Петербурга",
                "ref": "77"
            }
        ]
    },
    "pharmacy": {
        "count": 3,
        "detail": [
            {
                "name": "Авиценна",
                "amenity": "pharmacy"
            },
            {
                "amenity": "pharmacy",
                "opening_hours": "09:00-21:00",
                "operator": "ООО «Ника Фарм»",
                "wheelchair": "no"
            },
            {
                "amenity": "pharmacy",
                "contact:vk": "https://vk.com/aptekanevis",
                "name": "Невис",
                "opening_hours": "09:00-21:00",
                "operator": "ООО «Городская»",
                "website": "https://aptekanevis.ru/"
            }
        ]
    },
    "cafe": {
        "count": 5,
        "detail": [
            {
                "name": "Драники",
                "amenity": "cafe",
                "operator": "ООО «Вишневская Экспресс»",
                "opening_hours": "09:00-21:00"
            },
            {
                "amenity": "cafe",
                "name": "Щи да борщи",
                "opening_hours": "Mo-Fr 07:00-21:00; Sa-Su 09:00-21:00",
                "operator": "ООО «Здоровье»",
                "phone": "+7 812 2517395"
            },
            {
                "name": "Фонарь",
                "amenity": "cafe"
            },
            {
                "amenity": "cafe",
                "contact:instagram": "https://www.instagram.com/coffeemoose.spb/",
                "contact:phone": "+7 906 3031704",
                "contact:vk": "https://vk.com/coffeemoose178",
                "contact:website": "https://coffee-moose.ru/",
                "name": "Coffee Moose",
                "opening_hours": "Mo-Fr 08:00-21:00; Sa-Su 08:00-20:00",
                "operator": "ИП Киселев Александр Сергеевич",
                "wheelchair": "no"
            },
            {
                "addr:housenumber": "29",
                "addr:street": "Курляндская улица",
                "amenity": "cafe",
                "building": "kiosk",
                "contact:email": "hotline@coffee-like.com",
                "contact:phone": "+7 341 2908292;+7 800 3334130",
                "contact:vk": "https://vk.com/coffeelike78",
                "contact:website": "https://coffee-like.com/",
                "cuisine": "coffee_shop",
                "name": "Coffee Like",
                "opening_hours": "Mo-Fr 08:00-21:00;Sa-Su 10:00-21:00",
                "operator": "Кошкин В.В."
            }
        ]
    },
    "optician": {
        "count": 1,
        "detail": [
            {
                "shop": "optician",
                "opening_hours": "11:00-19:00"
            }
        ]
    },
    "convenience": {
        "count": 3,
        "detail": [
            {
                "name": "Тёма",
                "shop": "convenience",
                "opening_hours": "08:00-22:00"
            },
            {
                "name": "Продукты",
                "shop": "convenience",
                "opening_hours": "08:00-00:00"
            },
            {
                "name": "Food Market",
                "opening_hours": "24/7",
                "operator": "ООО «И.Ш.Т.»",
                "shop": "convenience"
            }
        ]
    },
    "supermarket": {
        "count": 2,
        "detail": [
            {
                "alt_name": "Пятерочка",
                "alt_name:ru": "Пятерочка",
                "brand": "Пятёрочка",
                "brand:wikidata": "Q1768969",
                "brand:wikipedia": "ru:Пятёрочка",
                "contact:email": "vopros@5ka.ru",
                "contact:facebook": "https://www.facebook.com/pyaterochka",
                "contact:instagram": "https://www.instagram.com/pyaterochka_official",
                "contact:ok": "https://ok.ru/pyaterochka",
                "contact:phone": "+7 800 5555505",
                "contact:vk": "https://vk.com/pyaterochka_shop",
                "contact:website": "https://5ka.ru",
                "name": "Пятёрочка",
                "name:ru": "Пятёрочка",
                "opening_hours": "Mo-Fr 08:00-23:00; Sa-Su 09:00-23:00",
                "operator": "ООО «Агроторг»",
                "shop": "supermarket"
            },
            {
                "brand": "Дикси",
                "brand:wikidata": "Q4161561",
                "brand:wikipedia": "ru:Дикси (сеть магазинов)",
                "contact:facebook": "https://www.facebook.com/Dixyclub",
                "contact:instagram": "https://www.instagram.com/dixy.channel/",
                "contact:ok": "https://ok.ru/dixyclub",
                "contact:phone": "+7 800 3330201",
                "contact:vk": "https://vk.com/dixyclub",
                "contact:youtube": "https://www.youtube.com/user/DixyChannel",
                "name": "Дикси",
                "name:ru": "Дикси",
                "opening_hours": "Mo-Su 08:00-23:00",
                "operator": "АО «Дикси Юг»",
                "shop": "supermarket",
                "website": "https://dixy.ru/"
            }
        ]
    },
    "shoes": {
        "count": 3,
        "detail": [
            {
                "name": "ООО \"РАТ\" - спецобувь оптом",
                "shop": "shoes",
                "craft": "shoemaker",
                "opening_hours": "Mo-Fr 09:30-18:00"
            },
            {
                "name": "Треугольник",
                "shop": "shoes"
            },
            {
                "name": "Резиновая обувь",
                "shop": "shoes"
            }
        ]
    },
    "florist": {
        "count": 2,
        "detail": [
            {
                "name": "Цветы",
                "shop": "florist",
                "opening_hours": "24/7"
            },
            {
                "shop": "florist"
            }
        ]
    },
    "hairdresser": {
        "count": 2,
        "detail": [
            {
                "name": "Mari Beauty",
                "opening_hours": "10:00-21:00",
                "shop": "hairdresser",
                "wheelchair": "no"
            },
            {
                "disused:shop": "hairdresser",
                "name": "Мандарин",
                "shop": "hairdresser"
            }
        ]
    },
    "bakery": {
        "count": 1,
        "detail": [
            {
                "name": "Буханка",
                "shop": "bakery",
                "website": "http://pekarnya-buhanka.ru/",
                "contact:vk": "https://vk.com/pekarnya_buhanka",
                "opening_hours": "07:00-23:00"
            }
        ]
    },
    "bench": {
        "count": 23,
        "detail": [
            {
                "source": "bing",
                "amenity": "bench"
            },
            {
                "source": "bing",
                "amenity": "bench"
            },
            {
                "source": "bing",
                "amenity": "bench"
            },
            {
                "source": "bing",
                "amenity": "bench"
            },
            {
                "source": "bing",
                "amenity": "bench"
            },
            {
                "amenity": "bench"
            },
            {
                "amenity": "bench"
            },
            {
                "amenity": "bench"
            },
            {
                "amenity": "bench"
            },
            {
                "amenity": "bench"
            },
            {
                "amenity": "bench"
            },
            {
                "amenity": "bench"
            },
            {
                "amenity": "bench"
            },
            {
                "amenity": "bench"
            },
            {
                "amenity": "bench"
            },
            {
                "amenity": "bench"
            },
            {
                "amenity": "bench"
            },
            {
                "amenity": "bench"
            },
            {
                "amenity": "bench"
            },
            {
                "amenity": "bench",
                "backrest": "yes"
            },
            {
                "amenity": "bench",
                "backrest": "yes"
            },
            {
                "amenity": "bench",
                "backrest": "yes"
            },
            {
                "amenity": "bench",
                "backrest": "yes"
            }
        ]
    },
    "clothes": {
        "count": 1,
        "detail": [
            {
                "name": "Спецовка",
                "shop": "clothes",
                "website": "http://www.spetsovka.com/",
                "contact:vk": "https://vk.com/tdspecovka",
                "opening_hours": "09:00-20:00"
            }
        ]
    },
    "car_repair": {
        "count": 1,
        "detail": [
            {
                "name": "Олд Сити Моторс",
                "shop": "car_repair",
                "name:en": "Old City Motors",
                "name:ru": "Олд Сити Моторс",
                "website": "http://oldcitymotors.spb.ru/"
            }
        ]
    },
    "toilets": {
        "count": 1,
        "detail": [
            {
                "amenity": "toilets",
                "fee": "yes",
                "opening_hours": "May-Sep: 09:00-21:00",
                "operator": "ГУП «Водоканал Санкт-Петербурга»",
                "website": "http://www.vodokanal.spb.ru/kanalizovanie/tualety/"
            }
        ]
    },
    "fast_food": {
        "count": 3,
        "detail": [
            {
                "name": "Наша столовая",
                "amenity": "fast_food",
                "name:ru": "Наша столовая",
                "fast_food": "cafeteria",
                "opening_hours": "24/7"
            },
            {
                "name": "MarioShop",
                "amenity": "fast_food"
            },
            {
                "name": "Столовая",
                "amenity": "fast_food",
                "fast_food": "cafeteria"
            }
        ]
    },
    "computer": {
        "count": 2,
        "detail": [
            {
                "contact:vk": "https://vk.com/royal_computers",
                "name": "Royal Computers",
                "opening_hours": "Mo-Sa 11:00-20:00",
                "shop": "computer",
                "website": "https://royal-computers.ru/"
            },
            {
                "name": "Нотик",
                "shop": "computer",
                "website": "http://www.notik.ru/information/85#Obvodkanal",
                "operator": "ООО «Наволок»",
                "opening_hours": "Mo-Fr 10:00-20:00; Sa 11:00-19:00"
            }
        ]
    },
    "outpost": {
        "count": 1,
        "detail": [
            {
                "brand": "Ozon.ru",
                "brand:wikidata": "Q2365235",
                "contact:facebook": "https://www.facebook.com/ozon.ru/",
                "contact:instagram": "https://www.instagram.com/ozonru/",
                "contact:twitter": "https://twitter.com/Ozon_ru/",
                "contact:vk": "https://vk.com/ozon",
                "name": "Ozon",
                "opening_hours": "10:00-21:00",
                "shop": "outpost",
                "website": "https://www.ozon.ru/"
            }
        ]
    },
    "radiotechnics": {
        "count": 1,
        "detail": [
            {
                "addr:city": "Санкт-Петербург",
                "addr:housenumber": "138/7",
                "addr:postcode": "190020",
                "addr:street": "набережная Обводного канала",
                "description": "Продажа и установка сетевой адресно-аналоговой пожарной сигнализации.",
                "name": "Z-line",
                "phone": "+7 812 6111193",
                "shop": "radiotechnics",
                "website": "https://z-line.su/"
            }
        ]
    },
    "beauty": {
        "count": 1,
        "detail": [
            {
                "name": "Areal",
                "shop": "beauty",
                "website": "http://arealmed.com/"
            }
        ]
    },
    "doctors": {
        "count": 3,
        "detail": [
            {
                "amenity": "doctors",
                "name": "Центр доктора Бубновского",
                "opening_hours": "Mo-Fr 09:00-22:00; Sa-Su 10:00-22:00",
                "website": "http://www.bubnovsky-spb.com/"
            },
            {
                "name": "Травмпункт",
                "amenity": "doctors",
                "building": "yes",
                "healthcare": "doctor",
                "building:levels": "3",
                "health_facility:type": "first_aid",
                "building:architecture": "brick style",
                "medical_system:western": "yes",
                "health_specialty:traumatology": "yes"
            },
            {
                "addr:housenumber": "12",
                "addr:street": "Старо-Петергофский проспект",
                "amenity": "doctors",
                "building": "yes",
                "name": "ГКДЦ \"Ювента\"",
                "website": "http://www.juventa-spb.info/"
            }
        ]
    },
    "car_parts": {
        "count": 2,
        "detail": [
            {
                "shop": "car_parts"
            },
            {
                "contact:instagram": "https://instagram.com/check_inspb",
                "contact:phone": "+7 999 0079007",
                "name": "Check In SPb",
                "opening_hours": "Mo-Su 10:00-21:00",
                "operator": "ООО Легион-Авто",
                "shop": "car_parts"
            }
        ]
    },
    "doityourself": {
        "count": 1,
        "detail": [
            {
                "name": "Резинотехника",
                "shop": "doityourself"
            }
        ]
    },
    "outdoor": {
        "count": 1,
        "detail": [
            {
                "name": "NorfinSpb.ru",
                "shop": "outdoor",
                "website": "https://norfinspb.ru/"
            }
        ]
    },
    "hardware": {
        "count": 1,
        "detail": [
            {
                "name": "Резинаторг",
                "shop": "hardware"
            }
        ]
    },
    "glaziery": {
        "count": 1,
        "detail": [
            {
                "name": "Элайнс",
                "shop": "glaziery",
                "website": "http://fasad812.ru/"
            }
        ]
    },
    "arts_centre": {
        "count": 1,
        "detail": [
            {
                "amenity": "arts_centre",
                "name": "Китежград",
                "website": "http://www.ddt-i.ru/index.php?option=com_content&view=article&id=79&Itemid=18"
            }
        ]
    },
    "ticket": {
        "count": 1,
        "detail": [
            {
                "name": "Пулково-Сервис",
                "shop": "ticket",
                "website": "http://www.pulkovo-service.ru/",
                "opening_hours": "Mo-Fr 09:00-19:00"
            }
        ]
    },
    "alcohol": {
        "count": 1,
        "detail": [
            {
                "name": "Штопор",
                "shop": "alcohol",
                "opening_hours": "24/7"
            }
        ]
    },
    "bar": {
        "count": 1,
        "detail": [
            {
                "name": "Zippy Moose",
                "amenity": "bar",
                "contact:vk": "https://vk.com/zippymoose",
                "opening_hours": "09:00-22:00"
            }
        ]
    },
    "bicycle_parking": {
        "count": 3,
        "detail": [
            {
                "amenity": "bicycle_parking"
            },
            {
                "amenity": "bicycle_parking",
                "bicycle_parking": "stands",
                "capacity": "4"
            },
            {
                "amenity": "bicycle_parking"
            }
        ]
    },
    "community_centre": {
        "count": 1,
        "detail": [
            {
                "addr:housenumber": "16",
                "addr:street": "Старо-Петергофский проспект",
                "amenity": "community_centre",
                "name": "Санкт-Петербургский центр НЛП",
                "name:en": "NLP Spb",
                "opening_hours": "Mo-Su 09:00-20:00",
                "phone": "+7 812 9070707",
                "website": "http://nlpspb.ru"
            }
        ]
    },
    "events_venue": {
        "count": 1,
        "detail": [
            {
                "amenity": "events_venue",
                "name": "Банкетный зал \"Зефир\"",
                "website": "https://www.zefirholl.ru/"
            }
        ]
    },
    "waste_basket": {
        "count": 3,
        "detail": [
            {
                "amenity": "waste_basket"
            },
            {
                "amenity": "waste_basket"
            },
            {
                "amenity": "waste_basket"
            }
        ]
    },
    "sauna": {
        "count": 1,
        "detail": [
            {
                "name": "Баня \"Волна\"",
                "leisure": "sauna"
            }
        ]
    },
    "atm": {
        "count": 1,
        "detail": [
            {
                "amenity": "atm",
                "brand": "Санкт-Петербург",
                "contact:email": "cc@bspb.ru",
                "contact:facebook": "https://www.facebook.com/bspb/",
                "contact:instagram": "https://instagram.com/bank_spb",
                "contact:ok": "https://ok.ru/bspb",
                "contact:phone": "+7 800 2225050;+7 812 3295050",
                "contact:twitter": "https://twitter.com/bank_spb",
                "contact:vk": "https://vk.com/bspb",
                "contact:website": "https://www.bspb.ru/",
                "currency:RUB": "yes",
                "opening_hours": "Mo-Fr 09:00-21:00",
                "operator": "ПАО Банк Санкт-Петербург",
                "telegram": "https://t.me/mybspb"
            }
        ]
    },
    "recycling": {
        "count": 1,
        "detail": [
            {
                "amenity": "recycling",
                "recycling:plastic_bottles": "yes"
            }
        ]
    },
    "tyres": {
        "count": 1,
        "detail": [
            {
                "contact:email": "vagservice.spb@gmail.com",
                "contact:instagram": "https://instagram.com/vagservicepro",
                "contact:phone": "+7 900 6235737",
                "contact:vk": "https://vk.com/vaggaragepro",
                "contact:website": "https://vaggarage.pro/",
                "name": "Vaggarage. Pro",
                "opening_hours": "Mo-Su 10:00-20:00",
                "operator": "Vaggarage. Pro",
                "shop": "tyres"
            }
        ]
    },
    "clinic": {
        "count": 1,
        "detail": [
            {
                "name": "Поликлиника №24",
                "amenity": "clinic",
                "building": "yes",
                "addr:city": "Санкт-Петербург",
                "healthcare": "clinic",
                "addr:street": "набережная Обводного канала",
                "building:levels": "3",
                "addr:housenumber": "140",
                "health_facility:type": "clinic",
                "building:architecture": "classicism"
            }
        ]
    },
    "kindergarten": {
        "count": 1,
        "detail": [
            {
                "building": "kindergarten",
                "addr:street": "Курляндская улица",
                "building:levels": "2",
                "addr:housenumber": "26"
            }
        ]
    },
    "service": {
        "count": 6,
        "detail": [
            {
                "power": "substation",
                "building": "service",
                "substation": "minor_distribution",
                "addr:letter": "Ж",
                "addr:street": "Курляндская улица",
                "building:levels": "1",
                "addr:housenumber": "28"
            },
            {
                "power": "substation",
                "building": "service",
                "substation": "minor_distribution",
                "addr:letter": "Я",
                "addr:street": "Курляндская улица",
                "building:levels": "1",
                "addr:housenumber": "28"
            },
            {
                "power": "substation",
                "building": "service",
                "substation": "minor_distribution",
                "addr:letter": "К",
                "addr:street": "Старо-Петергофский проспект",
                "building:levels": "1",
                "addr:housenumber": "21 литК"
            },
            {
                "power": "substation",
                "building": "service",
                "substation": "minor_distribution",
                "addr:letter": "О",
                "addr:street": "Курляндская улица",
                "building:levels": "1",
                "addr:housenumber": "28"
            },
            {
                "power": "substation",
                "building": "service",
                "substation": "minor_distribution",
                "addr:letter": "Я",
                "addr:street": "Старо-Петергофский проспект",
                "building:levels": "1",
                "addr:housenumber": "14"
            },
            {
                "power": "substation",
                "building": "service",
                "substation": "minor_distribution",
                "addr:letter": "Б",
                "addr:street": "Курляндская улица",
                "building:levels": "1",
                "addr:housenumber": "36-38"
            }
        ]
    }
}