{
    "library": {
        "count": 1,
        "detail": [
            {
                "amenity": "library",
                "name": "Библиотека СПбГМТУ"
            }
        ]
    },
    "residents": 13477,
    "waste_disposal": {
        "count": 4,
        "detail": [
            {
                "amenity": "waste_disposal"
            },
            {
                "amenity": "waste_disposal"
            },
            {
                "amenity": "waste_disposal"
            },
            {
                "amenity": "waste_disposal"
            }
        ]
    },
    "clothes": {
        "count": 1,
        "detail": [
            {
                "shop": "clothes"
            }
        ]
    },
    "hairdresser": {
        "count": 4,
        "detail": [
            {
                "name": "Русская школа парикмахерского искусства",
                "shop": "hairdresser",
                "amenity": "training",
                "contact:vk": "https://vk.com/rshpi"
            },
            {
                "name": "Serenity",
                "shop": "hairdresser",
                "contact:vk": "https://vk.com/salon_serenity"
            },
            {
                "opening_hours": "11:00-21:00",
                "phone": "+7 931 5929394",
                "shop": "hairdresser"
            },
            {
                "contact:vk": "https://vk.com/miroir_studio",
                "name": "Miroir",
                "note": "рядом с ещё одной на Декабристов 58: https://vk.com/wall-76206152_256",
                "opening_hours": "09:00-22:00",
                "operator": "ИП Макарчук Ю.В.",
                "shop": "hairdresser",
                "website": "http://miroir.spb.ru/"
            }
        ]
    },
    "playground": {
        "count": 3,
        "detail": [
            {
                "leisure": "playground"
            },
            {
                "leisure": "playground"
            },
            {
                "leisure": "playground"
            }
        ]
    },
    "alcohol": {
        "count": 1,
        "detail": [
            {
                "brand": "Красное & Белое",
                "brand:en": "Red & White",
                "brand:wikidata": "Q24933790",
                "brand:wikipedia": "en:Krasnoe & Beloe",
                "contact:vk": "https://vk.com/krasnoebeloe",
                "name": "Красное & Белое",
                "name:en": "Red & White",
                "opening_hours": "09:00-22:05",
                "operator": "ООО «Альфа-М»",
                "shop": "alcohol",
                "website": "https://krasnoeibeloe.ru/"
            }
        ]
    },
    "cafe": {
        "count": 1,
        "detail": [
            {
                "amenity": "cafe",
                "cuisine": "russian",
                "delivery": "yes",
                "description": "Чебуречная",
                "name": "Ржавая подкова",
                "opening_hours": "10:00-23:00",
                "takeaway": "yes"
            }
        ]
    },
    "hunting": {
        "count": 2,
        "detail": [
            {
                "name": "Охота и рыбалка",
                "shop": "hunting",
                "website": "http://www.hunting-fishing.spb.ru/",
                "opening_hours": "Mo-Sa 10:00-19:00"
            },
            {
                "contact:vk": "https://vk.com/club19809317",
                "name": "Тульское оружие",
                "opening_hours": "Mo-Fr 10:00-18:30; Sa 10:00-16:00",
                "operator": "ООО «Хантер»",
                "shop": "hunting",
                "website": "https://www.hunter-guns.ru/"
            }
        ]
    },
    "doityourself": {
        "count": 1,
        "detail": [
            {
                "contact:vk": "https://vk.com/etm_company",
                "name": "ЭТМ",
                "opening_hours": "Mo-Fr 09:00-20:00; Sa 10:00-18:00; Su 10:00-17:00",
                "operator": "ООО «ТД «Электротехмонтаж»",
                "shop": "doityourself",
                "website": "https://www.etm.ru/"
            }
        ]
    },
    "convenience": {
        "count": 6,
        "detail": [
            {
                "name": "Продукты",
                "opening_hours": "24/7",
                "shop": "convenience"
            },
            {
                "name": "Продукты",
                "shop": "convenience",
                "opening_hours": "24/7"
            },
            {
                "name": "Продукты",
                "shop": "convenience"
            },
            {
                "name": "Студенческий магазин",
                "shop": "convenience",
                "opening_hours": "24/7"
            },
            {
                "name": "Аэро",
                "opening_hours": "24/7",
                "shop": "convenience"
            },
            {
                "name": "Продукты",
                "opening_hours": "24/7",
                "shop": "convenience"
            }
        ]
    },
    "pharmacy": {
        "count": 1,
        "detail": [
            {
                "amenity": "pharmacy",
                "healthcare": "pharmacy",
                "name": "Брегор-Фарм",
                "opening_hours": "Mo-Fr 09:00-21:00; Sa, Su 10:00-21:00",
                "operator": "ООО «Брегор-Фарм»"
            }
        ]
    },
    "chemist": {
        "count": 1,
        "detail": [
            {
                "shop": "chemist"
            }
        ]
    },
    "college": {
        "count": 1,
        "detail": [
            {
                "name": "Институт \"Влада\"",
                "amenity": "college",
                "website": "http://vlada-hair.ru/"
            }
        ]
    },
    "beauty": {
        "count": 1,
        "detail": [
            {
                "name": "Aphrodite",
                "shop": "beauty"
            }
        ]
    },
    "doctors": {
        "count": 1,
        "detail": [
            {
                "amenity": "doctors",
                "emergency": "yes",
                "healthcare": "doctor",
                "name": "Отделение \"Скорой помощи\""
            }
        ]
    },
    "bicycle": {
        "count": 1,
        "detail": [
            {
                "addr:city": "Санкт-Петербург",
                "addr:housenumber": "93",
                "addr:postcode": "190121",
                "addr:street": "проспект Римского-Корсакова",
                "name": "BikeTrip",
                "opening_hours": "10:00-24:00",
                "operator": "BikeTripSpb",
                "phone": "+7 999 2021493;+7 900 6476093",
                "reservation": "required",
                "service:bicycle:repair": "yes",
                "shop": "bicycle"
            }
        ]
    },
    "post_box": {
        "count": 2,
        "detail": [
            {
                "ref": "330",
                "indoor": "yes",
                "amenity": "post_box",
                "operator": "Почта России",
                "design:year": "2006",
                "drive_through": "no",
                "opening_hours": "Mo-Fr 08:00-20:00; Sa 10:00-16:00; Su off",
                "post_box:type": "wall",
                "post_box:design": "ЯПВ-Н-П",
                "collection_times": "Mo-Sa 09:55"
            },
            {
                "ref": "161",
                "amenity": "post_box",
                "operator": "Почта России",
                "design:year": "2010",
                "drive_through": "no",
                "post_box:type": "wall",
                "post_box:design": "ЯПНМ-II-С",
                "collection_times": "Mo-Fr 00:20,16:55; Sa 09:05; Su 16:55"
            }
        ]
    },
    "dentist": {
        "count": 1,
        "detail": [
            {
                "amenity": "dentist",
                "contact:vk": "https://vk.com/stomasofia",
                "healthcare": "dentist",
                "name": "София",
                "opening_hours": "Mo-Tu 14:00-20:00; Fr 14:00-20:00; Sa 11:00-17:00",
                "phone": "+7 812 9727676"
            }
        ]
    },
    "car_parts": {
        "count": 1,
        "detail": [
            {
                "name": "Автозапчасти",
                "shop": "car_parts",
                "opening_hours": "Mo-Sa 10:00-19:30"
            }
        ]
    },
    "car_repair": {
        "count": 3,
        "detail": [
            {
                "name": "ЮВС",
                "shop": "car_repair",
                "service": "tyres"
            },
            {
                "name": "У Сергея",
                "shop": "car_repair",
                "service": "tyres"
            },
            {
                "building": "yes",
                "building:levels": "1",
                "opening_hours": "24/7",
                "shop": "car_repair"
            }
        ]
    },
    "kindergarten": {
        "count": 2,
        "detail": [
            {
                "amenity": "kindergarten",
                "contact:email": "dou22.adm@obr.gov.spb.ru",
                "contact:phone": "+7 812 7144198",
                "contact:website": "https://ds22.admiral.gov.spb.ru",
                "name": "Детский сад №22",
                "official_name": "Государственное бюджетное дошкольное образовательное учреждение детский сад №22 Адмиралтейского района Санкт-Петербурга",
                "ref": "22"
            },
            {
                "building": "kindergarten",
                "addr:street": "набережная реки Пряжки",
                "building:levels": "2",
                "design:code:SPb": "ДС-34",
                "addr:housenumber": "58-60"
            }
        ]
    },
    "restaurant": {
        "count": 1,
        "detail": [
            {
                "amenity": "restaurant",
                "contact:vk": "https://vk.com/restoraniris",
                "name": "Ирис",
                "website": "https://r-iris.ru/",
                "wheelchair": "no"
            }
        ]
    },
    "fast_food": {
        "count": 1,
        "detail": [
            {
                "amenity": "fast_food",
                "fast_food": "cafeteria",
                "name": "Наша Столовая",
                "short_name": "НС"
            }
        ]
    },
    "recycling": {
        "count": 1,
        "detail": [
            {
                "amenity": "recycling",
                "recycling_type": "container",
                "recycling:batteries": "yes",
                "recycling:low_energy_bulbs": "yes"
            }
        ]
    },
    "bicycle_parking": {
        "count": 1,
        "detail": [
            {
                "amenity": "bicycle_parking",
                "bicycle_parking": "stands",
                "capacity": "6",
                "covered": "no"
            }
        ]
    },
    "outpost": {
        "count": 1,
        "detail": [
            {
                "brand": "Ozon.ru",
                "brand:wikidata": "Q2365235",
                "contact:vk": "https://vk.com/ozon",
                "name": "Ozon.ru",
                "opening_hours": "Mo-Fr 11:00-20:00",
                "shop": "outpost",
                "website": "https://www.ozon.ru/"
            }
        ]
    },
    "curtain": {
        "count": 1,
        "detail": [
            {
                "name": "WaltzEmbroidery's",
                "opening_hours": "11:00-20:00",
                "operator": "ИП Володин В.В.",
                "shop": "curtain"
            }
        ]
    },
    "fuel": {
        "count": 2,
        "detail": [
            {
                "amenity": "fuel",
                "brand": "Energi gas",
                "currency:RUB": "yes",
                "fuel:lpg": "yes",
                "payment:cash": "yes",
                "payment:credit_cards": "yes",
                "payment:debit_cards": "yes"
            },
            {
                "addr:housenumber": "7А",
                "addr:street": "набережная реки Пряжки",
                "amenity": "fuel",
                "brand": "Аэро",
                "building": "yes",
                "building:levels": "1",
                "fuel:diesel": "yes",
                "fuel:octane_95": "yes",
                "fuel:octane_98": "yes",
                "int_name": "Aero",
                "name": "Аэро",
                "opening_hours": "24/7"
            }
        ]
    },
    "supermarket": {
        "count": 1,
        "detail": [
            {
                "brand": "Пятёрочка",
                "brand:en": "Pyaterochka",
                "brand:wikidata": "Q1768969",
                "brand:wikipedia": "ru:Пятёрочка",
                "contact:instagram": "https://www.instagram.com/pyaterochka_official",
                "contact:ok": "https://ok.ru/pyaterochka",
                "contact:vk": "https://vk.com/pyaterochka_shop",
                "name": "Пятёрочка",
                "name:en": "Pyaterochka",
                "opening_hours": "Mo-Su 10:00-22:00",
                "shop": "supermarket",
                "website": "https://5ka.ru/"
            }
        ]
    },
    "school": {
        "count": 2,
        "detail": [
            {
                "building": "school",
                "addr:city": "Санкт-Петербург",
                "addr:street": "Витебская улица",
                "building:levels": "4",
                "addr:housenumber": "6-8"
            },
            {
                "addr:city": "Санкт-Петербург",
                "addr:housenumber": "11",
                "addr:street": "Мясная улица",
                "amenity": "school",
                "building": "school",
                "building:levels": "4",
                "contact:email": "diplomatschool@mail.ru",
                "contact:phone": "+7 812 7140424",
                "contact:vk": "https://vk.com/diplomatschool",
                "contact:website": "http://diplomatschool.ru",
                "name": "Частная школа «Дипломат»",
                "note": "на сайте майнер www.sparechange.io",
                "official_name": "Частное общеобразовательное учреждение \"Школа \"ДИПЛОМАТ\""
            }
        ]
    },
    "service": {
        "count": 6,
        "detail": [
            {
                "power": "substation",
                "building": "service",
                "substation": "minor_distribution",
                "addr:street": "улица Володи Ермака",
                "building:levels": "1",
                "addr:housenumber": "9-11"
            },
            {
                "power": "substation",
                "building": "service",
                "substation": "minor_distribution",
                "addr:street": "набережная реки Пряжки",
                "building:levels": "1",
                "addr:housenumber": "32"
            },
            {
                "power": "substation",
                "building": "service",
                "substation": "minor_distribution",
                "addr:street": "улица Володи Ермака",
                "building:levels": "1",
                "addr:housenumber": "3-5"
            },
            {
                "power": "substation",
                "building": "service",
                "substation": "minor_distribution",
                "addr:street": "набережная реки Пряжки",
                "building:levels": "1",
                "addr:housenumber": "52"
            },
            {
                "power": "substation",
                "building": "service",
                "substation": "minor_distribution",
                "addr:letter": "Е",
                "addr:street": "улица Александра Блока",
                "building:levels": "1",
                "addr:housenumber": "10"
            },
            {
                "power": "substation",
                "building": "service",
                "substation": "minor_distribution",
                "building:levels": "1"
            }
        ]
    }
}