{
    "residents": 5157,
    "bank": {
        "count": 4,
        "detail": [
            {
                "amenity": "bank",
                "atm": "yes",
                "brand": "Альфа-Банк",
                "brand:en": "Alfa-Bank",
                "brand:ru": "Альфа-Банк",
                "brand:wikidata": "Q1377835",
                "brand:wikipedia": "ru:Альфа-банк",
                "contact:phone": "+7 495 7888878",
                "contact:vk": "https://vk.com/alfabank",
                "contact:website": "https://alfabank.ru",
                "name": "Альфа-Банк",
                "name:en": "Alfa-Bank",
                "name:ru": "Альфа-Банк",
                "note": "здесь же ещё один офис с другим режимом работы: https://alfabank.ru/office/peterburg/ligovsky/",
                "opening_hours": "Mo-Fr 09:00-20:00; Sa 10:00-19:00; Su 12:00-17:00",
                "operator": "АО \"Альфа-Банк\"",
                "ref": "0478",
                "website": "https://alfabank.ru/office/peterburg/neva/"
            },
            {
                "amenity": "bank",
                "brand": "Почта Банк",
                "brand:en": "Post Bank",
                "brand:wikidata": "Q24930461",
                "brand:wikipedia": "en:Post Bank (Russia)",
                "contact:vk": "https://vk.com/pochtabank_official",
                "level": "1",
                "name": "Почта Банк",
                "name:en": "Post Bank",
                "opening_hours": "Mo-Fr 10:00-19:00; Sa 10:00-18:00",
                "website": "https://www.pochtabank.ru/"
            },
            {
                "name": "Северо-западный инвестиционно-промышленный банк",
                "amenity": "bank",
                "website": "http://www.nwipbank.ru/",
                "opening_hours": "Mo-Th 09:00-18:00; Fr 09:00-16:45; 13:00-14:00 off"
            },
            {
                "amenity": "bank",
                "brand": "Авангард",
                "brand:wikidata": "Q62122617",
                "contact:vk": "https://vk.com/bankavangard",
                "name": "Авангард",
                "opening_hours": "08:45-21:00",
                "website": "https://www.avangard.ru/"
            }
        ]
    },
    "bar": {
        "count": 9,
        "detail": [
            {
                "amenity": "bar",
                "contact:phone": "+7 965 8132590",
                "contact:vk": "https://vk.com/mrtoadbar",
                "name": "Mr. Toad Bar",
                "opening_hours": "18:00-02:00; Fr,Sa 18:00-06:00",
                "outdoor_seating": "no",
                "wheelchair": "no"
            },
            {
                "name": "Poison",
                "amenity": "bar",
                "karaoke": "yes",
                "contact:vk": "https://vk.com/poisonkaraoke",
                "opening_hours": "Tu-Th 19:00-02:00, Fr-Sa 19:00-06:00"
            },
            {
                "name": "A Guest",
                "amenity": "bar",
                "contact:vk": "https://vk.com/aguestloungebar"
            },
            {
                "name": "Simple",
                "amenity": "bar",
                "contact:vk": "https://vk.com/gastrosimplebarr",
                "wheelchair": "no",
                "opening_hours": "Mo-Su 11:00-00:00"
            },
            {
                "amenity": "bar",
                "contact:vk": "https://vk.com/kwakinnpub",
                "internet_access": "wlan",
                "name": "KwakInn",
                "opening_hours": "Su-Th 12:00-01:00; Fr-Sa 12:00-02:00",
                "phone": "+7 812 9052236",
                "website": "http://kwakinn.ru/reservations/butylochnaya-kwakinn-draught-bottle"
            },
            {
                "addr:postcode": "191040",
                "amenity": "bar",
                "name": "1703",
                "opening_hours": "Su-Th 19:00-03:00; Fr-Sa 19:00-06:00"
            },
            {
                "addr:postcode": "191040",
                "amenity": "bar",
                "name": "Неканон",
                "opening_hours": "Su-Fr 13:00-23:00; Fr,Sa 13:00-24:00",
                "phone": "+7 965 7491654",
                "wheelchair": "limited"
            },
            {
                "amenity": "bar",
                "name:en": "mr toad"
            },
            {
                "amenity": "bar",
                "contact:email": "mikeadvert@yandex.ru",
                "contact:phone": "+7 995 8901812",
                "name": "Hustle Lounge Bar",
                "opening_hours": "Fr-Sa 12:00-06:00;Mo-Th,Su 12:00-03:00",
                "operator": "Хасл"
            }
        ]
    },
    "playground": {
        "count": 4,
        "detail": [
            {
                "leisure": "playground"
            },
            {
                "leisure": "playground"
            },
            {
                "leisure": "playground"
            },
            {
                "leisure": "playground"
            }
        ]
    },
    "kindergarten": {
        "count": 4,
        "detail": [
            {
                "name": "Детский сад №25",
                "amenity": "kindergarten"
            },
            {
                "amenity": "kindergarten",
                "name": "Детский сад № 23",
                "website": "https://dou23.caduk.ru/"
            },
            {
                "name": "Детский сад №44",
                "amenity": "kindergarten"
            },
            {
                "name": "Детский сад №23",
                "amenity": "kindergarten",
                "website": "https://dou23.caduk.ru/"
            }
        ]
    },
    "bus_stop": {
        "count": 8,
        "detail": [
            {
                "bus": "yes",
                "highway": "bus_stop",
                "local_ref": "3;26;54;65;74;76;91;141",
                "name": "Кузнечный переулок",
                "public_transport": "platform",
                "shelter": "yes"
            },
            {
                "bus": "yes",
                "highway": "bus_stop",
                "local_ref": "26;54;74;76;91;141",
                "name": "Московский вокзал",
                "public_transport": "platform"
            },
            {
                "bus": "yes",
                "highway": "bus_stop",
                "local_ref": "3;26;54;65;74;76;91;141",
                "name": "Кузнечный переулок",
                "public_transport": "platform",
                "shelter": "yes"
            },
            {
                "bus": "yes",
                "name": "Кузнечный переулок",
                "public_transport": "stop_position"
            },
            {
                "bus": "yes",
                "name": "Московский вокзал",
                "public_transport": "stop_position"
            },
            {
                "bus": "yes",
                "name": "Кузнечный переулок",
                "public_transport": "stop_position"
            },
            {
                "bus": "yes",
                "highway": "bus_stop",
                "local_ref": "4М;4Мб;26;65;76;91;141",
                "name": "Московский вокзал",
                "public_transport": "platform"
            },
            {
                "bus": "yes",
                "highway": "bus_stop",
                "local_ref": "3;4М;4Мб;5М;5Мб;65",
                "name": "Московский вокзал",
                "public_transport": "platform"
            }
        ]
    },
    "restaurant": {
        "count": 9,
        "detail": [
            {
                "name": "18/53",
                "amenity": "restaurant"
            },
            {
                "name": "Sud & Cie",
                "amenity": "restaurant",
                "cuisine": "european",
                "website": "https://restaurants.accorhotels.com/ru/restaurant-6157_R001-ibis-kitchen-saint-petersburg.shtml",
                "wheelchair": "yes",
                "toilets:wheelchair": "yes"
            },
            {
                "name": "Olivetto",
                "amenity": "restaurant"
            },
            {
                "name": "Lounge Cafe",
                "amenity": "restaurant"
            },
            {
                "amenity": "restaurant",
                "brand": "IL Патио",
                "brand:wikidata": "Q4397763",
                "brand:wikipedia": "en:Росинтер",
                "cuisine": "italian",
                "name": "IL Патио",
                "phone": "+7 812 4494346",
                "website": "http://ilpatio.ru"
            },
            {
                "amenity": "restaurant",
                "brand": "TGI Friday's",
                "brand:wikidata": "Q1524184",
                "brand:wikipedia": "en:TGI Fridays",
                "cuisine": "american",
                "name": "TGI Friday's",
                "phone": "+7 812 4487437",
                "website": "http://www.tgifridays.ru"
            },
            {
                "name": "Корейко",
                "amenity": "restaurant",
                "website": "http://koreiko.com/",
                "contact:vk": "https://vk.com/grillbarkoreiko"
            },
            {
                "amenity": "restaurant",
                "name:en": "Market Place"
            },
            {
                "amenity": "restaurant",
                "contact:email": "ukusno@inbox.ru",
                "contact:instagram": "https://instagram.com/ukusno",
                "contact:phone": "+7 931 2624337",
                "contact:vk": "https://vk.com/ukusno",
                "name": "Ukusno",
                "opening_hours": "Mo-Su 10:00-23:00",
                "operator": "Ukusno"
            }
        ]
    },
    "supermarket": {
        "count": 2,
        "detail": [
            {
                "brand": "Дикси",
                "brand:en": "Dixy",
                "brand:wikidata": "Q4161561",
                "brand:wikipedia": "ru:Дикси (сеть магазинов)",
                "contact:phone": "+7 800 3330201",
                "contact:vk": "https://vk.com/dixyclub",
                "contact:youtube": "https://www.youtube.com/user/DixyChannel",
                "name": "Дикси",
                "name:ru": "Дикси",
                "opening_hours": "24/7",
                "operator": "АО «Дикси Юг»",
                "shop": "supermarket",
                "website": "https://dixy.ru/",
                "wheelchair": "limited"
            },
            {
                "brand": "Дикси",
                "brand:en": "Dixy",
                "brand:wikidata": "Q4161561",
                "brand:wikipedia": "ru:Дикси (сеть магазинов)",
                "contact:phone": "+7 800 3330201",
                "contact:vk": "https://vk.com/dixyclub",
                "contact:youtube": "https://www.youtube.com/user/DixyChannel",
                "name": "Дикси",
                "name:ru": "Дикси",
                "opening_hours": "24/7",
                "shop": "supermarket",
                "website": "https://dixy.ru/"
            }
        ]
    },
    "bag": {
        "count": 3,
        "detail": [
            {
                "name": "1000 и одна сумка",
                "shop": "bag",
                "level": "-1",
                "website": "https://1000i1sumka.ru/",
                "contact:vk": "https://vk.com/sumok1001",
                "opening_hours": "11:00-21:00"
            },
            {
                "check_date": "2019-04",
                "level": "2",
                "name": "Царство сумок",
                "opening_hours": "10:00-23:00",
                "phone": "+7 812 6407265",
                "shop": "bag",
                "website": "https://deliamo.ru/"
            },
            {
                "name": "Clipsa",
                "shop": "bag",
                "opening_hours": "10:00-21:00"
            }
        ]
    },
    "fast_food": {
        "count": 29,
        "detail": [
            {
                "name": "Felicita",
                "amenity": "fast_food",
                "website": "http://evro-stolovaya.ru/",
                "operator": "ООО «Ганс»",
                "fast_food": "cafeteria",
                "opening_hours": "09:00-22:00"
            },
            {
                "alt_name": "Kentucky Fried Chicken",
                "amenity": "fast_food",
                "brand": "KFC",
                "brand:wikidata": "Q524757",
                "brand:wikipedia": "en:KFC",
                "breakfast": "yes",
                "contact:vk": "https://vk.com/kfcrussia",
                "cuisine": "chicken",
                "drive_through": "no",
                "internet_access": "wlan",
                "name": "KFC",
                "name:en": "KFC",
                "opening_hours": "24/7",
                "operator": "ООО \"АмРест\"",
                "phone": "+7 812 4077161",
                "takeaway": "yes",
                "website": "https://www.kfc.ru/"
            },
            {
                "amenity": "fast_food",
                "fast_food": "cafeteria",
                "name": "Street",
                "note": "нет на сайте",
                "opening_hours": "09:00-22:00",
                "website": "http://stolovayastreet.ru/"
            },
            {
                "name": "Додо Пицца",
                "amenity": "fast_food",
                "cuisine": "pizza",
                "website": "https://dodopizza.ru/peterburg/ligovsky67",
                "contact:vk": "https://vk.com/dodospb",
                "opening_hours": "09:00-01:00"
            },
            {
                "amenity": "fast_food",
                "contact:vk": "https://vk.com/tarelka_life",
                "cuisine": "russian",
                "fast_food": "cafeteria",
                "name": "Тарелка",
                "opening_hours": "08:00-23:00",
                "operator": "ООО «Шалфей»",
                "phone": "+7 812 3149949",
                "website": "http://tarelkas.ru/cafes/kolokolnaya-ul-d-18-19/",
                "wheelchair": "no"
            },
            {
                "amenity": "fast_food",
                "brand": "Крошка Картошка",
                "brand:en": "Kroshka Kartoshka",
                "brand:ru": "Крошка Картошка",
                "brand:wikidata": "Q4241838",
                "brand:wikipedia": "ru:Крошка Картошка",
                "cuisine": "potato",
                "level": "3",
                "name": "Крошка Картошка",
                "name:en": "Kroshka Kartoshka",
                "name:ru": "Крошка Картошка",
                "opening_hours": "10:00-23:00",
                "takeaway": "yes"
            },
            {
                "name": "Чао пицца",
                "level": "3",
                "amenity": "fast_food",
                "cuisine": "pizza"
            },
            {
                "amenity": "fast_food",
                "brand": "Теремок",
                "brand:en": "Teremok",
                "brand:ru": "Теремок",
                "brand:wikidata": "Q4455593",
                "brand:wikipedia": "ru:Теремок (сеть быстрого питания)",
                "cuisine": "crepe;russian",
                "level": "3",
                "name": "Теремок",
                "name:en": "Teremok",
                "name:ru": "Теремок",
                "opening_hours": "08:00-23:00",
                "takeaway": "yes",
                "website": "http://www.teremok.ru/"
            },
            {
                "name": "PhoBo",
                "level": "3",
                "amenity": "fast_food"
            },
            {
                "alt_name": "Макдональдс",
                "amenity": "fast_food",
                "brand": "Макдоналдс",
                "brand:en": "McDonald's",
                "brand:ru": "Макдоналдс",
                "brand:wikidata": "Q38076",
                "brand:wikipedia": "en:McDonald's",
                "breakfast": "no",
                "contact:facebook": "https://www.facebook.com/mcdonaldsrussia",
                "contact:phone": "+7 812 3180938",
                "contact:website": "https://mcdonalds.ru",
                "cuisine": "burger",
                "drive_through": "no",
                "internet_access": "wlan",
                "int_name": "McDonald's",
                "level": "3",
                "name": "Макдоналдс",
                "name:de": "McDonald's",
                "name:en": "McDonald's",
                "name:ru": "Макдоналдс",
                "opening_hours": "Mo-Su 10:00-23:00",
                "takeaway": "yes"
            },
            {
                "amenity": "fast_food",
                "brand": "Carl's Jr.",
                "brand:wikidata": "Q1043486",
                "brand:wikipedia": "en:Carl's Jr.",
                "contact:facebook": "https://www.facebook.com/CarlsJrRus/",
                "contact:instagram": "https://www.instagram.com/CarlsJr_Russia/",
                "contact:vk": "https://vk.com/carls_jr",
                "cuisine": "burger",
                "level": "3",
                "name": "Carl's Jr.",
                "opening_hours": "08:00-23:00",
                "takeaway": "yes",
                "website": "http://carlsjr.ru/"
            },
            {
                "name": "Pita's",
                "level": "3",
                "amenity": "fast_food",
                "opening_hours": "08:00-23:00"
            },
            {
                "name": "Fire wok",
                "level": "3",
                "amenity": "fast_food",
                "opening_hours": "10:00-23:00"
            },
            {
                "name": "Ёгурти",
                "level": "3",
                "amenity": "fast_food",
                "opening_hours": "10:00-23:00"
            },
            {
                "alt_name": "Kentucky Fried Chicken",
                "amenity": "fast_food",
                "brand": "KFC",
                "brand:wikidata": "Q524757",
                "brand:wikipedia": "en:KFC",
                "breakfast": "no",
                "cuisine": "chicken",
                "delivery": "no",
                "drive_through": "no",
                "internet_access": "no",
                "level": "3",
                "name": "KFC",
                "official_name": "Kentucky Fried Chicken",
                "opening_hours": "08:00-23:00",
                "phone": "+7 812 4493527",
                "takeaway": "yes",
                "website": "https://www.kfc.ru/"
            },
            {
                "amenity": "fast_food",
                "brand": "Subway",
                "brand:wikidata": "Q244457",
                "brand:wikipedia": "en:Subway (restaurant)",
                "cuisine": "sandwich",
                "level": "3",
                "name": "Subway",
                "opening_hours": "10:00-23:00",
                "takeaway": "yes"
            },
            {
                "name": "Friendly Coffee",
                "amenity": "fast_food",
                "website": "http://friendly-coffee.ru/",
                "contact:vk": "https://vk.com/1friendlycoffee"
            },
            {
                "amenity": "fast_food",
                "brand": "Subway",
                "brand:wikidata": "Q244457",
                "brand:wikipedia": "en:Subway (restaurant)",
                "contact:vk": "https://vk.com/subwayrussia",
                "cuisine": "sandwich",
                "name": "Subway",
                "opening_hours": "Mo-Fr 09:00-22:00; Sa-Su 10:00-22:00",
                "operator": "ИП Быкова",
                "takeaway": "yes",
                "website": "https://subway.ru/"
            },
            {
                "amenity": "fast_food",
                "operator": "ООО \"Праздник плюс\"",
                "fast_food": "cafeteria",
                "opening_hours": "09:00-22:00"
            },
            {
                "amenity": "fast_food",
                "brand": "Бургер Кинг",
                "brand:en": "Burger King",
                "brand:ru": "Бургер Кинг",
                "brand:wikidata": "Q177054",
                "brand:wikipedia": "en:Burger King",
                "contact:email": "FeedBack@burgerking.ru",
                "contact:phone": "+7 812 6771268",
                "contact:website": "https://burgerking.ru/",
                "cuisine": "burger",
                "internet_access": "wlan",
                "internet_access:fee": "no",
                "level": "3",
                "name": "Бургер Кинг",
                "name:en": "Burger King",
                "name:ru": "Бургер Кинг",
                "opening_hours": "Mo 08:00 - 23:30;Tu-Su 08:00-23:30",
                "operator": "БУРГЕР РУС",
                "operator:phone": "+7 495 5445000",
                "ref": "11",
                "takeaway": "yes"
            },
            {
                "name": "Sushi Booffet",
                "level": "3",
                "amenity": "fast_food"
            },
            {
                "name": "Барбекю лэнд",
                "level": "3",
                "amenity": "fast_food",
                "operator": "Полёт",
                "payment:visa": "yes",
                "payment:maestro": "yes",
                "payment:mastercard": "yes",
                "payment:visa_electron": "yes"
            },
            {
                "amenity": "fast_food",
                "contact:vk": "https://vk.com/sushishop",
                "cuisine": "sushi",
                "name": "СушиШоп",
                "opening_hours": "10:00-23:00",
                "website": "https://www.sushishop.ru/"
            },
            {
                "name": "Донер City",
                "level": "0",
                "amenity": "fast_food"
            },
            {
                "amenity": "fast_food",
                "name": "Black Star Burger",
                "website": "http://blackstarburger.com"
            },
            {
                "amenity": "fast_food",
                "fast_food": "cafeteria",
                "name": "Столовкин",
                "opening_hours": "08:00-21:00"
            },
            {
                "amenity": "fast_food",
                "contact:instagram": "lavandaeclair",
                "cuisine": "coffee_shop",
                "fixme": "Расположение",
                "level": "4",
                "name": "Lavanda Eclair",
                "phone": "+7 812 9638524"
            },
            {
                "amenity": "fast_food",
                "contact:facebook": "https://facebook.com/fanofdonuts",
                "contact:instagram": "https://www.instagram.com/fanofdonuts",
                "contact:phone": "+7 812 9027299",
                "contact:website": "https://fanofdonuts.com",
                "cuisine": "donut",
                "fixme": "Расположение",
                "level": "4",
                "name": "Fan of donuts",
                "opening_hours": "10:00-23:00"
            },
            {
                "addr:housenumber": "23",
                "addr:street": "улица Марата",
                "amenity": "fast_food",
                "contact:instagram": "8956_hotdogs",
                "contact:vk": "hotdogsbyoblomoff",
                "cuisine": "burger",
                "name": "8956 Oblomoff streetfood",
                "opening_hours": "Mo-Th, Su 11:00-23:00; Fr, Sa 11:00-00:00",
                "phone": "+7 999 538-07-76"
            }
        ]
    },
    "bureau_de_change": {
        "count": 2,
        "detail": [
            {
                "addr:housenumber": "2",
                "addr:street": "Лиговский переулок",
                "amenity": "bureau_de_change",
                "contact:vk": "https://vk.com/ligovka_skv",
                "email": "obmen@ligovka.ru",
                "name": "Лиговский",
                "official_name": "Центр обмена СКВ «Лиговский»",
                "opening_hours": "Mo-Su 08:45-21:00",
                "operator": "Банк \"Авангард\"",
                "phone": "+7 812 3251093",
                "website": "https://ligovka.ru/"
            },
            {
                "name": "Заубер Банк",
                "amenity": "bureau_de_change",
                "website": "https://www.sauberbank.com/",
                "opening_hours": "09:30-20:30"
            }
        ]
    },
    "parking": {
        "count": 1,
        "detail": [
            {
                "amenity": "parking",
                "capacity": "600",
                "covered": "yes",
                "description": "Подземный паркинг ТРЦ \"Галерея\"",
                "fee": "yes",
                "layer": "-1",
                "parking": "underground"
            }
        ]
    },
    "theatre": {
        "count": 2,
        "detail": [
            {
                "amenity": "theatre",
                "contact:vk": "https://vk.com/teatrkomediantispb",
                "name": "Драматический театр «Комедианты»",
                "operator": "ГБУК «Драматический театр «Комедианты»",
                "phone": "+7 812 5721004",
                "ref:mkrf_theaters": "12475",
                "website": "http://komedianty.com/"
            },
            {
                "name": "Кукольный формат",
                "note": "вход со двора",
                "amenity": "theatre",
                "website": "http://www.kukfo.ru/",
                "alt_name": "Кукфо",
                "contact:vk": "https://vk.com/club647800"
            }
        ]
    },
    "parking_entrance": {
        "count": 3,
        "detail": [
            {
                "amenity": "parking_entrance"
            },
            {
                "amenity": "parking_entrance",
                "capacity": "1300",
                "fee": "yes",
                "opening_hours": "24/7",
                "parking": "underground"
            },
            {
                "amenity": "parking_entrance",
                "description": "Выезд с подземной парковки ТРЦ \"Галерея\""
            }
        ]
    },
    "post_box": {
        "count": 4,
        "detail": [
            {
                "ref": "80",
                "amenity": "post_box",
                "operator": "Почта России",
                "design:year": "2010",
                "drive_through": "no",
                "post_box:type": "wall",
                "post_box:design": "ЯПНМ-II-С",
                "collection_times": "Mo-Fr 06:20,14:50; Sa 10:25; Su 14:50"
            },
            {
                "amenity": "post_box",
                "collection_times": "06:20",
                "design:year": "2010",
                "drive_through": "no",
                "operator": "Почта России",
                "post_box:design": "ЯПНМ-II-С",
                "post_box:type": "wall",
                "ref": "66"
            },
            {
                "ref": "53",
                "amenity": "post_box",
                "operator": "Почта России",
                "design:year": "2010",
                "drive_through": "no",
                "post_box:type": "wall",
                "post_box:design": "ЯПНМ-II-С",
                "collection_times": "Mo-Fr 03:50,12:10; Sa 07:50; Su 12:10"
            },
            {
                "amenity": "post_box",
                "collection_times": "Mo-Sa 07:40",
                "drive_through": "no",
                "indoor": "yes",
                "level": "1",
                "opening_hours": "Mo-Fr 08:00-20:00; Sa 09:00-16:00; Su off",
                "operator": "Почта России",
                "post_box:design": "grey_pillar",
                "post_box:type": "pillar",
                "ref": "288"
            }
        ]
    },
    "chemist": {
        "count": 1,
        "detail": [
            {
                "brand": "Watsons",
                "brand:wikidata": "Q7974785",
                "brand:wikipedia": "en:Watsons",
                "contact:vk": "https://vk.com/watsonsrussia",
                "name": "Watsons",
                "opening_hours": "09:00-22:00",
                "operator": "ООО \"Спектр Групп\"",
                "shop": "chemist",
                "website": "https://watsons.com.ru/adresa-magazinov/ligovskij-pr-d-44"
            }
        ]
    },
    "bakery": {
        "count": 3,
        "detail": [
            {
                "building": "kiosk",
                "name": "Mouse Tail",
                "opening_hours": "08:00-22:00",
                "shop": "bakery"
            },
            {
                "name": "Хлебник",
                "shop": "bakery"
            },
            {
                "amenity": "cafe",
                "contact:email": "info@tseh85.ru",
                "contact:instagram": "instagram.com/tseh85",
                "contact:phone": "+7 812 7757785",
                "contact:vk": "https://vk.com/tseh85",
                "contact:website": "http://tseh85.ru/",
                "name": "Цех 85",
                "opening_hours": "Mo-Su 08:00-21:00",
                "operator": "Наумов",
                "shop": "bakery"
            }
        ]
    },
    "clothes": {
        "count": 29,
        "detail": [
            {
                "contact:email": "nord_look@mail.ru",
                "contact:phone": "+7 812 7123915",
                "contact:vk": "https://vk.com/nord_look",
                "name": "Nord Look",
                "opening_hours": "11:00-21:00",
                "shop": "clothes",
                "website": "https://www.nord-look.ru"
            },
            {
                "name": "Jeans классика",
                "shop": "clothes",
                "clothes": "denim"
            },
            {
                "brand": "Uniqlo",
                "brand:wikidata": "Q26070",
                "brand:wikipedia": "en:Uniqlo",
                "clothes": "children;women;men;underwear",
                "int_name": "Uniqlo",
                "name": "Uniqlo",
                "name:en": "Uniqlo",
                "name:ru": "Юникло",
                "opening_hours": "10:00-23:00",
                "operator": "Юникло (Рус)",
                "payment:cash": "yes",
                "payment:maestro": "yes",
                "payment:mastercard": "yes",
                "payment:visa": "yes",
                "payment:visa_electron": "yes",
                "phone": "+7 812 6029384",
                "shop": "clothes",
                "website": "https://www.uniqlo.com/ru/",
                "wheelchair": "yes"
            },
            {
                "check_date": "2016-12-25",
                "clothes": "underwear",
                "level": "2",
                "name": "Palmetta",
                "opening_hours": "10:00-23:00",
                "payment:mastercard": "yes",
                "payment:visa": "yes",
                "phone": "+7 812 6407282",
                "shop": "clothes",
                "website": "https://www.palmetta.ru/"
            },
            {
                "brand": "Koton",
                "brand:wikidata": "Q6063877",
                "brand:wikipedia": "tr:Koton",
                "check_date": "2016-12-25",
                "level": "2",
                "name": "Koton",
                "phone": "+7 812 3353651;+7 812 3353474",
                "shop": "clothes",
                "website": "https://www.koton.com/"
            },
            {
                "check_date": "2019-04",
                "clothes": "women",
                "level": "1",
                "name": "Karen Millen",
                "opening_hours": "10:00-23:00",
                "phone": "+7 812 6005162",
                "shop": "clothes",
                "website": "https://karenmillen.ru/"
            },
            {
                "check_date": "2016-12-25",
                "level": "2",
                "name": "Beefree",
                "opening_hours": "10:00-23:00",
                "phone": "+7 812 3835728",
                "shop": "clothes",
                "website": "https://www.befree.ru/"
            },
            {
                "brand": "Sela",
                "brand:wikidata": "Q62075111",
                "check_date": "2016-12-25",
                "level": "2",
                "name": "Sela",
                "opening_hours": "10:00-23:00",
                "phone": "+7 812 2443214;+7 800 2007352",
                "shop": "clothes",
                "website": "https://www.sela.ru/"
            },
            {
                "shop": "clothes",
                "brand": "Gap",
                "level": "1",
                "phone": "+7 812 4494254",
                "website": "https://www.gap.com.ru/",
                "operator": "Гап ритейл",
                "check_date": "20180626",
                "opening_hours": "10:00-23:00"
            },
            {
                "name": "Charuel",
                "shop": "clothes",
                "level": "1",
                "phone": "+7 812 6431397",
                "clothes": "women",
                "website": "http://www.charuel.ru/",
                "check_date": "2016-12-25",
                "opening_hours": "10:00-23:00"
            },
            {
                "name": "яМайка",
                "shop": "clothes",
                "website": "http://www.i-maika.ru/studios/marata/",
                "contact:vk": "https://vk.com/imaika",
                "description": "печать на футболках",
                "opening_hours": "11:00-21:00"
            },
            {
                "name": "Bianca Notte",
                "shop": "clothes",
                "website": "http://www.ottimospb.ru/",
                "contact:vk": "https://vk.com/nottebianca"
            },
            {
                "name": "Мидол",
                "shop": "clothes",
                "website": "http://midol.spb.ru/shop-6",
                "contact:vk": "https://vk.com/midol",
                "second_hand": "yes",
                "opening_hours": "11:00-21:00"
            },
            {
                "name": "NewLife.Moda",
                "shop": "clothes",
                "website": "http://newlifespb.ru/",
                "second_hand": "only"
            },
            {
                "name": "Sёstry Mamutiny",
                "shop": "clothes",
                "website": "http://www.sestry.biz/",
                "contact:vk": "https://vk.com/sestrymamutiny",
                "opening_hours": "Mo-Fr 11:00-21:00"
            },
            {
                "name": "Best",
                "shop": "clothes",
                "website": "http://best-bytik.ru/",
                "second_hand": "yes",
                "opening_hours": "Mo-Sa 11:30-20:00; Su 12:00-19:00"
            },
            {
                "name": "Egoista",
                "shop": "clothes",
                "website": "http://egoista-shop.ru/"
            },
            {
                "contact:vk": "https://vk.com/kawaicat",
                "name": "Kawaicat",
                "opening_hours": "11:00-21:00",
                "shop": "clothes",
                "website": "http://www.kawaicat.ru/"
            },
            {
                "brand": "Luhta",
                "level": "2",
                "name": "Лухта",
                "operator": "Лухта",
                "payment:cash": "yes",
                "payment:maestro": "yes",
                "payment:mastercard": "yes",
                "payment:visa": "yes",
                "payment:visa_electron": "yes",
                "shop": "clothes",
                "website": "https://luhta.fi/"
            },
            {
                "name": "Немецкая одежда",
                "shop": "clothes",
                "operator": "ООО «ПлатоФ»",
                "opening_hours": "Mo-Sa 10:00-20:00; Su 10:00-19:00"
            },
            {
                "brand": "Nike",
                "brand:wikidata": "Q483915",
                "brand:wikipedia": "en:Nike, Inc.",
                "clothes": "sports",
                "contact:email": "nike.galereya.spb@inventive.ru",
                "contact:phone": "+7 812 4490723",
                "contact:website": "http://up-and-run.ru/",
                "level": "2",
                "name": "Nike",
                "name:en": "Nike",
                "opening_hours": "Mo-Su 10:00-23:00",
                "operator": "Ап энд ран",
                "shop": "clothes"
            },
            {
                "clothes": "sports",
                "contact:email": "sb.galereya.spb@street-beat.ru",
                "contact:facebook": "https://www.facebook.com/streetbeat.ru/",
                "contact:instagram": "https://www.instagram.com/streetbeat_ru/",
                "contact:phone": "+7 812 2091761",
                "contact:vk": "https://vk.com/streetbeat_ru",
                "contact:website": "https://street-beat.ru/",
                "description": "STREET BEAT – сеть мультибрендовых магазинов, где представлена обувь, одежда и аксессуары от Nike, Jordan, New Balance, ASICSTiger, adidas, Reebok, Puma, Vans, Converse, Diadora, Stussy и др.",
                "name": "Street Beat",
                "name:en": "Street beat",
                "opening_hours": "Mo-Su 10:00-23:00",
                "operator": "Реинвент",
                "ref": "3 этаж",
                "shop": "clothes"
            },
            {
                "shop": "clothes",
                "opening_hours": "Mo-Fr 11:00-20:00; Sa 11:00-19:00; Su 11:00-18:00"
            },
            {
                "name": "Lady Sharm",
                "shop": "clothes",
                "clothes": "women",
                "website": "http://ledisharm.com/",
                "operator": "ООО «Камея»",
                "contact:vk": "https://vk.com/ladysharmclassic",
                "opening_hours": "Mo-Sa 10:00-21:00; Su 10:00-19:00"
            },
            {
                "check_date": "2019-04",
                "level": "3",
                "name": "1001 Dress",
                "opening_hours": "10:00-23:00",
                "phone": "+7 812 6777325; +7 800 5550757",
                "shop": "clothes",
                "website": "https://1001dress.ru/"
            },
            {
                "check_date": "2019-04",
                "clothes": "women",
                "contact:facebook": "Tindari-2478479532222759",
                "contact:instagram": "tindari_shop",
                "contact:vk": "club180284495",
                "email": "tindari.manager@gmail.com",
                "level": "2",
                "name": "Tindary",
                "opening_hours": "10:00-23:00",
                "phone": "+7 812 6775608",
                "shop": "clothes",
                "website": "https://www.tindari.su/"
            },
            {
                "check_date": "2019-04",
                "clothes": "women",
                "contact:facebook": "youstore.one",
                "contact:instagram": "youstore.one",
                "contact:vk": "youstoreone",
                "email": "support@youstore.one",
                "level": "2",
                "name": "You",
                "opening_hours": "10:00-23:00",
                "phone": "+7 921 3360101",
                "shop": "clothes",
                "website": "https://youstore.one/"
            },
            {
                "check_date": "2019-04",
                "clothes": "underware",
                "level": "1",
                "name": "Undiz",
                "opening_hours": "10:00-23:00",
                "phone": "+7 812 6220264",
                "shop": "clothes",
                "website": "https://int.undiz.com/ru_RU/"
            },
            {
                "brand": "Puma",
                "brand:wikidata": "Q157064",
                "brand:wikipedia": "en:Puma (brand)",
                "clothes": "sports",
                "contact:phone": "+7 812 4935058",
                "contact:website": "https://www.ru.puma.com/",
                "name": "Puma",
                "opening_hours": "Mo-Su 10:00-23:00",
                "operator": "ПУМА-РУС",
                "shop": "clothes"
            }
        ]
    },
    "cafe": {
        "count": 28,
        "detail": [
            {
                "amenity": "cafe",
                "contact:vk": "https://vk.com/cafeukrop",
                "diet:vegetarian": "only",
                "level": "0",
                "name": "Укроп",
                "website": "http://cafe-ukrop.ru/"
            },
            {
                "amenity": "cafe",
                "contact:vk": "https://vk.com/l.brikcafe",
                "cuisine": "russian",
                "internet_access": "wlan",
                "name": "L. Brik",
                "phone": "+7 812 7646303",
                "website": "http://lbrik-cafe.ru/",
                "wheelchair": "no"
            },
            {
                "cafe": "time_cafe",
                "name": "Мансарда",
                "level": "5",
                "amenity": "cafe",
                "cuisine": "coffee_shop",
                "website": "http://clubmansarda.ru/",
                "contact:vk": "https://vk.com/clubmansarda",
                "opening_hours": "Mo-Th, Su 12:00-23:59; Fr-Sa 12:00-6:00",
                "internet_access": "wlan"
            },
            {
                "name": "На Парах",
                "phone": "+7 812 5721001",
                "amenity": "cafe",
                "website": "http://www.naparah.ru/",
                "contact:vk": "https://vk.com/naparah",
                "opening_hours": "24/7",
                "internet_access": "wlan"
            },
            {
                "name": "Фо-лигов",
                "amenity": "cafe",
                "website": "http://fonari-spb.ru/",
                "contact:vk": "https://vk.com/fo_ligov",
                "opening_hours": "10:00-22:00"
            },
            {
                "name": "добрая кухня",
                "amenity": "cafe"
            },
            {
                "name": "Кафе Куба",
                "amenity": "cafe",
                "name:en": "Cafe Cuba",
                "name:ru": "Арт-кафе Кипяток"
            },
            {
                "name": "Оливка",
                "amenity": "cafe",
                "website": "http://papamamaspb.ru/",
                "int_name": "OLivka",
                "contact:vk": "https://vk.com/papamama_cafe",
                "opening_hours": "09:00-21:00"
            },
            {
                "amenity": "cafe",
                "name": "Кукерия",
                "opening_hours": "Mo-Su 09:00-22:00",
                "operator": "ООО \"Кулинарная лавка\""
            },
            {
                "name": "Babe's Bakery",
                "amenity": "cafe",
                "operator": "ООО «Бибейкери»",
                "contact:vk": "https://vk.com/babes_bakery",
                "opening_hours": "Mo-Fr 09:00-21:00; Sa-Su,PH 10:00-21:00"
            },
            {
                "amenity": "cafe",
                "contact:vk": "https://vk.com/woodbar",
                "internet_access": "wlan",
                "name": "Wood",
                "opening_hours": "Mo-Th 10:00-23:00; Fr-Su 12:00+"
            },
            {
                "name": "Твоя любимая шаверма",
                "amenity": "cafe",
                "website": "https://www.yourfavoriteshawarma.ru/",
                "contact:vk": "https://vk.com/your_favorite_shawarma",
                "contact:instagram": "https://www.instagram.com/your_favorite_shawarma/"
            },
            {
                "amenity": "cafe",
                "name": "Шаверма",
                "opening_hours": "24/7",
                "wheelchair": "no"
            },
            {
                "name": "#Кофейня №1",
                "amenity": "cafe",
                "website": "http://delmar-spb.ru/restaurants/soon/",
                "alt_name": "Кофейня №1",
                "contact:vk": "https://vk.com/coffeen1",
                "opening_hours": "24/7"
            },
            {
                "amenity": "cafe",
                "brand": "Cinnabon",
                "brand:wikidata": "Q1092539",
                "contact:facebook": "https://www.facebook.com/cinnabon.russia",
                "contact:instagram": "https://instagram.com/cinnabon_russia",
                "contact:phone": "+7 812 4548750",
                "contact:vk": "https://vk.com/cinnabon_rus",
                "contact:website": "https://cinnabonrussia.com/",
                "int_name": "Cinnabon",
                "name": "Синнабон",
                "opening_hours": "Fr-Su 09:00-23:00;Mo-Th 09:00-22:00",
                "operator": "Корица"
            },
            {
                "name": "Катюша",
                "note": "название видно (не всегда) на бегущей строке",
                "amenity": "cafe"
            },
            {
                "name": "Wag",
                "amenity": "cafe"
            },
            {
                "amenity": "cafe",
                "brand": "Cofix",
                "brand:en": "Cofix",
                "brand:he": "קפויקס",
                "brand:wikidata": "Q16132717",
                "brand:wikipedia": "he:קופיקס",
                "contact:vk": "https://vk.com/cofixrussia",
                "cuisine": "coffee_shop",
                "name": "Cofix",
                "name:en": "Cofix",
                "name:he": "קופיקס",
                "note": "нет на сайте",
                "takeaway": "yes",
                "website": "http://spb.cofix.ru/"
            },
            {
                "name": "Больше кофе!",
                "amenity": "cafe",
                "cuisine": "coffee_shop;breakfast",
                "name:en": "Bolshecoffee Roasters",
                "website": "https://instagram.com/bolshe_coffee",
                "opening_hours": "Mo-Su 09:00-21:00"
            },
            {
                "amenity": "cafe",
                "brand": "Coffeeshop Company",
                "brand:wikidata": "Q873767",
                "brand:wikipedia": "en:Coffeeshop Company",
                "cuisine": "coffee_shop",
                "name": "Coffeeshop Company",
                "opening_hours": "08:00-23:00",
                "operator": "Максимум кофе",
                "payment:cash": "yes",
                "payment:maestro": "yes",
                "payment:mastercard": "yes",
                "payment:visa": "yes",
                "payment:visa_electron": "yes",
                "phone": "+7 911 8179786",
                "takeaway": "yes",
                "website": "http://www.coffeeshopcompany.ru/",
                "wheelchair": "yes"
            },
            {
                "amenity": "cafe",
                "cuisine": "coffee_shop",
                "name": "Coffit"
            },
            {
                "amenity": "cafe",
                "cuisine": "coffee_shop",
                "diet:vegan": "yes",
                "diet:vegetarian": "yes",
                "name": "Святой Кофе",
                "name:en": "Saint Coffee",
                "opening_hours": "Mo-Sa 09:00-22:00; Su 13:00-22:00",
                "phone": "+7 931 2082008"
            },
            {
                "amenity": "cafe",
                "internet_access": "wlan",
                "name": "Краснодарский Парень",
                "name:en": "Krasnodarskiy boy",
                "opening_hours": "Mo-Su 10:00-23:00",
                "website": "https://vk.com/krdparen_spb"
            },
            {
                "amenity": "cafe",
                "contact:email": "info@bagginscoffee.ru",
                "contact:phone": "+7 800 6007015",
                "contact:website": "https://bagginscoffee.ru/",
                "name": "Baggins Coffee",
                "opening_hours": "Mo-Su 08:00-21:00",
                "operator": "ИП Леонькова Мария Николаевна"
            },
            {
                "amenity": "cafe",
                "contact:email": "info@bagginscoffee.ru",
                "contact:phone": "+7 800 6007015",
                "contact:website": "https://bagginscoffee.ru/",
                "name": "Baggins Coffee",
                "opening_hours": "Mo-Fr 08:00-21:00;Sa-Su 09:00-21:00",
                "operator": "ИП Севостьянов Роман Вячеславович"
            },
            {
                "amenity": "cafe",
                "contact:email": "restaurant.nemnem57@gmail.com",
                "contact:facebook": "https://facebook.com/NEM-NEM-299268747436181",
                "contact:instagram": "https://instagram.com/restaurant_nemnem.vn",
                "contact:phone": "+7 965 7773838",
                "contact:vk": "https://vk.com/restaurant_nemnem",
                "contact:website": "https://nemnem.ru/",
                "name": "Nem Nem",
                "opening_hours": "Mo-Su 12:00-23:00",
                "operator": "Nem Nem"
            },
            {
                "amenity": "cafe",
                "contact:email": "marketing@resproject.ru",
                "contact:facebook": "https://www.facebook.com/Chaihona1",
                "contact:instagram": "https://www.instagram.com/chaihona1msk",
                "contact:phone": "+7 812 6020207",
                "contact:vk": "https://vk.com/chaihona1",
                "contact:website": "http://chaihona.ru/",
                "name": "Чайхона №1",
                "official_name": "Vasilchuki Chaihona №1",
                "opening_hours": "Mo-Su 11:00-23:00",
                "operator": "Ориона"
            },
            {
                "amenity": "cafe",
                "cuisine": "georgian",
                "name": "Лодочка"
            }
        ]
    },
    "hardware": {
        "count": 1,
        "detail": [
            {
                "name": "Водопад",
                "shop": "hardware",
                "opening_hours": "Mo-Fr 08:00-22:00; Sa 09:00-20:00; Su 10:00-19:00",
                "contact:website": "http://vodopad.spb.ru/"
            }
        ]
    },
    "convenience": {
        "count": 10,
        "detail": [
            {
                "name": "СантаМаг",
                "shop": "convenience",
                "name:ru": "СантаМаг",
                "website": "http://santa-mag.ru/",
                "operator": "ООО \"Шарурский\"",
                "contact:vk": "https://vk.com/club144216822",
                "opening_hours": "24/7"
            },
            {
                "name": "У дома",
                "opening_hours": "24/7",
                "shop": "convenience",
                "wheelchair": "no"
            },
            {
                "name": "Продукты",
                "shop": "convenience",
                "opening_hours": "24/7"
            },
            {
                "name": "Минимаркет",
                "opening_hours": "24/7",
                "shop": "convenience",
                "wheelchair": "no"
            },
            {
                "name": "Продукты",
                "shop": "convenience",
                "operator": "ООО \"Аванта\"",
                "opening_hours": "24/7"
            },
            {
                "name": "Продукты",
                "shop": "convenience",
                "operator": "ООО \"Вектра\"",
                "opening_hours": "24/7"
            },
            {
                "name": "Продукты",
                "shop": "convenience",
                "opening_hours": "09:00-23:00"
            },
            {
                "brand": "ВкусВилл",
                "brand:wikidata": "Q57271676",
                "brand:wikipedia": "ru:Вкусвилл",
                "contact:facebook": "https://www.facebook.com/vkusvill.ru",
                "contact:instagram": "https://www.instagram.com/izbenka_vkusvill/",
                "contact:vk": "https://vk.com/vkusvill_ru",
                "name": "ВкусВилл",
                "opening_hours": "Mo-Su 09:00-22:00",
                "operator": "ООО «Вкусвилл»",
                "shop": "convenience",
                "website": "https://spb.vkusvill.ru/shops/?shop_id=9427"
            },
            {
                "name": "Daily Food",
                "shop": "convenience"
            },
            {
                "name": "Продукты",
                "shop": "convenience"
            }
        ]
    },
    "hairdresser": {
        "count": 3,
        "detail": [
            {
                "shop": "hairdresser"
            },
            {
                "name": "Cosmohair",
                "shop": "hairdresser",
                "website": "http://cosmohair.ru/",
                "description": "наращивание волос"
            },
            {
                "contact:email": "lastetico@gmail.com",
                "contact:instagram": "https://instagram.com/lastetico_spb",
                "contact:phone": "+7 953 7955666",
                "contact:vk": "https://vk.com/lastetico",
                "contact:website": "https://gladko.ru/",
                "name": "Lastetico",
                "opening_hours": "Mo-Su 10:00-21:00",
                "operator": "Lastetico",
                "shop": "hairdresser"
            }
        ]
    },
    "training": {
        "count": 3,
        "detail": [
            {
                "name": "Я — Актер!",
                "amenity": "training",
                "website": "http://i-actor.ru/",
                "contact:vk": "https://vk.com/iactorspb",
                "wheelchair": "no",
                "description": "актёрское мастерство для детей"
            },
            {
                "name": "ITC Group",
                "amenity": "training",
                "website": "https://www.itctraining.ru/",
                "contact:vk": "https://vk.com/itctraining",
                "description": "Бизнес-школа"
            },
            {
                "name": "EQuator",
                "amenity": "training",
                "website": "http://www.eqspb.ru/",
                "contact:vk": "https://vk.com/eqspb"
            }
        ]
    },
    "pub": {
        "count": 2,
        "detail": [
            {
                "name": "Bristol",
                "phone": "+7 812 3323255",
                "amenity": "pub",
                "name:ru": "Бристоль",
                "website": "http://molly.su/bristol/",
                "operator": "Mollie's Group",
                "contact:vk": "https://vk.com/bristol_pub",
                "opening_hours": "Su-Th 12:00-02:00, Fr-Sa 12:00-03:00",
                "internet_access": "wlan"
            },
            {
                "name": "Mc Clane",
                "amenity": "pub",
                "contact:vk": "https://vk.com/mc_clane"
            }
        ]
    },
    "pharmacy": {
        "count": 4,
        "detail": [
            {
                "amenity": "pharmacy",
                "contact:vk": "https://vk.com/ozerkiapteka",
                "healthcare": "pharmacy",
                "name": "Озерки",
                "opening_hours": "Mo-Fr 07:00-23:00; Sa-Su 08:00-22:00",
                "operator": "ООО «Аптеки Бинко»",
                "website": "https://ozerki.ru/",
                "wheelchair": "no"
            },
            {
                "amenity": "pharmacy",
                "contact:vk": "https://vk.com/planeta_zdorovo",
                "healthcare": "pharmacy",
                "name": "Планета здоровья",
                "opening_hours": "24/7",
                "operator": "ООО «Парус»",
                "website": "https://planetazdorovo.ru/"
            },
            {
                "amenity": "pharmacy",
                "healthcare": "pharmacy",
                "name": "Доктор",
                "opening_hours": "24/7",
                "website": "http://apteka-doctor.ru/apteka/ligovskiy-pr-73/"
            },
            {
                "name": "Аптека 1",
                "phone": "+7 812 9301818",
                "amenity": "pharmacy",
                "int_name": "Pharmacy 1",
                "operator": "ООО «Кайлас Девелопмент»",
                "wheelchair": "no",
                "opening_hours": "24/7",
                "payment:debit_cards": "yes",
                "payment:credit_cards": "yes"
            }
        ]
    },
    "games": {
        "count": 1,
        "detail": [
            {
                "addr:housenumber": "4",
                "addr:postcode": "191040",
                "addr:street": "Лиговский переулок",
                "contact:vk": "https://vk.com/hobbygames_sp",
                "name": "Hobby Games",
                "opening_hours": "Mo-Su 10:00-21:00",
                "operator": "ООО «Лавка чудес»",
                "phone": "+7 812 7482050",
                "shop": "games",
                "website": "https://hobbygames.ru/magazin_na_ploshhadi_vosstanija",
                "wheelchair": "no"
            }
        ]
    },
    "waste_disposal": {
        "count": 7,
        "detail": [
            {
                "amenity": "waste_disposal"
            },
            {
                "amenity": "waste_disposal"
            },
            {
                "amenity": "waste_disposal"
            },
            {
                "amenity": "waste_disposal"
            },
            {
                "amenity": "waste_disposal"
            },
            {
                "amenity": "waste_disposal"
            },
            {
                "amenity": "waste_disposal"
            }
        ]
    },
    "alcohol": {
        "count": 4,
        "detail": [
            {
                "contact:facebook": "https://www.facebook.com/aromatny.mir",
                "contact:phone": "+7 812 32160605076",
                "contact:website": "http://amwine.ru",
                "name": "Ароматный мир",
                "name:en": "Aromatny Mir",
                "name:ru": "Ароматный мир",
                "opening_hours": "Mo-Su 10:00-22:00",
                "shop": "alcohol"
            },
            {
                "contact:vk": "https://vk.com/amwineru",
                "name": "Ароматный мир",
                "opening_hours": "10:00-22:00",
                "operator": "ООО «ВТ-Центр»",
                "shop": "alcohol",
                "website": "https://amwine.ru/customers/shops/detail/84765/"
            },
            {
                "contact:vk": "https://vk.com/napitkimiracom",
                "name": "Калейдоскоп напитков мира",
                "opening_hours": "10:00-22:00",
                "operator": "ООО «Калейдоскоп»",
                "shop": "alcohol",
                "website": "https://www.napitkimira.com/magaziny/kaleydoskop-napitkov-na-marata-18/"
            },
            {
                "name": "Росал 24",
                "shop": "alcohol",
                "opening_hours": "Mo-Su 11:00-22:00"
            }
        ]
    },
    "dry_cleaning": {
        "count": 1,
        "detail": [
            {
                "name": "Дом быта",
                "shop": "dry_cleaning",
                "craft": "key_cutter;shoemaker;tailor"
            }
        ]
    },
    "atm": {
        "count": 11,
        "detail": [
            {
                "amenity": "atm",
                "entrance": "yes",
                "name": "Сбербанк",
                "opening_hours": "24/7",
                "operator": "ПАО Сбербанк",
                "operator:wikidata": "Q205012",
                "operator:wikipedia": "ru:Сбербанк России"
            },
            {
                "ref": "263072",
                "brand": "Сбербанк",
                "amenity": "atm",
                "operator": "Сбербанк России"
            },
            {
                "amenity": "atm",
                "operator": "Альфа-Банк"
            },
            {
                "amenity": "atm",
                "operator": "Райффайзенбанк"
            },
            {
                "ref": "398209",
                "brand": "Сбербанк",
                "amenity": "atm",
                "operator": "Сбербанк России",
                "wheelchair": "yes"
            },
            {
                "brand": "Сбербанк",
                "amenity": "atm",
                "operator": "Сбербанк России",
                "wheelchair": "yes"
            },
            {
                "brand": "Сбербанк",
                "amenity": "atm",
                "operator": "Сбербанк России",
                "wheelchair": "yes"
            },
            {
                "brand": "Сбербанк",
                "amenity": "atm",
                "cash_in": "yes",
                "operator": "Сбербанк России",
                "wheelchair": "yes"
            },
            {
                "brand": "Сбербанк",
                "amenity": "atm",
                "operator": "Сбербанк России",
                "wheelchair": "yes"
            },
            {
                "amenity": "atm",
                "operator": "Тинькофф Банк"
            },
            {
                "amenity": "atm",
                "check_date": "2019-04",
                "operator": "Банк Русский Стандарт",
                "wheelchair": "yes"
            }
        ]
    },
    "telephone": {
        "count": 2,
        "detail": [
            {
                "amenity": "telephone",
                "payment:telephone_cards": "yes"
            },
            {
                "amenity": "telephone"
            }
        ]
    },
    "watches": {
        "count": 3,
        "detail": [
            {
                "check_date": "2016-12-25",
                "level": "1",
                "name": "Casio",
                "phone": "+7 (921) 433-96-85",
                "shop": "watches",
                "website": "https://megachas.ru/"
            },
            {
                "name": "Atlantic",
                "shop": "watches",
                "level": "1",
                "phone": "+7 812 3330100",
                "website": "https://atlantic-watches.ru/",
                "check_date": "2016-12-25",
                "opening_hours": "10:00-23:00"
            },
            {
                "check_date": "2019-04",
                "name": "Just Brand",
                "opening_hours": "10:00-23:00",
                "phone": "+7 812 4269909",
                "shop": "watches",
                "website": "https://spikes.ru/"
            }
        ]
    },
    "toilets": {
        "count": 2,
        "detail": [
            {
                "fee": "no",
                "male": "yes",
                "level": "1",
                "female": "yes",
                "amenity": "toilets",
                "wheelchair": "yes",
                "toilets:disposal": "flush",
                "toilets:position": "seated;urinal"
            },
            {
                "amenity": "toilets",
                "changing_table": "yes",
                "fee": "no",
                "female": "yes",
                "level": "2",
                "male": "yes",
                "toilets:disposal": "flush",
                "toilets:position": "seated;urinal",
                "wheelchair": "yes"
            }
        ]
    },
    "cosmetics": {
        "count": 4,
        "detail": [
            {
                "check_date": "2021-02-02",
                "lat": "59.9273884",
                "lon": "30.3611275",
                "name": "Seacret",
                "opening_hours": "10:00-23:00",
                "shop": "cosmetics",
                "website": "https://vk.com/seacretspb"
            },
            {
                "check_date": "2016-12-25",
                "contact:email": "spb-gallery@mixit.ru",
                "contact:phone": "+7 812 4587703",
                "contact:website": "https://mixit.ru/",
                "level": "2",
                "name": "Mixit",
                "opening_hours": "Mo-Su 10:00 - 23:00",
                "operator": "Рязанова Галина Александровна",
                "phone": "+7 812 6029704",
                "shop": "cosmetics"
            },
            {
                "contact:vk": "https://vk.com/mirraspb",
                "name": "Mirra",
                "shop": "cosmetics",
                "website": "https://mirraspb.ru/"
            },
            {
                "name": "Joy by Joy",
                "shop": "cosmetics",
                "website": "https://joybyjoy.ru/",
                "contact:vk": "https://vk.com/joybyjoy",
                "reservation": "required"
            }
        ]
    },
    "post_locker": {
        "count": 1,
        "detail": [
            {
                "amenity": "post_locker",
                "drive_through": "no",
                "indoor": "yes",
                "level": "1",
                "operator": "Почта России",
                "ref": "42"
            }
        ]
    },
    "nightclub": {
        "count": 1,
        "detail": [
            {
                "name": "Zoccolo 2.0",
                "amenity": "nightclub",
                "name:ru": "Zoccolo 2.0"
            }
        ]
    },
    "mobile_phone": {
        "count": 4,
        "detail": [
            {
                "name": "Ex-Gad.ru",
                "shop": "mobile_phone",
                "email": "biotrop@mail.ru",
                "phone": "+7 911 9638526",
                "website": "http://ex-gad.ru/",
                "operator": "Александр Крахмаль",
                "contact:vk": "https://vk.com/extremegadget",
                "opening_hours": "Mo-Fr 11:00-13:30, 15:00-19:00",
                "internet_access": "wlan"
            },
            {
                "brand": "МТС",
                "brand:en": "MTS",
                "brand:wikidata": "Q1368919",
                "brand:wikipedia": "en:MTS (network provider)",
                "contact:vk": "https://vk.com/mts",
                "name": "МТС",
                "name:en": "MTS",
                "opening_hours": "09:00-21:00",
                "shop": "mobile_phone",
                "website": "https://spb.mts.ru/"
            },
            {
                "name": "акс",
                "shop": "mobile_phone",
                "email": "aksmarkets@gmail.com",
                "level": "3",
                "phone": "+7 812 3099321",
                "name:en": "aks",
                "name:ru": "акс",
                "website": "http://aks-market.ru",
                "payment:cash": "yes",
                "payment:visa": "yes",
                "opening_hours": "Mo-Su 10:00-23:00",
                "payment:coins": "yes",
                "internet_access": "wlan",
                "payment:maestro": "yes",
                "payment:mastercard": "yes",
                "payment:visa_debit": "yes",
                "payment:debit_cards": "yes",
                "payment:credit_cards": "yes",
                "payment:visa_electron": "yes"
            },
            {
                "contact:email": "care.gal.spb@re-store.ru",
                "contact:phone": "+7 812 2091569",
                "contact:website": "https://www.re-store.ru/care/",
                "name": "re:Store | care",
                "opening_hours": "Mo-Su 10:00-23:00",
                "operator": "реСтор",
                "shop": "mobile_phone"
            }
        ]
    },
    "jewelry": {
        "count": 10,
        "detail": [
            {
                "check_date": "2019-04",
                "level": "0",
                "name": "Московский ювелирный завод",
                "opening_hours": "10:00-23:00",
                "phone": "+7 800 1001920 ext. 344",
                "ref": "344",
                "shop": "jewelry",
                "website": "https://miuz.ru/"
            },
            {
                "brand": "Swarovski",
                "brand:wikidata": "Q611115",
                "brand:wikipedia": "en:Swarovski",
                "check_date": "2016-12-25",
                "name": "Swarovski",
                "opening_hours": "10:00-23:00",
                "phone": "+7 812 3180940",
                "shop": "jewelry",
                "website": "https://www.swarovski.com/"
            },
            {
                "check_date": "2016-12-25",
                "name": "Valtera Diamonds",
                "opening_hours": "10:00-22:00",
                "phone": "+7 495 9874286",
                "shop": "jewelry",
                "website": "https://www.valtera.ru/"
            },
            {
                "check_date": "2016-12-25",
                "level": "0",
                "name": "Mary Melody",
                "opening_hours": "10:00-23:00",
                "phone": "+7 812 9071033",
                "shop": "jewelry",
                "website": "http://marymelody.club/"
            },
            {
                "name": "Серебро",
                "shop": "jewelry",
                "website": "http://serebro-juvelir.com/",
                "opening_hours": "Mo-Fr 10:00-21:00; Sa-Su 11:00-21:00"
            },
            {
                "name": "Магия граната",
                "shop": "jewelry",
                "brand": "Granát Turnov",
                "website": "http://www.magicgarnet.ru/",
                "contact:vk": "https://vk.com/magic_garnet",
                "opening_hours": "11:00-20:00",
                "brand:wikidata": "Q12018446"
            },
            {
                "name": "Серебро",
                "shop": "jewelry"
            },
            {
                "contact:email": "uno.galereya.spb@inventive.ru",
                "contact:facebook": "https://www.facebook.com/unode50.ru",
                "contact:instagram": "https://instagram.com/unode50_ru/",
                "contact:phone": "+7 812 4490327",
                "contact:vk": "http://vk.com/unode50_ru",
                "contact:website": "https://unode50.ru/",
                "description": "UNOde50 – сеть бутиков ювелирных украшений ручной работы из Испании.",
                "name": "Unode50",
                "name:en": "UNOde50",
                "opening_hours": "Mo-Su 10:00-23:00",
                "operator": "Ап энд ран",
                "ref": "пом. А012, 1 этаж",
                "shop": "jewelry"
            },
            {
                "level": "0",
                "name": "Majorica",
                "phone": "+7 962 6868536",
                "shop": "jewelry",
                "website": "https://majorica.com.ru/"
            },
            {
                "brand": "Miestilo",
                "check_date": "2019-04",
                "contact:facebook": "miestilo.ru",
                "contact:instagram": "miestilo_ru",
                "contact:vk": "miestilo",
                "level": "1",
                "opening_hours": "10:00-23:00",
                "phone": "+7 800 5007061",
                "shop": "jewelry",
                "website": "https://miestilo.ru/",
                "wheelchair": "yes"
            }
        ]
    },
    "shoes": {
        "count": 6,
        "detail": [
            {
                "brand": "Ecco",
                "check_date": "2019-07",
                "contact:email": "info@ecco-ros.ru",
                "contact:facebook": "https://www.facebook.com/eccoru",
                "contact:instagram": "https://instagram.com/ecco_ru",
                "contact:ok": "https://ok.ru/eccoru",
                "contact:phone": "+7 495 6412525;+7 800 4442525;+7 812 6080530",
                "contact:vk": "https://vk.com/eccoru",
                "contact:website": "https://www.ecco-shoes.ru/",
                "level": "2",
                "name": "Экко-СПб Галерея",
                "opening_hours": "10:00-23:00",
                "operator": "Экко-Рос",
                "payment:cash": "yes",
                "payment:maestro": "yes",
                "payment:mastercard": "yes",
                "payment:visa": "yes",
                "payment:visa_electron": "yes",
                "shop": "shoes"
            },
            {
                "check_date": "2019-04",
                "int_name": "Sofia",
                "level": "2",
                "name": "София",
                "shop": "shoes",
                "website": "http://sofia-obuv.com/"
            },
            {
                "name": "Маттино",
                "shop": "shoes",
                "website": "http://mattino.ru/",
                "operator": "ИП Семенов А.С.",
                "opening_hours": "10:00-21:00"
            },
            {
                "contact:email": "club@ralf.ru",
                "contact:phone": "+7 800 2001011",
                "contact:website": "https://ralf.ru/",
                "level": "2",
                "name": "Ralf Ringer",
                "opening_hours": "Mo-Su 10:00-23:00",
                "operator": "РАЛЬФ РИНГЕР РИТЕЙЛ",
                "payment:mastercard": "yes",
                "payment:visa": "yes",
                "shop": "shoes"
            },
            {
                "addr:city": "Санкт-Петербург",
                "address:comment": "2 этаж, район Центральный",
                "addr:housenumber": "30А",
                "addr:street": "Лиговский проспект",
                "contact:email": "os-respect@mail.ru",
                "contact:facebook": "https://www.facebook.com/RESPECTSHOES",
                "contact:instagram": "https://www.instagram.com/respectshoes/",
                "contact:vk": "https://vk.com/respectshoess",
                "level": "2",
                "name": "Respect",
                "opening_hours": "Mo-Su 10:00-23:00",
                "operator": "Респект-Онлайн",
                "phone": "+7 812 3869043;+7 (800) 555-52-92",
                "shop": "shoes",
                "website": "https://respect-shoes.ru"
            },
            {
                "brand": "Crocs",
                "brand:wikidata": "Q926699",
                "brand:wikipedia": "en:Crocs",
                "check_date": "2019-04",
                "level": "3",
                "name": "Crocs",
                "phone": "+7 812 4494162",
                "shop": "shoes",
                "website": "https://www.crocs.com/"
            }
        ]
    },
    "confectionery": {
        "count": 1,
        "detail": [
            {
                "check_date": "2021-02-02",
                "level": "0",
                "name": "Лавка счастья",
                "opening_hours": "10:00-23:00",
                "phone": "+7 812 9831118",
                "shop": "confectionery",
                "website": "https://lavkaschastya.com/"
            }
        ]
    },
    "dance": {
        "count": 1,
        "detail": [
            {
                "dance:teaching": "yes",
                "leisure": "dance",
                "name": "Сальса плюс"
            }
        ]
    },
    "doctors": {
        "count": 4,
        "detail": [
            {
                "addr:postcode": "191040",
                "amenity": "doctors",
                "email": "pnc-z@pncz.ru",
                "healthcare": "doctor",
                "name": "Центр Д.Е. Зайцева",
                "opening_hours": "Mo-Fr 10:00-17:00",
                "phone": "+7 812 7642710",
                "website": "http://pncz.ru"
            },
            {
                "amenity": "doctors",
                "healthcare": "doctor",
                "level": "2",
                "name": "Ленинградский областной психоневрологический диспансер",
                "website": "http://www.лопнд.рф/"
            },
            {
                "amenity": "doctors",
                "contact:vk": "https://vk.com/grand_aesthetics",
                "healthcare": "doctor",
                "name": "Гранд Эстетик",
                "opening_hours": "10:00-21:00"
            },
            {
                "name": "Медицинский центр На Коломенской",
                "amenity": "doctors",
                "website": "http://www.medcenternk.ru",
                "operator": "Медицинский центр На Коломенской",
                "emergency": "yes",
                "contact:vk": "https://vk.com/club76819101",
                "healthcare": "hospital",
                "wheelchair": "no",
                "opening_hours": "Mo - Su 09:00-21:00",
                "poi:addr:city": "Санкт-Петербург",
                "poi:addr:street": "Коломенская улица,1",
                "poi:addr:postcode": "191040"
            }
        ]
    },
    "optician": {
        "count": 5,
        "detail": [
            {
                "contact:email": "otzyv@happylook.ru",
                "contact:facebook": "https://www.facebook.com/happylook.ru/",
                "contact:instagram": "https://www.instagram.com/happylook.ru/",
                "contact:phone": "+7 812 3170004 ext. 2001",
                "contact:vk": "https://vk.com/happylook_ru",
                "contact:website": "https://megaoptika.happylook.ru/",
                "contact:youtube": "https://www.youtube.com/channel/UCY1OkGBHKrWjswV7MRxtEXQ",
                "name": "Счастливый взгляд",
                "opening_hours": "Mo-Su 10:00-21:00",
                "operator": "Веритас Вью",
                "shop": "optician",
                "wheelchair": "yes"
            },
            {
                "craft": "electronics_repair;jeweller;key_cutter;leather;shoemaker;tailor",
                "name": "Дом быта",
                "shop": "optician"
            },
            {
                "name": "Лорнет",
                "shop": "optician",
                "opening_hours": "Mo-Fr 10:00-20:00; Sa-Su 11:00-20:00"
            },
            {
                "check_date": "2019-04",
                "email": "service@optica-tz.ru",
                "level": "2",
                "name": "Точка зрения",
                "opening_hours": "10:00-23:00",
                "phone": "+7 812 9843582",
                "shop": "optician",
                "website": "http://www.optica-tz.ru/"
            },
            {
                "name": "Катти Сарк",
                "opening_hours": "10:00-20:00",
                "operator": "ООО «ЭйчДи Оптика»",
                "shop": "optician",
                "website": "http://www.cuttys.ru/salons/11/"
            }
        ]
    },
    "car_rental": {
        "count": 1,
        "detail": [
            {
                "name": "ЛюксАвто",
                "amenity": "car_rental",
                "website": "http://luxeavto-spb.ru/",
                "contact:vk": "https://vk.com/luxeavtocom",
                "opening_hours": "10:00-13:00,14:00-19:00"
            }
        ]
    },
    "camera": {
        "count": 1,
        "detail": [
            {
                "contact:vk": "https://vk.com/fotogamma",
                "name": "Fotogamma",
                "shop": "camera",
                "website": "https://foto-gamma.ru/"
            }
        ]
    },
    "tea": {
        "count": 1,
        "detail": [
            {
                "name": "Море чая",
                "shop": "tea",
                "website": "http://morecha.ru/",
                "contact:vk": "https://vk.com/morecha",
                "opening_hours": "Mo-Fr 08:30-20:30; Sa-Su 10:00-20:00"
            }
        ]
    },
    "pastry": {
        "count": 1,
        "detail": [
            {
                "name": "Невские берега",
                "shop": "pastry",
                "website": "http://www.cake.spb.ru/",
                "operator": "ИП Платонова М.И.",
                "contact:vk": "https://vk.com/nevskie.berega",
                "opening_hours": "Mo-Fr 08:30-20:30; Sa-Su 10:00-20:00"
            }
        ]
    },
    "music": {
        "count": 1,
        "detail": [
            {
                "name": "Фонотека",
                "shop": "music",
                "website": "https://phonoteka.ru/",
                "contact:vk": "https://vk.com/magazinphonoteka",
                "opening_hours": "10:00-22:00"
            }
        ]
    },
    "pet": {
        "count": 2,
        "detail": [
            {
                "name": "Домашний любимец",
                "shop": "pet",
                "website": "http://www.dogcat.ru/",
                "grooming": "yes",
                "contact:vk": "https://vk.com/petsbeautysalon",
                "opening_hours": "11:00-18:00"
            },
            {
                "name": "Petshop.ru",
                "shop": "pet",
                "website": "https://www.petshop.ru/",
                "contact:vk": "https://vk.com/club57",
                "opening_hours": "09:00-22:00"
            }
        ]
    },
    "beauty": {
        "count": 11,
        "detail": [
            {
                "name": "Magic Nails",
                "shop": "beauty",
                "contact:vk": "https://vk.com/maratanail"
            },
            {
                "name": "Сфинкс",
                "shop": "beauty",
                "website": "https://sfinks.ru/",
                "contact:vk": "https://vk.com/depilsalon"
            },
            {
                "name": "Феникс",
                "shop": "beauty",
                "operator": "ООО \"Витязь\"",
                "contact:vk": "https://vk.com/phoenixsalon",
                "opening_hours": "Mo-Sa 09:00-21:00; Su 10:00-20:00"
            },
            {
                "name": "Nova",
                "shop": "beauty",
                "contact:vk": "https://vk.com/novabeautystudio",
                "opening_hours": "10:00-21:00"
            },
            {
                "name": "Афродита",
                "shop": "beauty",
                "phone": "+7 812 7644650",
                "contact:vk": "https://vk.com/vafrodite",
                "opening_hours": "Mo-Fr 08:00-20:00; Sa-Su 09:00-20:00"
            },
            {
                "name": "Beauty Home",
                "shop": "beauty"
            },
            {
                "name": "Помада",
                "note": "вход под аркой",
                "shop": "beauty",
                "level": "0",
                "website": "http://www.salonpomada.ru/",
                "contact:vk": "https://vk.com/salonpomada"
            },
            {
                "name": "Креатив",
                "shop": "beauty",
                "website": "https://kreativespb.ru/",
                "operator": "ООО «Фирма Интердин»",
                "contact:vk": "https://vk.com/club18809175",
                "opening_hours": "Mo-Sa 10:00-21:00; Su 11:00-19:00"
            },
            {
                "name": "Реформа",
                "shop": "beauty",
                "website": "http://salonreforma.ru/",
                "contact:vk": "https://vk.com/reforma_spb"
            },
            {
                "contact:email": "podologiq@yandex.ru",
                "contact:instagram": "https://instagram.com/podoloiq_studio",
                "contact:phone": "+7 900 6489134;+7 913 5302342",
                "contact:website": "https://n157196.yclients.com/",
                "name": "Podolog IQ",
                "opening_hours": "Mo-Su 12:00-21:00",
                "operator": "Podolog IQ",
                "shop": "beauty"
            },
            {
                "contact:email": "clubspa-spb@mail.ru",
                "contact:instagram": "https://instagram.com/mirspa.ru",
                "contact:ok": "https://ok.ru/mirspa",
                "contact:phone": "+7 812 7644327;+7 965 7644334",
                "contact:vk": "https://vk.com/mirspa",
                "contact:website": "https://www.mirspa.ru/",
                "name": "МирСпа",
                "opening_hours": "Mo,We-Fr 11:00-18:00;Sa 11:00-17:00;Tu 11:00-20:00",
                "operator": "Райков Е.Н.",
                "shop": "beauty"
            }
        ]
    },
    "dentist": {
        "count": 2,
        "detail": [
            {
                "amenity": "dentist",
                "contact:vk": "https://vk.com/argauspb",
                "healthcare": "dentist",
                "name": "Аргау",
                "website": "https://argauspb.ru/"
            },
            {
                "addr:city": "Санкт-Петербург",
                "addr:housenumber": "65",
                "addr:postcode": "191040",
                "addr:street": "Лиговский проспект",
                "amenity": "dentist",
                "email": "dental@pl-krist.ru",
                "healthcare": "dentist",
                "healthcare:speciality": "dentist",
                "internet_access": "wlan",
                "name": "\"Планета Кристалл\"",
                "name:en": "\"Planet Crystall\"",
                "opening_hours": "Mo-Su 09:00-21:00",
                "opening_hours:covid19": "open",
                "phone": "+78124046666",
                "website": "http://pl-krist.ru"
            }
        ]
    },
    "furniture": {
        "count": 1,
        "detail": [
            {
                "name": "Landl",
                "shop": "furniture",
                "website": "http://www.landl.ru/address/ligovskiy/"
            }
        ]
    },
    "arts_centre": {
        "count": 2,
        "detail": [
            {
                "name": "Центр современного искусства имени Сергея Курёхина",
                "amenity": "arts_centre",
                "website": "http://kuryokhin.net/",
                "contact:vk": "https://vk.com/kuryokhincenter"
            },
            {
                "name": "0+",
                "amenity": "arts_centre",
                "contact:vk": "https://vk.com/prostranstvoplus"
            }
        ]
    },
    "language_school": {
        "count": 1,
        "detail": [
            {
                "amenity": "language_school",
                "contact:vk": "https://vk.com/club206908",
                "name": "Lexica",
                "website": "https://lexicacentre.ru/"
            }
        ]
    },
    "stationery": {
        "count": 2,
        "detail": [
            {
                "name": "GetPen",
                "shop": "stationery",
                "phone": "+7 812 3099309",
                "name:ru": "GetPen",
                "opening_hours": "Mo-Su 11:00-15:30, 16:00-20:00"
            },
            {
                "name": "Цензор",
                "shop": "stationery",
                "opening_hours": "09:30-19:00"
            }
        ]
    },
    "interior_decoration": {
        "count": 1,
        "detail": [
            {
                "name": "Ампир Декор",
                "shop": "interior_decoration",
                "website": "https://www.ampir.ru/shops/sankt-petergurg/ul_pushkinskaya_d_19_m_ploshchad_vosstaniya/",
                "contact:vk": "https://vk.com/ampir_decor"
            }
        ]
    },
    "doityourself": {
        "count": 1,
        "detail": [
            {
                "name": "Мастер ок!",
                "opening_hours": "Mo-Fr 10:00-20:00; Sa 10:00-19:00; Su 11:00-19:00",
                "operator": "ИП Григорьева О.В.",
                "shop": "doityourself",
                "website": "http://www.мастерок.su/"
            }
        ]
    },
    "bicycle_parking": {
        "count": 2,
        "detail": [
            {
                "amenity": "bicycle_parking"
            },
            {
                "amenity": "bicycle_parking"
            }
        ]
    },
    "waste_basket": {
        "count": 8,
        "detail": [
            {
                "amenity": "waste_basket"
            },
            {
                "amenity": "waste_basket"
            },
            {
                "amenity": "waste_basket"
            },
            {
                "amenity": "waste_basket"
            },
            {
                "amenity": "waste_basket"
            },
            {
                "amenity": "waste_basket"
            },
            {
                "amenity": "waste_basket"
            },
            {
                "amenity": "waste_basket"
            }
        ]
    },
    "bench": {
        "count": 8,
        "detail": [
            {
                "amenity": "bench"
            },
            {
                "amenity": "bench"
            },
            {
                "amenity": "bench"
            },
            {
                "amenity": "bench"
            },
            {
                "amenity": "bench"
            },
            {
                "amenity": "bench"
            },
            {
                "amenity": "bench"
            },
            {
                "amenity": "bench"
            }
        ]
    },
    "florist": {
        "count": 3,
        "detail": [
            {
                "name": "Ботаника Lab",
                "shop": "florist",
                "phone": "+7 921 7927014",
                "contact:vk": "https://vk.com/botanikalab",
                "opening_hours": "24/7"
            },
            {
                "shop": "florist",
                "website": "http://pushkinskaya20.ru/",
                "contact:vk": "https://vk.com/pushkinskaya20",
                "opening_hours": "08:00-23:00"
            },
            {
                "shop": "florist"
            }
        ]
    },
    "place_of_worship": {
        "count": 2,
        "detail": [
            {
                "name": "Храм во имя Тихвинской иконы Пресвятой Богородицы",
                "amenity": "place_of_worship",
                "religion": "christian",
                "denomination": "russian_orthodox",
                "opening_hours": "11:00-19:00; 14:00-15:00 off"
            },
            {
                "name": "Часовня Никольского Храма",
                "amenity": "place_of_worship",
                "building": "chapel",
                "religion": "christian",
                "addr:letter": "Д",
                "addr:street": "улица Марата",
                "denomination": "russian_orthodox",
                "addr:housenumber": "24А литД"
            }
        ]
    },
    "fitness_centre": {
        "count": 1,
        "detail": [
            {
                "name": "Йото",
                "sport": "yoga",
                "leisure": "fitness_centre",
                "website": "https://yoto108.ru/",
                "contact:vk": "https://vk.com/yoga_for_health"
            }
        ]
    },
    "sports": {
        "count": 2,
        "detail": [
            {
                "contact:vk": "https://vk.com/boardshopn1",
                "name": "Boardshop №1",
                "shop": "sports",
                "sport": "skateboard",
                "website": "https://www.boardshop-1.ru/",
                "wheelchair": "no"
            },
            {
                "brand": "Спортмастер",
                "brand:en": "Sportmaster",
                "brand:ru": "Спортмастер",
                "brand:wikidata": "Q4438176",
                "brand:wikipedia": "ru:Спортмастер",
                "email": "e-commerce@sportmaster.ru",
                "level": "2",
                "name": "Спортмастер",
                "name:en": "Sportmaster",
                "name:ru": "Спортмастер",
                "opening_hours": "Mo-Su 10:00-23:00",
                "operator": "ООО «Спортмастер»",
                "payment:mastercard": "yes",
                "payment:visa": "yes",
                "phone": "+7 812 7777771;+7 812 4494810",
                "ref": "210",
                "shop": "sports",
                "website": "https://www.sportmaster.ru/store/210/"
            }
        ]
    },
    "police": {
        "count": 1,
        "detail": [
            {
                "amenity": "police",
                "name": "Участковый пункт полиции"
            }
        ]
    },
    "vending_machine": {
        "count": 6,
        "detail": [
            {
                "brand": "Сбербанк",
                "amenity": "vending_machine",
                "vending": "payment_terminal",
                "operator": "Сбербанк России",
                "payment:visa": "yes",
                "payment:coins": "no",
                "payment:notes": "yes",
                "payment:maestro": "yes",
                "payment:mastercard": "yes",
                "payment:visa_electron": "yes"
            },
            {
                "brand": "Сбербанк",
                "amenity": "vending_machine",
                "vending": "payment_terminal",
                "operator": "Сбербанк России",
                "payment:visa": "yes",
                "payment:coins": "no",
                "payment:notes": "yes",
                "payment:maestro": "yes",
                "payment:mastercard": "yes",
                "payment:visa_electron": "yes"
            },
            {
                "brand": "Сбербанк",
                "amenity": "vending_machine",
                "vending": "payment_terminal",
                "operator": "Сбербанк России",
                "payment:visa": "yes",
                "payment:coins": "no",
                "payment:notes": "yes",
                "payment:maestro": "yes",
                "payment:mastercard": "yes",
                "payment:visa_electron": "yes"
            },
            {
                "brand": "Сбербанк",
                "amenity": "vending_machine",
                "vending": "payment_terminal",
                "operator": "Сбербанк России",
                "payment:visa": "yes",
                "payment:coins": "no",
                "payment:notes": "yes",
                "payment:maestro": "yes",
                "payment:mastercard": "yes",
                "payment:visa_electron": "yes"
            },
            {
                "brand": "Сбербанк",
                "amenity": "vending_machine",
                "vending": "payment_terminal",
                "operator": "Сбербанк России",
                "payment:visa": "yes",
                "payment:coins": "no",
                "payment:notes": "yes",
                "payment:maestro": "yes",
                "payment:mastercard": "yes",
                "payment:visa_electron": "yes"
            },
            {
                "brand": "Сбербанк",
                "amenity": "vending_machine",
                "vending": "payment_terminal",
                "operator": "Сбербанк России",
                "wheelchair": "yes",
                "payment:visa": "yes",
                "payment:coins": "no",
                "payment:notes": "yes",
                "payment:maestro": "yes",
                "payment:mastercard": "yes",
                "payment:visa_electron": "yes"
            }
        ]
    },
    "outpost": {
        "count": 2,
        "detail": [
            {
                "brand": "Wildberries",
                "brand:wikidata": "Q24933714",
                "brand:wikipedia": "ru:Wildberries",
                "contact:vk": "https://vk.com/wildberries_shop",
                "name": "Wildberries",
                "opening_hours": "Mo-Su 11:00-21:00",
                "reservation": "required",
                "shop": "outpost",
                "website": "https://www.wildberries.ru/"
            },
            {
                "addr:city": "Санкт-Петербург",
                "addr:housenumber": "50 к9 оф 2",
                "addr:postcode": "191040",
                "addr:street": "Лиговский проспект",
                "brand": "Pguards.ru",
                "contact:phone": "+7 911 935-95-72",
                "description": "Продажа звукового оборудования и музыкальных инструментов",
                "email": "sale@pguards.ru",
                "image": "https://pguards.ru/images/PG-bitr.png",
                "level": "1",
                "name": "Pguards.ru, интернет-магазин музыкальных аксессуаров",
                "opening_hours": "Mo-Su 10:00-19:00",
                "opening_hours:covid19": "open",
                "payment:cash": "yes",
                "payment:coins": "yes",
                "payment:credit_cards": "yes",
                "phone": "+7 800 500-52-57",
                "shop": "outpost",
                "website": "https://pguards.ru/"
            }
        ]
    },
    "coworking_space": {
        "count": 1,
        "detail": [
            {
                "name": "Дело",
                "amenity": "coworking_space",
                "website": "http://deloda.ru/deloda",
                "contact:vk": "https://vk.com/deloda"
            }
        ]
    },
    "books": {
        "count": 1,
        "detail": [
            {
                "name": "Золотой Лотос",
                "shop": "books",
                "contact:vk": "https://vk.com/club23334869",
                "opening_hours": "11:00-21:00"
            }
        ]
    },
    "charging_station": {
        "count": 1,
        "detail": [
            {
                "fee": "no",
                "amenity": "charging_station",
                "operator": "ПАО \"Ленэнерго\"",
                "socket:type2": "1",
                "contact:phone": "+7 800 7001471",
                "opening_hours": "closed",
                "socket:schuko": "1",
                "contact:website": "http://ev.lenenergo.ru/",
                "authentication:membership_card": "yes"
            }
        ]
    },
    "toys": {
        "count": 1,
        "detail": [
            {
                "brand": "Lego",
                "brand:wikidata": "Q1063455",
                "brand:wikipedia": "en:The Lego Group",
                "contact:email": "lego.galereya.spb@mir-kubikov.ru",
                "contact:facebook": "https://www.facebook.com/legostores",
                "contact:instagram": "https://instagram.com/legostores",
                "contact:ok": "http://ok.ru/legostores",
                "contact:phone": "+7 812 4935311",
                "contact:vk": "https://vk.com/legostores",
                "contact:website": "https://mir-kubikov.ru/",
                "contact:youtube": "https://www.youtube.com/channel/UCksrQUeJ7fjAJZjJk7kCU7g",
                "level": "3",
                "name": "Lego",
                "name:en": "Lego",
                "opening_hours": "Mo-Su 10:00-23:00",
                "operator": "Икстрим",
                "shop": "toys"
            }
        ]
    },
    "baby_goods": {
        "count": 1,
        "detail": [
            {
                "contact:email": "sbkids.galereya.spb@street-beat.ru",
                "contact:facebook": "https://www.facebook.com/streetbeat.kids",
                "contact:instagram": "https://www.instagram.com/streetbeat.kids/",
                "contact:phone": "+7 812 4935828",
                "contact:vk": "https://vk.com/streetbeat.kids",
                "contact:website": "https://street-beat.ru/",
                "name": "Street beat kids",
                "name:en": "Street beat kids",
                "opening_hours": "Mo-Su 10:00-23:00",
                "operator": "Реинвент",
                "shop": "baby_goods"
            }
        ]
    },
    "estate_agent": {
        "count": 1,
        "detail": [
            {
                "name": "Комната",
                "shop": "estate_agent"
            }
        ]
    },
    "ticket": {
        "count": 3,
        "detail": [
            {
                "name": "Диалог",
                "opening_hours": "Mo-Fr 09:00-20:00; Sa-Su 10:00-16:00",
                "operator": "ООО «Диалог»",
                "shop": "ticket",
                "tickets:avia": "yes",
                "tickets:train": "yes",
                "website": "https://www.dialog-ticket.ru/",
                "wheelchair": "no"
            },
            {
                "building": "yes",
                "building:levels": "1",
                "name": "Пригородные кассы",
                "shop": "ticket",
                "tickets:suburban_train": "yes"
            },
            {
                "building": "yes",
                "name": "Билетная касса № 13",
                "shop": "ticket"
            }
        ]
    },
    "travel_agency": {
        "count": 1,
        "detail": [
            {
                "name": "ЗаПутёвкой.рф",
                "shop": "travel_agency",
                "website": "http://запутевкой.рф/",
                "operator": "ООО «Золотые Ворота»",
                "contact:vk": "https://vk.com/zaputevkoy",
                "opening_hours": "Mo-Fr 10:00-20:00; Sa 11:00-19:00; Su 11:00-18:00"
            }
        ]
    },
    "community_centre": {
        "count": 1,
        "detail": [
            {
                "name": "Стены",
                "level": "-1",
                "amenity": "community_centre",
                "website": "vk.com/ligovskiy48",
                "addr:street": "Лиговский проспект",
                "addr:housenumber": "48В"
            }
        ]
    },
    "outdoor": {
        "count": 1,
        "detail": [
            {
                "level": "3",
                "name": "Garmin",
                "name:en": "Garmin",
                "name:ru": "Гармин",
                "opening_hours": "Mo-Su 10:00-23:00",
                "phone": "+7 812 3851176",
                "shop": "outdoor"
            }
        ]
    },
    "post_office": {
        "count": 1,
        "detail": [
            {
                "name": "Fox Express",
                "phone": "+7 812 4183771",
                "amenity": "post_office",
                "name:en": "Fox Express",
                "name:ru": "Фокс-Экспресс",
                "website": "https://fox-express.ru/spb"
            }
        ]
    },
    "electronics": {
        "count": 4,
        "detail": [
            {
                "contact:phone": "+7 812 6449898;+7 812 6449899",
                "contact:website": "http://siriust.ru",
                "name": "Профи",
                "opening_hours": "Mo-Su 10:00-20:00",
                "shop": "electronics"
            },
            {
                "brand": "М.Видео",
                "brand:en": "M.video",
                "brand:wikidata": "Q6558800",
                "brand:wikipedia": "en:M.video",
                "contact:email": "24@mvideo.ru",
                "contact:facebook": "https://www.facebook.com/mvideo.ru",
                "contact:instagram": "https://www.instagram.com/mvideo_ru/",
                "contact:ok": "https://ok.ru/mvideo",
                "contact:phone": "+7 800 6007775",
                "contact:twitter": "https://twitter.com/mvideo",
                "contact:vk": "https://vk.com/mvideo",
                "contact:website": "https://mvideo.ru/",
                "level": "2",
                "name": "М.Видео",
                "name:en": "M.video",
                "opening_hours": "Mo-Su 10:00-23:00",
                "operator": "МВМ",
                "shop": "electronics"
            },
            {
                "email": "4grouting.spb@inbox.ru",
                "name": "Интернет в загородный дом",
                "opening_hours": "Mo-Sa 11:00-19:00",
                "phone": "+7 900 6244666",
                "shop": "electronics",
                "website": "https://4grouting.pro/"
            },
            {
                "addr:city": "Санкт-Петербург",
                "addr:housenumber": "30",
                "addr:postcode": "191040",
                "addr:street": "Лиговский проспект",
                "email": "ac.galereya.spb@re-store.ru",
                "name": "re:Store",
                "opening_hours": "Mo-Su 10:00-23:00",
                "phone": "+7 812 449-57-23",
                "shop": "electronics",
                "website": "https://www.re-store.ru/"
            }
        ]
    },
    "massage": {
        "count": 2,
        "detail": [
            {
                "addr:city": "Санкт-Петербург",
                "addr:housenumber": "22-24",
                "addr:street": "улица Марата",
                "description": "Салон тайского массажа и СПА в Санкт-Петербурге",
                "name": "Banyan tree",
                "opening_hours": "10:00-22:00",
                "payment:cash": "yes",
                "payment:credit_cards": "yes",
                "phone": "+7 921 9040682",
                "shop": "massage",
                "website": "http://spabanyan.ru"
            },
            {
                "addr:city": "Санкт-Петербург",
                "addr:housenumber": "14А",
                "addr:postcode": "191040",
                "addr:street": "Кузнечный переулок",
                "email": "orchidspa@inbox.ru",
                "name": "Орхидея",
                "opening_hours": "24/7",
                "opening_hours:covid19": "open",
                "payment:cash": "yes",
                "payment:debit_cards": "yes",
                "phone": "+8 (901) 316 61 21",
                "shop": "massage",
                "website": "https://www.spa-orchid.ru"
            }
        ]
    },
    "car": {
        "count": 2,
        "detail": [
            {
                "email": "info@avtovikup24.com",
                "name": "Лион Моторс",
                "name:en": "Lion Motors",
                "opening_hours": "24/7",
                "operator": "Tamagohsa.e@yandex.ru",
                "phone": "+7 812 3366380",
                "shop": "car",
                "website": "https://avtovikup24.com"
            },
            {
                "name": "Автосалон \"Маршал авто Лиговский\"",
                "opening_hours:covid19": "open",
                "phone": "+79219449757",
                "shop": "car",
                "website": "https://pokupayavto.ru/"
            }
        ]
    },
    "sewing": {
        "count": 1,
        "detail": [
            {
                "contact:email": "2brata.spb@gmail.com",
                "contact:instagram": "https://instagram.com/2brata_spb",
                "contact:phone": "+7 921 8810111",
                "contact:vk": "https://vk.com/2brata_spb",
                "contact:website": "https://dva-brata.ru/",
                "name": "Два Брата",
                "opening_hours": "Mo-Su 10:00-20:00",
                "operator": "Два Брата",
                "shop": "sewing"
            }
        ]
    },
    "e-cigarette": {
        "count": 1,
        "detail": [
            {
                "contact:phone": "+880 3014767",
                "name": "Q Store",
                "opening_hours": "Mo-Su 10:00-23:00",
                "shop": "e-cigarette"
            }
        ]
    },
    "commercial": {
        "count": 3,
        "detail": [
            {
                "building": "commercial"
            },
            {
                "level": "2",
                "building": "commercial"
            },
            {
                "building": "commercial",
                "building:levels": "2"
            }
        ]
    },
    "service": {
        "count": 4,
        "detail": [
            {
                "power": "substation",
                "building": "service",
                "addr:letter": "Б",
                "addr:street": "Пушкинская улица",
                "addr:housenumber": "20"
            },
            {
                "power": "substation",
                "building": "service"
            },
            {
                "power": "substation",
                "height": "6",
                "building": "service",
                "addr:letter": "Т",
                "addr:street": "улица Марата",
                "building:levels": "1",
                "addr:housenumber": "14 литТ"
            },
            {
                "ref": "26",
                "building": "service",
                "man_made": "mineshaft",
                "operator": "Петербургский метрополитен",
                "mineshaft_type": "air",
                "building:levels": "1"
            }
        ]
    }
}