{
    "residents": 7069,
    "bar": {
        "count": 8,
        "detail": [
            {
                "amenity": "bar",
                "contact:phone": "+7 965 8132590",
                "contact:vk": "https://vk.com/mrtoadbar",
                "name": "Mr. Toad Bar",
                "opening_hours": "18:00-02:00; Fr,Sa 18:00-06:00",
                "outdoor_seating": "no",
                "wheelchair": "no"
            },
            {
                "amenity": "bar",
                "contact:vk": "https://vk.com/kontaktbar",
                "level": "1",
                "name": "Контакт бар",
                "opening_hours": "Mo-Su 12:00-06:00",
                "phone": "+7 812 9518395",
                "smoking": "no",
                "website": "https://kontaktbar.ru/"
            },
            {
                "amenity": "bar",
                "contact:vk": "https://vk.com/laborbar31",
                "name": "Лаборатория 31",
                "opening_hours": "15:00-06:00",
                "website": "http://laborbar31.ru/"
            },
            {
                "name": "A Guest",
                "amenity": "bar",
                "contact:vk": "https://vk.com/aguestloungebar"
            },
            {
                "name": "Simple",
                "amenity": "bar",
                "contact:vk": "https://vk.com/gastrosimplebarr",
                "wheelchair": "no",
                "opening_hours": "Mo-Su 11:00-00:00"
            },
            {
                "amenity": "bar",
                "contact:vk": "https://vk.com/kwakinnpub",
                "internet_access": "wlan",
                "name": "KwakInn",
                "opening_hours": "Su-Th 12:00-01:00; Fr-Sa 12:00-02:00",
                "phone": "+7 812 9052236",
                "website": "http://kwakinn.ru/reservations/butylochnaya-kwakinn-draught-bottle"
            },
            {
                "amenity": "bar",
                "name:en": "mr toad"
            },
            {
                "amenity": "bar",
                "contact:email": "mikeadvert@yandex.ru",
                "contact:phone": "+7 995 8901812",
                "name": "Hustle Lounge Bar",
                "opening_hours": "Fr-Sa 12:00-06:00;Mo-Th,Su 12:00-03:00",
                "operator": "Хасл"
            }
        ]
    },
    "bathroom_furnishing": {
        "count": 2,
        "detail": [
            {
                "name": "Стройторг",
                "shop": "bathroom_furnishing",
                "phone": "+7 812 5727510;+7 812 3149653",
                "website": "http://stroytorg97.ru/",
                "opening_hours": "Mo-Fr 10:00-19:00; Sa 10:00-18:00; Su 11:00-18:00"
            },
            {
                "contact:vk": "https://vk.com/akvalink",
                "name": "Аквалинк",
                "opening_hours": "Mo-Fr 10:00-19:00; Sa-Su 10:00-17:00",
                "shop": "bathroom_furnishing",
                "website": "https://akvalink.ru/"
            }
        ]
    },
    "playground": {
        "count": 4,
        "detail": [
            {
                "leisure": "playground"
            },
            {
                "leisure": "playground"
            },
            {
                "leisure": "playground"
            },
            {
                "leisure": "playground"
            }
        ]
    },
    "kindergarten": {
        "count": 4,
        "detail": [
            {
                "name": "Детский сад №25",
                "amenity": "kindergarten"
            },
            {
                "amenity": "kindergarten",
                "name": "Детский сад № 23",
                "website": "https://dou23.caduk.ru/"
            },
            {
                "name": "Детский сад №44",
                "amenity": "kindergarten"
            },
            {
                "name": "Детский сад №23",
                "amenity": "kindergarten",
                "website": "https://dou23.caduk.ru/"
            }
        ]
    },
    "supermarket": {
        "count": 5,
        "detail": [
            {
                "brand": "Дикси",
                "brand:en": "Dixy",
                "brand:wikidata": "Q4161561",
                "brand:wikipedia": "ru:Дикси (сеть магазинов)",
                "contact:phone": "+7 800 3330201",
                "contact:vk": "https://vk.com/dixyclub",
                "contact:youtube": "https://www.youtube.com/user/DixyChannel",
                "name": "Дикси",
                "name:ru": "Дикси",
                "opening_hours": "24/7",
                "operator": "АО «Дикси Юг»",
                "shop": "supermarket",
                "website": "https://dixy.ru/",
                "wheelchair": "limited"
            },
            {
                "brand": "Дикси",
                "brand:en": "Dixy",
                "brand:wikidata": "Q4161561",
                "brand:wikipedia": "ru:Дикси (сеть магазинов)",
                "contact:phone": "+7 800 3330201",
                "contact:vk": "https://vk.com/dixyclub",
                "contact:youtube": "https://www.youtube.com/user/DixyChannel",
                "name": "Дикси",
                "name:ru": "Дикси",
                "opening_hours": "08:00-23:00",
                "shop": "supermarket",
                "website": "https://dixy.ru/"
            },
            {
                "brand": "Дикси",
                "brand:en": "Dixy",
                "brand:wikidata": "Q4161561",
                "brand:wikipedia": "ru:Дикси (сеть магазинов)",
                "contact:phone": "+7 800 3330201",
                "contact:vk": "https://vk.com/dixyclub",
                "contact:youtube": "https://www.youtube.com/user/DixyChannel",
                "name": "Дикси",
                "name:ru": "Дикси",
                "opening_hours": "24/7",
                "shop": "supermarket",
                "website": "https://dixy.ru/"
            },
            {
                "brand": "Дикси",
                "brand:en": "Dixy",
                "brand:wikidata": "Q4161561",
                "brand:wikipedia": "ru:Дикси (сеть магазинов)",
                "contact:phone": "+7 800 3330201",
                "contact:vk": "https://vk.com/dixyclub",
                "contact:youtube": "https://www.youtube.com/user/DixyChannel",
                "level": "0",
                "name": "Дикси",
                "name:ru": "Дикси",
                "opening_hours": "09:00-23:00",
                "shop": "supermarket",
                "website": "https://dixy.ru/"
            },
            {
                "name": "Вкустер",
                "opening_hours": "24/7",
                "phone": "+7 (812) 777 53 07",
                "shop": "supermarket",
                "website": "https://vkuster.ru/"
            }
        ]
    },
    "bag": {
        "count": 2,
        "detail": [
            {
                "name": "1000 и одна сумка",
                "shop": "bag",
                "level": "-1",
                "website": "https://1000i1sumka.ru/",
                "contact:vk": "https://vk.com/sumok1001",
                "opening_hours": "11:00-21:00"
            },
            {
                "name": "Clipsa",
                "shop": "bag",
                "opening_hours": "10:00-21:00"
            }
        ]
    },
    "butcher": {
        "count": 1,
        "detail": [
            {
                "name": "Фермер",
                "shop": "butcher",
                "operator": "ИП Архипова И.В.",
                "opening_hours": "09:00-21:00"
            }
        ]
    },
    "fast_food": {
        "count": 14,
        "detail": [
            {
                "amenity": "fast_food",
                "brand": "Pizza Hut",
                "brand:wikidata": "Q191615",
                "brand:wikipedia": "en:Pizza Hut",
                "contact:email": "info@pizzahut.ru",
                "contact:facebook": "https://www.facebook.com/PizzaHutRussia",
                "contact:instagram": "https://www.instagram.com/pizzahutrussia/",
                "contact:phone": "+7 800 1001958",
                "contact:vk": "https://vk.com/pizzahutrussia",
                "contact:website": "https://spb.pizzahut.ru/",
                "cuisine": "pizza",
                "name": "Pizza Hut",
                "opening_hours": "09:00-22:00",
                "operator": "Амрест Пицца"
            },
            {
                "amenity": "fast_food",
                "contact:vk": "https://vk.com/tarelka_life",
                "cuisine": "russian",
                "fast_food": "cafeteria",
                "name": "Тарелка",
                "opening_hours": "08:00-23:00",
                "operator": "ООО «Шалфей»",
                "phone": "+7 812 3149949",
                "website": "http://tarelkas.ru/cafes/kolokolnaya-ul-d-18-19/",
                "wheelchair": "no"
            },
            {
                "name": "Friendly Coffee",
                "amenity": "fast_food",
                "website": "http://friendly-coffee.ru/",
                "contact:vk": "https://vk.com/1friendlycoffee"
            },
            {
                "amenity": "fast_food",
                "brand": "Subway",
                "brand:wikidata": "Q244457",
                "brand:wikipedia": "en:Subway (restaurant)",
                "contact:vk": "https://vk.com/subwayrussia",
                "cuisine": "sandwich",
                "name": "Subway",
                "opening_hours": "Mo-Fr 09:00-22:00; Sa-Su 10:00-22:00",
                "operator": "ИП Быкова",
                "takeaway": "yes",
                "website": "https://subway.ru/"
            },
            {
                "amenity": "fast_food",
                "operator": "ООО \"Праздник плюс\"",
                "fast_food": "cafeteria",
                "opening_hours": "09:00-22:00"
            },
            {
                "name": "Уличный шеф",
                "amenity": "fast_food"
            },
            {
                "amenity": "fast_food",
                "cuisine": "doner;mexican;falafel",
                "name": "Дон Педро"
            },
            {
                "level": "0",
                "amenity": "fast_food",
                "cuisine": "coffee_shop"
            },
            {
                "name": "Тили-тесто",
                "amenity": "fast_food",
                "cuisine": "pie",
                "building": "kiosk",
                "takeaway": "only",
                "wheelchair": "yes"
            },
            {
                "amenity": "fast_food",
                "fast_food": "cafeteria",
                "name": "Столовкин",
                "opening_hours": "08:00-21:00"
            },
            {
                "amenity": "fast_food",
                "contact:vk": "https://vk.com/stickercoffee",
                "cuisine": "coffee_shop",
                "name": "Sticker Coffee"
            },
            {
                "amenity": "fast_food",
                "brand": "Бургер Кинг",
                "brand:en": "Burger King",
                "brand:ru": "Бургер Кинг",
                "brand:wikidata": "Q177054",
                "brand:wikipedia": "en:Burger King",
                "contact:email": "FeedBack@burgerking.ru",
                "contact:phone": "+7 495 5445000",
                "contact:vk": "https://vk.com/burgerking",
                "contact:website": "https://burgerking.ru/",
                "cuisine": "burger",
                "name": "Бургер Кинг",
                "name:en": "Burger King",
                "name:ru": "Бургер Кинг",
                "opening_hours": "Fr-Sa 09:00-03:00;Mo-Th,Su 09:00-22:00",
                "takeaway": "yes"
            },
            {
                "addr:housenumber": "23",
                "addr:street": "улица Марата",
                "amenity": "fast_food",
                "contact:instagram": "8956_hotdogs",
                "contact:vk": "hotdogsbyoblomoff",
                "cuisine": "burger",
                "name": "8956 Oblomoff streetfood",
                "opening_hours": "Mo-Th, Su 11:00-23:00; Fr, Sa 11:00-00:00",
                "phone": "+7 999 538-07-76"
            },
            {
                "amenity": "fast_food",
                "brand": "Теремок",
                "brand:en": "Teremok",
                "brand:ru": "Теремок",
                "brand:wikidata": "Q4455593",
                "brand:wikipedia": "ru:Теремок (сеть быстрого питания)",
                "building": "kiosk",
                "contact:vk": "https://vk.com/teremok",
                "cuisine": "crepe;russian",
                "name": "Теремок",
                "name:en": "Teremok",
                "name:ru": "Теремок",
                "opening_hours": "10:00-22:30",
                "phone": "+7 911 7912173",
                "takeaway": "yes",
                "website": "https://teremok.ru/places/t_vladimirskaya/"
            }
        ]
    },
    "shoes": {
        "count": 4,
        "detail": [
            {
                "brand": "Salamander",
                "brand:wikidata": "Q878354",
                "brand:wikipedia": "de:Salamander (Schuhe)",
                "name": "Salamander",
                "opening_hours": "10:00-21:00",
                "operator": "ООО \"Гамма\"",
                "shop": "shoes",
                "website": "https://www.salamander.ru/where_to_buy/retail/sanktpeter/"
            },
            {
                "contact:vk": "https://vk.com/thomas_munz",
                "name": "Thomas Münz",
                "opening_hours": "10:00-22:00",
                "shop": "shoes",
                "website": "https://thomas-muenz.ru/salony/sankt-peterburg?salon_id=66"
            },
            {
                "name": "Сток-Центр",
                "shop": "shoes",
                "opening_hours": "10:00-21:00"
            },
            {
                "contact:vk": "https://vk.com/checkroomru",
                "name": "Checkroom",
                "opening_hours": "Mo-Fr 12:00-20:00; Sa-Su 13:00-18:00",
                "shop": "shoes",
                "website": "https://checkroom.ru/"
            }
        ]
    },
    "houseware": {
        "count": 1,
        "detail": [
            {
                "name": "Аура Богемии",
                "shop": "houseware",
                "website": "http://www.auraofbohemia.ru/",
                "int_name": "Aura of Bohemia",
                "contact:vk": "https://vk.com/auraofbohemia",
                "opening_hours": "10:00-21:00"
            }
        ]
    },
    "school": {
        "count": 1,
        "detail": [
            {
                "amenity": "school",
                "contact:email": "sch300@center-edu.spb.ru",
                "contact:phone": "+7 812 7132582",
                "contact:website": "http://shkola300.spb.ru",
                "name": "Школа № 300",
                "official_name": "Государственное бюджетное общеобразовательное учреждение начальная общеобразовательная школа № 300 Центрального района Санкт-Петербурга",
                "ref": "300"
            }
        ]
    },
    "mobile_phone": {
        "count": 4,
        "detail": [
            {
                "brand": "Связной",
                "brand:en": "Svyaznoy",
                "brand:wikidata": "Q65371",
                "brand:wikipedia": "en:Svyaznoy",
                "name": "Связной",
                "name:en": "Svyaznoy",
                "opening_hours": "09:00-23:00",
                "operator": "Связной",
                "phone": "+7 800 7004343",
                "shop": "mobile_phone",
                "website": "http://www.svyaznoy.ru/"
            },
            {
                "name": "Ex-Gad.ru",
                "shop": "mobile_phone",
                "email": "biotrop@mail.ru",
                "phone": "+7 911 9638526",
                "website": "http://ex-gad.ru/",
                "operator": "Александр Крахмаль",
                "contact:vk": "https://vk.com/extremegadget",
                "opening_hours": "Mo-Fr 11:00-13:30, 15:00-19:00",
                "internet_access": "wlan"
            },
            {
                "brand": "Мегафон",
                "brand:en": "MegaFon",
                "brand:wikidata": "Q1720713",
                "brand:wikipedia": "en:MegaFon",
                "contact:vk": "https://vk.com/megafon",
                "name": "Мегафон",
                "name:en": "MegaFon",
                "opening_hours": "09:00-21:00",
                "shop": "mobile_phone",
                "website": "https://spb.megafon.ru/"
            },
            {
                "email": "yourmobi@yandex.ru",
                "name": "You-mobi.ru",
                "opening_hours": "Mo-Fr 11:00-20:00; Sa-Su 12:00-19:00",
                "phone": "+7 812 9203998",
                "shop": "mobile_phone",
                "website": "http://you-mobi.ru"
            }
        ]
    },
    "cafe": {
        "count": 36,
        "detail": [
            {
                "addr:housenumber": "3",
                "addr:postcode": "191102",
                "addr:street": "Кузнечный переулок",
                "amenity": "cafe",
                "cuisine": "oriental;regional;russian;pancake;fish_and_chips;local;coffee_shop",
                "email": "forzhing@mail.ru",
                "internet_access": "wlan",
                "internet_access:fee": "no",
                "int_name": "Forzhing",
                "name": "Форжинг",
                "name:en": "Forzhing",
                "opening_hours": "Mo-Su 10:00-22:00",
                "phone": "+7 904 6343300"
            },
            {
                "amenity": "cafe",
                "contact:vk": "https://vk.com/cafeukrop",
                "diet:vegetarian": "only",
                "level": "0",
                "name": "Укроп",
                "website": "http://cafe-ukrop.ru/"
            },
            {
                "amenity": "cafe",
                "contact:vk": "https://vk.com/club45456896",
                "name": "Плюшкин дом",
                "smoking": "no",
                "website": "http://www.plushkin-dom.ru/"
            },
            {
                "name": "Старый город",
                "email": "oldsitybar@gmail.com",
                "phone": "+7 812 5721960;+7 911 7991879",
                "amenity": "cafe",
                "website": "http://cafesg.ru",
                "operator": "ООО «Кедр»",
                "contact:vk": "https://vk.com/sgorod26",
                "opening_hours": "Mo-Fr 10:00-23:00; Sa, Su 11:00-23:00"
            },
            {
                "amenity": "cafe",
                "contact:vk": "https://vk.com/l.brikcafe",
                "cuisine": "russian",
                "internet_access": "wlan",
                "name": "L. Brik",
                "phone": "+7 812 7646303",
                "website": "http://lbrik-cafe.ru/",
                "wheelchair": "no"
            },
            {
                "amenity": "cafe",
                "contact:instagram": "https://www.instagram.com/meg_obari/",
                "contact:vk": "https://vk.com/cafe_megobari",
                "name": "Megobari"
            },
            {
                "name": "Food studio",
                "amenity": "cafe",
                "contact:phone": "+7 952 3528301",
                "contact:website": "http://vk.com/foodstudio",
                "internet_access": "wlan",
                "internet_access:fee": "no"
            },
            {
                "cafe": "time_cafe",
                "name": "Мансарда",
                "level": "5",
                "amenity": "cafe",
                "cuisine": "coffee_shop",
                "website": "http://clubmansarda.ru/",
                "contact:vk": "https://vk.com/clubmansarda",
                "opening_hours": "Mo-Th, Su 12:00-23:59; Fr-Sa 12:00-6:00",
                "internet_access": "wlan"
            },
            {
                "name": "Два гуся",
                "amenity": "cafe",
                "cuisine": "donut"
            },
            {
                "name": "На Парах",
                "phone": "+7 812 5721001",
                "amenity": "cafe",
                "website": "http://www.naparah.ru/",
                "contact:vk": "https://vk.com/naparah",
                "opening_hours": "24/7",
                "internet_access": "wlan"
            },
            {
                "name": "Абажур",
                "amenity": "cafe",
                "contact:vk": "https://vk.com/abagurcafe"
            },
            {
                "name": "Прокофе",
                "amenity": "cafe",
                "cuisine": "coffee_shop"
            },
            {
                "name": "Кафе Куба",
                "amenity": "cafe",
                "name:en": "Cafe Cuba",
                "name:ru": "Арт-кафе Кипяток"
            },
            {
                "name": "Оливка",
                "amenity": "cafe",
                "website": "http://papamamaspb.ru/",
                "int_name": "OLivka",
                "contact:vk": "https://vk.com/papamama_cafe",
                "opening_hours": "09:00-21:00"
            },
            {
                "name": "Венская кофейня",
                "brand": "Coffeeshop Company",
                "phone": "+7 911 0014784",
                "amenity": "cafe",
                "cuisine": "coffee_shop",
                "website": "http://www.coffeeshopcompany.ru/address/city/18/468/",
                "contact:vk": "https://vk.com/csc",
                "opening_hours": "Mo-Fr 08:00-23:00; Sa-Su 09:00-23:00",
                "brand:wikidata": "Q873767",
                "internet_access": "wlan"
            },
            {
                "amenity": "cafe"
            },
            {
                "name": "Штрогель",
                "amenity": "cafe",
                "website": "http://strogell.ru/kafe/kafe-shtrogel-na-bolshoj-moskovskoj",
                "contact:vk": "https://vk.com/strogell",
                "opening_hours": "09:00-21:00"
            },
            {
                "name": "Etlon Coffee",
                "amenity": "cafe",
                "opening_hours": "Mo-Fr 08:30-20:00; Sa 09:00-18:00"
            },
            {
                "name": "Melange",
                "amenity": "cafe"
            },
            {
                "name": "Babe's Bakery",
                "amenity": "cafe",
                "operator": "ООО «Бибейкери»",
                "contact:vk": "https://vk.com/babes_bakery",
                "opening_hours": "Mo-Fr 09:00-21:00; Sa-Su,PH 10:00-21:00"
            },
            {
                "amenity": "cafe",
                "contact:vk": "https://vk.com/woodbar",
                "internet_access": "wlan",
                "name": "Wood",
                "opening_hours": "Mo-Th 10:00-23:00; Fr-Su 12:00+"
            },
            {
                "name": "Твоя любимая шаверма",
                "amenity": "cafe",
                "website": "https://www.yourfavoriteshawarma.ru/",
                "contact:vk": "https://vk.com/your_favorite_shawarma",
                "contact:instagram": "https://www.instagram.com/your_favorite_shawarma/"
            },
            {
                "name": "Каттакурган",
                "level": "-1",
                "amenity": "cafe",
                "wheelchair": "no"
            },
            {
                "amenity": "cafe",
                "brand": "Старбакс",
                "brand:en": "Starbucks",
                "brand:wikidata": "Q37158",
                "brand:wikipedia": "en:Starbucks",
                "contact:vk": "https://vk.com/starbucks",
                "cuisine": "coffee_shop",
                "int_name": "Starbucks",
                "name": "Старбакс",
                "name:en": "Starbucks",
                "official_name": "Starbucks Coffee",
                "takeaway": "yes",
                "website": "http://www.starbucks.ru/"
            },
            {
                "amenity": "cafe",
                "name": "Пловная",
                "opening_hours": "Mo-Su 09:00-22:00",
                "operator": "ИП Кеба АС",
                "wheelchair": "no"
            },
            {
                "name": "Больше кофе!",
                "amenity": "cafe",
                "cuisine": "coffee_shop;breakfast",
                "name:en": "Bolshecoffee Roasters",
                "website": "https://instagram.com/bolshe_coffee",
                "opening_hours": "Mo-Su 09:00-21:00"
            },
            {
                "amenity": "cafe",
                "brand": "Coffee Like",
                "brand:wikidata": "Q55662627",
                "brand:wikipedia": "ru:Coffee Like",
                "contact:email": "hotline@coffee-like.com",
                "contact:phone": "+7 341 2908292;+7 800 3334130",
                "contact:vk": "https://vk.com/coffeelike78",
                "contact:website": "https://coffee-like.com/",
                "cuisine": "coffee_shop",
                "name": "Coffee Like",
                "opening_hours": "09:00-21:50",
                "operator": "Суворова Анна Александровна",
                "takeaway": "yes"
            },
            {
                "amenity": "cafe",
                "contact:vk": "https://vk.com/healthy_conscience",
                "name": "Healthy Conscience",
                "note": "во дворе",
                "website": "https://healthy-conscience.ru/"
            },
            {
                "amenity": "cafe",
                "internet_access": "wlan",
                "name": "Краснодарский Парень",
                "name:en": "Krasnodarskiy boy",
                "opening_hours": "Mo-Su 10:00-23:00",
                "website": "https://vk.com/krdparen_spb"
            },
            {
                "amenity": "cafe",
                "name:en": "Coffee Bells"
            },
            {
                "amenity": "cafe",
                "contact:email": "info@tseh85.ru",
                "contact:instagram": "instagram.com/tseh85",
                "contact:phone": "+7 812 7757785",
                "contact:vk": "vk.com/tseh85",
                "contact:website": "http://tseh85.ru/",
                "name": "Цех 85",
                "opening_hours": "Mo-Fr 08:00-21:00;Sa-Su 09:00-21:00",
                "operator": "Карева"
            },
            {
                "amenity": "cafe",
                "contact:email": "info@bagginscoffee.ru",
                "contact:phone": "+7 800 6007015",
                "contact:website": "https://bagginscoffee.ru/",
                "name": "Baggins Coffee",
                "opening_hours": "Mo-Su 08:00-21:00",
                "operator": "ИП Леонькова Мария Николаевна"
            },
            {
                "amenity": "cafe",
                "cuisine": "local;oriental;pancake;russian",
                "email": "forzhing@mail.ru",
                "internet_access": "wlan",
                "name": "\"Форжинг\"",
                "name:en": "\"Forzhing\"",
                "opening_hours": "Mo-Su 10:00-22:00",
                "operator": "ООО \"Форжинг\"",
                "phone": "+7 904 6343300",
                "website": "https://forzhing.restoru.ru"
            },
            {
                "amenity": "cafe",
                "name:en": "Qq bar"
            },
            {
                "amenity": "cafe",
                "cuisine": "georgian",
                "name": "Лодочка"
            },
            {
                "name": "Etlon Coffee",
                "amenity": "cafe",
                "cuisine": "coffee_shop;cafe",
                "smoking": "outside",
                "building": "yes",
                "addr:city": "Санкт-Петербург",
                "addr:street": "Владимирская площадь",
                "opening_hours": "Mo-Sa 08:00-21:00, Su 10:00-21:00",
                "internet_access": "wlan",
                "internet_access:fee": "no"
            }
        ]
    },
    "sauna": {
        "count": 1,
        "detail": [
            {
                "leisure": "sauna",
                "name": "Ямские Бани"
            }
        ]
    },
    "bus_stop": {
        "count": 2,
        "detail": [
            {
                "bus": "yes",
                "fixme": "расположение примерное",
                "highway": "bus_stop",
                "name": "станция метро «Владимирская»",
                "public_transport": "platform"
            },
            {
                "name": "Владимирская площадь",
                "public_transport": "stop_position",
                "trolleybus": "yes"
            }
        ]
    },
    "hardware": {
        "count": 1,
        "detail": [
            {
                "name": "Водопад",
                "shop": "hardware",
                "opening_hours": "Mo-Fr 08:00-22:00; Sa 09:00-20:00; Su 10:00-19:00",
                "contact:website": "http://vodopad.spb.ru/"
            }
        ]
    },
    "pet": {
        "count": 4,
        "detail": [
            {
                "contact:vk": "https://vk.com/zoo_k9",
                "name": "K-9",
                "opening_hours": "10:00-20:00",
                "operator": "ИП Карташова И.В.",
                "shop": "pet"
            },
            {
                "name": "Домашний любимец",
                "shop": "pet",
                "website": "http://www.dogcat.ru/",
                "grooming": "yes",
                "contact:vk": "https://vk.com/petsbeautysalon",
                "opening_hours": "11:00-18:00"
            },
            {
                "name": "Petshop.ru",
                "shop": "pet",
                "website": "https://www.petshop.ru/",
                "contact:vk": "https://vk.com/club57",
                "opening_hours": "09:00-22:00"
            },
            {
                "name": "Первая ветеринарная аптека",
                "shop": "pet",
                "wheelchair": "no",
                "opening_hours": "Mo-Fr 10:00-20:00; Sa, Su 12:00-18:00",
                "payment:debit_cards": "yes",
                "payment:credit_cards": "yes"
            }
        ]
    },
    "convenience": {
        "count": 12,
        "detail": [
            {
                "name": "СантаМаг",
                "shop": "convenience",
                "name:ru": "СантаМаг",
                "website": "http://santa-mag.ru/",
                "operator": "ООО \"Шарурский\"",
                "contact:vk": "https://vk.com/club144216822",
                "opening_hours": "24/7"
            },
            {
                "name": "Продукты",
                "shop": "convenience",
                "opening_hours": "24/7"
            },
            {
                "name": "Продукты",
                "opening_hours": "24/7",
                "shop": "convenience"
            },
            {
                "name": "У дома",
                "opening_hours": "24/7",
                "shop": "convenience",
                "wheelchair": "no"
            },
            {
                "name": "Продукты",
                "shop": "convenience",
                "opening_hours": "24/7"
            },
            {
                "name": "Продукты",
                "shop": "convenience",
                "opening_hours": "24/7"
            },
            {
                "name": "Продукты",
                "shop": "convenience",
                "opening_hours": "24/7"
            },
            {
                "name": "Продукты",
                "shop": "convenience",
                "opening_hours": "09:00-23:00"
            },
            {
                "name": "Продукты",
                "shop": "convenience",
                "opening_hours": "24/7"
            },
            {
                "name": "Псковский Мясной",
                "note": "возможно https://pskovagro.ru/shops/",
                "shop": "convenience"
            },
            {
                "name": "Финские продукты",
                "opening_hours": "10:00-21:00",
                "origin": "finnish",
                "shop": "convenience"
            },
            {
                "brand": "ВкусВилл",
                "brand:wikidata": "Q57271676",
                "brand:wikipedia": "ru:Вкусвилл",
                "contact:facebook": "https://www.facebook.com/vkusvill.ru",
                "contact:instagram": "https://www.instagram.com/izbenka_vkusvill/",
                "contact:vk": "https://vk.com/vkusvill_ru",
                "name": "ВкусВилл",
                "opening_hours": "Mo-Su 09:00-22:00",
                "operator": "ООО «Вкусвилл»",
                "shop": "convenience",
                "website": "https://spb.vkusvill.ru/shops/?shop_id=9427"
            }
        ]
    },
    "bank": {
        "count": 6,
        "detail": [
            {
                "amenity": "bank",
                "brand": "Викинг",
                "brand:wikidata": "Q37650790",
                "name": "Викинг",
                "opening_hours": "Mo-Su 09:30-21:00",
                "phone": "+7 812 3203033",
                "website": "http://www.vikingbank.ru/",
                "wheelchair": "yes"
            },
            {
                "amenity": "bank",
                "brand": "Росбанк",
                "brand:en": "Rosbank",
                "brand:ru": "Росбанк",
                "brand:wikidata": "Q1119857",
                "brand:wikipedia": "en:Rosbank",
                "entrance": "yes",
                "name": "Росбанк",
                "name:en": "Rosbank",
                "name:ru": "Росбанк",
                "opening_hours": "Mo-Fr 09:00-20:00, Sa 10:00-17:00",
                "operator": "Росбанк",
                "phone": "+7 800 2005434",
                "website": "https://www.rosbank.ru/",
                "wheelchair": "no"
            },
            {
                "name": "Югра",
                "amenity": "bank",
                "website": "http://www.jugra.ru/spb/offices-and-atms/3/161.html"
            },
            {
                "amenity": "bank",
                "atm": "yes",
                "brand": "ОТП Банк",
                "brand:en": "OTP Bank",
                "brand:wikidata": "Q912778",
                "brand:wikipedia": "en:OTP Bank",
                "name": "ОТП Банк",
                "name:en": "OTP Bank",
                "opening_hours": "Mo-Fr 09:30-20:30; Sa 10:00-18:00",
                "operator": "ОТП Банк",
                "website": "https://www.otpbank.ru/"
            },
            {
                "name": "Северо-западный инвестиционно-промышленный банк",
                "amenity": "bank",
                "website": "http://www.nwipbank.ru/",
                "opening_hours": "Mo-Th 09:00-18:00; Fr 09:00-16:45; 13:00-14:00 off"
            },
            {
                "atm": "yes",
                "name": "НС Банк",
                "branch": "Операционный офис\"Петербургский\"",
                "amenity": "bank",
                "website": "http://www.nsbank.ru/",
                "operator": "АО \"НС Банк\"",
                "opening_hours": "Mo-Sa 09:00-21:00; Su 10:00-19:00"
            }
        ]
    },
    "hairdresser": {
        "count": 3,
        "detail": [
            {
                "name": "Cosmohair",
                "shop": "hairdresser",
                "website": "http://cosmohair.ru/",
                "description": "наращивание волос"
            },
            {
                "name": "Красотка",
                "shop": "hairdresser",
                "opening_hours": "10:00-21:00"
            },
            {
                "name": "Две столицы",
                "shop": "hairdresser",
                "website": "https://www.2stolici.com/",
                "contact:vk": "https://vk.com/2dvestolicy",
                "opening_hours": "10:00-21:00"
            }
        ]
    },
    "training": {
        "count": 1,
        "detail": [
            {
                "name": "Я — Актер!",
                "amenity": "training",
                "website": "http://i-actor.ru/",
                "contact:vk": "https://vk.com/iactorspb",
                "wheelchair": "no",
                "description": "актёрское мастерство для детей"
            }
        ]
    },
    "pub": {
        "count": 4,
        "detail": [
            {
                "name": "Bristol",
                "phone": "+7 812 3323255",
                "amenity": "pub",
                "name:ru": "Бристоль",
                "website": "http://molly.su/bristol/",
                "operator": "Mollie's Group",
                "contact:vk": "https://vk.com/bristol_pub",
                "opening_hours": "Su-Th 12:00-02:00, Fr-Sa 12:00-03:00",
                "internet_access": "wlan"
            },
            {
                "amenity": "pub",
                "contact:vk": "https://vk.com/oldfriendspub",
                "name": "Old Friends",
                "payment:credit_cards": "yes",
                "payment:debit_cards": "yes",
                "website": "http://oldfriends.pub/",
                "wheelchair": "no"
            },
            {
                "name": "Ring o'Bells",
                "amenity": "pub",
                "operator": "ООО «Джокер»",
                "contact:vk": "https://vk.com/ringobells",
                "contact:phone": "+7 812 7642289",
                "opening_hours": "Mo-Su 00:00-05:00,12:00-24:00",
                "contact:website": "https://ringo-bells.ru/",
                "internet_access": "wlan"
            },
            {
                "amenity": "pub",
                "contact:vk": "https://vk.com/drunkhappygastropub",
                "name": "Drunk & Happy",
                "opening_hours": "Mo-Th 12:00-24:00; Fr 12:00-02:00; Sa 13:00-02:00; Su 13:00-24:00",
                "operator": "ООО «Корнайс»",
                "phone": "+7 812 6556090"
            }
        ]
    },
    "clothes": {
        "count": 18,
        "detail": [
            {
                "name": "Jeans классика",
                "shop": "clothes",
                "clothes": "denim"
            },
            {
                "name": "Секонд хенд",
                "shop": "clothes",
                "second_hand": "yes"
            },
            {
                "name": "ТриКотаЖ",
                "shop": "clothes",
                "website": "http://www.trikstore.ru/",
                "contact:vk": "https://vk.com/trikstore",
                "opening_hours": "10:00-20:00"
            },
            {
                "name": "яМайка",
                "shop": "clothes",
                "website": "http://www.i-maika.ru/studios/marata/",
                "contact:vk": "https://vk.com/imaika",
                "description": "печать на футболках",
                "opening_hours": "11:00-21:00"
            },
            {
                "name": "Bianca Notte",
                "shop": "clothes",
                "website": "http://www.ottimospb.ru/",
                "contact:vk": "https://vk.com/nottebianca"
            },
            {
                "name": "Мидол",
                "shop": "clothes",
                "website": "http://midol.spb.ru/shop-6",
                "contact:vk": "https://vk.com/midol",
                "second_hand": "yes",
                "opening_hours": "11:00-21:00"
            },
            {
                "name": "Sёstry Mamutiny",
                "shop": "clothes",
                "website": "http://www.sestry.biz/",
                "contact:vk": "https://vk.com/sestrymamutiny",
                "opening_hours": "Mo-Fr 11:00-21:00"
            },
            {
                "name": "Best",
                "shop": "clothes",
                "website": "http://best-bytik.ru/",
                "second_hand": "yes",
                "opening_hours": "Mo-Sa 11:30-20:00; Su 12:00-19:00"
            },
            {
                "name": "Alisa Wedding",
                "shop": "clothes",
                "clothes": "wedding",
                "website": "https://alisa-wedding.ru/",
                "contact:vk": "https://vk.com/alisaweddingru",
                "opening_hours": "12:00-21:00"
            },
            {
                "name": "Egoista",
                "shop": "clothes",
                "website": "http://egoista-shop.ru/"
            },
            {
                "contact:vk": "https://vk.com/kawaicat",
                "name": "Kawaicat",
                "opening_hours": "11:00-21:00",
                "shop": "clothes",
                "website": "http://www.kawaicat.ru/"
            },
            {
                "name": "Немецкая одежда",
                "shop": "clothes",
                "operator": "ООО «ПлатоФ»",
                "opening_hours": "Mo-Sa 10:00-20:00; Su 10:00-19:00"
            },
            {
                "name": "V.I.P.A.",
                "shop": "clothes",
                "clothes": "underwear"
            },
            {
                "contact:vk": "https://vk.com/frantsuzovashop",
                "name": "Sultanna Frantsuzova",
                "opening_hours": "10:00-21:00",
                "shop": "clothes",
                "website": "https://www.sultannafrantsuzova.ru/"
            },
            {
                "contact:vk": "https://vk.com/laserb",
                "name": "Laser B.",
                "opening_hours": "12:00-21:00",
                "shop": "clothes",
                "website": "https://laserb.ru/page/magazin-v-sankt-peterburge"
            },
            {
                "shop": "clothes",
                "opening_hours": "Mo-Fr 11:00-20:00; Sa 11:00-19:00; Su 11:00-18:00"
            },
            {
                "contact:vk": "https://vk.com/lilycharm",
                "name": "Lily Charm",
                "opening_hours": "11:00-21:00",
                "operator": "ИП Тимофеев Ю.В.",
                "shop": "clothes",
                "website": "https://lilycharm.ru/"
            },
            {
                "contact:email": "vitabrava.spb@yandex.ru",
                "contact:instagram": "https://instagram.com/vitabrava",
                "contact:phone": "+7 812 4084050",
                "contact:website": "https://www.vitabrava.ru/",
                "name": "Vita Brava",
                "opening_hours": "Mo-Su 11:00-21:00",
                "operator": "Vita Brava",
                "shop": "clothes"
            }
        ]
    },
    "waste_disposal": {
        "count": 8,
        "detail": [
            {
                "amenity": "waste_disposal"
            },
            {
                "amenity": "waste_disposal"
            },
            {
                "amenity": "waste_disposal"
            },
            {
                "amenity": "waste_disposal"
            },
            {
                "amenity": "waste_disposal"
            },
            {
                "amenity": "waste_disposal"
            },
            {
                "amenity": "waste_disposal"
            },
            {
                "amenity": "waste_disposal"
            }
        ]
    },
    "pharmacy": {
        "count": 5,
        "detail": [
            {
                "amenity": "pharmacy",
                "contact:vk": "https://vk.com/planeta_zdorovo",
                "healthcare": "pharmacy",
                "name": "Планета здоровья",
                "opening_hours": "24/7",
                "operator": "ООО «Парус»",
                "website": "https://planetazdorovo.ru/"
            },
            {
                "amenity": "pharmacy",
                "healthcare": "pharmacy",
                "opening_hours": "Mo-Fr 08:00-21:00; Sa 10:00-20:00; Su 10:00-17:00",
                "operator": "ООО «Гомеофарм»",
                "website": "https://gomeofarm.ru/",
                "wheelchair": "no"
            },
            {
                "amenity": "pharmacy",
                "healthcare": "pharmacy",
                "name": "Грибная аптека"
            },
            {
                "amenity": "pharmacy",
                "contact:vk": "https://vk.com/doctoreapetkin",
                "healthcare": "pharmacy",
                "name": "еАптека",
                "opening_hours": "08:00-22:00",
                "operator": "ООО \"еАптека\"",
                "website": "https://www.eapteka.ru/spb/"
            },
            {
                "amenity": "pharmacy",
                "healthcare": "pharmacy",
                "opening_hours": "09:00-21:00",
                "operator": "ООО «Медикор»",
                "website": "http://apteka.marata41.ru/"
            }
        ]
    },
    "doityourself": {
        "count": 2,
        "detail": [
            {
                "name": "Строительный Магазин №1",
                "opening_hours": "Mo-Sa 10:00-19:00",
                "shop": "doityourself",
                "website": "https://baza98.ru/"
            },
            {
                "name": "Мастер ок!",
                "opening_hours": "Mo-Fr 10:00-20:00; Sa 10:00-19:00; Su 11:00-19:00",
                "operator": "ИП Григорьева О.В.",
                "shop": "doityourself",
                "website": "http://www.мастерок.su/"
            }
        ]
    },
    "hearing_aids": {
        "count": 1,
        "detail": [
            {
                "name": "Новая волна",
                "opening_hours": "Mo-Fr 10:00-19:00; Sa 11:00-17:00",
                "shop": "hearing_aids",
                "website": "https://newsluh.ru/"
            }
        ]
    },
    "clinic": {
        "count": 3,
        "detail": [
            {
                "amenity": "clinic",
                "contact:vk": "https://vk.com/mcantikas",
                "healthcare": "clinic",
                "name": "Антикас"
            },
            {
                "addr:city": "Санкт-Петербург",
                "addr:housenumber": "48",
                "addr:street": "улица Марата",
                "alt_name": "21 век",
                "amenity": "clinic",
                "contact:vk": "https://vk.com/mc21vek",
                "healthcare": "clinic",
                "healthcare:speciality": "gynaecology;ophthalmology;paediatrics;orthopaedics;dermatology;otolaryngology;osteopathy;urology;surgery;cardiology;neurology",
                "name": "XXI век",
                "opening_hours": "08:00-22:00",
                "operator": "ООО «МЦ «XXI век»",
                "phone": "+7 812 3800238",
                "website": "https://www.mc21.ru"
            },
            {
                "addr:city": "Санкт-Петербург",
                "addr:housenumber": "2-4Б",
                "addr:postcode": "191025",
                "addr:street": "Кузнечный переулок",
                "amenity": "clinic",
                "healthcare": "clinic",
                "healthcare:speciality": "general",
                "name": "Ренессанс клиника",
                "name:en": "Renaissance clinic",
                "opening_hours": "Mo-Sa 08:00-21:00",
                "opening_hours:covid19": "open",
                "phone": "+7812334-43-02",
                "website": "https://renclinic.ru/"
            }
        ]
    },
    "sewing": {
        "count": 1,
        "detail": [
            {
                "contact:instagram": "https://www.instagram.com/rukodelie_shop.spb/",
                "name": "Рукоделие",
                "opening_hours": "Mo-Fr 11:00-20:00; Sa-Su 11:00-19:00",
                "operator": "ИП Маньков В.А.",
                "shop": "sewing"
            }
        ]
    },
    "florist": {
        "count": 6,
        "detail": [
            {
                "contact:vk": "https://vk.com/joyflowerplace",
                "email": "info9874841@yandex.ru",
                "name": "Joy",
                "note": "возможно переехал",
                "opening_hours": "24/7",
                "phone": "+7 812 9874841;+7 812 7121945",
                "shop": "florist",
                "shop:gift": "yes",
                "website": "https://joyflowerplace.ru/"
            },
            {
                "shop": "florist",
                "website": "http://pushkinskaya20.ru/",
                "contact:vk": "https://vk.com/pushkinskaya20",
                "opening_hours": "08:00-23:00"
            },
            {
                "shop": "florist"
            },
            {
                "name": "Цветовик",
                "shop": "florist",
                "level": "0",
                "website": "https://cvetovik.com/",
                "contact:vk": "https://vk.com/cvetovikspb",
                "opening_hours": "24/7"
            },
            {
                "name": "Цветовик 24",
                "shop": "florist",
                "opening_hours": "24/7"
            },
            {
                "name": "Букет Питер",
                "shop": "florist",
                "website": "http://www.buket-piter.ru/",
                "operator": "ООО «Доставка цветов»",
                "contact:vk": "https://vk.com/buket_piter",
                "opening_hours": "24/7"
            }
        ]
    },
    "beauty": {
        "count": 13,
        "detail": [
            {
                "name": "Арабески",
                "shop": "beauty",
                "phone": "+7 812 9054025",
                "operator": "ИП Котова",
                "opening_hours": "Mo-Fr 11:00-21:00; Su 12:00-18:00"
            },
            {
                "name": "Стелла",
                "shop": "beauty"
            },
            {
                "amenity": "dentist",
                "description": "отбеливание зубов",
                "email": "mysmile.lab@ya.ru",
                "healthcare": "dentist",
                "internet_access": "wlan",
                "name": "Smile.lab",
                "name:ru": "Smile.lab",
                "opening_hours": "Mo-Su 11:00-21:00",
                "phone": "+7 812 9153656",
                "shop": "beauty",
                "website": "https://smilelab.pro/"
            },
            {
                "name": "Magic Nails",
                "shop": "beauty",
                "contact:vk": "https://vk.com/maratanail"
            },
            {
                "name": "Сфинкс",
                "shop": "beauty",
                "website": "https://sfinks.ru/",
                "contact:vk": "https://vk.com/depilsalon"
            },
            {
                "name": "Феникс",
                "shop": "beauty",
                "operator": "ООО \"Витязь\"",
                "contact:vk": "https://vk.com/phoenixsalon",
                "opening_hours": "Mo-Sa 09:00-21:00; Su 10:00-20:00"
            },
            {
                "name": "Студия красоты",
                "shop": "beauty",
                "opening_hours": "Mo-Su 10:00-21:00",
                "internet_access": "wlan"
            },
            {
                "name": "Nova",
                "shop": "beauty",
                "contact:vk": "https://vk.com/novabeautystudio",
                "opening_hours": "10:00-21:00"
            },
            {
                "name": "Афродита",
                "shop": "beauty",
                "phone": "+7 812 7644650",
                "contact:vk": "https://vk.com/vafrodite",
                "opening_hours": "Mo-Fr 08:00-20:00; Sa-Su 09:00-20:00"
            },
            {
                "name": "Beauty Home",
                "shop": "beauty"
            },
            {
                "name": "Бали",
                "shop": "beauty",
                "website": "http://salon-bali.ru/",
                "contact:vk": "https://vk.com/balisalonofficial"
            },
            {
                "name": "Помада",
                "note": "вход под аркой",
                "shop": "beauty",
                "level": "0",
                "website": "http://www.salonpomada.ru/",
                "contact:vk": "https://vk.com/salonpomada"
            },
            {
                "name": "Креатив",
                "shop": "beauty",
                "website": "https://kreativespb.ru/",
                "operator": "ООО «Фирма Интердин»",
                "contact:vk": "https://vk.com/club18809175",
                "opening_hours": "Mo-Sa 10:00-21:00; Su 11:00-19:00"
            }
        ]
    },
    "telecommunication": {
        "count": 1,
        "detail": [
            {
                "brand": "Ростелеком",
                "brand:wikidata": "Q1477012",
                "brand:wikipedia": "en:Rostelecom",
                "name": "Ростелеком",
                "shop": "telecommunication"
            }
        ]
    },
    "dentist": {
        "count": 3,
        "detail": [
            {
                "amenity": "dentist",
                "contact:vk": "https://vk.com/idealzub",
                "healthcare": "dentist",
                "name": "Центр доктора Розанова",
                "opening_hours": "09:00-21:00",
                "website": "http://www.ideal-zub.ru/"
            },
            {
                "amenity": "dentist",
                "healthcare": "dentist"
            },
            {
                "amenity": "dentist",
                "contact:vk": "https://vk.com/kzubki",
                "healthcare": "dentist",
                "name": "Красивые зубки",
                "opening_hours": "09:00-22:00",
                "website": "http://красивыезубки.рф/"
            }
        ]
    },
    "massage": {
        "count": 4,
        "detail": [
            {
                "name": "Thai Way",
                "shop": "massage"
            },
            {
                "name": "Бордо",
                "shop": "massage"
            },
            {
                "addr:city": "Санкт-Петербург",
                "addr:housenumber": "22-24",
                "addr:street": "улица Марата",
                "description": "Салон тайского массажа и СПА в Санкт-Петербурге",
                "name": "Banyan tree",
                "opening_hours": "10:00-22:00",
                "payment:cash": "yes",
                "payment:credit_cards": "yes",
                "phone": "+7 921 9040682",
                "shop": "massage",
                "website": "http://spabanyan.ru"
            },
            {
                "addr:city": "Санкт-Петербург",
                "addr:housenumber": "14А",
                "addr:postcode": "191040",
                "addr:street": "Кузнечный переулок",
                "email": "orchidspa@inbox.ru",
                "name": "Орхидея",
                "opening_hours": "24/7",
                "opening_hours:covid19": "open",
                "payment:cash": "yes",
                "payment:debit_cards": "yes",
                "phone": "+8 (901) 316 61 21",
                "shop": "massage",
                "website": "https://www.spa-orchid.ru"
            }
        ]
    },
    "alcohol": {
        "count": 6,
        "detail": [
            {
                "contact:facebook": "https://www.facebook.com/aromatny.mir",
                "contact:phone": "+7 812 32160605076",
                "contact:website": "http://amwine.ru",
                "name": "Ароматный мир",
                "name:en": "Aromatny Mir",
                "name:ru": "Ароматный мир",
                "opening_hours": "Mo-Su 10:00-22:00",
                "shop": "alcohol"
            },
            {
                "contact:vk": "https://vk.com/napitkimiracom",
                "name": "Калейдоскоп напитков мира",
                "opening_hours": "10:00-22:00",
                "operator": "ООО «Калейдоскоп»",
                "shop": "alcohol",
                "website": "https://www.napitkimira.com/magaziny/kaleydoskop-napitkov-na-marata-18/"
            },
            {
                "name": "Росал 24",
                "shop": "alcohol",
                "opening_hours": "Mo-Su 11:00-22:00"
            },
            {
                "name": "РосАл",
                "opening_hours": "11:00-22:00",
                "shop": "alcohol",
                "website": "http://www.rosal24.ru/"
            },
            {
                "contact:email": "info@wine-room.ru",
                "contact:facebook": "https://facebook.com/club.wineroom",
                "contact:instagram": "https://instagram.com/wineroom_ru",
                "contact:phone": "+7 812 5724117",
                "contact:vk": "https://vk.com/club.wineroom",
                "contact:website": "https://wine-room.ru/",
                "name": "Wine Room",
                "opening_hours": "11:00-22:00",
                "operator": "Wine room",
                "shop": "alcohol"
            },
            {
                "brand": "Красное & Белое",
                "brand:en": "Red&White",
                "brand:wikidata": "Q24933790",
                "brand:wikipedia": "en:Krasnoe & Beloe",
                "name": "Красное & Белое",
                "name:en": "Red&White",
                "opening_hours": "Mo-Su 09:00-22:05",
                "shop": "alcohol"
            }
        ]
    },
    "restaurant": {
        "count": 10,
        "detail": [
            {
                "name": "Georgian's",
                "amenity": "restaurant",
                "cuisine": "georgian",
                "internet_access": "wlan",
                "internet_access:fee": "no"
            },
            {
                "name": "Ra Family",
                "level": "0",
                "amenity": "restaurant",
                "website": "https://rafamilygroup.com/",
                "diet:raw": "yes",
                "contact:vk": "https://vk.com/rafamily_spb",
                "opening_hours": "11:00-23:00"
            },
            {
                "name": "Этнос",
                "phone": "+7 812 3138382",
                "amenity": "restaurant",
                "cuisine": "georgian",
                "website": "http://ethnos-cafe.ru/",
                "contact:vk": "https://vk.com/club114240289",
                "opening_hours": "Mo-Fr 11:00-24:00, Sa-Su 11:00-01:00",
                "contact:facebook": "https://www.facebook.com/ethnos.cafe"
            },
            {
                "name": "Кабинет-Портрет",
                "phone": "+7 812 3893887;+7 812 7124321",
                "amenity": "restaurant",
                "name:en": "Cabinet Portrait",
                "website": "https://www.restoranspb.com/",
                "operator": "ООО Ресторация",
                "opening_hours": "Mo-Su 11:30-23:30"
            },
            {
                "name": "Аragosta",
                "amenity": "restaurant",
                "website": "http://www.aragosta.spb.ru/",
                "contact:vk": "https://vk.com/aragosta_spb"
            },
            {
                "name": "Рестобар",
                "amenity": "restaurant",
                "wheelchair": "no",
                "outdoor_seating": "yes"
            },
            {
                "name": "Чито гврито",
                "email": "zakaz@chitogvrito.su",
                "phone": "+7 812 9442040",
                "amenity": "restaurant",
                "cuisine": "georgian",
                "name:en": "Chito Grvito",
                "website": "http://www.chitogvrito.ru/",
                "opening_hours": "Mo-Su 11:00-23:00",
                "internet_access": "wlan"
            },
            {
                "name": "Пури Оджахури",
                "amenity": "restaurant",
                "cuisine": "georgian",
                "contact:vk": "https://vk.com/pury_odzhahury",
                "opening_hours": "11:00-23:00"
            },
            {
                "name": "Корейко",
                "amenity": "restaurant",
                "website": "http://koreiko.com/",
                "contact:vk": "https://vk.com/grillbarkoreiko"
            },
            {
                "amenity": "restaurant",
                "name": "Мангал & Гриль"
            }
        ]
    },
    "dry_cleaning": {
        "count": 1,
        "detail": [
            {
                "name": "Дом быта",
                "shop": "dry_cleaning",
                "craft": "key_cutter;shoemaker;tailor"
            }
        ]
    },
    "telephone": {
        "count": 2,
        "detail": [
            {
                "amenity": "telephone",
                "payment:telephone_cards": "yes"
            },
            {
                "amenity": "telephone",
                "payment:telephone_cards": "yes"
            }
        ]
    },
    "post_box": {
        "count": 3,
        "detail": [
            {
                "ref": "67",
                "amenity": "post_box",
                "operator": "Почта России",
                "design:year": "2010",
                "drive_through": "no",
                "post_box:type": "wall",
                "post_box:design": "ЯПНМ-II-С",
                "collection_times": "Mo-Fr 05:00,13:35; Sa 09:10; Su 13:35"
            },
            {
                "amenity": "post_box",
                "collection_times": "06:20",
                "design:year": "2010",
                "drive_through": "no",
                "operator": "Почта России",
                "post_box:design": "ЯПНМ-II-С",
                "post_box:type": "wall",
                "ref": "66"
            },
            {
                "ref": "53",
                "amenity": "post_box",
                "operator": "Почта России",
                "design:year": "2010",
                "drive_through": "no",
                "post_box:type": "wall",
                "post_box:design": "ЯПНМ-II-С",
                "collection_times": "Mo-Fr 03:50,12:10; Sa 07:50; Su 12:10"
            }
        ]
    },
    "atm": {
        "count": 4,
        "detail": [
            {
                "amenity": "atm",
                "operator": "Балтийский банк",
                "description": "За турникетами"
            },
            {
                "amenity": "atm",
                "operator": "Росбанк",
                "opening_hours": "24/7"
            },
            {
                "amenity": "atm",
                "website": "http://www.nsbank.ru/",
                "operator": "АО \"НС Банк\"",
                "opening_hours": "24/7"
            },
            {
                "amenity": "atm",
                "brand": "Санкт-Петербург",
                "contact:email": "cc@bspb.ru",
                "contact:facebook": "https://www.facebook.com/bspb/",
                "contact:instagram": "https://instagram.com/bank_spb",
                "contact:ok": "https://ok.ru/bspb",
                "contact:phone": "+7 800 2225050;+7 812 3295050",
                "contact:twitter": "https://twitter.com/bank_spb",
                "contact:vk": "https://vk.com/bspb",
                "contact:website": "https://www.bspb.ru/",
                "currency:RUB": "yes",
                "opening_hours": "Mo-Su 05:38-00:26",
                "operator": "ПАО Банк Санкт-Петербург",
                "telegram": "https://t.me/mybspb"
            }
        ]
    },
    "bakery": {
        "count": 4,
        "detail": [
            {
                "brand": "Булочные Ф. Вольчека",
                "contact:email": "info@fvolchek.ru",
                "contact:phone": "+7 812 6420638",
                "contact:vk": "f.volchek",
                "contact:website": "http://fvolchek.ru/",
                "drink:coffee": "served",
                "drink:mors": "served",
                "drink:tea": "served",
                "inscription": "Булочная № 15",
                "name": "Булочная Ф. Вольчека",
                "name:ru": "Булочная Ф. Вольчека",
                "opening_hours": "Mo-Su 08:00-22:00",
                "payment:cash": "yes",
                "payment:maestro": "yes",
                "payment:mastercard": "yes",
                "payment:visa": "yes",
                "payment:visa_debit": "yes",
                "payment:visa_electron": "yes",
                "ref": "15",
                "shop": "bakery",
                "takeaway": "yes"
            },
            {
                "addr:postcode": "191186",
                "amenity": "cafe",
                "contact:facebook": "https://www.facebook.com/British-Bakery-545013345603637/",
                "contact:instagram": "https://www.instagram.com/britishbakery/",
                "contact:phone": "+78123634383",
                "contact:vk": "https://vk.com/club46155943",
                "contact:website": "https://british-bakery.ru",
                "cuisine": "cake;breakfast;coffee_shop;tea",
                "email": "shop@baltic-bread.ru",
                "name": "Британские пекарни",
                "name:en": "British bakery",
                "name:ru": "Британские пекарни",
                "opening_hours": "Mo-Fr 08:00-22:00; Sa-Su 09:00-22:00",
                "operator": "ООО «Британская кондитерская на Владимирском 19»",
                "payment:cash": "yes",
                "payment:maestro": "yes",
                "payment:mastercard": "yes",
                "payment:visa": "yes",
                "payment:visa_electron": "yes",
                "shop": "bakery",
                "takeaway": "yes",
                "wheelchair": "yes"
            },
            {
                "drink:coffee": "served",
                "drink:tea": "served",
                "internet_access": "wlan",
                "level": "-1",
                "name": "Лавка пекаря",
                "payment:credit_cards": "yes",
                "payment:debit_cards": "yes",
                "shop": "bakery",
                "wheelchair": "no"
            },
            {
                "name": "Церковный хлеб",
                "shop": "bakery"
            }
        ]
    },
    "bed": {
        "count": 1,
        "detail": [
            {
                "name": "Дуэт",
                "shop": "bed",
                "linen": "yes",
                "description": "Постельное бельё, подушки, одеяла",
                "opening_hours": "Mo-Sa 11:00-19:00; Su 11:00-18:00"
            }
        ]
    },
    "tea": {
        "count": 2,
        "detail": [
            {
                "entrance": "yes",
                "shop": "tea"
            },
            {
                "name": "Море чая",
                "shop": "tea",
                "website": "http://morecha.ru/",
                "contact:vk": "https://vk.com/morecha",
                "opening_hours": "Mo-Fr 08:30-20:30; Sa-Su 10:00-20:00"
            }
        ]
    },
    "bureau_de_change": {
        "count": 1,
        "detail": [
            {
                "name": "Авангард",
                "amenity": "bureau_de_change",
                "name:fa": "صرافی",
                "website": "http://valuta812.ru/",
                "opening_hours": "24/7"
            }
        ]
    },
    "jewelry": {
        "count": 4,
        "detail": [
            {
                "name": "585 Gold",
                "shop": "jewelry",
                "craft": "jeweller",
                "website": "https://zoloto585.ru/",
                "contact:vk": "https://vk.com/zoloto585gold"
            },
            {
                "name": "Серебро",
                "shop": "jewelry",
                "website": "http://serebro-juvelir.com/",
                "opening_hours": "Mo-Fr 10:00-21:00; Sa-Su 11:00-21:00"
            },
            {
                "name": "Магия граната",
                "shop": "jewelry",
                "brand": "Granát Turnov",
                "website": "http://www.magicgarnet.ru/",
                "contact:vk": "https://vk.com/magic_garnet",
                "opening_hours": "11:00-20:00",
                "brand:wikidata": "Q12018446"
            },
            {
                "name": "Серебро",
                "shop": "jewelry"
            }
        ]
    },
    "arts_centre": {
        "count": 2,
        "detail": [
            {
                "name": "Этюд",
                "amenity": "arts_centre",
                "website": "http://art-1.ru/"
            },
            {
                "name": "0+",
                "amenity": "arts_centre",
                "contact:vk": "https://vk.com/prostranstvoplus"
            }
        ]
    },
    "fitness_centre": {
        "count": 3,
        "detail": [
            {
                "name": "Серебряный Лотос",
                "level": "3",
                "sport": "yoga",
                "leisure": "fitness_centre",
                "website": "http://www.slotus.ru/",
                "contact:vk": "https://vk.com/yoga_slotus",
                "opening_hours": "08:30-21:00"
            },
            {
                "name": "Йото",
                "sport": "yoga",
                "leisure": "fitness_centre",
                "website": "https://yoto108.ru/",
                "contact:vk": "https://vk.com/yoga_for_health"
            },
            {
                "name": "Livebody.club",
                "level": "2",
                "leisure": "fitness_centre",
                "website": "http://livebody.club/",
                "contact:vk": "https://vk.com/livebody.club",
                "opening_hours": "07:00-23:00"
            }
        ]
    },
    "coworking_space": {
        "count": 1,
        "detail": [
            {
                "name": "Шантарам",
                "level": "3",
                "amenity": "coworking_space",
                "contact:vk": "https://vk.com/shantaram_space"
            }
        ]
    },
    "language_school": {
        "count": 2,
        "detail": [
            {
                "name": "Лингвистический центр Института иностранных языков",
                "level": "1",
                "amenity": "language_school",
                "website": "http://www.inyazspb.ru/",
                "contact:vk": "https://vk.com/inyazspb"
            },
            {
                "name": "Северная Гардарика",
                "amenity": "language_school",
                "website": "http://sgardarika.ru/",
                "contact:vk": "https://vk.com/sev_gardarika"
            }
        ]
    },
    "video": {
        "count": 1,
        "detail": [
            {
                "name": "Фантаzия",
                "shop": "video",
                "level": "0",
                "opening_hours": "10:00-21:00"
            }
        ]
    },
    "studio": {
        "count": 1,
        "detail": [
            {
                "amenity": "studio",
                "contact:vk": "https://vk.com/studio1839",
                "name": "Studio 18/39",
                "note": "скорее всего вход со двора",
                "studio": "photography",
                "website": "https://studio1839.ru/"
            }
        ]
    },
    "music_school": {
        "count": 1,
        "detail": [
            {
                "amenity": "music_school",
                "contact:email": "info@jm-school.ru",
                "contact:phone": "+7 812 3094060",
                "contact:vk": "https://vk.com/jmschool",
                "contact:website": "http://www.jm-school.ru",
                "description": "школа джаза и мюзикла",
                "level": "1",
                "name": "J&M"
            }
        ]
    },
    "farm": {
        "count": 1,
        "detail": [
            {
                "name": "Медведь",
                "shop": "farm",
                "level": "0",
                "website": "http://medved-centr.ru/",
                "contact:vk": "https://vk.com/ecomedved_spb",
                "opening_hours": "10:00-21:00"
            }
        ]
    },
    "pastry": {
        "count": 1,
        "detail": [
            {
                "name": "Невские берега",
                "shop": "pastry",
                "website": "http://www.cake.spb.ru/",
                "operator": "ИП Платонова М.И.",
                "contact:vk": "https://vk.com/nevskie.berega",
                "opening_hours": "Mo-Fr 08:30-20:30; Sa-Su 10:00-20:00"
            }
        ]
    },
    "music": {
        "count": 1,
        "detail": [
            {
                "name": "Фонотека",
                "shop": "music",
                "website": "https://phonoteka.ru/",
                "contact:vk": "https://vk.com/magazinphonoteka",
                "opening_hours": "10:00-22:00"
            }
        ]
    },
    "doctors": {
        "count": 6,
        "detail": [
            {
                "amenity": "doctors",
                "contact:vk": "https://vk.com/grand_aesthetics",
                "healthcare": "doctor",
                "name": "Гранд Эстетик",
                "opening_hours": "10:00-21:00"
            },
            {
                "amenity": "doctors",
                "contact:vk": "https://vk.com/klinikamelis",
                "healthcare": "doctor",
                "name": "Мелис",
                "opening_hours": "09:00-21:00",
                "website": "http://klinikamelis.ru/"
            },
            {
                "amenity": "doctors",
                "contact:vk": "https://vk.com/allergomed",
                "healthcare": "doctor",
                "name": "Аллергомед",
                "note": "возможно переехала",
                "opening_hours": "Mo-Sa 09:00-21:00; Su 10:00-19:00",
                "website": "https://allergomed.ru/"
            },
            {
                "name": "Медицинский центр На Коломенской",
                "amenity": "doctors",
                "website": "http://www.medcenternk.ru",
                "operator": "Медицинский центр На Коломенской",
                "emergency": "yes",
                "contact:vk": "https://vk.com/club76819101",
                "healthcare": "hospital",
                "wheelchair": "no",
                "opening_hours": "Mo - Su 09:00-21:00",
                "poi:addr:city": "Санкт-Петербург",
                "poi:addr:street": "Коломенская улица,1",
                "poi:addr:postcode": "191040"
            },
            {
                "amenity": "doctors",
                "contact:vk": "https://vk.com/medicorspb",
                "healthcare": "doctor",
                "name": "Медикор",
                "opening_hours": "10:00-21:00",
                "operator": "ООО «Медикор»",
                "website": "http://medicorspb.ru/"
            },
            {
                "amenity": "doctors",
                "healthcare": "doctor",
                "name": "Медицинский центр доктора Явида",
                "opening_hours": "Mo-Fr 09:00-21:00; Sa 10:00-20:00",
                "operator": "ООО «МедЛайн Студия»",
                "website": "http://yavid-mc.ru/"
            }
        ]
    },
    "hifi": {
        "count": 2,
        "detail": [
            {
                "name": "Диез",
                "shop": "hifi",
                "website": "http://diez.spb.ru/",
                "contact:vk": "https://vk.com/club37554919",
                "opening_hours": "11:00-21:00"
            },
            {
                "name": "Loewe & Bose",
                "shop": "hifi",
                "website": "https://bosespb.ru/",
                "website2": "http://loewespb.ru/",
                "opening_hours": "Mo-Sa 10:00-20:00"
            }
        ]
    },
    "cosmetics": {
        "count": 2,
        "detail": [
            {
                "contact:vk": "https://vk.com/mirraspb",
                "name": "Mirra",
                "shop": "cosmetics",
                "website": "https://mirraspb.ru/"
            },
            {
                "name": "Профбьютимаркет",
                "shop": "cosmetics",
                "level": "0",
                "website": "https://www.profbeautymarket.ru/",
                "alt_name": "Профкосметика",
                "opening_hours": "10:00-21:00"
            }
        ]
    },
    "theatre": {
        "count": 1,
        "detail": [
            {
                "name": "Кукольный формат",
                "note": "вход со двора",
                "amenity": "theatre",
                "website": "http://www.kukfo.ru/",
                "alt_name": "Кукфо",
                "contact:vk": "https://vk.com/club647800"
            }
        ]
    },
    "interior_decoration": {
        "count": 1,
        "detail": [
            {
                "name": "Ампир Декор",
                "shop": "interior_decoration",
                "website": "https://www.ampir.ru/shops/sankt-petergurg/ul_pushkinskaya_d_19_m_ploshchad_vosstaniya/",
                "contact:vk": "https://vk.com/ampir_decor"
            }
        ]
    },
    "bicycle_parking": {
        "count": 3,
        "detail": [
            {
                "amenity": "bicycle_parking",
                "bicycle_parking": "rack",
                "capacity": "5",
                "covered": "no"
            },
            {
                "amenity": "bicycle_parking"
            },
            {
                "amenity": "bicycle_parking",
                "bicycle_parking": "stands",
                "capacity": "6",
                "covered": "no"
            }
        ]
    },
    "waste_basket": {
        "count": 7,
        "detail": [
            {
                "amenity": "waste_basket"
            },
            {
                "amenity": "waste_basket"
            },
            {
                "amenity": "waste_basket"
            },
            {
                "amenity": "waste_basket"
            },
            {
                "amenity": "waste_basket"
            },
            {
                "amenity": "waste_basket"
            },
            {
                "amenity": "waste_basket"
            }
        ]
    },
    "bench": {
        "count": 7,
        "detail": [
            {
                "amenity": "bench"
            },
            {
                "amenity": "bench"
            },
            {
                "amenity": "bench"
            },
            {
                "amenity": "bench"
            },
            {
                "amenity": "bench"
            },
            {
                "amenity": "bench"
            },
            {
                "amenity": "bench"
            }
        ]
    },
    "books": {
        "count": 1,
        "detail": [
            {
                "name": "Мир Искусства",
                "shop": "books",
                "website": "http://staraya-kniga.ru/nashi-magazinyi/per-svechnoj-5.html",
                "opening_hours": "Mo-Sa 11:00-19:00"
            }
        ]
    },
    "e-cigarette": {
        "count": 1,
        "detail": [
            {
                "name": "Cloud Kitchen",
                "shop": "e-cigarette",
                "contact:vk": "https://vk.com/cloud_kitchen"
            }
        ]
    },
    "musical_instrument": {
        "count": 1,
        "detail": [
            {
                "name": "Gibson Shop",
                "shop": "musical_instrument",
                "website": "https://gibsonshop.ru/",
                "contact:vk": "https://vk.com/gibsonshop",
                "opening_hours": "Mo-Fr 11:00-20:00; Sa-Su 11:00-19:00"
            }
        ]
    },
    "frame": {
        "count": 1,
        "detail": [
            {
                "shop": "frame",
                "website": "http://www.artmarket.spbw.ru/",
                "contact:vk": "https://vk.com/club48343588",
                "opening_hours": "Mo-Fr 11:00-19:00; Sa-Su 12:00-17:00"
            }
        ]
    },
    "funeral_directors": {
        "count": 1,
        "detail": [
            {
                "name": "Военно-мемориальная компания",
                "shop": "funeral_directors",
                "website": "http://www.vmkros.ru/",
                "opening_hours": "Mo-Fr 10:00-19:00"
            }
        ]
    },
    "place_of_worship": {
        "count": 6,
        "detail": [
            {
                "name": "Храм во имя Тихвинской иконы Пресвятой Богородицы",
                "amenity": "place_of_worship",
                "religion": "christian",
                "denomination": "russian_orthodox",
                "opening_hours": "11:00-19:00; 14:00-15:00 off"
            },
            {
                "name": "Колокольня Владимирского собора",
                "amenity": "place_of_worship",
                "building": "yes",
                "man_made": "tower",
                "religion": "christian",
                "roof:shape": "onion",
                "tower:type": "bell_tower",
                "addr:letter": "Б",
                "addr:street": "Владимирский проспект",
                "denomination": "orthodox",
                "building:levels": "4",
                "addr:housenumber": "20 литБ"
            },
            {
                "name": "Собор Владимирской иконы Божией Матери",
                "amenity": "place_of_worship",
                "name:de": "Wladimir-Kathedale",
                "website": "http://vladimirsobor.spb.ru/",
                "alt_name": "Владимирский собор",
                "building": "cathedral",
                "religion": "christian",
                "wikidata": "Q2415106",
                "wikipedia": "ru:Владимирский собор (Санкт-Петербург)",
                "contact:vk": "https://vk.com/vladimirsoborspb",
                "addr:street": "Владимирский проспект",
                "denomination": "orthodox",
                "building:levels": "3",
                "addr:housenumber": "20"
            },
            {
                "amenity": "place_of_worship",
                "building": "chapel",
                "religion": "christian",
                "roof:shape": "dome",
                "denomination": "orthodox",
                "opening_hours": "09:00-19:00",
                "building:levels": "1"
            },
            {
                "amenity": "place_of_worship",
                "building": "chapel",
                "religion": "christian",
                "roof:shape": "dome",
                "denomination": "orthodox",
                "opening_hours": "09:00-19:00",
                "building:levels": "1"
            },
            {
                "name": "Часовня Никольского Храма",
                "amenity": "place_of_worship",
                "building": "chapel",
                "religion": "christian",
                "addr:letter": "Д",
                "addr:street": "улица Марата",
                "denomination": "russian_orthodox",
                "addr:housenumber": "24А литД"
            }
        ]
    },
    "optician": {
        "count": 3,
        "detail": [
            {
                "craft": "electronics_repair;jeweller;key_cutter;leather;shoemaker;tailor",
                "name": "Дом быта",
                "shop": "optician"
            },
            {
                "name": "Лорнет",
                "shop": "optician",
                "opening_hours": "Mo-Fr 10:00-20:00; Sa-Su 11:00-20:00"
            },
            {
                "name": "Катти Сарк",
                "opening_hours": "10:00-20:00",
                "operator": "ООО «ЭйчДи Оптика»",
                "shop": "optician",
                "website": "http://www.cuttys.ru/salons/11/"
            }
        ]
    },
    "stationery": {
        "count": 2,
        "detail": [
            {
                "name": "Палитра",
                "shop": "stationery",
                "name:ru": "Палитра"
            },
            {
                "name": "Цензор",
                "shop": "stationery",
                "opening_hours": "09:30-19:00"
            }
        ]
    },
    "outpost": {
        "count": 1,
        "detail": [
            {
                "brand": "Wildberries",
                "brand:wikidata": "Q24933714",
                "brand:wikipedia": "ru:Wildberries",
                "contact:vk": "https://vk.com/wildberries_shop",
                "name": "Wildberries",
                "opening_hours": "Mo-Su 11:00-21:00",
                "reservation": "required",
                "shop": "outpost",
                "website": "https://www.wildberries.ru/"
            }
        ]
    },
    "variety_store": {
        "count": 1,
        "detail": [
            {
                "shop": "variety_store"
            }
        ]
    },
    "estate_agent": {
        "count": 1,
        "detail": [
            {
                "name": "Комната",
                "shop": "estate_agent"
            }
        ]
    },
    "recycling": {
        "count": 1,
        "detail": [
            {
                "name": "Экобокс",
                "amenity": "recycling",
                "recycling:batteries": "yes",
                "recycling:light_bulbs": "yes",
                "recycling:low_energy_bulbs": "yes"
            }
        ]
    },
    "cinema": {
        "count": 1,
        "detail": [
            {
                "amenity": "cinema",
                "contact:vk": "https://vk.com/lounge_cinema_spb",
                "name": "Lounge 3D Сinema",
                "website": "http://www.loungecinema.ru/"
            }
        ]
    },
    "copyshop": {
        "count": 1,
        "detail": [
            {
                "name": "Oq",
                "shop": "copyshop",
                "phone": "+7 812 7027070",
                "name:en": "OQ",
                "name:ru": "OQ",
                "website": "https://copy.spb.ru/",
                "opening_hours": "Mo-Fr 09:00-19:00",
                "internet_access": "wlan"
            }
        ]
    },
    "newsagent": {
        "count": 1,
        "detail": [
            {
                "name": "Роспечать",
                "shop": "newsagent",
                "brand": "Роспечать",
                "website": "http://rosp.ru/",
                "building": "kiosk",
                "brand:wikidata": "Q4397882"
            }
        ]
    },
    "electronics": {
        "count": 1,
        "detail": [
            {
                "contact:phone": "+7 812 6449898;+7 812 6449899",
                "contact:website": "http://siriust.ru",
                "name": "Профи",
                "opening_hours": "Mo-Su 10:00-20:00",
                "shop": "electronics"
            }
        ]
    },
    "gift": {
        "count": 1,
        "detail": [
            {
                "contact:email": "info@banka-home.ru",
                "contact:instagram": "https://instagram.com/banka_home",
                "contact:phone": "+7 996 7795782",
                "contact:vk": "https://vk.com/banka_home",
                "contact:website": "https://banka-home.ru/",
                "name": "Banka_home",
                "opening_hours": "Mo-Su 10:00-21:00",
                "operator": "Banka_home",
                "shop": "gift"
            }
        ]
    },
    "garden_centre": {
        "count": 1,
        "detail": [
            {
                "addr:city": "Санкт-Петербург",
                "addr:housenumber": "3",
                "addr:postcode": "191002",
                "addr:street": "Кузнечный переулок",
                "contact:instagram": "https://www.instagram.com/praktik.sada",
                "contact:vk": "https://vk.com/magazinpraktiksada",
                "description": "В Практике сада мы предлагаем мицелий грибов и семена овощей, качественные удобрения, корни цветов (роз, георгинов, ирисов и тд) грунты, химию для растений, плодовые деревья, рассаду клубники.",
                "email": "pr.sada@yandex.ru",
                "name": "Практик сада, магазин семян",
                "opening_hours": "Mo-Su 10:00-19:00",
                "opening_hours:covid19": "open",
                "payment:cash": "yes",
                "payment:credit_cards": "yes",
                "payment:mastercard": "yes",
                "payment:visa": "yes",
                "phone": "+7 (812) 409 52 78",
                "shop": "garden_centre",
                "website": "https://praktik_sada_23454.pinbox.ru"
            }
        ]
    },
    "vending_machine": {
        "count": 3,
        "detail": [
            {
                "amenity": "vending_machine",
                "indoor": "yes",
                "operator": "Петербургский метрополитен",
                "payment:cash": "yes",
                "payment:maestro": "yes",
                "payment:mastercard": "yes",
                "payment:visa": "yes",
                "payment:visa_electron": "yes",
                "vending": "public_transport_tickets"
            },
            {
                "amenity": "vending_machine",
                "indoor": "yes",
                "operator": "Петербургский метрополитен",
                "payment:cash": "yes",
                "payment:maestro": "yes",
                "payment:mastercard": "yes",
                "payment:visa": "yes",
                "payment:visa_electron": "yes",
                "vending": "public_transport_tickets"
            },
            {
                "amenity": "vending_machine",
                "indoor": "yes",
                "operator": "Петербургский метрополитен",
                "payment:cash": "yes",
                "payment:maestro": "yes",
                "payment:mastercard": "yes",
                "payment:visa": "yes",
                "payment:visa_electron": "yes",
                "ref": "1104",
                "vending": "public_transport_tickets"
            }
        ]
    },
    "marketplace": {
        "count": 1,
        "detail": [
            {
                "addr:city": "Санкт-Петербург",
                "addr:housenumber": "3",
                "addr:postcode": "191102",
                "addr:street": "Кузнечный переулок",
                "amenity": "marketplace",
                "building": "yes",
                "building:levels": "2",
                "name": "Кузнечный рынок",
                "name:en": "Kuznechny market",
                "opening_hours": "Mo-Su 08:00-20:00"
            }
        ]
    },
    "service": {
        "count": 7,
        "detail": [
            {
                "addr:housenumber": "28 литМ",
                "addr:letter": "М",
                "addr:street": "улица Достоевского",
                "building": "service",
                "building:levels": "1",
                "power": "substation",
                "substation": "minor_distribution"
            },
            {
                "ref": "23",
                "source": "rgis.spb.ru",
                "building": "service",
                "man_made": "mineshaft",
                "operator": "Петербургский метрополитен",
                "mineshaft_type": "air",
                "building:levels": "1"
            },
            {
                "power": "substation",
                "building": "service",
                "addr:letter": "Б",
                "addr:street": "Пушкинская улица",
                "addr:housenumber": "20"
            },
            {
                "power": "substation",
                "height": "6",
                "building": "service",
                "addr:letter": "Т",
                "addr:street": "улица Марата",
                "building:levels": "1",
                "addr:housenumber": "14 литТ"
            },
            {
                "addr:housenumber": "6 к2",
                "addr:letter": "А",
                "addr:street": "Кузнечный переулок",
                "building": "service"
            },
            {
                "building": "service",
                "power": "substation",
                "substation": "minor_distribution"
            },
            {
                "building": "service"
            }
        ]
    },
    "commercial": {
        "count": 3,
        "detail": [
            {
                "building": "commercial"
            },
            {
                "level": "2",
                "building": "commercial"
            },
            {
                "building": "commercial",
                "building:levels": "2"
            }
        ]
    },
    "mall": {
        "count": 1,
        "detail": [
            {
                "name": "Владимирский Пассаж",
                "shop": "mall",
                "website": "http://vpassage.spb.ru/",
                "building": "yes",
                "addr:city": "Санкт-Петербург",
                "architect": "Карл Аллан (Вальдемар) Шульман",
                "contact:vk": "https://vk.com/vladimirskiy_passag",
                "start_date": "1901",
                "addr:street": "Владимирский проспект",
                "addr:country": "RU",
                "building:levels": "6",
                "addr:housenumber": "19",
                "architect:wikidata": "Q4527584",
                "building:architecture": "art_nouveau"
            }
        ]
    },
    "toilets": {
        "count": 1,
        "detail": [
            {
                "fee": "yes",
                "amenity": "toilets",
                "building": "yes",
                "opening_hours": "09:00-23:00"
            }
        ]
    }
}