{
    "residents": 18515,
    "supermarket": {
        "count": 2,
        "detail": [
            {
                "name": "РеалЪ",
                "shop": "supermarket",
                "website": "http://www.tdreal.spb.ru/?page=54",
                "contact:vk": "https://vk.com/real_svezhie_produkty",
                "opening_hours": "09:00-23:00"
            },
            {
                "name": "Верный",
                "name:ru": "Верный",
                "opening_hours": "Sa, Su 09:00-22:00; Mo-Fr 08:00-22:00",
                "payment:mastercard": "yes",
                "payment:mir": "yes",
                "payment:visa": "yes",
                "shop": "supermarket",
                "website": "https://www.verno-info.ru/",
                "wheelchair": "yes"
            }
        ]
    },
    "bus_stop": {
        "count": 10,
        "detail": [
            {
                "bench": "no",
                "bin": "yes",
                "bus": "yes",
                "highway": "bus_stop",
                "local_ref": "2;6;22;71",
                "name": "Аларчин мост",
                "public_transport": "platform",
                "shelter": "no",
                "tactile_paving": "no",
                "wheelchair": "limited"
            },
            {
                "bench": "no",
                "bus": "yes",
                "highway": "bus_stop",
                "name": "Аларчин мост",
                "public_transport": "platform",
                "shelter": "no"
            },
            {
                "bench": "no",
                "bin": "no",
                "bus": "yes",
                "highway": "bus_stop",
                "local_ref": "49;181",
                "name": "Лермонтовский проспект",
                "name:ru": "Лермонтовский проспект",
                "passenger_information_display": "yes",
                "public_transport": "platform",
                "shelter": "no"
            },
            {
                "bench": "yes",
                "bin": "yes",
                "bus": "yes",
                "highway": "bus_stop",
                "local_ref": "49;181",
                "name": "Площадь Тургенева",
                "passenger_information_display": "yes",
                "public_transport": "platform",
                "shelter": "yes"
            },
            {
                "bench": "yes",
                "bus": "yes",
                "highway": "bus_stop",
                "local_ref": "49;181",
                "name": "Площадь Тургенева",
                "public_transport": "platform",
                "shelter": "yes"
            },
            {
                "bus": "yes",
                "name": "Лермонтовский проспект",
                "name:ru": "Лермонтовский проспект",
                "public_transport": "stop_position"
            },
            {
                "bus": "yes",
                "name": "Площадь Тургенева",
                "public_transport": "stop_position"
            },
            {
                "bus": "yes",
                "name": "Площадь Тургенева",
                "public_transport": "stop_position"
            },
            {
                "bus": "yes",
                "name": "Аларчин мост",
                "public_transport": "stop_position"
            },
            {
                "bus": "yes",
                "ref": "2;6;22;71",
                "name": "Аларчин мост",
                "operator": "СПб ГУП \"Организатор перевозок\"",
                "share_taxi": "yes",
                "tactile_paving": "no",
                "public_transport": "stop_position"
            }
        ]
    },
    "pharmacy": {
        "count": 3,
        "detail": [
            {
                "amenity": "pharmacy",
                "contact:vk": "https://vk.com/apteki_raduga_pp",
                "healthcare": "pharmacy",
                "name": "Первая помощь",
                "opening_hours": "Mo-Fr 09:00-22:00; Sa-Su 09:00-21:00",
                "operator": "ООО «Эркафарм Санкт-Петербург»",
                "website": "https://superapteka.ru/"
            },
            {
                "amenity": "pharmacy",
                "healthcare": "pharmacy",
                "level": "-1",
                "name": "НеоБазис",
                "opening_hours": "09:00-21:00",
                "operator": "ООО «НеоБазис»",
                "website": "http://neobasis-spb.ru/",
                "wheelchair": "no"
            },
            {
                "amenity": "pharmacy",
                "healthcare": "pharmacy",
                "name": "Невис",
                "opening_hours": "Mo-Su 09:00-21:00",
                "phone": "+7 812 7034530",
                "wheelchair": "no"
            }
        ]
    },
    "bank": {
        "count": 1,
        "detail": [
            {
                "amenity": "bank",
                "bic": "SABRRUMM",
                "branch": "Северо-Западный банк",
                "brand": "Сбербанк",
                "brand:en": "Sberbank",
                "brand:ru": "Сбербанк",
                "brand:wikidata": "Q205012",
                "brand:wikipedia": "en:Sberbank of Russia",
                "contact:facebook": "https://www.facebook.com/sberbank",
                "contact:instagram": "https://instagram.com/sberbank",
                "contact:ok": "https://ok.ru/sberbank",
                "contact:phone": "+7 812 7140191",
                "contact:twitter": "https://twitter.com/sberbank/",
                "contact:vk": "https://vk.com/sberbank",
                "contact:website": "https://www.sberbank.ru/",
                "contact:youtube": "https://www.youtube.com/sberbank",
                "name": "Сбербанк",
                "name:en": "Sberbank",
                "name:ru": "Сбербанк",
                "opening_hours": "Mo-Fr 10:00-19:00",
                "operator": "ПАО Сбербанк",
                "operator:wikidata": "Q205012",
                "operator:wikipedia": "ru:Сбербанк России",
                "ref": "9055/0369",
                "wheelchair": "no"
            }
        ]
    },
    "post_box": {
        "count": 3,
        "detail": [
            {
                "ref": "160",
                "amenity": "post_box",
                "operator": "Почта России",
                "design:year": "2010",
                "drive_through": "no",
                "post_box:type": "wall",
                "post_box:design": "ЯПНМ-II-С",
                "collection_times": "Mo-Fr 00:15,16:50; Sa 09:00; Su 16:50"
            },
            {
                "ref": "159",
                "amenity": "post_box",
                "operator": "Почта России",
                "design:year": "2010",
                "drive_through": "no",
                "post_box:type": "wall",
                "post_box:design": "ЯПНМ-II-С",
                "collection_times": "Mo-Fr 00:10,16:45; Sa 08:55; Su 16:45"
            },
            {
                "ref": "235",
                "indoor": "yes",
                "amenity": "post_box",
                "operator": "Почта России",
                "drive_through": "no",
                "opening_hours": "Mo-Fr 08:00-20:00; Sa 09:00-13:00,14:00-18:00; Su off",
                "post_box:type": "pillar",
                "post_box:design": "grey_pillar",
                "collection_times": "Mo-Sa 09:25"
            }
        ]
    },
    "alcohol": {
        "count": 6,
        "detail": [
            {
                "contact:vk": "https://vk.com/ts_norman",
                "name": "Норман",
                "opening_hours": "11:00-22:00",
                "operator": "ООО «Норман СПб»",
                "shop": "alcohol",
                "website": "http://norman-spb.ru/"
            },
            {
                "brand": "Красное & Белое",
                "brand:en": "Red & White",
                "brand:wikidata": "Q24933790",
                "brand:wikipedia": "en:Krasnoe & Beloe",
                "contact:vk": "https://vk.com/krasnoebeloe",
                "name": "Красное & Белое",
                "name:en": "Red & White",
                "note": "нет на сайте",
                "opening_hours": "09:00-22:05",
                "operator": "ООО «Альфа-М»",
                "payment:credit_cards": "yes",
                "payment:debit_cards": "yes",
                "shop": "alcohol",
                "website": "https://krasnoeibeloe.ru/",
                "wheelchair": "no"
            },
            {
                "name": "РосАл",
                "opening_hours": "09:00-22:00",
                "operator": "ООО «Актив 78»",
                "shop": "alcohol",
                "website": "http://www.rosal24.ru/"
            },
            {
                "name": "РосАл24",
                "shop": "alcohol"
            },
            {
                "contact:vk": "https://vk.com/amwineru",
                "name": "Ароматный мир",
                "opening_hours": "10:00-22:00",
                "operator": "ООО «Винторг»",
                "shop": "alcohol",
                "short_name": "Ам",
                "website": "https://amwine.ru/customers/shops/detail/84707/",
                "wheelchair": "yes"
            },
            {
                "brand": "Красное & Белое",
                "brand:wikidata": "Q24933790",
                "brand:wikipedia": "en:Krasnoe & Beloe",
                "contact:vk": "https://vk.com/krasnoebeloe",
                "name": "Красное & Белое",
                "opening_hours": "Mo-Su 09:00-22:05",
                "shop": "alcohol",
                "website": "https://krasnoeibeloe.ru/"
            }
        ]
    },
    "kindergarten": {
        "count": 5,
        "detail": [
            {
                "amenity": "kindergarten",
                "contact:email": "gdou41@mail.ru",
                "contact:phone": "+7 812 7144243",
                "contact:website": "http://gbdou41.ucoz.net",
                "name": "Детский сад № 41",
                "official_name": "Государственное бюджетное дошкольное образовательное учреждение детский сад № 41 Адмиралтейского района Санкт-Петербурга",
                "ref": "41"
            },
            {
                "amenity": "kindergarten",
                "contact:email": "admiraldou6@yandex.ru",
                "contact:phone": "+7 812 7136913",
                "contact:website": "http://dou6-spb.ucoz.ru",
                "name": "Детский сад № 6",
                "official_name": "Государственное бюджетное дошкольное образовательное учреждение детский сад № 6 Адмиралтейского района Санкт-Петербурга",
                "ref": "6"
            },
            {
                "amenity": "kindergarten",
                "contact:email": "dou1.adm@obr.gov.spb.ru",
                "contact:phone": "+7 812 7146965;+7 812 7145131;+7 812 7145422",
                "contact:website": "http://dou1adm.petersburgedu.ru",
                "description": "Ясли",
                "name": "Детский сад № 1",
                "official_name": "Государственное бюджетное дошкольное образовательное учреждение детский сад № 1 Адмиралтейского района Санкт-Петербурга",
                "ref": "1"
            },
            {
                "building": "kindergarten",
                "addr:street": "набережная канала Грибоедова",
                "building:levels": "2",
                "addr:housenumber": "168"
            },
            {
                "addr:housenumber": "6-8-10",
                "addr:postcode": "190121",
                "addr:street": "Канонерская улица",
                "amenity": "kindergarten",
                "building": "yes",
                "building:levels": "2",
                "contact:email": "dou1.adm@obr.gov.spb.ru",
                "contact:phone": "+7 812 7146965;+7 812 7145131;+7 812 7145422",
                "contact:website": "http://dou1adm.petersburgedu.ru",
                "name": "Детский сад № 1",
                "official_name": "Государственное бюджетное дошкольное образовательное учреждение детский сад № 1 Адмиралтейского района Санкт-Петербурга",
                "ref": "1"
            }
        ]
    },
    "playground": {
        "count": 11,
        "detail": [
            {
                "leisure": "playground"
            },
            {
                "leisure": "playground"
            },
            {
                "leisure": "playground"
            },
            {
                "leisure": "playground"
            },
            {
                "leisure": "playground"
            },
            {
                "leisure": "playground"
            },
            {
                "leisure": "playground"
            },
            {
                "leisure": "playground"
            },
            {
                "leisure": "playground"
            },
            {
                "leisure": "playground"
            },
            {
                "leisure": "playground"
            }
        ]
    },
    "waste_disposal": {
        "count": 13,
        "detail": [
            {
                "amenity": "waste_disposal"
            },
            {
                "amenity": "waste_disposal"
            },
            {
                "amenity": "waste_disposal"
            },
            {
                "amenity": "waste_disposal"
            },
            {
                "amenity": "waste_disposal"
            },
            {
                "amenity": "waste_disposal"
            },
            {
                "amenity": "waste_disposal"
            },
            {
                "amenity": "waste_disposal"
            },
            {
                "amenity": "waste_disposal"
            },
            {
                "amenity": "waste_disposal"
            },
            {
                "amenity": "waste_disposal"
            },
            {
                "amenity": "waste_disposal"
            },
            {
                "amenity": "waste_disposal"
            }
        ]
    },
    "bakery": {
        "count": 5,
        "detail": [
            {
                "name": "Дукани",
                "payment:credit_cards": "yes",
                "payment:debit_cards": "yes",
                "shop": "bakery",
                "wheelchair": "no"
            },
            {
                "contact:facebook": "https://www.facebook.com/leningrad.bulochnie/",
                "contact:instagram": "https://www.instagram.com/leningrad.bulochnie/",
                "contact:vk": "https://vk.com/leningrad.bulochnie",
                "drink:coffee": "served",
                "name": "Ленинградские булочные",
                "opening_hours": "Mo-Su 08:00-22:00",
                "operator": "ООО «Смольный»",
                "payment:credit_cards": "yes",
                "payment:debit_cards": "yes",
                "shop": "bakery",
                "website": "http://leningradskie.ru/",
                "wheelchair": "yes"
            },
            {
                "name": "Лавка Пекаря",
                "shop": "bakery",
                "website": "http://www.lavkapekarya.ru/",
                "operator": "АО «Паляница»",
                "contact:vk": "https://vk.com/lavka_pekarya",
                "opening_hours": "08:00-21:00"
            },
            {
                "name": "Пекарня",
                "note": "окно кафе \"Хива\"",
                "shop": "bakery"
            },
            {
                "contact:vk": "https://vk.com/lavka_pekarya",
                "drink:coffee": "served",
                "drink:tea": "served",
                "level": "-1",
                "name": "Лавка Пекаря",
                "opening_hours": "08:00-21:00",
                "operator": "АО «Паляница»",
                "payment:credit_cards": "yes",
                "payment:debit_cards": "yes",
                "shop": "bakery",
                "website": "http://www.lavkapekarya.ru/",
                "wheelchair": "no"
            }
        ]
    },
    "doctors": {
        "count": 2,
        "detail": [
            {
                "amenity": "doctors",
                "healthcare": "doctor",
                "name": "МедЭкспресс+",
                "opening_hours": "09:00-21:00",
                "website": "http://www.medexpress-med.ru/"
            },
            {
                "addr:housenumber": "87",
                "addr:street": "Садовая улица",
                "amenity": "doctors",
                "building": "yes",
                "building:levels": "4",
                "healthcare": "doctor",
                "name": "Наркологический реабилитационный центр №5"
            }
        ]
    },
    "restaurant": {
        "count": 4,
        "detail": [
            {
                "amenity": "restaurant",
                "contact:vk": "https://vk.com/club5674994",
                "diet:vegetarian": "no",
                "name": "Два Му",
                "opening_hours": "Mo-Su,PH 10:00-23:00",
                "website": "https://dvamu.ru/",
                "wheelchair": "no"
            },
            {
                "amenity": "restaurant",
                "contact:vk": "https://vk.com/banketsol",
                "name": "Mon Amour",
                "opening_hours": "Mo-Sa 10:00-21:00; Su 11:00-21:00",
                "reservation": "required",
                "website": "http://amurgrupp.ru/mon_amur"
            },
            {
                "amenity": "restaurant",
                "contact:vk": "https://vk.com/vesenniy",
                "internet_access": "wlan",
                "name": "Весенний",
                "opening_hours": "12:00-20:00",
                "reservation": "required",
                "website": "https://vesenniy.com/restorany-dlya-svadby/rimskogo.php"
            },
            {
                "amenity": "restaurant",
                "contact:vk": "https://vk.com/2banket",
                "name": "Фламбе",
                "opening_hours": "11:00-23:00",
                "reservation": "required",
                "website": "https://2banket.ru/banketnyj-zal-flambe/"
            }
        ]
    },
    "dentist": {
        "count": 3,
        "detail": [
            {
                "amenity": "dentist",
                "healthcare": "dentist"
            },
            {
                "amenity": "dentist",
                "contact:vk": "https://vk.com/club20717502",
                "healthcare": "dentist",
                "name": "Rembrandt",
                "name:ru": "Рембрандт",
                "opening_hours": "Mo-Su 09:00-21:00",
                "wheelchair": "no"
            },
            {
                "amenity": "dentist",
                "healthcare": "dentist",
                "name": "Universtom",
                "opening_hours": "09:00-22:00",
                "operator": "ООО «Университетская Стоматология»",
                "website": "https://implantgood.ru/"
            }
        ]
    },
    "convenience": {
        "count": 10,
        "detail": [
            {
                "addr:housenumber": "24",
                "addr:street": "Канонерская улица",
                "name": "Ветеран",
                "name:ru": "Ветеран",
                "opening_hours": "Mo-Su,PH 09:00-23:00",
                "payment:credit_cards": "yes",
                "payment:debit_cards": "yes",
                "shop": "convenience",
                "wheelchair": "no"
            },
            {
                "name": "Гастрономчик",
                "opening_hours": "08:00-23:00",
                "shop": "convenience"
            },
            {
                "name": "Продукты",
                "shop": "convenience",
                "opening_hours": "24/7"
            },
            {
                "name": "Продукты",
                "opening_hours": "10:00-23:00",
                "payment:credit_cards": "yes",
                "payment:debit_cards": "yes",
                "shop": "convenience",
                "wheelchair": "limited"
            },
            {
                "name": "Благо",
                "opening_hours": "24/7",
                "shop": "convenience"
            },
            {
                "name": "Продукты",
                "opening_hours": "24/7",
                "shop": "convenience"
            },
            {
                "contact:vk": "https://vk.com/produkty.ermolino",
                "name": "Ермолино",
                "shop": "convenience",
                "website": "https://www.ermolino-produkty.ru/"
            },
            {
                "name": "Продукты",
                "shop": "convenience"
            },
            {
                "alt_name": "Белорусские продукты",
                "contact:vk": "https://vk.com/belorusdvorik",
                "name": "Белорусский дворик",
                "opening_hours": "09:00-21:00",
                "operator": "ИП Мозокин А.В.",
                "origin": "belorussian",
                "payment:credit_cards": "yes",
                "payment:debit_cards": "yes",
                "shop": "convenience",
                "website": "http://belorusdvorik.ru/",
                "wheelchair": "yes"
            },
            {
                "name": "Фермерские продукты",
                "shop": "convenience",
                "opening_hours": "10:00-21:00"
            }
        ]
    },
    "driving_school": {
        "count": 1,
        "detail": [
            {
                "name": "Бонус",
                "amenity": "driving_school",
                "website": "http://www.bonus-school.com/",
                "contact:vk": "https://vk.com/bonusschool",
                "opening_hours": "Mo-Fr 09:00-21:00"
            }
        ]
    },
    "chemist": {
        "count": 3,
        "detail": [
            {
                "brand": "Watsons",
                "brand:wikidata": "Q7974785",
                "brand:wikipedia": "en:Watsons",
                "contact:vk": "https://vk.com/watsonsrussia",
                "name": "Watsons",
                "opening_hours": "09:00-22:00",
                "shop": "chemist",
                "website": "https://www.watsons.com.ru/",
                "wheelchair": "limited"
            },
            {
                "name": "Дезинфектор",
                "opening_hours": "Mo-Fr 11:00-19:00",
                "shop": "chemist",
                "website": "http://www.klop2.ru/"
            },
            {
                "contact:vk": "https://vk.com/ulybka_radugi",
                "name": "Улыбка радуги",
                "opening_hours": "09:00-21:00",
                "operator": "ООО «Успех»",
                "shop": "chemist",
                "website": "https://www.r-ulybka.ru/",
                "wheelchair": "no"
            }
        ]
    },
    "clothes": {
        "count": 3,
        "detail": [
            {
                "clothes": "children",
                "contact:vk": "https://vk.com/ostrovkids",
                "name": "Остров сокровищ",
                "opening_hours": "Mo-Su 11:00-20:00",
                "shop": "clothes",
                "website": "https://ostrovkids.ru/",
                "wheelchair": "no"
            },
            {
                "opening_hours": "Mo-Su 11:00-20:00",
                "second_hand": "yes",
                "shop": "clothes"
            },
            {
                "shop": "clothes",
                "level": "-1",
                "second_hand": "yes"
            }
        ]
    },
    "beverages": {
        "count": 1,
        "detail": [
            {
                "name": "Близко",
                "shop": "beverages",
                "opening_hours": "24/7"
            }
        ]
    },
    "cafe": {
        "count": 8,
        "detail": [
            {
                "amenity": "cafe",
                "contact:vk": "https://vk.com/gustigiusti",
                "cuisine": "italian; sicilian",
                "diet:vegetarian": "yes",
                "email": "gustigiusti.russia@gmail.com",
                "level": "-1",
                "name": "Gusti Giusti",
                "payment:credit_cards": "yes",
                "payment:debit_cards": "yes",
                "phone": "+7 981 9436995",
                "takeaway": "yes",
                "website": "http://www.gustigiusti.ru/",
                "wheelchair": "no"
            },
            {
                "alt_name": "Пельменная 91",
                "amenity": "cafe",
                "cuisine": "dumplings; azerbajanian; dagestanian; uzbek",
                "diet:halal": "yes",
                "diet:vegan": "no",
                "diet:vegetarian": "yes",
                "name": "Хива",
                "old_name": "Ялла",
                "opening_hours": "24/7",
                "payment:credit_cards": "yes",
                "payment:debit_cards": "yes",
                "wheelchair": "no"
            },
            {
                "amenity": "cafe",
                "changing_table": "no",
                "contact:instagram": "instagr.am/aragvicafe",
                "cuisine": "georgian",
                "internet_access": "wlan",
                "name": "Арагви",
                "name:en": "Aragvi",
                "opening_hours": "Mo-Su 11:00-23:00",
                "payment:credit_cards": "no",
                "payment:debit_cards": "no",
                "takeaway": "yes",
                "toilets": "yes",
                "wheelchair": "no"
            },
            {
                "alt_name": "Ноев Ковчег",
                "amenity": "cafe",
                "contact:instagram": "instagr.am/noyan_tapan",
                "cuisine": "armenian",
                "name": "Ноян Тапан",
                "name:en": "Noyan Tapan",
                "opening_hours": "Mo-Su 11:00-23:00",
                "phone": "+7 812 7143118"
            },
            {
                "amenity": "cafe",
                "name": "Аларчин мост",
                "opening_hours": "24/7",
                "website": "https://alarchin-most.nethouse.ru/"
            },
            {
                "amenity": "cafe",
                "contact:vk": "https://vk.com/cafe_kip",
                "delivery": "yes",
                "diet:vegetarian": "yes",
                "internet_access": "wlan",
                "name": "Кофе и Пельмени",
                "opening_hours": "Mo-Fr 08:00-22:00; Sa-Su 10:00-22:00",
                "short_name": "КиП",
                "website": "https://www.kafekip.ru/"
            },
            {
                "amenity": "cafe",
                "contact:vk": "https://vk.com/sawyer_coffee",
                "name": "Том Сойер",
                "opening_hours": "11:00-18:00",
                "outdoor_seating": "yes",
                "wheelchair": "no"
            },
            {
                "amenity": "cafe",
                "cuisine": "grill",
                "internet_access": "wlan",
                "name": "Дым",
                "opening_hours": "Mo-Fr 11:00-22:00; Sa, Su 12:00-22:00"
            }
        ]
    },
    "pet": {
        "count": 2,
        "detail": [
            {
                "contact:phone": "+7 964 3657716",
                "contact:vk": "https://vk.com/club57",
                "contact:website": "https://www.petshop.ru",
                "name": "Petshop.ru",
                "opening_hours": "09:00-22:00",
                "shop": "pet",
                "wheelchair": "no"
            },
            {
                "name": "Шрек",
                "shop": "pet",
                "opening_hours": "10:00-21:00"
            }
        ]
    },
    "hairdresser": {
        "count": 5,
        "detail": [
            {
                "contact:vk": "https://vk.com/skchocolate",
                "name": "Шоколад",
                "shop": "hairdresser"
            },
            {
                "name": "Аванти",
                "opening_hours": "Mo-Sa 10:00-21:00; Su 11:00-21:00",
                "phone": "+7 812 7144972",
                "shop": "hairdresser",
                "wheelchair": "no"
            },
            {
                "name": "Шанель",
                "operator": "ИП Сухова Н.Ю.",
                "shop": "hairdresser",
                "wheelchair": "no"
            },
            {
                "name": "Тиара",
                "opening_hours": "09:00-22:00",
                "operator": "ПБОЮЛ Кошелева С.В.",
                "phone": "+7 812 7137846",
                "shop": "hairdresser",
                "wheelchair": "no"
            },
            {
                "contact:vk": "https://vk.com/spb.sergio",
                "internet_access": "wlan",
                "name": "Sergio",
                "opening_hours": "10:00-21:00",
                "operator": "ЧП \"Бубович С.Э.\"",
                "phone": "+7 812 7142775",
                "shop": "hairdresser",
                "wheelchair": "no"
            }
        ]
    },
    "pastry": {
        "count": 1,
        "detail": [
            {
                "amenity": "cafe",
                "internet_access": "wlan",
                "level": "0",
                "note": "бывший Север-Метрополь",
                "opening_hours": "09:00-22:00",
                "operator": "ИП Долгобородов Вадим Германович",
                "shop": "pastry",
                "takeaway": "yes",
                "wheelchair": "limited"
            }
        ]
    },
    "bar": {
        "count": 1,
        "detail": [
            {
                "amenity": "bar",
                "contact:instagram": "https://www.instagram.com/gastropunxclub/",
                "name": "Gastro Punx Club",
                "opening_hours": "Mo-Su 12:00-23:00"
            }
        ]
    },
    "erotic": {
        "count": 1,
        "detail": [
            {
                "contact:vk": "https://vk.com/sex_shop_onona",
                "name": "Он и Она",
                "opening_hours": "24/7",
                "operator": "ИП Новиков Федор Александрович",
                "shop": "erotic",
                "website": "https://onona.ru/shops/sadovaya"
            }
        ]
    },
    "fast_food": {
        "count": 3,
        "detail": [
            {
                "amenity": "fast_food",
                "fast_food": "cafeteria",
                "name": "Наша столовая",
                "opening_hours": "09:00-23:00",
                "wheelchair": "no"
            },
            {
                "amenity": "fast_food",
                "cuisine": "doner",
                "drink:beer": "yes",
                "opening_hours": "24/7",
                "takeaway": "yes",
                "toilets": "yes",
                "toilets:wheelchair": "no",
                "wheelchair": "limited"
            },
            {
                "amenity": "fast_food"
            }
        ]
    },
    "houseware": {
        "count": 2,
        "detail": [
            {
                "level": "0",
                "name": "Всё для дома",
                "opening_hours": "Mo-Fr 11:00-20:00; Sa-Su 11:00-19:00",
                "payment:credit_cards": "yes",
                "payment:debit_cards": "yes",
                "shop": "houseware",
                "wheelchair": "no"
            },
            {
                "noname": "yes",
                "shop": "houseware",
                "wheelchair": "no"
            }
        ]
    },
    "baby_goods": {
        "count": 1,
        "detail": [
            {
                "contact:vk": "https://vk.com/akusherstvo_ru",
                "name": "Акушерство.ру",
                "opening_hours": "Mo-Su 09:00-20:00",
                "phone": "+7 916 3003927",
                "reservation": "required",
                "shop": "baby_goods",
                "website": "https://spb.akusherstvo.ru/info.php?page=self_delivery&id=34",
                "wheelchair": "no"
            }
        ]
    },
    "greengrocer": {
        "count": 3,
        "detail": [
            {
                "shop": "greengrocer",
                "opening_hours": "10:00-22:00"
            },
            {
                "building": "kiosk",
                "noname": "yes",
                "payment:cash": "yes",
                "payment:credit_cards": "no",
                "payment:debit_cards": "no",
                "shop": "greengrocer",
                "wheelchair": "yes"
            },
            {
                "building": "kiosk",
                "noname": "yes",
                "shop": "greengrocer"
            }
        ]
    },
    "hardware": {
        "count": 1,
        "detail": [
            {
                "name": "СтройМаг",
                "opening_hours": "Mo-Fr 09:00-21:00; Sa-Su 10:00-20:00",
                "payment:credit_cards": "yes",
                "payment:debit_cards": "yes",
                "shop": "hardware",
                "wheelchair": "no"
            }
        ]
    },
    "stationery": {
        "count": 1,
        "detail": [
            {
                "name": "Акварель",
                "shop": "stationery",
                "wheelchair": "no"
            }
        ]
    },
    "general": {
        "count": 1,
        "detail": [
            {
                "shop": "general",
                "level": "-1",
                "origin": "finnish",
                "opening_hours": "Mo-Fr 10:00-20:00; Sa-Su 11:00-19:00"
            }
        ]
    },
    "butcher": {
        "count": 2,
        "detail": [
            {
                "name": "Фермерское хозяйство",
                "note": "в основном мясные продукты, присутствуют отделы с мочными продуктами и овощами",
                "opening_hours": "10:00-21:00",
                "shop": "butcher",
                "wheelchair": "no"
            },
            {
                "name": "Ладоград",
                "opening_hours": "09:00-21:00",
                "operator": "ООО «Торговая фирма Ладоград»",
                "shop": "butcher",
                "website": "http://www.ladograd.ru/",
                "wheelchair": "no"
            }
        ]
    },
    "pub": {
        "count": 1,
        "detail": [
            {
                "amenity": "pub",
                "contact:vk": "https://vk.com/beerhousebar",
                "name": "Beer House Staff",
                "opening_hours": "12:00+",
                "operator": "ООО «Юник»",
                "outdoor_seating": "yes",
                "website": "http://beerhousebar.ru/"
            }
        ]
    },
    "bathroom_furnishing": {
        "count": 1,
        "detail": [
            {
                "name": "Сантехника",
                "shop": "bathroom_furnishing",
                "craft": "key_cutter",
                "opening_hours": "Mo-Fr 10:00-19:00; Sa-Su 10:00-18:00"
            }
        ]
    },
    "florist": {
        "count": 3,
        "detail": [
            {
                "name": "Цветландия",
                "shop": "florist",
                "opening_hours": "24/7"
            },
            {
                "craft": "tailor",
                "name": "Цветы",
                "shop": "florist"
            },
            {
                "contact:vk": "https://vk.com/tsvetock",
                "name": "Цветок",
                "opening_hours": "10:00-20:00",
                "operator": "ИП Сидорина Н.С.",
                "payment:credit_cards": "yes",
                "payment:debit_cards": "yes",
                "shop": "florist",
                "website": "https://www.masterskaya8.com/",
                "wheelchair": "no"
            }
        ]
    },
    "theatre": {
        "count": 1,
        "detail": [
            {
                "name": "Рок-опера",
                "amenity": "theatre",
                "website": "http://rock-opera.ru/"
            }
        ]
    },
    "second_hand": {
        "count": 1,
        "detail": [
            {
                "name": "Комок",
                "opening_hours": "Mo-Fr 11:00-20:00; Sa 11:00-19:00",
                "shop": "second_hand"
            }
        ]
    },
    "tobacco": {
        "count": 1,
        "detail": [
            {
                "level": "-1",
                "shop": "tobacco"
            }
        ]
    },
    "travel_agency": {
        "count": 2,
        "detail": [
            {
                "brand": "Coral Travel",
                "brand:wikidata": "Q58011479",
                "contact:vk": "https://vk.com/coraltravel",
                "name": "Coral Travel",
                "shop": "travel_agency",
                "website": "https://www.coral.ru/"
            },
            {
                "contact:vk": "https://vk.com/spb.terra",
                "name": "Терра Азия Трэвел",
                "opening_hours": "Mo-Fr 10:00-19:00",
                "shop": "travel_agency",
                "website": "https://www.terra-asia.ru/"
            }
        ]
    },
    "arts_centre": {
        "count": 1,
        "detail": [
            {
                "name": "Культурно-просветительский центр «Покровский остров»",
                "amenity": "arts_centre"
            }
        ]
    },
    "furniture": {
        "count": 1,
        "detail": [
            {
                "name": "Ампир",
                "opening_hours": "Tu 12:00-19:00; We-Th 10:00-19:00",
                "operator": "ООО «Екатерининский парк»",
                "shop": "furniture",
                "website": "http://restameb.ru/"
            }
        ]
    },
    "florist;optician": {
        "count": 1,
        "detail": [
            {
                "opening_hours": "Mo-Th 11:00-20:00",
                "shop": "florist;optician"
            }
        ]
    },
    "car_repair": {
        "count": 1,
        "detail": [
            {
                "name": "Лаборатория 5",
                "shop": "car_repair",
                "website": "http://lab5spb.ru/"
            }
        ]
    },
    "antiques": {
        "count": 2,
        "detail": [
            {
                "name": "Меч и шлем",
                "shop": "antiques",
                "website": "http://www.swordandhelmet.ru/"
            },
            {
                "shop": "antiques"
            }
        ]
    },
    "police": {
        "count": 2,
        "detail": [
            {
                "name": "Участковый пункт полиции №3",
                "phone": "+7 812 7142802",
                "amenity": "police",
                "opening_hours": "Tu,Th 18:00-20:00; Sa[2],Su[4] 12:00-14:00"
            },
            {
                "addr:housenumber": "142",
                "addr:street": "набережная канала Грибоедова",
                "amenity": "police",
                "building": "yes",
                "building:levels": "3",
                "name": "Участковый пункт полиции № 1"
            }
        ]
    },
    "bicycle_parking": {
        "count": 4,
        "detail": [
            {
                "amenity": "bicycle_parking",
                "bicycle_parking": "rack",
                "capacity": "5",
                "covered": "no"
            },
            {
                "amenity": "bicycle_parking",
                "bicycle_parking": "wall_loops",
                "capacity": "5",
                "covered": "no"
            },
            {
                "amenity": "bicycle_parking",
                "bicycle_parking": "stands",
                "capacity": "5",
                "covered": "no",
                "operator": "Лавка пекаря"
            },
            {
                "amenity": "bicycle_parking",
                "bicycle_parking": "wall_loops",
                "capacity": "5",
                "covered": "no",
                "operator": "Вместе"
            }
        ]
    },
    "tiles": {
        "count": 1,
        "detail": [
            {
                "name": "Barberini",
                "opening_hours": "Mo-Fr 11:00-20:00; Sa 12:00-18:00",
                "operator": "ООО «СтройСантехКерамика»",
                "shop": "tiles",
                "website": "http://barberini-spb.ru/"
            }
        ]
    },
    "copyshop": {
        "count": 1,
        "detail": [
            {
                "name": "Арника",
                "opening_hours": "Mo-Fr 10:00-19:00; Sa 11:00-18:00",
                "phone": "+7 911 7058228",
                "shop": "copyshop",
                "wheelchair": "no"
            }
        ]
    },
    "newsagent": {
        "count": 1,
        "detail": [
            {
                "building": "kiosk",
                "name": "Пресса",
                "shop": "newsagent"
            }
        ]
    },
    "waste_basket": {
        "count": 16,
        "detail": [
            {
                "amenity": "waste_basket"
            },
            {
                "amenity": "waste_basket"
            },
            {
                "amenity": "waste_basket"
            },
            {
                "amenity": "waste_basket"
            },
            {
                "amenity": "waste_basket"
            },
            {
                "amenity": "waste_basket"
            },
            {
                "amenity": "waste_basket"
            },
            {
                "amenity": "waste_basket"
            },
            {
                "amenity": "waste_basket"
            },
            {
                "amenity": "waste_basket"
            },
            {
                "amenity": "waste_basket"
            },
            {
                "amenity": "waste_basket"
            },
            {
                "amenity": "waste_basket"
            },
            {
                "amenity": "waste_basket"
            },
            {
                "amenity": "waste_basket"
            },
            {
                "amenity": "waste_basket"
            }
        ]
    },
    "bench": {
        "count": 23,
        "detail": [
            {
                "amenity": "bench",
                "backrest": "yes"
            },
            {
                "amenity": "bench",
                "backrest": "yes"
            },
            {
                "amenity": "bench",
                "backrest": "yes"
            },
            {
                "amenity": "bench",
                "backrest": "yes"
            },
            {
                "amenity": "bench",
                "backrest": "yes"
            },
            {
                "amenity": "bench",
                "backrest": "yes"
            },
            {
                "amenity": "bench",
                "backrest": "yes"
            },
            {
                "amenity": "bench",
                "backrest": "yes"
            },
            {
                "amenity": "bench",
                "backrest": "yes"
            },
            {
                "amenity": "bench",
                "backrest": "yes"
            },
            {
                "amenity": "bench",
                "backrest": "yes"
            },
            {
                "amenity": "bench",
                "backrest": "yes"
            },
            {
                "amenity": "bench",
                "backrest": "yes"
            },
            {
                "amenity": "bench",
                "backrest": "yes"
            },
            {
                "amenity": "bench",
                "backrest": "yes"
            },
            {
                "amenity": "bench",
                "backrest": "yes"
            },
            {
                "amenity": "bench",
                "backrest": "yes"
            },
            {
                "amenity": "bench",
                "backrest": "yes"
            },
            {
                "amenity": "bench",
                "backrest": "yes"
            },
            {
                "amenity": "bench"
            },
            {
                "amenity": "bench"
            },
            {
                "amenity": "bench"
            },
            {
                "amenity": "bench"
            }
        ]
    },
    "recycling": {
        "count": 1,
        "detail": [
            {
                "amenity": "recycling",
                "name": "Экобокс",
                "recycling:batteries": "yes",
                "recycling:low_energy_bulbs": "yes",
                "recycling_type": "container"
            }
        ]
    },
    "atm": {
        "count": 1,
        "detail": [
            {
                "amenity": "atm",
                "name": "Зал экспресс-услуг",
                "opening_hours": "24/7",
                "operator": "ПАО Сбербанк",
                "wheelchair": "no"
            }
        ]
    },
    "clock": {
        "count": 1,
        "detail": [
            {
                "amenity": "clock",
                "date": "no",
                "display": "analog",
                "faces": "2",
                "support": "wall_mounted"
            }
        ]
    },
    "beauty": {
        "count": 1,
        "detail": [
            {
                "contact:instagram": "https://www.instagram.com/glb_spb/",
                "name": "Golden Line of Beauty",
                "shop": "beauty"
            }
        ]
    },
    "parking_entrance": {
        "count": 1,
        "detail": [
            {
                "amenity": "parking_entrance"
            }
        ]
    },
    "service": {
        "count": 14,
        "detail": [
            {
                "power": "substation",
                "building": "service",
                "substation": "minor_distribution",
                "addr:letter": "Д",
                "addr:street": "Английский проспект",
                "building:levels": "1",
                "addr:housenumber": "60"
            },
            {
                "power": "substation",
                "building": "service",
                "substation": "minor_distribution",
                "building:levels": "1"
            },
            {
                "power": "substation",
                "building": "service",
                "substation": "minor_distribution",
                "addr:letter": "Я",
                "addr:street": "Садовая улица",
                "building:levels": "1",
                "addr:housenumber": "79"
            },
            {
                "power": "substation",
                "building": "service",
                "substation": "minor_distribution",
                "building:levels": "1"
            },
            {
                "power": "substation",
                "building": "service",
                "substation": "minor_distribution",
                "building:levels": "1"
            },
            {
                "power": "substation",
                "building": "service",
                "substation": "minor_distribution",
                "addr:letter": "Я",
                "addr:street": "Английский проспект",
                "building:levels": "1",
                "addr:housenumber": "44"
            },
            {
                "power": "substation",
                "building": "service",
                "substation": "minor_distribution",
                "addr:letter": "В",
                "addr:street": "набережная канала Грибоедова",
                "building:levels": "1",
                "addr:housenumber": "156"
            },
            {
                "power": "substation",
                "building": "service",
                "substation": "minor_distribution",
                "building:levels": "1"
            },
            {
                "power": "substation",
                "building": "service",
                "substation": "minor_distribution",
                "building:levels": "1"
            },
            {
                "power": "substation",
                "building": "service",
                "substation": "minor_distribution",
                "addr:letter": "З",
                "addr:street": "улица Лабутина",
                "building:levels": "1",
                "addr:housenumber": "11"
            },
            {
                "power": "substation",
                "building": "service",
                "substation": "minor_distribution",
                "building:levels": "1"
            },
            {
                "power": "substation",
                "building": "service",
                "substation": "minor_distribution",
                "addr:letter": "Я",
                "addr:street": "Садовая улица",
                "building:levels": "1",
                "addr:housenumber": "118"
            },
            {
                "building": "service"
            },
            {
                "building": "service"
            }
        ]
    },
    "clinic": {
        "count": 1,
        "detail": [
            {
                "name": "Психоневрологический диспансер №7",
                "amenity": "clinic",
                "building": "hospital",
                "healthcare": "clinic",
                "addr:street": "Канонерская улица",
                "building:levels": "5",
                "addr:housenumber": "12",
                "health_facility:type": "clinic"
            }
        ]
    },
    "toilets": {
        "count": 1,
        "detail": [
            {
                "addr:housenumber": "1",
                "addr:street": "площадь Тургенева",
                "amenity": "toilets",
                "building": "yes",
                "charge": "30 RUB",
                "fee": "yes",
                "opening_hours": "09:00-21:00",
                "operator": "ГУП «Водоканал Санкт-Петербурга»",
                "website": "http://www.vodokanal.spb.ru/kanalizovanie/tualety/"
            }
        ]
    },
    "school": {
        "count": 1,
        "detail": [
            {
                "addr:housenumber": "33",
                "addr:postcode": "190121",
                "addr:street": "Канонерская улица",
                "amenity": "school",
                "building": "school",
                "building:architecture": "stalinist neoclassicism",
                "building:cladding": "brick",
                "building:levels": "4",
                "building:parts": "vertical",
                "contact:email": "sc234@adm-edu.spb.ru",
                "contact:phone": "+7 812 7142353;+7 812 7142752",
                "contact:website": "http://sc.adm-edu.spb.ru/234/",
                "design:code:SPb": "Шк-15_50е",
                "design:note": "С деталями неоклассического стиля",
                "name": "Школа № 234",
                "official_name": "Государственное бюджетное общеобразовательное учреждение средняя общеобразовательная школа № 234 Адмиралтейского района Санкт-Петербурга",
                "ref": "234"
            }
        ]
    },
    "shelter": {
        "count": 1,
        "detail": [
            {
                "amenity": "shelter",
                "building": "yes",
                "shelter_type": "gazebo"
            }
        ]
    }
}