{
    "residents": 4150,
    "post_office": {
        "count": 1,
        "detail": [
            {
                "amenity": "post_office",
                "name": "Санкт-Петербург 195043",
                "opening_hours": "Mo-Fr 08:00-20:00; Sa 09:00-13:00,14:00-18:00; Su off",
                "operator": "Почта России",
                "phone": "+7 812 5264135;+7 812 5266550;+7 812 5276327",
                "ref": "195043",
                "website": "https://www.pochta.ru"
            }
        ]
    },
    "waste_disposal": {
        "count": 4,
        "detail": [
            {
                "amenity": "waste_disposal"
            },
            {
                "amenity": "waste_disposal"
            },
            {
                "amenity": "waste_disposal"
            },
            {
                "amenity": "waste_disposal"
            }
        ]
    },
    "convenience": {
        "count": 2,
        "detail": [
            {
                "name": "Продукты",
                "shop": "convenience",
                "operator": "ООО \"Магазин 49\"",
                "opening_hours": "08:00-23:00"
            },
            {
                "name": "Фруктовый рай",
                "opening_hours": "24/7",
                "shop": "convenience"
            }
        ]
    },
    "post_locker": {
        "count": 1,
        "detail": [
            {
                "amenity": "post_locker",
                "operator": "Почта России"
            }
        ]
    },
    "post_box": {
        "count": 1,
        "detail": [
            {
                "amenity": "post_box",
                "collection_times": "Mo-Fr 5:10; Sa 00:10; Su 00:30",
                "design:year": "2010",
                "drive_through": "no",
                "operator": "Почта России",
                "post_box:design": "ЯПНМ-II-С",
                "post_box:type": "wall",
                "ref": "321"
            }
        ]
    },
    "bus_stop": {
        "count": 1,
        "detail": [
            {
                "bus": "yes",
                "highway": "bus_stop",
                "public_transport": "platform"
            }
        ]
    },
    "hairdresser": {
        "count": 1,
        "detail": [
            {
                "shop": "hairdresser"
            }
        ]
    },
    "bank": {
        "count": 1,
        "detail": [
            {
                "amenity": "bank",
                "brand": "Почта Банк",
                "brand:en": "Post Bank",
                "brand:wikidata": "Q24930461",
                "brand:wikipedia": "en:Post Bank (Russia)",
                "name": "Почта Банк",
                "name:en": "Post Bank",
                "operator": "ПАО \"Почта Банк\""
            }
        ]
    },
    "alcohol": {
        "count": 1,
        "detail": [
            {
                "brand": "Красное & Белое",
                "brand:en": "Red&White",
                "brand:wikidata": "Q24933790",
                "brand:wikipedia": "en:Krasnoe & Beloe",
                "name": "Красное & Белое",
                "name:en": "Red&White",
                "opening_hours": "Mo-Su 09:00-22:05",
                "shop": "alcohol"
            }
        ]
    },
    "supermarket": {
        "count": 1,
        "detail": [
            {
                "brand": "Семишагофф",
                "brand:wikidata": "Q58003374",
                "name": "Семишагофф",
                "opening_hours": "Mo-Su 09:00-23:00",
                "shop": "supermarket"
            }
        ]
    },
    "service": {
        "count": 4,
        "detail": [
            {
                "power": "substation",
                "building": "service",
                "addr:letter": "Б",
                "addr:street": "Ковалёвская улица",
                "source:addr": "rgis",
                "addr:postcode": "195043",
                "building:levels": "1",
                "addr:housenumber": "12 к1",
                "building:cladding": "brick"
            },
            {
                "addr:housenumber": "81 к2 литА",
                "addr:postcode": "195043",
                "addr:street": "Рябовское шоссе",
                "building": "service",
                "building:cladding": "brick",
                "building:levels": "1",
                "design:code:SPb": "ГРП-2*2",
                "pipeline": "substation",
                "substance": "gas"
            },
            {
                "power": "substation",
                "building": "service"
            },
            {
                "building": "service",
                "power": "substation"
            }
        ]
    },
    "school": {
        "count": 1,
        "detail": [
            {
                "building": "school",
                "addr:street": "Рябовское шоссе",
                "design:note": "С деталями неоклассического стиля",
                "addr:postcode": "195043",
                "building:parts": "vertical",
                "building:levels": "4",
                "design:code:SPb": "Шк-15_50е",
                "addr:housenumber": "75",
                "building:cladding": "plaster",
                "building:architecture": "stalinist neoclassicism"
            }
        ]
    },
    "greengrocer": {
        "count": 1,
        "detail": [
            {
                "name": "Овощи, фрукты",
                "shop": "greengrocer",
                "building": "kiosk"
            }
        ]
    }
}