{
    "residents": 6343,
    "supermarket": {
        "count": 2,
        "detail": [
            {
                "addr:housenumber": "10 к3",
                "addr:street": "улица Стахановцев",
                "brand": "Дикси",
                "brand:en": "Dixy",
                "brand:wikidata": "Q4161561",
                "brand:wikipedia": "ru:Дикси (сеть магазинов)",
                "contact:phone": "+7 800 3330201",
                "contact:vk": "https://vk.com/dixyclub",
                "contact:youtube": "https://www.youtube.com/user/DixyChannel",
                "name": "Дикси",
                "name:ru": "Дикси",
                "opening_hours": "24/7",
                "shop": "supermarket",
                "website": "https://dixy.ru/"
            },
            {
                "brand": "Дикси",
                "brand:en": "Dixy",
                "brand:wikidata": "Q4161561",
                "brand:wikipedia": "ru:Дикси (сеть магазинов)",
                "contact:phone": "+7 800 3330201",
                "contact:vk": "https://vk.com/dixyclub",
                "contact:youtube": "https://www.youtube.com/user/DixyChannel",
                "name": "Дикси",
                "name:ru": "Дикси",
                "opening_hours": "24/7",
                "shop": "supermarket",
                "website": "https://dixy.ru/"
            }
        ]
    },
    "playground": {
        "count": 11,
        "detail": [
            {
                "leisure": "playground"
            },
            {
                "leisure": "playground"
            },
            {
                "leisure": "playground"
            },
            {
                "leisure": "playground"
            },
            {
                "leisure": "playground"
            },
            {
                "leisure": "playground"
            },
            {
                "leisure": "playground"
            },
            {
                "leisure": "playground"
            },
            {
                "leisure": "playground"
            },
            {
                "leisure": "playground"
            },
            {
                "leisure": "playground"
            }
        ]
    },
    "cafe": {
        "count": 2,
        "detail": [
            {
                "name": "Рюмочка",
                "amenity": "cafe"
            },
            {
                "name": "Столовая",
                "amenity": "cafe",
                "opening_hours": "Mo-Fr 09:00-17:00"
            }
        ]
    },
    "library": {
        "count": 2,
        "detail": [
            {
                "amenity": "library"
            },
            {
                "name": "Библиотека РГГМУ",
                "amenity": "library"
            }
        ]
    },
    "clinic": {
        "count": 1,
        "detail": [
            {
                "amenity": "clinic",
                "healthcare": "clinic",
                "name": "Центр репродуктивной медицины"
            }
        ]
    },
    "car_repair": {
        "count": 1,
        "detail": [
            {
                "contact:phone": "+7 812 9592616;+7 812 9724377",
                "contact:website": "http://www.nexttyres.spb.ru",
                "name": "NextTyres",
                "opening_hours": "Mo-Fr 10:00-20:00; Sa 10:00-13:00",
                "shop": "car_repair"
            }
        ]
    },
    "cinema": {
        "count": 1,
        "detail": [
            {
                "name": "Детский кинотеатр \"Заневский\"",
                "amenity": "cinema"
            }
        ]
    },
    "doctors": {
        "count": 2,
        "detail": [
            {
                "amenity": "doctors",
                "healthcare": "doctor",
                "name": "Межрайонный наркологический диспансер №1. Дневной Стационар"
            },
            {
                "addr:city": "Санкт-Петербург",
                "addr:country": "RU",
                "addr:housenumber": "12",
                "addr:postcode": "195196",
                "addr:street": "Рижская улица",
                "amenity": "doctors",
                "building": "yes",
                "building:levels": "2",
                "healthcare": "doctor",
                "name": "Центр неврологии и МРТ"
            }
        ]
    },
    "convenience": {
        "count": 3,
        "detail": [
            {
                "name": "Изюминка",
                "shop": "convenience",
                "opening_hours": "24/7"
            },
            {
                "name": "Продукты",
                "shop": "convenience",
                "opening_hours": "24/7"
            },
            {
                "name": "Продукты",
                "shop": "convenience",
                "opening_hours": "24/7"
            }
        ]
    },
    "florist": {
        "count": 1,
        "detail": [
            {
                "name": "Цветоптторг",
                "shop": "florist",
                "opening_hours": "24/7"
            }
        ]
    },
    "clock": {
        "count": 1,
        "detail": [
            {
                "amenity": "clock",
                "display": "analog",
                "support": "wall_mounted"
            }
        ]
    },
    "waste_disposal": {
        "count": 5,
        "detail": [
            {
                "amenity": "waste_disposal"
            },
            {
                "amenity": "waste_disposal"
            },
            {
                "access": "yes",
                "amenity": "waste_disposal",
                "waste": "mixed;plastic"
            },
            {
                "amenity": "waste_disposal"
            },
            {
                "amenity": "waste_disposal"
            }
        ]
    },
    "bus_stop": {
        "count": 13,
        "detail": [
            {
                "bench": "yes",
                "bin": "yes",
                "bus": "yes",
                "highway": "bus_stop",
                "local_ref": "5;46;55",
                "name": "Малоохтинский проспект",
                "name:ru": "Малоохтинский проспект",
                "public_transport": "platform",
                "share_taxi": "no",
                "shelter": "yes"
            },
            {
                "bus": "yes",
                "highway": "bus_stop",
                "local_ref": "46;55",
                "name": "улица Стахановцев",
                "public_transport": "platform"
            },
            {
                "bus": "yes",
                "highway": "bus_stop",
                "local_ref": "Троллейбусы 7,18(по будням),33(по будням)",
                "name": "улица Стахановцев",
                "public_transport": "platform",
                "trolleybus": "yes"
            },
            {
                "bench": "yes",
                "bus": "yes",
                "highway": "bus_stop",
                "local_ref": "Троллейбус 33(по будням)",
                "name": "Таллинская улица",
                "public_transport": "platform",
                "shelter": "yes",
                "trolleybus": "yes"
            },
            {
                "bus": "yes",
                "name": "Малоохтинский проспект",
                "name:ru": "Малоохтинский проспект",
                "public_transport": "stop_position"
            },
            {
                "bus": "yes",
                "name": "Таллинская улица",
                "public_transport": "stop_position"
            },
            {
                "bus": "yes",
                "name": "Таллинская улица",
                "public_transport": "stop_position"
            },
            {
                "bus": "yes",
                "name": "улица Стахановцев",
                "public_transport": "stop_position"
            },
            {
                "bench": "yes",
                "bin": "yes",
                "bus": "yes",
                "highway": "bus_stop",
                "local_ref": "5",
                "name": "Таллинская улица",
                "public_transport": "platform",
                "shelter": "yes"
            },
            {
                "bus": "yes",
                "highway": "bus_stop",
                "local_ref": "5;46;55",
                "name": "Таллинская улица",
                "public_transport": "platform",
                "share_taxi": "no",
                "trolleybus": "yes"
            },
            {
                "bus": "yes",
                "name": "Таллинская улица",
                "public_transport": "stop_position",
                "trolleybus": "yes"
            },
            {
                "name": "улица Стахановцев",
                "public_transport": "stop_position",
                "trolleybus": "yes"
            },
            {
                "name": "Таллинская улица",
                "public_transport": "stop_position",
                "trolleybus": "yes"
            }
        ]
    },
    "recycling": {
        "count": 2,
        "detail": [
            {
                "name": "Экобокс",
                "fixme": "уточнить положение",
                "amenity": "recycling",
                "recycling_type": "container",
                "recycling:batteries": "yes",
                "recycling:hydrargyrum": "yes",
                "recycling:hazardous_waste": "yes",
                "recycling:low_energy_bulbs": "yes",
                "recycling:fluorescent_tubes": "yes"
            },
            {
                "name": "Экобокс",
                "fixme": "уточнить положение",
                "amenity": "recycling",
                "recycling_type": "container",
                "recycling:batteries": "yes",
                "recycling:hydrargyrum": "yes",
                "recycling:hazardous_waste": "yes",
                "recycling:low_energy_bulbs": "yes",
                "recycling:fluorescent_tubes": "yes"
            }
        ]
    },
    "stationery": {
        "count": 1,
        "detail": [
            {
                "name": "Канцелярская Мекка",
                "opening_hours": "09:00-21:00",
                "phone": "+7 812 4441663",
                "shop": "stationery",
                "website": "https://www.mekka-spb.ru/"
            }
        ]
    },
    "dentist": {
        "count": 1,
        "detail": [
            {
                "addr:city": "Санкт-Петербург",
                "addr:housenumber": "12/18",
                "addr:postcode": "195196",
                "addr:street": "Таллинская улица",
                "amenity": "dentist",
                "healthcare": "dentist",
                "name": "Новостом",
                "opening_hours": "09:00-21:00",
                "phone": "+7 812 4445115"
            }
        ]
    },
    "garden_centre": {
        "count": 1,
        "detail": [
            {
                "name": "Дом семян",
                "shop": "garden_centre"
            }
        ]
    },
    "interior_decoration": {
        "count": 1,
        "detail": [
            {
                "name": "МиМиДекор",
                "shop": "interior_decoration",
                "email": "zakaz@mimidecor.ru",
                "level": "0",
                "phone": "+7 812 4251371",
                "name:en": "MiMiDecor",
                "name:ru": "МиМиДекор",
                "website": "http://mimidecor.ru",
                "addr:city": "Санкт-Петербург",
                "addr:street": "Таллинская улица",
                "addr:postcode": "195196",
                "opening_hours": "Mo-Sa 10:00-20:00",
                "addr:housenumber": "5"
            }
        ]
    },
    "bench": {
        "count": 8,
        "detail": [
            {
                "amenity": "bench"
            },
            {
                "amenity": "bench"
            },
            {
                "amenity": "bench",
                "backrest": "yes",
                "seats": "3"
            },
            {
                "amenity": "bench",
                "backrest": "yes",
                "seats": "3"
            },
            {
                "amenity": "bench",
                "backrest": "yes",
                "seats": "3"
            },
            {
                "amenity": "bench"
            },
            {
                "amenity": "bench"
            },
            {
                "amenity": "bench"
            }
        ]
    },
    "pharmacy": {
        "count": 1,
        "detail": [
            {
                "amenity": "pharmacy",
                "contact:facebook": "http://facebook.com/aptekivita",
                "contact:instagram": "https://www.instagram.com/vita_express/",
                "contact:phone": "+7 800 7550003",
                "contact:vk": "https://vk.com/aptekivita",
                "contact:website": "https://vitaexpress.ru/",
                "name": "Вита Экспресс",
                "opening_hours": "Mo-Fr 08:00-22:00;Sa-Su 09:00-22:00"
            }
        ]
    },
    "dry_cleaning": {
        "count": 1,
        "detail": [
            {
                "addr:postcode": "195196",
                "email": "info@myeasyclean.ru",
                "name": "Myeasyclean",
                "name:en": "Уборка квартир",
                "opening_hours": "Mo-Su 07:00-23:00",
                "phone": "+7 981 8122019",
                "shop": "dry_cleaning",
                "website": "https://myeasyclean.ru/"
            }
        ]
    },
    "school": {
        "count": 2,
        "detail": [
            {
                "addr:city": "Санкт-Петербург",
                "addr:country": "RU",
                "addr:housenumber": "15 к2",
                "addr:postcode": "195196",
                "addr:street": "улица Стахановцев",
                "building": "school",
                "building:levels": "4",
                "building:parts": "vertical",
                "design:ref": "2ЛГ-02-2"
            },
            {
                "addr:housenumber": "18",
                "addr:postcode": "195196",
                "addr:street": "Таллинская улица",
                "building": "school",
                "building:cladding": "plaster",
                "building:levels": "4",
                "design:code:SPb": "Шк-15_50е",
                "design:note": "Без деталей неоклассического стиля",
                "phone": "+7 812 4442348"
            }
        ]
    },
    "university": {
        "count": 1,
        "detail": [
            {
                "addr:housenumber": "98",
                "addr:postcode": "195196",
                "addr:street": "Малоохтинский проспект",
                "amenity": "university",
                "building": "yes",
                "building:levels": "4",
                "name": "Российский государственный гидрометеорологический университет"
            }
        ]
    },
    "veterinary": {
        "count": 1,
        "detail": [
            {
                "name": "Санкт-Петербургская городская ветеринарная лаборатория",
                "amenity": "veterinary",
                "building": "yes",
                "addr:city": "Санкт-Петербург",
                "addr:street": "Рижская улица",
                "addr:country": "RU",
                "addr:postcode": "195196",
                "building:levels": "2",
                "addr:housenumber": "6"
            }
        ]
    },
    "commercial": {
        "count": 1,
        "detail": [
            {
                "addr:city": "Санкт-Петербург",
                "addr:country": "RU",
                "addr:housenumber": "5",
                "addr:postcode": "195196",
                "addr:street": "Таллинская улица",
                "building": "commercial",
                "building:levels": "4",
                "name": "Бизнес-центр «Таллинская, 5»",
                "opening_hours": "Mo-Su 08:00-22:00",
                "smoking": "outside"
            }
        ]
    },
    "service": {
        "count": 1,
        "detail": [
            {
                "note": "котельная",
                "power": "generator",
                "building": "service",
                "addr:street": "улица Стахановцев",
                "addr:housenumber": "13 к2",
                "generator:method": "combustion",
                "generator:output:heat": "yes"
            }
        ]
    }
}