{
    "residents": 390,
    "supermarket": {
        "count": 3,
        "detail": [
            {
                "name": "Дикси",
                "shop": "supermarket",
                "name:ja": "パルマ"
            },
            {
                "name": "Пятёрочка",
                "shop": "supermarket",
                "phone": "+7 800 5555505",
                "website": "https://5ka.ru/",
                "opening_hours": "Mo-Su 08:00-22:00"
            },
            {
                "addr:city": "Коряжма",
                "addr:housenumber": "41",
                "addr:street": "проспект Ленина",
                "building": "commercial",
                "int_name": "Grand",
                "name": "Гранд",
                "shop": "supermarket"
            }
        ]
    },
    "parking": {
        "count": 3,
        "detail": [
            {
                "amenity": "parking"
            },
            {
                "amenity": "parking"
            },
            {
                "amenity": "parking"
            }
        ]
    },
    "convenience": {
        "count": 2,
        "detail": [
            {
                "shop": "convenience"
            },
            {
                "name": "Ветеран",
                "shop": "convenience"
            }
        ]
    },
    "pharmacy": {
        "count": 1,
        "detail": [
            {
                "name": "Медиком",
                "amenity": "pharmacy"
            }
        ]
    },
    "restaurant": {
        "count": 1,
        "detail": [
            {
                "name": "Черчиль",
                "amenity": "restaurant"
            }
        ]
    },
    "clothes": {
        "count": 1,
        "detail": [
            {
                "shop": "clothes"
            }
        ]
    },
    "cafe": {
        "count": 1,
        "detail": [
            {
                "name": "Доминик",
                "phone": "+7 81850 37241",
                "amenity": "cafe",
                "opening_hours": "Tu-Su 12:00-02:00; Sa 12:00-22:00"
            }
        ]
    },
    "bakery": {
        "count": 1,
        "detail": [
            {
                "name": "Пекарня",
                "shop": "bakery"
            }
        ]
    },
    "furniture": {
        "count": 1,
        "detail": [
            {
                "name": "Мебельный",
                "shop": "furniture"
            }
        ]
    },
    "variety_store": {
        "count": 1,
        "detail": [
            {
                "addr:street": "проспект Ленина",
                "name": "Перекрёсток",
                "name:ru": "строительный магазин \"Перекрёсток\"",
                "shop": "variety_store"
            }
        ]
    },
    "bank": {
        "count": 1,
        "detail": [
            {
                "amenity": "bank",
                "branch": "Северо-Западный банк",
                "brand": "Сбербанк",
                "brand:wikidata": "Q205012",
                "brand:wikipedia": "ru:Сбербанк России",
                "contact:facebook": "https://www.facebook.com/sberbank",
                "contact:instagram": "https://instagram.com/sberbank",
                "contact:ok": "https://ok.ru/sberbank",
                "contact:phone": "+7 800 5555550",
                "contact:twitter": "https://twitter.com/sberbank/",
                "contact:vk": "https://vk.com/sberbank",
                "contact:website": "https://www.sberbank.ru/",
                "contact:youtube": "https://www.youtube.com/sberbank",
                "name": "Сбербанк",
                "name:en": "Sberbank",
                "name:ru": "Сбербанк",
                "opening_hours": "Mo,We-Fr 09:30-17:15; Tu 09:30-17:45",
                "operator": "ПАО Сбербанк",
                "operator:wikidata": "Q205012",
                "operator:wikipedia": "ru:Сбербанк России",
                "ref": "8637/0233",
                "wheelchair": "no"
            }
        ]
    },
    "hardware": {
        "count": 1,
        "detail": [
            {
                "addr:street": "Советская улица",
                "name": "ЯР",
                "name:en": "YAR",
                "opening_hours": "Mo-Fr 10:00-19:00; Sa 10:00-16:00; Su 10:00-15:00",
                "shop": "hardware"
            }
        ]
    },
    "commercial": {
        "count": 1,
        "detail": [
            {
                "addr:city": "Коряжма",
                "addr:housenumber": "3Д",
                "addr:street": "проспект имени М.В.Ломоносова",
                "building": "commercial"
            }
        ]
    }
}