{
    "bus_stop": {
        "count": 2,
        "detail": [
            {
                "bus": "yes",
                "name": "проспект Победы",
                "highway": "bus_stop",
                "public_transport": "platform"
            },
            {
                "bus": "yes",
                "name": "проспект Победы",
                "highway": "bus_stop",
                "public_transport": "platform"
            }
        ]
    },
    "post_office": {
        "count": 2,
        "detail": [
            {
                "ref": "2",
                "name": "Отделение почтовой связи 164502",
                "amenity": "post_office",
                "operator": "Почта России"
            },
            {
                "addr:postcode": "164500",
                "amenity": "post_office",
                "phone": "+7 8184 25538",
                "website": "https://www.pochta.ru/"
            }
        ]
    },
    "residents": 5073,
    "atm": {
        "count": 2,
        "detail": [
            {
                "amenity": "atm",
                "cash_in": "no",
                "contact:phone": "+7 800 5555550",
                "contact:website": "https://www.sberbank.ru/",
                "currency:others": "no",
                "currency:RUB": "yes",
                "drive_through": "no",
                "name": "Сбербанк",
                "name:en": "Sberbank",
                "name:ru": "Сбербанк",
                "opening_hours": "24/7",
                "operator": "ПАО Сбербанк"
            },
            {
                "name": "СГБ",
                "amenity": "atm",
                "alt_name": "Севергазбанк",
                "operator": "ПАО \"БАНК СГБ\"",
                "currency:RUB": "yes",
                "contact:phone": "+7 800 7002552",
                "opening_hours": "Mo-Su 09:00-22:00",
                "contact:website": "https://www.severgazbank.ru/",
                "currency:others": "no"
            }
        ]
    },
    "convenience": {
        "count": 1,
        "detail": [
            {
                "name": "Плати меньше",
                "shop": "convenience"
            }
        ]
    },
    "supermarket": {
        "count": 2,
        "detail": [
            {
                "name": "Пятёрочка",
                "shop": "supermarket",
                "phone": "+7 800 5555505",
                "website": "https://5ka.ru/",
                "opening_hours": "Mo-Sa 08:00-22:00"
            },
            {
                "contact:phone": "+7 800 2009002",
                "contact:website": "https://www.magnit.ru/",
                "name": "Магнит",
                "opening_hours": "Mo-Su 09:00-22:00",
                "operator": "АО \"Тандер\"",
                "shop": "supermarket"
            }
        ]
    },
    "recycling": {
        "count": 1,
        "detail": [
            {
                "name": "Экобокс",
                "fixme": "время работы, точное местоположение",
                "amenity": "recycling",
                "operator": "СМУП «ЖКТ»",
                "recycling_type": "container",
                "recycling:batteries": "yes",
                "recycling:low_energy_bulbs": "yes",
                "recycling:fluorescent_tubes": "yes"
            }
        ]
    },
    "alcohol": {
        "count": 1,
        "detail": [
            {
                "contact:phone": "+7 800 3017755",
                "contact:website": "https://www.winelab.ru/",
                "name": "Винлаб",
                "name:en": "Winelab",
                "name:ru": "Винлаб",
                "opening_hours": "Mo-Su 10:00-21:00",
                "shop": "alcohol"
            }
        ]
    },
    "pharmacy": {
        "count": 3,
        "detail": [
            {
                "amenity": "pharmacy",
                "contact:phone": "+7 800 2009002",
                "contact:website": "https://www.magnit.ru/",
                "name": "Магнит",
                "operator": "АО \"Тандер\""
            },
            {
                "amenity": "pharmacy",
                "brand": "Фармация",
                "contact:instagram": "https://www.instagram.com/apteka_farmaciia/",
                "contact:phone": "+7 8184 553156;+7 931 4074658",
                "contact:vk": "https://vk.com/aptekaf",
                "contact:website": "http://aptekaf.ru/",
                "healthcare": "pharmacy",
                "name": "Аптека № 184",
                "opening_hours": "Mo-Fr 10:00-13:30,14:00-19:00",
                "operator": "ГУПАО \"Фармация\""
            },
            {
                "amenity": "pharmacy",
                "contact:facebook": "https://www.facebook.com/aprelapteka/",
                "contact:instagram": "https://www.instagram.com/apteka__aprel/",
                "contact:ok": "https://ok.ru/aptekaaprel",
                "contact:phone": "+7 800 2009001",
                "contact:vk": "https://vk.com/aptekaaprel",
                "contact:website": "https://apteka-april.ru/",
                "contact:whatsapp": "https://api.whatsapp.com/send?phone=79182009001",
                "contact:youtube": "https://www.youtube.com/channel/UCo43PhC3rV6nHjZcS0OlLTA",
                "name": "Апрель",
                "opening_hours": "Mo-Su 08:00-20:00",
                "operator": "ООО \"Аптечный склад \"Иваново\""
            }
        ]
    },
    "bicycle_parking": {
        "count": 1,
        "detail": [
            {
                "amenity": "bicycle_parking"
            }
        ]
    },
    "drinking_water": {
        "count": 1,
        "detail": [
            {
                "amenity": "drinking_water",
                "fee": "yes",
                "operator": "Источник здоровья",
                "wheelchair": "yes"
            }
        ]
    },
    "kindergarten": {
        "count": 3,
        "detail": [
            {
                "building": "kindergarten",
                "addr:street": "Юбилейная улица",
                "addr:housenumber": "31"
            },
            {
                "building": "kindergarten",
                "addr:street": "улица Лебедева",
                "building:levels": "2",
                "addr:housenumber": "13А"
            },
            {
                "building": "kindergarten",
                "addr:street": "улица Лебедева",
                "addr:housenumber": "12"
            }
        ]
    }
}