{
    "bus_stop": {
        "count": 4,
        "detail": [
            {
                "bus": "yes",
                "highway": "bus_stop",
                "name": "Спорттовары",
                "public_transport": "platform",
                "route_ref": "1"
            },
            {
                "bench": "yes",
                "bus": "yes",
                "highway": "bus_stop",
                "name": "Спорттовары",
                "public_transport": "platform",
                "shelter": "yes"
            },
            {
                "bus": "yes",
                "highway": "bus_stop",
                "name": "Спорттовары",
                "public_transport": "platform"
            },
            {
                "bench": "yes",
                "highway": "bus_stop",
                "name": "Спорттовары",
                "public_transport": "platform",
                "shelter": "yes"
            }
        ]
    },
    "sports": {
        "count": 1,
        "detail": [
            {
                "name": "Магазин \"Спорттовары\"",
                "opening_hours": "Mo-Sa 11:00-19:00; Su 11:00-18:00",
                "shop": "sports"
            }
        ]
    },
    "butcher": {
        "count": 2,
        "detail": [
            {
                "name": "Апрель",
                "shop": "butcher"
            },
            {
                "name": "Мясо",
                "shop": "butcher",
                "opening_hours": "Mo-Su 09:00-21:00"
            }
        ]
    },
    "mobile_phone": {
        "count": 2,
        "detail": [
            {
                "name": "Связной",
                "shop": "mobile_phone"
            },
            {
                "brand": "Tele2",
                "brand:wikidata": "Q309865",
                "brand:wikipedia": "en:Tele2",
                "name": "Tele2",
                "opening_hours": "Mo-Fr 09:00-20:00; Sa,Su 10:00-19:00",
                "shop": "mobile_phone"
            }
        ]
    },
    "bar": {
        "count": 1,
        "detail": [
            {
                "name": "Трактир",
                "amenity": "bar"
            }
        ]
    },
    "residents": 3228,
    "confectionery": {
        "count": 3,
        "detail": [
            {
                "name": "Амелька-карамелька",
                "shop": "confectionery"
            },
            {
                "name": "Тортик",
                "shop": "confectionery"
            },
            {
                "name": "Брусника",
                "shop": "confectionery"
            }
        ]
    },
    "waste_disposal": {
        "count": 1,
        "detail": [
            {
                "amenity": "waste_disposal"
            }
        ]
    },
    "recycling": {
        "count": 1,
        "detail": [
            {
                "amenity": "recycling"
            }
        ]
    },
    "cafe": {
        "count": 2,
        "detail": [
            {
                "amenity": "cafe",
                "internet_access": "wlan",
                "name": "Буфет",
                "payment:cash": "yes",
                "payment:mastercard": "yes",
                "payment:visa": "yes",
                "phone": "+7 911 5634434",
                "wifi": "free"
            },
            {
                "name": "Елочка",
                "wifi": "no",
                "phone": "+7 8184 503010",
                "amenity": "cafe",
                "website": "vk.com/club5233673",
                "addr:city": "Северодвинск",
                "addr:street": "проспект Труда",
                "addr:housenumber": "39"
            }
        ]
    },
    "convenience": {
        "count": 2,
        "detail": [
            {
                "name": "Sushi City",
                "shop": "convenience"
            },
            {
                "name": "Первый",
                "shop": "convenience",
                "operator": "ОАО \"Северодвинск-Молоко\"",
                "opening_hours": "09:00-21:00"
            }
        ]
    },
    "doityourself": {
        "count": 1,
        "detail": [
            {
                "name": "Сантех мастер",
                "shop": "doityourself"
            }
        ]
    },
    "nightclub": {
        "count": 1,
        "detail": [
            {
                "addr:postcode": "164500",
                "amenity": "nightclub",
                "contact:instagram": "https://www.instagram.com/legendaplace/",
                "contact:phone": "+7 921 2434393",
                "contact:vk": "https://vk.com/legendaplace",
                "internet_access": "wlan",
                "name": "Legenda Bar",
                "opening_hours": "Mo-Fr 00:00-02:00,14:00-24:00; Sa,Su 00:00-06:00,14:00-24:00",
                "operator": "ООО \"Хайям\""
            }
        ]
    },
    "florist": {
        "count": 1,
        "detail": [
            {
                "name": "Цветы подарки",
                "shop": "florist"
            }
        ]
    },
    "pharmacy": {
        "count": 2,
        "detail": [
            {
                "amenity": "pharmacy",
                "atm": "yes",
                "name": "Добрая аптека",
                "opening_hours": "Mo-Fr 09:00-21:00; Sa, Su 09:00-20:00",
                "operator": "ООО \"Целитель\"",
                "wheelchair": "no"
            },
            {
                "amenity": "pharmacy",
                "dispensing": "yes",
                "drive_through": "no",
                "healthcare": "pharmacy",
                "name": "Аптечный огород"
            }
        ]
    },
    "playground": {
        "count": 1,
        "detail": [
            {
                "access": "yes",
                "leisure": "playground",
                "max_age": "18",
                "min_age": "3",
                "surface": "asphalt"
            }
        ]
    },
    "alcohol": {
        "count": 2,
        "detail": [
            {
                "name": "Бристоль",
                "shop": "alcohol",
                "payment:cash": "yes",
                "payment:visa": "yes",
                "opening_hours": "Mo-Su 09:00-21:00"
            },
            {
                "contact:phone": "+7 800 3017755",
                "contact:website": "https://www.winelab.ru/",
                "name": "Винлаб",
                "name:en": "Winelab",
                "name:ru": "Винлаб",
                "opening_hours": "Mo-Su 10:00-21:00",
                "shop": "alcohol"
            }
        ]
    },
    "optician": {
        "count": 1,
        "detail": [
            {
                "name": "Мода-оптик",
                "shop": "optician",
                "source": "https://vk.com/club122331645",
                "contact:vk": "https://vk.com/optica29",
                "contact:website": "https://moda-optic.ru/",
                "contact:instagram": "https://www.instagram.com/modaoptic29/"
            }
        ]
    },
    "beauty": {
        "count": 1,
        "detail": [
            {
                "name": "Студии загара \"Тропикана\"",
                "shop": "beauty",
                "leisure": "tanning_salon",
                "contact:vk": "https://vk.com/club.tropikana",
                "wheelchair": "no",
                "contact:phone": "+7 902 5048686",
                "opening_hours": "Mo-Su 09:00-23:00"
            }
        ]
    },
    "atm": {
        "count": 2,
        "detail": [
            {
                "name": "СГБ",
                "amenity": "atm",
                "alt_name": "Севергазбанк",
                "operator": "ПАО \"БАНК СГБ\"",
                "currency:RUB": "yes",
                "contact:phone": "+7 800 7002552",
                "opening_hours": "Mo-Fr 09:00-20:00; Sa 09:00-19:00; Su 10:00-18:00",
                "contact:website": "https://www.severgazbank.ru/",
                "currency:others": "no"
            },
            {
                "amenity": "atm",
                "cash_in": "yes",
                "contact:phone": "+7 800 2006696",
                "contact:website": "https://sovcombank.ru/",
                "currency:others": "no",
                "currency:RUB": "yes",
                "name": "Совкомбанк",
                "opening_hours": "Mo-Fr 10:00-14:00,15:00-19:00",
                "operator": "ПАО \"Совкомбанк\""
            }
        ]
    },
    "bank": {
        "count": 1,
        "detail": [
            {
                "amenity": "bank",
                "contact:phone": "+7 800 2006696",
                "contact:website": "https://sovcombank.ru/",
                "description": "Мини-офис №215",
                "name": "Совкомбанк",
                "opening_hours": "Mo-Fr 10:00-14:00,15:00-19:00",
                "operator": "ПАО \"Совкомбанк\"",
                "ref": "268"
            }
        ]
    },
    "shoes": {
        "count": 1,
        "detail": [
            {
                "shop": "shoes"
            }
        ]
    },
    "sauna": {
        "count": 1,
        "detail": [
            {
                "leisure": "sauna"
            }
        ]
    },
    "bicycle_parking": {
        "count": 1,
        "detail": [
            {
                "amenity": "bicycle_parking",
                "bicycle_parking": "stands"
            }
        ]
    },
    "hairdresser": {
        "count": 1,
        "detail": [
            {
                "name": "Букля",
                "shop": "hairdresser"
            }
        ]
    },
    "pitch": {
        "count": 1,
        "detail": [
            {
                "leisure": "pitch"
            }
        ]
    },
    "kiosk": {
        "count": 1,
        "detail": [
            {
                "amenity": "fast_food",
                "contact:email": "volpf35@gmail.com",
                "contact:instagram": "https://www.instagram.com/pizzafab_sdv/",
                "contact:phone": "+7 800 5500600;+7 921 0700130",
                "contact:vk": "https://vk.com/pizzafab_sdv",
                "contact:website": "https://pizzafabrika.ru/",
                "name": "ПиццаФабрика",
                "opening_hours": "Mo-Su 09:50-23:00",
                "operator": "Гвардия",
                "shop": "kiosk"
            }
        ]
    },
    "fitness_station": {
        "count": 1,
        "detail": [
            {
                "leisure": "fitness_station",
                "sport": "fitness"
            }
        ]
    },
    "bench": {
        "count": 1,
        "detail": [
            {
                "amenity": "bench"
            }
        ]
    },
    "furniture": {
        "count": 1,
        "detail": [
            {
                "contact:facebook": "https://www.facebook.com/mebelangstrem",
                "contact:instagram": "https://www.instagram.com/angstremmebel/",
                "contact:ok": "https://ok.ru/angstrem",
                "contact:phone": "+7 800 1006868;+7 964 3026087",
                "contact:vk": "https://vk.com/angstremmebel",
                "contact:website": "https://severodvinsk.angstrem-mebel.ru/",
                "industrial": "furniture",
                "name": "Angstrem",
                "opening_hours": "Mo-Su 11:00-19:00",
                "shop": "furniture"
            }
        ]
    },
    "seafood": {
        "count": 1,
        "detail": [
            {
                "name": "Рыбная лавка",
                "opening_hours": "Mo-Fr 10:00-19:00; Sa, Su 10:00-17:00",
                "shop": "seafood",
                "wheelchair": "no"
            }
        ]
    },
    "greengrocer": {
        "count": 1,
        "detail": [
            {
                "name": "Тепличное",
                "opening_hours": "Mo-Fr 09:00-20:00; Sa, Su 09:00-19:00",
                "shop": "greengrocer",
                "wheelchair": "no"
            }
        ]
    },
    "yes": {
        "count": 1,
        "detail": [
            {
                "name": "Атриум",
                "shop": "yes",
                "building": "yes",
                "addr:street": "улица Ломоносова",
                "addr:housenumber": "73А"
            }
        ]
    },
    "kindergarten": {
        "count": 3,
        "detail": [
            {
                "building": "kindergarten",
                "addr:street": "проспект Труда",
                "building:levels": "2",
                "addr:housenumber": "42"
            },
            {
                "building": "kindergarten",
                "addr:street": "проспект Труда",
                "building:levels": "2",
                "addr:housenumber": "48"
            },
            {
                "building": "kindergarten",
                "addr:city": "Северодвинск",
                "addr:street": "проспект Труда",
                "building:levels": "2",
                "addr:housenumber": "37"
            }
        ]
    },
    "mall": {
        "count": 1,
        "detail": [
            {
                "name": "Северное сияние",
                "shop": "mall",
                "building": "yes",
                "addr:street": "улица Ломоносова",
                "addr:housenumber": "75"
            }
        ]
    },
    "service": {
        "count": 1,
        "detail": [
            {
                "power": "substation",
                "building": "service"
            }
        ]
    },
    "chemist": {
        "count": 1,
        "detail": [
            {
                "addr:housenumber": "78А",
                "addr:street": "улица Ломоносова",
                "building": "yes",
                "name": "Эконом",
                "shop": "chemist"
            }
        ]
    }
}