{
    "residents": 3645,
    "atm": {
        "count": 3,
        "detail": [
            {
                "amenity": "atm",
                "operator": "Балтийский банк"
            },
            {
                "amenity": "atm",
                "website": "https://www.sberbank.ru/",
                "operator": "Сбербанк"
            },
            {
                "amenity": "atm",
                "website": "https://www.sberbank.ru/",
                "operator": "Сбербанк"
            }
        ]
    },
    "pharmacy": {
        "count": 3,
        "detail": [
            {
                "name": "Еврофарма",
                "amenity": "pharmacy",
                "opening_hours": "Mo-Fr 09:00-22:00; Sa-Su 10:00-21:00"
            },
            {
                "amenity": "pharmacy",
                "name": "Мурмаши",
                "official_name": "ООО \"Аптека Мурмаши\""
            },
            {
                "amenity": "pharmacy"
            }
        ]
    },
    "butcher": {
        "count": 1,
        "detail": [
            {
                "name": "Деликат",
                "name:ru": "Деликат",
                "opening_hours": "Mo-Fr 10:00-19:00; Sa 10:00-18:00; Su 11:00-18:00",
                "shop": "butcher"
            }
        ]
    },
    "bus_stop": {
        "count": 2,
        "detail": [
            {
                "name": "Баня",
                "highway": "bus_stop"
            },
            {
                "name": "Баня",
                "highway": "bus_stop"
            }
        ]
    },
    "library": {
        "count": 1,
        "detail": [
            {
                "amenity": "library",
                "name": "Взрослая библиотека"
            }
        ]
    },
    "florist": {
        "count": 1,
        "detail": [
            {
                "name": "Цветы заполярья",
                "shop": "florist",
                "opening_hours": "Mo-Sa 08:00-20:00; Su 10:00-19:00"
            }
        ]
    },
    "convenience": {
        "count": 6,
        "detail": [
            {
                "name": "Рябинка",
                "shop": "convenience"
            },
            {
                "name": "Фис",
                "shop": "convenience",
                "name:en": "Fis"
            },
            {
                "shop": "convenience"
            },
            {
                "name:ru": "Берёзка",
                "shop": "convenience"
            },
            {
                "shop": "convenience",
                "source": "rosreestr",
                "building": "yes",
                "addr:street": "улица Мисякова",
                "utilization": "для обслуживания и содержания магазина",
                "addr:housenumber": "2"
            },
            {
                "name": "Моисей",
                "shop": "convenience",
                "source": "rosreestr",
                "name:ru": "Моисей",
                "building": "yes",
                "addr:street": "улица Мисякова",
                "utilization": "для обслуживания и содержания магазина",
                "addr:housenumber": "4"
            }
        ]
    },
    "hairdresser": {
        "count": 2,
        "detail": [
            {
                "shop": "hairdresser"
            },
            {
                "name": "Эдельвейс",
                "shop": "hairdresser"
            }
        ]
    },
    "kiosk": {
        "count": 2,
        "detail": [
            {
                "name": "Союзпечать",
                "shop": "kiosk"
            },
            {
                "shop": "kiosk"
            }
        ]
    },
    "car_parts": {
        "count": 1,
        "detail": [
            {
                "name": "Автомагазин",
                "shop": "car_parts"
            }
        ]
    },
    "pet": {
        "count": 1,
        "detail": [
            {
                "shop": "pet"
            }
        ]
    },
    "seafood": {
        "count": 1,
        "detail": [
            {
                "name": "РЫБА",
                "shop": "seafood"
            }
        ]
    },
    "chemist": {
        "count": 1,
        "detail": [
            {
                "name": "Улыбка радуги",
                "shop": "chemist"
            }
        ]
    },
    "school": {
        "count": 2,
        "detail": [
            {
                "name": "Учебный центр \"Колэнерго\"",
                "amenity": "school",
                "addr:street": "Советская улица",
                "opening_hours": "Mo-Fr 08:00-17:00",
                "addr:housenumber": "1"
            },
            {
                "name": "Средняя школа №1",
                "amenity": "school",
                "building": "yes",
                "addr:city": "Мурмаши",
                "addr:street": "Советская улица",
                "addr:housenumber": "18"
            }
        ]
    },
    "beauty": {
        "count": 2,
        "detail": [
            {
                "shop": "beauty"
            },
            {
                "name": "Эдельвейс",
                "shop": "beauty",
                "name:en": "Edelweiss",
                "name:ru": "Эдельвейс"
            }
        ]
    },
    "alcohol": {
        "count": 2,
        "detail": [
            {
                "name": "Дом быта",
                "shop": "alcohol"
            },
            {
                "name": "Алко.РУ",
                "name:en": "Alko.RU",
                "shop": "alcohol"
            }
        ]
    },
    "cafe": {
        "count": 3,
        "detail": [
            {
                "name": "Троянда",
                "amenity": "cafe",
                "name:ru": "Троянда"
            },
            {
                "name": "Кафе-бар",
                "amenity": "cafe",
                "opening_hours": "Mo-Sa 09:00-23:00; Su 09:00-22:00"
            },
            {
                "name": "Пиццерийка",
                "amenity": "cafe",
                "name:en": "Pizza"
            }
        ]
    },
    "hardware": {
        "count": 1,
        "detail": [
            {
                "name": "Первый мастер",
                "shop": "hardware",
                "name:en": "First Master",
                "name:ru": "Первый мастер"
            }
        ]
    },
    "stationery": {
        "count": 1,
        "detail": [
            {
                "name": "Канцелярские товары",
                "shop": "stationery",
                "phone": "+7 911 3341414",
                "name:en": "Stationery Shop",
                "name:ru": "Канцелярские товары",
                "addr:street": "улица Позднякова",
                "opening_hours": "Mo-Sa 11:00-19:00; Su 11:00-19:00",
                "addr:housenumber": "4"
            }
        ]
    },
    "mobile_phone": {
        "count": 1,
        "detail": [
            {
                "name": "Евросеть",
                "shop": "mobile_phone",
                "name:en": "Euroset",
                "name:ru": "Евросеть"
            }
        ]
    },
    "furniture": {
        "count": 1,
        "detail": [
            {
                "name": "Окна Двери",
                "shop": "furniture"
            }
        ]
    },
    "supermarket": {
        "count": 1,
        "detail": [
            {
                "name": "Евророс",
                "shop": "supermarket",
                "building": "yes",
                "addr:city": "Мурмаши",
                "addr:street": "Советская улица",
                "opening_hours": "Mo-Sa 08:00-23:00; Su 09:00-22:00",
                "building:levels": "2",
                "addr:housenumber": "4"
            }
        ]
    },
    "commercial": {
        "count": 1,
        "detail": [
            {
                "name": "Дикси",
                "building": "commercial",
                "addr:street": "улица Позднякова",
                "building:levels": "1",
                "addr:housenumber": "4"
            }
        ]
    }
}