{
    "residents": 4065,
    "convenience": {
        "count": 1,
        "detail": [
            {
                "name": "Кладовочка",
                "shop": "convenience",
                "addr:street": "Кольский проспект",
                "addr:housenumber": "146"
            }
        ]
    },
    "sports_centre": {
        "count": 1,
        "detail": [
            {
                "name": "Стадион \"Льдинка\"",
                "leisure": "sports_centre"
            }
        ]
    },
    "kindergarten": {
        "count": 1,
        "detail": [
            {
                "name": "Детский сад №125",
                "amenity": "kindergarten",
                "building": "yes",
                "addr:city": "Мурманск",
                "addr:street": "Кольский проспект",
                "addr:housenumber": "140А"
            }
        ]
    },
    "school": {
        "count": 1,
        "detail": [
            {
                "name": "Коррекционная школа-интернат №8",
                "amenity": "school",
                "building": "yes",
                "addr:city": "Мурманск",
                "addr:street": "Кольский проспект",
                "contact:email": "skosh8@yandex.ru",
                "contact:phone": "+7 8152 534570",
                "official_name": "Муниципальное специальное (коррекционное) образовательное учреждение для обучающихся, воспитанников с ограниченными возможностями здоровья г.Мурманска специальная (коррекционная) общеобразовательная школа-интернат № 8",
                "contact:website": "http://skosh8.ucoz.ru",
                "addr:housenumber": "140Б"
            }
        ]
    },
    "car": {
        "count": 1,
        "detail": [
            {
                "addr:city": "Мурманск",
                "addr:housenumber": "83",
                "addr:street": "Кольский проспект",
                "building": "yes",
                "name": "Аксель-Норман",
                "opening_hours": "9:00-21:00",
                "phone": "+7 (8152) 79-0000",
                "shop": "car",
                "website": "https://axsel-toyota.ru/"
            }
        ]
    }
}